201103010000 METAR MRLB 010000Z 07015KT 9999 SCT025 BKN120 28/20 A2980 RMK DZ DST N S=
201103010100 METAR MRLB 010100Z 08016KT 9999 FEW030 SCT100 27/20 A2982 RMK DZ DST S=
201103010200 METAR MRLB 010200Z 07015KT 9999 FEW030 SCT100 22/20 A2984 RMK DZ DST S=
201103010300 METAR MRLB NIL=
201103010400 METAR MRLB NIL=
201103010500 METAR MRLB NIL=
201103010600 METAR MRLB NIL=
201103010700 METAR MRLB NIL=
201103010800 METAR MRLB NIL=
201103010900 METAR MRLB NIL=
201103011000 METAR MRLB NIL=
201103011100 METAR MRLB NIL=
201103011200 METAR MRLB 011200Z 04004KT 9999 FEW040 BKN250 25/20 A2982=
201103011300 METAR MRLB 011300Z 03005KT 9999 FEW040 BKN250 27/20 A2985=
201103011400 METAR MRLB 011400Z 06021KT CAVOK 29/19 A2987 RMK BKN250=
201103011500 METAR MRLB 011500Z 07023KT CAVOK 31/19 A2989 RMK FEW130 BKN250=
201103011600 METAR MRLB 011600Z 07021KT 9999 FEW040 SCT130 BKN250 30/18 A2989=
201103011700 METAR MRLB 011700Z 07019KT 9999 FEW040 SCT130 BKN250 32/19 A2989=
201103011800 METAR MRLB 011800Z 06025KT 9999 SCT040 BKN130 32/19 A2985=
201103011900 METAR MRLB 011900Z 06022KT 9999 SCT040 BKN130 33/18 A2982 RMK RN DST N NE=
201103012000 METAR MRLB 012000Z 05024KT 9999 SCT040 BKN130 31/18 A2981=
201103012100 METAR MRLB 012100Z 06020KT 9999 FEW040 BKN130 32/18 A2979=
201103012200 METAR MRLB 012200Z 06020KT CAVOK 31/19 A2978 RMK BKN130=
201103012300 METAR MRLB 012300Z 06019KT CAVOK 29/18 A2980 RMK BKN170=
201103020000 METAR MRLB 020000Z 07017KT CAVOK 28/18 A2981 RMK BKN130=
201103020100 METAR MRLB 020100Z 06024KT CAVOK 28/18 A2983 RMK BKN130=
201103020200 METAR MRLB 020200Z 06010KT CAVOK 26/18 A2988 RMK BKN130=
201103020300 METAR MRLB NIL=
201103020400 METAR MRLB NIL=
201103020500 METAR MRLB NIL=
201103020600 METAR MRLB NIL=
201103020700 METAR MRLB NIL=
201103020800 METAR MRLB NIL=
201103020900 METAR MRLB NIL=
201103021000 METAR MRLB NIL=
201103021100 METAR MRLB NIL=
201103021200 METAR MRLB 021200Z 09013KT 9999 NSC 25/18 A2982 RMK VEL MAX VTO 20KT=
201103021300 METAR MRLB 021300Z 08015KT 9999 NSC 26/17 A2985=
201103021400 METAR MRLB 021400Z 07022KT 9999 NSC 28/17 A2987 RMK GUST 27KT=
201103021500 METAR MRLB 021500Z 08018KT 9999 NSC 29/17 A2990 RMK GUST 27KT=
201103021600 METAR MRLB 021600Z 05021KT 9999 NSC 31/15 A2991 RMK GUST 28KT=
201103021700 METAR MRLB 021700Z 05020KT 9999 FEW040 31/16 A2989 RMK GUST 24KT=
201103021800 METAR MRLB 021800Z 07016KT 9999 FEW040 32/16 A2986 RMK GUST 23KT=
201103021900 METAR MRLB 021900Z 04019KT 9999 FEW040 32/17 A2984 RMK GUST 26KT=
201103022000 METAR MRLB 022000Z 06014KT 9999 FEW040 33/17 A2981=
201103022100 METAR MRLB 022100Z 05019KT 9999 FEW040 32/16 A2979 RMK VL MX VTO 25KT=
201103022200 METAR MRLB 022200Z 06023KT 9999 FEW040 29/18 A2979 RMK VL MX VTO 29KT=
201103022300 METAR MRLB 022300Z 05021KT 9999 NSC 29/16 A2979 RMK VL MX VTO 29KT=
201103030000 METAR MRLB 030000Z 06016KT 9999 NSC 27/15 A2980 RMK CB DST N=
201103030100 METAR MRLB 030100Z 07016KT 9999 NSC 27/15 A2982=
201103030200 METAR MRLB 030200Z 07018KT 9999 NSC 26/17 A2984=
201103030300 METAR MRLB NIL=
201103030400 METAR MRLB NIL=
201103030500 METAR MRLB NIL=
201103030600 METAR MRLB NIL=
201103030700 METAR MRLB NIL=
201103030800 METAR MRLB NIL=
201103030900 METAR MRLB NIL=
201103031000 METAR MRLB NIL=
201103031100 METAR MRLB NIL=
201103031200 METAR MRLB 031200Z 09004KT CAVOK 22/15 A2983 RMK FEW100=
201103031300 METAR MRLB 031300Z 02004KT CAVOK 23/16 A2984 RMK FEW100=
201103031400 METAR MRLB 031400Z 03008KT CAVOK 27/16 A2986 RMK FEW100=
201103031500 METAR MRLB 031500Z 02010KT CAVOK 30/16 A2988 RMK FEW100=
201103031600 METAR MRLB 031600Z 08016KT CAVOK 31/15 A2988 RMK FEW250=
201103031700 METAR MRLB 031700Z 08020KT CAVOK 32/14 A2986 RMK FEW250=
201103031800 METAR MRLB 031800Z 06020KT 9999 FEW030 32/15 A2984=
201103031900 METAR MRLB 031900Z 06018KT 9999 FEW025 32/16 A2980=
201103032000 METAR MRLB 032000Z 08015KT 9999 FEW030 32/16 A2978=
201103032100 METAR MRLB 032100Z 05016KT 9999 FEW030 32/15 A2976=
201103032200 METAR MRLB 032200Z 07016KT 9999 FEW030 32/15 A2975=
201103032300 METAR MRLB 032300Z 05018KT CAVOK 30/15 A2975 RMK FEW060=
201103040000 METAR MRLB 040000Z 06016KT CAVOK 28/16 A2976 RMK FEW100=
201103040100 METAR MRLB 040100Z 06015KT CAVOK 27/16 A2978 RMK FEW100=
201103040200 METAR MRLB 040200Z 08014KT CAVOK 26/16 A2980 RMK FEW140=
201103040300 METAR MRLB NIL=
201103040400 METAR MRLB NIL=
201103040500 METAR MRLB NIL=
201103040600 METAR MRLB NIL=
201103040700 METAR MRLB NIL=
201103040800 METAR MRLB NIL=
201103040900 METAR MRLB NIL=
201103041000 METAR MRLB NIL=
201103041100 METAR MRLB NIL=
201103041200 METAR MRLB 041200Z 30006KT 9999 SKC 21/16 A2981=
201103041300 METAR MRLB 041300Z 08014KT 9999 SKC 26/16 A2981=
201103041400 METAR MRLB 041400Z 36006KT 9999 SKC 27/16 A2985=
201103041500 METAR MRLB 041500Z 08017KT 9999 SKC 29/15 A2987=
201103041600 METAR MRLB 041600Z 06020KT 9999 SKC 30/15 A2988=
201103041700 METAR MRLB 041700Z 07018KT 9999 NSC 31/15 A2986=
201103041800 METAR MRLB 041800Z 07015KT 9999 NSC 32/15 A2983=
201103041900 METAR MRLB 041900Z 06015KT 9999 NSC 33/15 A2980=
201103042000 METAR MRLB 042000Z 05014KT 9999 NSC 33/15 A2977=
201103042100 METAR MRLB 042100Z 05016KT 9999 NSC 33/15 A2975=
201103042200 METAR MRLB 042200Z 07015KT 9999 NSC 32/15 A2975=
201103042300 METAR MRLB 042300Z 06018KT 9999 SKC 30/15 A2975=
201103050000 METAR MRLB 050000Z 07015KT 9999 SKC 29/16 A2976=
201103050100 METAR MRLB 050100Z 07015KT 9999 SKC 27/17 A2977=
201103050200 METAR MRLB 050200Z 07013KT 9999 SKC 26/16 A2980=
201103050300 METAR MRLB NIL=
201103050400 METAR MRLB NIL=
201103050500 METAR MRLB NIL=
201103050600 METAR MRLB NIL=
201103050700 METAR MRLB NIL=
201103050800 METAR MRLB NIL=
201103050900 METAR MRLB NIL=
201103051000 METAR MRLB NIL=
201103051100 METAR MRLB NIL=
201103051200 METAR MRLB 051200Z 05004KT 9999 SKC 17/16 A2983=
201103051300 METAR MRLB 051300Z VRB02KT 9999 SKC 22/17 A2985=
201103051400 METAR MRLB 051400Z 00000KT 9999 SKC 26/17 A2987=
201103051500 METAR MRLB NIL=
201103051600 METAR MRLB 051600Z 07011KT 9999 SKC 31/12 A2989=
201103051700 METAR MRLB 051700Z 08012KT 9999 SKC 32/13 A2986=
201103051800 METAR MRLB 051800Z 10010KT 9999 SKC 33/13 A2983=
201103051900 METAR MRLB 051900Z 07009KT 9999 SKC 34/13 A2980=
201103052000 METAR MRLB 052000Z 07009KT 9999 NSC 34/12 A2977=
201103052100 METAR MRLB 052100Z 060008KT 9999 NSC 34/14 A2975=
201103052200 METAR MRLB 052200Z 07011KT 9999 NSC 34/13 A2975=
201103052300 METAR MRLB 052300Z 07011KT 9999 NSC 32/14 A2976=
201103052359 METAR MRLB 060000Z 01004KT 9999 NSC 30/16 A2977=
201103060000 METAR MRLB 060000Z 01004KT 9999 NSC 30/16 A2977=
201103060100 METAR MRLB 060100Z 29005KT 9999 SKC 27/20 A2978=
201103060200 METAR MRLB 060200Z 25005KT 9999 SKC 26/20 A2980=
201103060300 METAR MRLB NIL=
201103060400 METAR MRLB NIL=
201103060500 METAR MRLB NIL=
201103060600 METAR MRLB NIL=
201103060700 METAR MRLB NIL=
201103060800 METAR MRLB NIL=
201103060900 METAR MRLB NIL=
201103061000 METAR MRLB NIL=
201103061100 METAR MRLB NIL=
201103061200 METAR MRLB 061200Z 00000KT CAVOK 17/16 A2986 RMK FEW250=
201103061300 METAR MRLB 061300Z 00000KT CAVOK 22/17 A2987 RMK FEW250=
201103061400 METAR MRLB 061400Z 00000KT CAVOK 26/18 A2988 RMK FEW250=
201103061500 METAR MRLB 061500Z 00000KT CAVOK 29/18 A2991 RMK FEW250=
201103061600 METAR MRLB 061600Z 27004KT CAVOK 32/16 A2991 RMK FEW250=
201103061700 METAR MRLB 061700Z 28006KT CAVOK 33/14 A2988 RMK FEW250=
201103061800 METAR MRLB 061800Z 11010KT 9999 FEW035 34/11 A2985=
201103061900 METAR MRLB 061900Z 10010KT 9999 FEW030 34/11 A2982=
201103062000 METAR MRLB 062000Z 08010KT 9999 FEW030 34/11 A2979=
201103062100 METAR MRLB 062100Z 07012KT 9999 FEW030 34/21 A2979=
201103062200 METAR MRLB 062200Z 07014KT 9999 FEW030 34/11 A2976=
201103062300 METAR MRLB 062300Z 06015KT 9999 FEW035 31/15 A2976=
201103062352 METAR MRLB 07000Z 06013KT CAVOK 29/17 A2976 FEW100=
201103070000 METAR MRLB 07000Z 06013KT CAVOK 29/17 A2976 FEW100=
201103070100 METAR MRLB 070100Z 06015KT CAVOK 28/18A2977 FEW100=
201103070200 METAR MRLB 070200Z 08014KT CAVOK 27/18 A2979 FEW250=
201103070300 METAR MRLB NIL=
201103070400 METAR MRLB NIL=
201103070500 METAR MRLB NIL=
201103070600 METAR MRLB NIL=
201103070700 METAR MRLB NIL=
201103070800 METAR MRLB NIL=
201103070900 METAR MRLB NIL=
201103071000 METAR MRLB NIL=
201103071100 METAR MRLB NIL=
201103071200 METAR MRLB 071200Z 10003KT 9999 SKC 17/16 A2981=
201103071235 METAR MRLB 071235Z 23002KT 9999 SKC 19/17 A2982=
201103071300 METAR MRLB 071300Z 23004KT 9999 SKC 21/16 A2983=
201103071400 METAR MRLB 071400Z 03006KT 9999 SKC 27/15 A2983=
201103071500 METAR MRLB 071500Z 01005KT 9999 SKC 29/14 A2985=
201103071600 METAR MRLB 071600Z 05009KT 9999 SKC 31/08 A2986=
201103071700 METAR MRLB 071700Z 08011KT 9999 SKC 33/08 A2984=
201103071800 METAR MRLB 071800Z 05010KT 9999 SKC 34/06 A2981=
201103071900 METAR MRLB 071900Z 11010KT 9999 SKC 36/07 A2978=
201103072000 METAR MRLB 072000Z 11006KT 9999 SKC 35/10 A2975=
201103072100 METAR MRLB 072100Z 36004KT 9999 NSC 34/15 A2973=
201103072200 METAR MRLB 072200Z 28010KT 9999 NSC 32/13 A2983=
201103072300 METAR MRLB 072300Z 29006KT NSC 31/14 A2974=
201103080000 METAR MRLB 080000Z 31005KT 9999 SCT040 29/18 A2975=
201103080100 METAR MRLB 080100Z 26004KT 9999 SCT040 27/18 A2977=
201103080200 METAR MRLB 080200Z 21002KT 9999 FEW040 26/18 A2978=
201103080300 METAR MRLB NIL=
201103080400 METAR MRLB NIL=
201103080500 METAR MRLB NIL=
201103080600 METAR MRLB NIL=
201103080700 METAR MRLB NIL=
201103080800 METAR MRLB NIL=
201103080900 METAR MRLB NIL=
201103081000 METAR MRLB NIL=
201103081100 METAR MRLB NIL=
201103081200 METAR MRLB 081200Z 03004KT CAVOK 19/18 A2984 RMK SCT280 HZ LGT ARND=
201103081300 METAR MRLB 081300Z 06002KT CAVOK 23/19 A2985 RMK SCT300 HZ ARND LGT=
201103081400 METAR MRLB 081400Z VRB02KT CAVOK 27/20 A2988 RMK HZ LGT ARND FEW300=
201103081500 METAR MRLB 081500Z 33004KT 9999 NSC 29/19 A2991 RMK HZ ARND=
201103081600 METAR MRLB 081600Z 09011KT 9999 NSC 31/17 A2990=
201103081700 METAR MRLB 081700Z 09010KT 9999 NSC 32/17 A2988=
201103081800 METAR MRLB 081800Z 09010KT 9999 FEW040 33/17 A2986=
201103081900 METAR MRLB 081900Z 10010KT 9999 FEW040 34/17 A2984=
201103082000 METAR MRLB 082000Z 08011KT 9999 FEW040 34/17 A2981=
201103082100 METAR MRLB 082100Z 07012KT 9999 FEW040 33/18 A2979=
201103082200 METAR MRLB 082200Z 08012KT CAVOK 32/19 A2979 RMK FEW280=
201103082300 METAR MRLB 082300Z 08011KT CAVOK 31/18 A2979 RMK SCT280=
201103090000 METAR MRLB 090000Z 07010KT CAVOK 29/17 A2981 RMK FEW250=
201103090100 METAR MRLB 090100Z 09011KT 9999 NSC 27/19 A2982=
201103090200 METAR MRLB 090200Z 08008KT 9999 NSC 27/18 A2985=
201103090300 METAR MRLB NIL=
201103090400 METAR MRLB NIL=
201103090500 METAR MRLB NIL=
201103090600 METAR MRLB NIL=
201103090700 METAR MRLB NIL=
201103090800 METAR MRLB NIL=
201103090900 METAR MRLB NIL=
201103091000 METAR MRLB NIL=
201103091100 METAR MRLB NIL=
201103091200 METAR MRLB 091200Z 00000KT CAVOK 29/19 A2988 RMK FEW100=
201103091300 METAR MRLB 091300Z 05004KT CAVOK 24/19 A2991 RMK FEW100=
201103091400 METAR MRLB 091400Z 11004KT CAVOK 28/19 A2993 RMK FEW100=
201103091500 METAR MRLB 091500Z 11008KT CAVOK 31/18 A2994 RMK FEW250=
201103091600 METAR MRLB 091600Z 10010KT CAVOK 32/17 A2994 RMK FEW250=
201103091700 METAR MRLB 091700Z 09008KT 9999 FEW030 33/16 A2992=
201103091800 METAR MRLB 091800Z 20006KT 9999 SCT030 34/16 A2989=
201103091900 METAR MRLB 091900Z 08005KT 9999 SCT030 34/16 A2985=
201103092000 METAR MRLB 092000Z 25012KT 9999 SCT025 33/18 A2983=
201103092100 METAR MRLB 092100Z 27010KT 9999 SCT025 33/17 A2982=
201103092200 METAR MRLB 092200Z 27010KT 9999 SCT025 31/18 A2982=
201103092300 METAR MRLB 092300Z 27008KT 9999 FEW030 31/17 A2982 RMK TCU DST S=
201103100000 METAR MRLB 100000Z 30004KT 9999 FEW030 SCT250 30/18 A2984 RMK TCU DST S=
201103100100 METAR MRLB 100100Z 00000KT 9999 FEW040 28/18 A2985=
201103100200 METAR MRLB 100200Z 00000KT CAVOK 27/18 A2987 RMK FEW100=
201103100300 METAR MRLB NIL=
201103100400 METAR MRLB NIL=
201103100500 METAR MRLB NIL=
201103100600 METAR MRLB NIL=
201103100700 METAR MRLB NIL=
201103100800 METAR MRLB NIL=
201103100900 METAR MRLB NIL=
201103101000 METAR MRLB NIL=
201103101100 METAR MRLB NIL=
201103101200 METAR MRLB 101200Z 13004KT CAVOK 20/17 A2990 RMK OVC250=
201103101300 METAR MRLB 101300Z 05002KT CAVOK 22/17 A2991 RMK OVC250=
201103101400 METAR MRLB 101400Z 26002KT CAVOK 26/17 A2994 RMK BKN250=
201103101500 METAR MRLB 101500Z 35002KT CAVOK 30/15 A2996 RMK BKN250=
201103101600 METAR MRLB 101600Z 08007KT CAVOK 32/13 A2996 RMK BKN250=
201103101700 METAR MRLB 101700Z 09011KT CAVOK 34/12 A2993 RMK BKN250=
201103101800 METAR MRLB NIL=
201103101900 METAR MRLB 101900Z 09010KT 9999 FEW040 34/12 A2988=
201103102000 METAR MRLB 102000Z 07010KT 9999 FEW040 35/13 A2986=
201103102100 METAR MRLB 102100Z 07009KT 9999 FEW040 35/13 A2982=
201103102200 METAR MRLB 102200Z 06011KT 9999 FEW040 34/11 A2981 RMK FEW250=
201103102300 METAR MRLB 102300Z 07013KT 9999 FEW040 SCT250 33/14 A2982=
201103110000 METAR MRLB 110000Z 06011KT CAVOK 30/16 A2982 RMK SCT250=
201103110100 METAR MRLB 110100Z 07010KT CAVOK 29/16 A2986 RMK SCT250=
201103110200 METAR MRLB 110200Z 09010KT CAVOK 28/16 A2989 RMK BKN250=
201103110300 METAR MRLB NIL=
201103110400 METAR MRLB NIL=
201103110500 METAR MRLB NIL=
201103110600 METAR MRLB NIL=
201103110700 METAR MRLB NIL=
201103110800 METAR MRLB NIL=
201103110900 METAR MRLB NIL=
201103111000 METAR MRLB NIL=
201103111100 METAR MRLB NIL=
201103111200 METAR MRLB 111200Z 15003KT 9999 NSC 20/17 A2992=
201103111300 METAR MRLB 111300Z 16003KT 9999 NSC 24/18 A2994=
201103111400 METAR MRLB 111400Z 00000KT 9999 NSC 28/18 A2997=
201103111500 METAR MRLB 111500Z 06013KT 9999 NSC 30/16 A2999=
201103111600 METAR MRLB 111600Z 04014KT 9999 NSC 31/16 A2998=
201103111700 METAR MRLB 111700Z 05015KT 9999 FEW040 32/16 A2997=
201103111800 METAR MRLB 111800Z 06011KT 9999 FEW040 33/15 A2993=
201103111900 METAR MRLB 111900Z 06015KT 9999 SCT040 33/15 A2990=
201103112000 METAR MRLB 112000Z 05020KT 9999 FEW040 31/17 A2988=
201103112100 METAR MRLB 112100Z 05020KT CAVOK 32/16 A2984 RMK FEW120=
201103112200 METAR MRLB 112200Z 06022KT 9999 NSC 31/15 A2984=
201103112300 METAR MRLB 112300Z 02006KT 9999 SCT030 27/21 A2998 RMK FEW130 HZ ARND=
201103120000 METAR MRLB 120000Z 06018KT CAVOK 27/17 A2987 RMK SCT090=
201103120100 METAR MRLB 120100Z 08014KT CAVOK 27/17 A2988 RMK FEW100=
201103120200 METAR MRLB NIL=
201103120300 METAR MRLB NIL=
201103120400 METAR MRLB NIL=
201103120500 METAR MRLB NIL=
201103120600 METAR MRLB NIL=
201103120700 METAR MRLB NIL=
201103120800 METAR MRLB NIL=
201103120900 METAR MRLB NIL=
201103121000 METAR MRLB NIL=
201103121100 METAR MRLB NIL=
201103121200 METAR MRLB 121200Z 08004KT 9999 FEW040 24/17 A2989=
201103121300 METAR MRLB 121300Z 02004KT 9999 FEW035 27/17 A2991=
201103121400 METAR MRLB 121400Z 02008KT 9999 FEW030 28/17 A2995=
201103121500 METAR MRLB 121500Z 07015KT 9999 FEW030 30/17 A2995=
201103121600 METAR MRLB 121600Z 07018KT 9999 FEW030 31/15 A2996=
201103121700 METAR MRLB 121700Z 08018KT 9999 FEW030 31/16 A2994=
201103121800 METAR MRLB 121800Z 08018KT 9999 SCT025 32/16 A2991=
201103121900 METAR MRLB 121900Z 07018KT 9999 SCT030 32/16 A2989=
201103122000 METAR MRLB 122000Z 07018KT 9999 SCT025 32/17 A2986=
201103122100 METAR MRLB 122100Z 06015KT 9999 SCT035 32/17 A2984=
201103122200 METAR MRLB 122200Z 04014KT 9999 FEW030 SCT100 30/16 A2984=
201103122300 METAR MRLB 122300Z 07018KT 9999 FEW030 SCT100 28/17 A2984=
201103130000 METAR MRLB 130000Z 06015KT 9999 FEW030 SCT100 27/18 A2986=
201103130100 METAR MRLB 130100Z 07016KT 9999 FEW035 SCT100 27/18 A2988=
201103130200 METAR MRLB 130200Z 06015KT 9999 FEW040 SCT120 26/18 A2990=
201103130300 METAR MRLB NIL=
201103130400 METAR MRLB NIL=
201103130500 METAR MRLB NIL=
201103130600 METAR MRLB NIL=
201103130700 METAR MRLB NIL=
201103130800 METAR MRLB NIL=
201103130900 METAR MRLB NIL=
201103131000 METAR MRLB NIL=
201103131100 METAR MRLB NIL=
201103131200 METAR MRLB 131200Z 01003KT 9999 NSC 21/17 A2989=
201103131300 METAR MRLB 131300Z 02007KT 9999 NSC 23/18 A2990=
201103131400 METAR MRLB 131400Z 30002KT 9999 SKC 27/18 A2993=
201103131500 METAR MRLB 131500Z 02008KT 9999 SKC 30/15 A2995=
201103131600 METAR MRLB 131600Z 09014KT 9999 SKC 32/15 A2994=
201103131700 METAR MRLB 131700Z 08017KT 9999 SKC 32/14 A2991=
201103131800 METAR MRLB 131800Z 07017KT 9999 NSC 33/14 A2988=
201103131900 METAR MRLB 131900Z 08013KT 9999 NSC 34/15 A2985=
201103132000 METAR MRLB 132000Z 06017KT 9999 FEW040 34/14 A2983=
201103132100 METAR MRLB 132100Z 06019KT 9999 FEW040 33/15 A2981=
201103132200 METAR MRLB 132200Z 06018KT 9999 NSC 33/16 A2981=
201103132300 METAR MRLB 132300Z 06018KT 9999 NSC 31/17 A2982=
201103140000 METAR MRLB 140000Z 06015KT 9999 NSC 29/17 A2984=
201103140100 METAR MRLB 140100Z 06018KT 9999 NSC 27/18 A2984=
201103140200 METAR MRLB 140200Z 07014KT 9999 NSC 27/18 A2986=
201103140300 METAR MRLB NIL=
201103140400 METAR MRLB NIL=
201103140500 METAR MRLB NIL=
201103140600 METAR MRLB NIL=
201103140700 METAR MRLB NIL=
201103140800 METAR MRLB NIL=
201103140900 METAR MRLB NIL=
201103141000 METAR MRLB NIL=
201103141100 METAR MRLB NIL=
201103141200 METAR MRLB 141200Z 10003KT CAVOK 24/18 A2984 RMK FEW280=
201103141300 METAR MRLB 141300Z 03008KT 9999 SKC 25/18 A2986=
201103141400 METAR MRLB 141400Z 08013KT 9999 NSC 28/18 A2988=
201103141500 METAR MRLB 141500Z 07019KT 9999 NSC 30/17 A2990 RMK MX WND 26KT=
201103141600 METAR MRLB 141600Z 08016KT 9999 NSC 31/16 A2990=
201103141700 METAR MRLB 141700Z 09016KT 9999 NSC 31/15 A2989=
201103141800 METAR MRLB 141800Z 07012KT 9999 NSC 32/17 A2986=
201103141900 METAR MRLB 141900Z 07013KT 9999 NSC 33/15 A2983=
201103142000 METAR MRLB 142000Z 05012KT 9999 FEW040 SCT130 34/16 A2980=
201103142100 METAR MRLB 142100Z 06012KT CAVOK 34/16 A2978 RMK SCT130=
201103142200 METAR MRLB 142200Z 06014KT CAVOK 33/16 A2979 RMK FEW130=
201103142300 METAR MRLB 142300Z 05013KT CAVOK 32/16 A2980 RMK FEW090=
201103150000 METAR MRLB 150000Z 05012KT CAVOK 30/18 A2982 RMK FEW090=
201103150100 METAR MRLB 150100Z 07012KT CAVOK 28/18 A2984 FEW090=
201103150200 METAR MRLB 150200Z 07011KT 9999 NSC 27/18 A2996=
201103150300 METAR MRLB NIL=
201103150400 METAR MRLB NIL=
201103150500 METAR MRLB NIL=
201103150600 METAR MRLB NIL=
201103150700 METAR MRLB NIL=
201103150800 METAR MRLB NIL=
201103150900 METAR MRLB NIL=
201103151000 METAR MRLB NIL=
201103151100 METAR MRLB NIL=
201103151200 METAR MRLB 151200Z 06008KT CAVOK 24/18 A2987 RMK FEW100=
201103151300 METAR MRLB 151300Z 04004KT CAVOK 23/18 A2990 RMK FEW100=
201103151400 METAR MRLB 151400Z 04008KT CAVOK 29/18 A2992 RMK FEW250=
201103151500 METAR MRLB 151500Z 06018KT CAVOK 30/17 A2993 RMK FEW250=
201103151600 METAR MRLB 151600Z 06017KT 9999 FEW030 31/17 A2994=
201103151700 METAR MRLB 151700Z 06015KT 9999 SCT025 32/17 A2993 RMK FEW250=
201103151800 METAR MRLB 151800Z 05014KT 9999 SCT025 32/16 A2990=
201103151900 METAR MRLB 151900Z NIL=
201103152000 METAR MRLB 152000Z 06015KT 9999 SCT025 BKN250 33/15 A2983=
201103152100 METAR MRLB 152100Z 07015KT 9999 SCT020 BKN250 33/15 A2981=
201103152200 METAR MRLB 152200Z 04012KT 9999 SCT030 BKN250 32/17 A2981=
201103152300 METAR MRLB 152300Z 05012KT 9999 FEW040 SCT120 31/17 A2982=
201103160000 METAR MRLB 160000Z 06012KT 9999 FEW045 SCT250 29/17 A2984=
201103160100 METAR MRLB 160100Z 06010KT 9999 SCT045 28/18 A2986=
201103160200 METAR MRLB 160200Z 05008KT CAVOK 27/18 A2988 RMK FEW100=
201103160300 METAR MRLB NIL=
201103160400 METAR MRLB NIL=
201103160500 METAR MRLB NIL=
201103160600 METAR MRLB NIL=
201103160700 METAR MRLB NIL=
201103160800 METAR MRLB NIL=
201103160900 METAR MRLB NIL=
201103161000 METAR MRLB NIL=
201103161100 METAR MRLB NIL=
201103161200 METAR MRLB 161200Z 08015KT 9999 FEW040 25/17 A2989=
201103161300 METAR MRLB 161300Z 08009KT 9999 NSC 26/18 A2992=
201103161400 METAR MRLB 161400Z 07013KT 9999 NSC 28/17 A2994=
201103161500 METAR MRLB 161500Z 06016KT 9999 NSC 30/16 A2995=
201103161600 METAR MRLB 161600Z 06019KT 9999 NSC 31/16 A2995=
201103161700 METAR MRLB 161700Z 07015KT 9999 NSC 32/16 A2994=
201103161800 METAR MRLB 161800Z 06013KT 9999 NSC 33/16 A2990=
201103161900 METAR MRLB 161900Z 07014KT 9999 FEW040 33/17 A2987 RMK FU S=
201103162000 METAR MRLB 162000Z 06015KT 9999 FEW040 33/17 A2984 RMK FU S=
201103162100 METAR MRLB NIL=
201103162200 METAR MRLB 162200Z 05019KT 9999 FEW040 33/15 A2982=
201103162300 METAR MRLB 162300Z 05017KT 9999 FEW040 30/16 A2983=
201103170000 METAR MRLB 170000Z 06017KT 9999 NSC 29/17 A2984=
201103170100 METAR MRLB 170100Z 06017KT 9999 NSC 28/17 A2986=
201103170200 METAR MRLB 170200Z 06018KT 9999 NSC 28/17 A2987=
201103170300 METAR MRLB NIL=
201103170400 METAR MRLB NIL=
201103170500 METAR MRLB NIL=
201103170600 METAR MRLB NIL=
201103170700 METAR MRLB NIL=
201103170800 METAR MRLB NIL=
201103170900 METAR MRLB NIL=
201103171000 METAR MRLB NIL=
201103171100 METAR MRLB NIL=
201103171200 METAR MRLB 171200Z 08015KT 9999 NSC 25/20 A2985=
201103171300 METAR MRLB 171300Z 07018KT 9999 NSC 27/18 A2988 RMK GUST 25KT=
201103171400 METAR MRLB 171400Z 07018KT 9999 NSC 29/18 A2992 RMK GUST 26KT=
201103171500 METAR MRLB NIL=
201103171600 METAR MRLB 171600Z 07023KT 9999 NSC 31/18 A2992 RMK GUST 30KT=
201103171700 METAR MRLB 171700Z 07022KT 9999 NSC 31/18 A2990 RMK GUST 29KT=
201103171800 METAR MRLB 171800Z 08012G23KT 9999 FEW040 31/18 A2987=
201103171900 METAR MRLB 171900Z 06024KT 9999 NSC 32/17 A2984 RMK GUST 32KT=
201103172000 METAR MRLB 172000Z 08020G30KT 9999 NSC 32/18 A2981=
201103172100 METAR MRLB 172100Z 08023KT 9999 FEW040 30/17 A2979 RMK FEW130 VL MA VTO 31KT=
201103172200 METAR MRLB 172200Z 07022G33KT CAVOK 30/16 A2979 RMK SCT130=
201103172300 METAR MRLB 172300Z 07026KT CAVOK 29/16 A2980 RMK FEW130 VL MX VTO 34KT=
201103180000 METAR MRLB 180000Z 07025KT CAVOK 27/19 A2979 RMK FEW120 VL MX VTO 33KT=
201103180100 METAR MRLB 180100Z 08020KT CAVOK 27/17 A2981 RMK FEW120 VL MX VTO 25KT=
201103180200 METAR MRLB 180200Z 08023KT CAVOK 27/18 A2982 RMK FEW120 VL MX VTO 30KT=
201103180300 METAR MRLB NIL=
201103180400 METAR MRLB NIL=
201103180500 METAR MRLB NIL=
201103180600 METAR MRLB NIL=
201103180700 METAR MRLB NIL=
201103180800 METAR MRLB NIL=
201103180900 METAR MRLB NIL=
201103181000 METAR MRLB NIL=
201103181100 METAR MRLB NIL=
201103181200 METAR MRLB 181200Z 06020KT CAVOK 26/18 A2981=
201103181300 METAR MRLB 181300Z 06020G30KT CAVOK 27/18 A2984 RM FEW100=
201103181400 METAR MRLB 181400Z 06022G32KT CAVOK 28/18 A2987 RMK FEW100=
201103181500 METAR MRLB 181500Z 06020G30KT 9999 FEW025 30/18 A2987=
201103181600 METAR MRLB 181600Z 05015G35KT 9999 FEW025 30/16 A2987=
201103181700 METAR MRLB 181700Z 07020G30KT 9999 FEW025 31/17 A2987=
201103181800 METAR MRLB 181800Z 07020G30KT 9999 FEW030 32/17 A2983=
201103181900 METAR MRLB NIL=
201103182000 METAR MRLB 182000Z 06020G30KT 5000 FU FEW020 32/16 A2979 RMK VIS S UNL=
201103182100 METAR MRLB 182100Z 05020G30KT 5000 FU FEW025 32/17 A2977 RMK VIS UNL QUAD S=
201103182200 METAR MRLB 182200Z 06022KT 9999 FEW030 31/17 A2977=
201103182300 METAR MRLB 182300Z 06022KT CAVOK 29/17 A2978 RMK FEW070=
201103190000 METAR MRLB 190000Z 06020KT 9999 NSC 28/17 A2978=
201103190100 METAR MRLB 190100Z 07022KT 9999 NSC 27/17 A2980=
201103190200 METAR MRLB 190200Z 06020KT 9999 NSC 26/17 A2982=
201103190300 METAR MRLB NIL=
201103190400 METAR MRLB NIL=
201103190500 METAR MRLB NIL=
201103190600 METAR MRLB NIL=
201103190700 METAR MRLB NIL=
201103190800 METAR MRLB NIL=
201103190900 METAR MRLB NIL=
201103191000 METAR MRLB NIL=
201103191100 METAR MRLB NIL=
201103191200 METAR MRLB 191200Z 10004KT 9999 SKC 25/16 A2982=
201103191300 METAR MRLB 191300Z 32005KT 9999 SKC 26/17 A2985=
201103191400 METAR MRLB 191400Z 07014KT 9999 NSC 28/15 A2988=
201103191500 METAR MRLB 191500Z 08016KT 9999 NSC 30/15 A2989=
201103191600 METAR MRLB 191600Z 07019KT 9999 NSC 31/16 A2989=
201103191700 METAR MRLB 191700Z 07016KT 9999 NSC 32/16 A2989=
201103191800 METAR MRLB 191800Z 07017KT 9999 FEW040 32/16 A2986=
201103191900 METAR MRLB 191900Z 06017KT 9999 FEW040 32/16 A2984=
201103192000 METAR MRLB 192000Z 05016KT 9999 FEW040 33/15 A2981=
201103192100 METAR MRLB 192100Z 06020KT 9999 NSC 32/15 A2979=
201103192200 METAR MRLB 192200Z 07019KT CAVOK 32/13 A2978 RMK BKN250=
201103192300 METAR MRLB 192300Z 07018KT CAVOK 30/14 A2978 RMK SCT250=
201103200000 METAR MRLB 200000Z 08016KT CAVOK 28/16 A2978=
201103200100 METAR MRLB NIL=
201103200200 METAR MRLB NIL=
201103200300 METAR MRLB NIL=
201103200400 METAR MRLB NIL=
201103200500 METAR MRLB NIL=
201103200600 METAR MRLB NIL=
201103200700 METAR MRLB NIL=
201103200800 METAR MRLB NIL=
201103200900 METAR MRLB NIL=
201103201000 METAR MRLB NIL=
201103201100 METAR MRLB NIL=
201103201200 METAR MRLB 201200Z 04007KT CAVOK 23/17 A2982 RMK BKN280=
201103201300 METAR MRLB 201300Z 09003KT CAVOK 26/18 A2985 RMK BKN280=
201103201400 METAR MRLB NIL=
201103201500 METAR MRLB 201500Z 03010KT CAVOK 31/16 A2989 RMK BKN250=
201103201600 METAR MRLB 201600Z 06017KT CAVOK 32/16 A2989 RMK SCT250=
201103201700 METAR MRLB 201700Z 07022KT CAVOK 32/17 A2989 RMK BKN250 VEL MAX VTO 29KT=
201103201800 METAR MRLB 201800Z 07019KT CAVOK 33/16 A2986 RMK BKN250 VEL MAX VTO 25KT=
201103201900 METAR MRLB 201900Z 05021KT CAVOK 33/15 A2984 RMK BKN250 VEL MAX VTO 27KT=
201103202000 METAR MRLB 202000Z 05022KT CAVOK 33/16 A2980 RMK BKN280 VEL MAX VTO 27KT=
201103202100 METAR MRLB 202100Z 06020KT CAVOK 32/16 A2978 RMK SCT280 VEL.MAX.VTO 26KT=
201103202200 METAR MRLB 202200Z 06019KT CAVOK 32/16 A2977 RMK SCT250 VEL.MAX. VTO 25KT=
201103202300 METAR MRLB 202300Z 07020KT CAVOK 30/18 A2978 RMK FEW250=
201103210000 METAR MRLB 210000Z 08019KT CAVOK 28/18 A2978 RMK BKN250=
201103210100 METAR MRLB 210100Z 07019KT CAVOK 27/17 A2980 RMK FEW250 VEL.MAX.VTO 26KT=
201103210200 METAR MRLB NIL=
201103210300 METAR MRLB NIL=
201103210400 METAR MRLB NIL=
201103210500 METAR MRLB NIL=
201103210600 METAR MRLB NIL=
201103210700 METAR MRLB NIL=
201103210800 METAR MRLB NIL=
201103210900 METAR MRLB NIL=
201103211000 METAR MRLB NIL=
201103211100 METAR MRLB NIL=
201103211200 METAR MRLB 211200Z 25005KT 9999 FEW030 SCT250 23/18 A2981=
201103211300 METAR MRLB 211300Z 30004KT 9999 FEW030 SCT250 28/19 A2984=
201103211400 METAR MRLB 211400Z 18010KT 9999 FEW025 SCT250 28/18 A2987=
201103211500 METAR MRLB 211500Z 07015KT 9999 FEW025 SCT250 30/17 A2987=
201103211600 METAR MRLB 211600Z 08018KT 9999 FEW025 SCT250 30/17 A2988=
201103211700 METAR MRLB 211700Z 08020KT 9999 FEW035 BKN250 27/14 A3004=
201103211800 METAR MRLB 211800Z 07020G30KT 9999 FEW030 SCT250 30/17 A2985=
201103211900 METAR MRLB 211900Z 09018KT 9999 FEW035 SCT250 31/15 A2982=
201103212000 METAR MRLB 212000Z 06020KT 9999 FEW035 BKN250 31/15 A2980=
201103212100 METAR MRLB 212100Z 07022KT 9999 FEW030 SCT250 31/15 A2978=
201103212200 METAR MRLB 212200Z 07020KT 9999 FEW030 SCT250 29/16 A2977=
201103212300 METAR MRLB 212300Z 06020G30KT 9999 FEW035 SCT250 27/17 A2976=
201103220000 METAR MRLB 220000Z 07020G30KT 9999 FEW040 SCT250 27/16 A2977=
201103220100 METAR MRLB 220100Z 07020KT CAVOK 26/18 A2980 RMK FEW100 SCT250=
201103220200 METAR MRLB 220200Z 06018KT CAVOK 26/18 A2982 RMK SCT250=
201103220300 METAR MRLB NIL=
201103220400 METAR MRLB NIL=
201103220500 METAR MRLB NIL=
201103220600 METAR MRLB NIL=
201103220700 METAR MRLB NIL=
201103220800 METAR MRLB NIL=
201103220900 METAR MRLB NIL=
201103221000 METAR MRLB NIL=
201103221100 METAR MRLB NIL=
201103221200 METAR MRLB 221200Z 22002KT CAVOK 23/17 A2979 RMK BKN250=
201103221300 METAR MRLB 221300Z 22004KT CAVOK 25/17 A2981 RMK BKN250=
201103221400 METAR MRLB 221400Z 03010KT CAVOK 27/17 A2983 RMK BKN250=
201103221500 METAR MRLB 221500Z 09011KT CAVOK 29/17 A2986 RMK BKN250=
201103221600 METAR MRLB 221600Z 07014KT CAVOK 31/17 A2985 RMK BKN250=
201103221700 METAR MRLB NIL=
201103221800 METAR MRLB 221800Z 08022KT CAVOK 31/16 A2981 RMK OVC250=
201103221900 METAR MRLB 221900Z 08022KT CAVOK 32/16 A2981 RMK OVC250=
201103222000 METAR MRLB 222000Z 08019KT CAVOK 31/17 A2976 RMK BKN250=
201103222100 METAR MRLB 222100Z 07018KT CAVOK 30/16 A2975 RMK BKN250=
201103222200 METAR MRLB 222200Z 08019KT CAVOK 29/17 A2974 RMK BKN250=
201103222300 METAR MRLB 222300Z 07017KT CAVOK 28/16 A2974 RMK BKN250=
201103230000 METAR MRLB 230000Z 08018KT CAVOK 26/16 A2975 RMK SCT250=
201103230100 METAR MRLB 230100Z 09015KT CAVOK 25/17 A2977 RMK SCT250=
201103230200 METAR MRLB 230200Z 08012KT CAVOK 25/16 A2979 RMK SCT250=
201103230300 METAR MRLB NIL=
201103230400 METAR MRLB NIL=
201103230500 METAR MRLB NIL=
201103230600 METAR MRLB NIL=
201103230700 METAR MRLB NIL=
201103230800 METAR MRLB NIL=
201103230900 METAR MRLB NIL=
201103231000 METAR MRLB NIL=
201103231100 METAR MRLB NIL=
201103231200 METAR MRLB 231200Z 00000KT CAVOK 19/14 A2978 RMK BKN250=
201103231300 METAR MRLB 231300Z 04003KT CAVOK 21/15 A2981 RMK BKN250=
201103231400 METAR MRLB 231400Z 00000KT CAVOK 28/15 A2982 RMK BKN250=
201103231500 METAR MRLB 231500Z 03005KT CAVOK 30/16 A2984 RMK BKN250=
201103231600 METAR MRLB 231600Z 08012KT CAVOK 31/16 A2983 RMK SCT250=
201103231700 METAR MRLB 231700Z 08013KT CAVOK 33/15 A2982 RMK FEW250=
201103231800 METAR MRLB 231800Z 07012KT CAVOK 33/16 A2979 RMK FEW250=
201103231900 METAR MRLB 231900Z 08010KT CAVOK 33/16 A2976 RMK FEW250=
201103232000 METAR MRLB 232000Z 06012KT 9999 FEW040 34/16 A2973 RMK FEW250=
201103232100 METAR MRLB 232100Z 07011KT 9999 FEW040 33/16 A2971=
201103232200 METAR MRLB 232200Z 07013KT 9999 NSC 33/16 A2971=
201103232300 METAR MRLB 232300Z 07012KT 9999 NSC 32/16 A2972=
201103240000 METAR MRLB 240000Z 05012KT 9999 NSC 29/17 A2973=
201103240100 METAR MRLB 240100Z 05005KT 9999 NSC 28/17 A2975=
201103240200 METAR MRLB NIL=
201103240300 METAR MRLB NIL=
201103240400 METAR MRLB NIL=
201103240500 METAR MRLB NIL=
201103240600 METAR MRLB NIL=
201103240700 METAR MRLB NIL=
201103240800 METAR MRLB NIL=
201103240900 METAR MRLB NIL=
201103241000 METAR MRLB NIL=
201103241100 METAR MRLB NIL=
201103241200 METAR MRLB 241200Z 00000KT CAVOK 19/17 A2980 RMK BKN250=
201103241300 METAR MRLB 241300Z 00000KT CAVOK 23/18 A2982 RMK SCT250=
201103241400 METAR MRLB 241400Z 00000KT CAVOK 28/18 A2984 RMK SCT250=
201103241500 METAR MRLB 241500Z 01004KT CAVOK 30/17 A2986 RMK SCT250=
201103241600 METAR MRLB 241600Z 03004KT CAVOK 33/15 A2985 RMK FEW250=
201103241700 METAR MRLB 241700Z 06010KT 9999 FEW030 33/14 A2983=
201103241800 METAR MRLB 241800Z 08010KT 9999 FEW030 34/14 A2980=
201103241900 METAR MRLB 241900Z 06008KT 9999 SCT030 BKN250 34/14 A2977=
201103242000 METAR MRLB 242000Z 08008KT 9999 SCT030 BKN250 34/14 A2973=
201103242100 METAR MRLB 242100Z 08010KT 9999 SCT030 BKN250 34/13 A2972=
201103242200 METAR MRLB 242200Z 05012KT 9999 FEW030 SCT250 33/14 A2971=
201103242300 METAR MRLB 242300Z 05014KT 9999 FEW045 32/14 A2972=
201103250000 METAR MRLB 250000Z 06015KT CAVOK 29/17 A2972 RMK FEW100=
201103250100 METAR MRLB 250100Z 06012KT CAVOK 28/18 A2973 FEW180=
201103250200 METAR MRLB NIL=
201103250300 METAR MRLB NIL=
201103250400 METAR MRLB NIL=
201103250500 METAR MRLB NIL=
201103250600 METAR MRLB NIL=
201103250700 METAR MRLB NIL=
201103250800 METAR MRLB NIL=
201103250900 METAR MRLB NIL=
201103251000 METAR MRLB NIL=
201103251100 METAR MRLB NIL=
201103251200 METAR MRLB 251200Z 20003KT 9999 SKC 18/16 A2981=
201103251300 METAR MRLB 251300Z 30002KT 9999 SKC 23/18 A2982=
201103251400 METAR MRLB 251400Z 35003KT 9999 SKC 28/17 A2984=
201103251500 METAR MRLB 251500Z 05006KT 9999 SKC 31/15 A2985=
201103251600 METAR MRLB 251600Z 08013KT 9999 SKC 32/15 A2986=
201103251700 METAR MRLB 251700Z 09010KT 9999 NSC 33/15 A2984=
201103251800 METAR MRLB 251800Z 08008KT 9999 FEW040 35/14 A2980=
201103251900 METAR MRLB 251900Z 12009KT 9999 FEW040 35/14 A2977=
201103252000 METAR MRLB 252000Z 06008KT 9999 FEW040 35/13 A2974=
201103252100 METAR MRLB 252100Z 28010KT 9999 FEW040 34/18 A2972=
201103252200 METAR MRLB 252200Z 29011KT 9999 FEW040 32/17 A2972=
201103252300 METAR MRLB 252300Z 29009KT 9999 SCT035 SCT250 31/20 A2973=
201103260000 METAR MRLB 260000Z 29008KT 9999 SCT035 BKN250 29/21 A2974=
201103260100 METAR MRLB 260100Z 30004KT 9999 FEW035 BKN250 28/21 A2976=
201103260200 METAR MRLB 260200Z 29002KT 9999 FEW035 BKN250 27/21 A2977=
201103260300 METAR MRLB NIL=
201103260400 METAR MRLB NIL=
201103260500 METAR MRLB NIL=
201103260600 METAR MRLB NIL=
201103260700 METAR MRLB NIL=
201103260800 METAR MRLB NIL=
201103260900 METAR MRLB NIL=
201103261000 METAR MRLB NIL=
201103261100 METAR MRLB NIL=
201103261200 METAR MRLB 261200Z 04003KT 9999 SKC 19/18 A2979 RMK HZ ARND=
201103261300 METAR MRLB 261300Z 00000KT 9999 SKC 26/20 A2980 RMK HZ LEVE ARND=
201103261400 METAR MRLB 261400Z 00000KT 9999 SKC 28/20 A2982 RMK HZ LEVE ARND=
201103261500 METAR MRLB 261500Z VRB02KT 9999 SKC 31/19 A2985=
201103261600 METAR MRLB 261600Z 29004KT 9999 NSC 33/19 A2984=
201103261700 METAR MRLB 261700Z 05004KT 9999 FEW030TCU SCT035 34/16 A2979=
201103261800 METAR MRLB 261800Z 05004KT 9999 FEW030TCU SCT035 34/16 A2979=
201103261900 METAR MRLB 261900Z 26009KT 9999 FEW030TCU SCT035 35/19 A2974=
201103262000 METAR MRLB 262000Z 26014KT 9999 SCT035 33/20 A2972=
201103262100 METAR MRLB 262100Z 02006KT 9999 FEW035 30/23 A2978 RMK FEW250 HZ ARND=
201103262200 METAR MRLB 262200Z 26012KT 9999 FEW040 32/17 A2969=
201103262300 METAR MRLB 262300Z 27009KT 9999 SCT035 31/20 A2970=
201103270000 METAR MRLB 270000Z 25008KT 9999 BKN040 29/20 A2972=
201103270100 METAR MRLB NIL=
201103270200 METAR MRLB 270200Z 16002KT 9999 FEW040 28/20 A2975=
201103270300 METAR MRLB NIL=
201103270400 METAR MRLB NIL=
201103270500 METAR MRLB NIL=
201103270600 METAR MRLB NIL=
201103270700 METAR MRLB NIL=
201103270800 METAR MRLB NIL=
201103270900 METAR MRLB NIL=
201103271000 METAR MRLB NIL=
201103271100 METAR MRLB NIL=
201103271200 METAR MRLB 271200Z 00000KT CAVOK 21/20 A2976 RMK FEW250=
201103271300 METAR MRLB 271300Z 00000KT CAVOK 26/21 A2980 RMK FEW250=
201103271400 METAR MRLB 271400Z 26005KT 9999 SKC 29/21 A2982=
201103271500 METAR MRLB 271500Z 35006KT 9999 SKC 31/21 A2983=
201103271600 METAR MRLB 271600Z VRB03KT 9999 SKC 33/20 A2982=
201103271700 METAR MRLB 271700Z 09010KT 9999 FEW030 SCT250 35/18 A2979=
201103271800 METAR MRLB 271800Z 09005KT 9999 SCT025 BKN250 35/17 A2976=
201103271900 METAR MRLB 271900Z 04006KT 9999 SCT025 BKN250 34/19 A2973=
201103272000 METAR MRLB 272000Z 27011KT 9999 SCT025 BKN250 33/20 A2970=
201103272100 METAR MRLB 272100Z 27010KT 9999 SCT025 BKN250 33/20 A2969=
201103272200 METAR MRLB 272200Z 27010KT 9999 FEW030 SCT250 33/20 A2968=
201103272300 METAR MRLB 272300Z 28010KT 9999 FEW030 SCT250 32/21 A2970=
201103280000 METAR MRLB 280000Z 28005KT 9999 FEW035 SCT250 30/21 A2971=
201103280100 METAR MRLB 280100Z 26004KT 9999 FEW045 28/21 A2973=
201103280200 METAR MRLB 280200Z 13002KT 9999 FEW045 27/21 A2972=
201103280300 METAR MRLB NIL=
201103280400 METAR MRLB NIL=
201103280500 METAR MRLB NIL=
201103280600 METAR MRLB NIL=
201103280700 METAR MRLB NIL=
201103280800 METAR MRLB NIL=
201103280900 METAR MRLB NIL=
201103281000 METAR MRLB NIL=
201103281100 METAR MRLB NIL=
201103281200 METAR MRLB 281200Z 11003KT CAVOK 23/21 A2978 RMK BKN250=
201103281300 METAR MRLB 281300Z 22003KT CAVOK 26/21 A2981 RMK BKN250=
201103281400 METAR MRLB 281400Z 05002KT CAVOK 29/21 A2986 RMK SCT250=
201103281500 METAR MRLB 281500Z 02005KT 9999 FEW035 31/20 A2987 RMK FEW250=
201103281600 METAR MRLB NIL=
201103281700 METAR MRLB NIL=
201103281800 METAR MRLB 281800Z 07011KT 9999 FEW035 SCT250 35/19 A2980=
201103281900 METAR MRLB 281900Z 06010KT 9999 SCT035 35/19 A2977 RMK FEW250=
201103282000 METAR MRLB NIL=
201103282100 METAR MRLB 282100Z 05012KT 9999 SCT035 36/19 A2970=
201103282200 METAR MRLB 282200Z 06012KT 9999 FEW035 35/19 A2969=
201103282300 METAR MRLB 282300Z 05013KT 9999 FEW035 34/20 A2970=
201103290000 METAR MRLB 290000Z 06012KT 9999 NSC 32/21 A2971=
201103290100 METAR MRLB 290100Z 07008KT 9999 NSC 31/22 A2974=
201103290200 METAR MRLB 290200Z 09009KT 9999 NSC 30/21 A2977=
201103290300 METAR MRLB NIL=
201103290400 METAR MRLB NIL=
201103290500 METAR MRLB NIL=
201103290600 METAR MRLB NIL=
201103290700 METAR MRLB NIL=
201103290800 METAR MRLB NIL=
201103290900 METAR MRLB NIL=
201103291000 METAR MRLB NIL=
201103291100 METAR MRLB NIL=
201103291200 METAR MRLB NIL=
201103291300 METAR MRLB 291300Z 02002KT CAVOK 27/21 A2982 RMK FEW250 HZ LEVE ARND=
201103291400 METAR MRLB 291400Z 03006KT CAVOK 31/21 A2986 RMK FEW280 HZ LEVE ARND=
201103291500 METAR MRLB 291500Z 06014KT 9999 NSC 33/20 A2988 RMK HZ LEVE ARND=
201103291600 METAR MRLB 291600Z 05013KT 9999 FEW035 34/20 A2987=
201103291700 METAR MRLB 291700Z 08012KT 9999 FEW035 34/20 A2985=
201103291800 METAR MRLB 291800Z 09013KT 9999 SCT035 36/19 A2983=
201103291900 METAR MRLB 291900Z 08014KT 9999 SCT035 35/19 A2979=
201103292000 METAR MRLB 292000Z 10012KT 9999 SCT035 36/18 A2976=
201103292100 METAR MRLB 292100Z 05010KT 9999 FEW035 36/18 A2973 RMK FEW250=
201103292200 METAR MRLB 292200Z 06013KT 9999 FEW035 35/19 A2974 RMK FEW250=
201103292300 METAR MRLB 292300Z 05013KT 9999 FEW030TCU 30/19 A2976 RMK FEW120 FEW250 CB DST S SW=
201103300000 METAR MRLB 300000Z 05014KT 9999 FEW040 SCT250 32/20 A2978 RMK CB DST SE S=
201103300100 METAR MRLB 300100Z 06012KT 9999 FEW040 SCT250 30/20 A2980 FEW120 CB RELAMPAG OS S=
201103300200 METAR MRLB 300200Z 07009KT CAVOK 29/21 A2983 FEW120 BKN250=
201103300300 METAR MRLB NIL=
201103300400 METAR MRLB NIL=
201103300500 METAR MRLB NIL=
201103300600 METAR MRLB NIL=
201103300700 METAR MRLB NIL=
201103300800 METAR MRLB NIL=
201103300900 METAR MRLB NIL=
201103301000 METAR MRLB NIL=
201103301100 METAR MRLB NIL=
201103301200 METAR MRLB 301200Z 00000KT CAVOK 22/19 A2982 RMK SCT250=
201103301300 METAR MRLB 301300Z 07003KT CAVOK 26/20 A2984 RMK FEW250=
201103301400 METAR MRLB 301400Z 01004KT CAVOK 29/20 A2987 RMK FEW250=
201103301500 METAR MRLB 301500Z 11014KT CAVOK 32/16 A2989 RMK SCT250=
201103301600 METAR MRLB 301600Z 11013KT CAVOK 33/16 A2988 RMK SCT250=
201103301700 METAR MRLB 301700Z 11012KT CAVOK 35/15 A2985 RMK FEW250=
201103301800 METAR MRLB 301800Z 06012KT CAVOK 26/15 A2982 RMK FEW250=
201103301900 METAR MRLB 301900Z 06010KT 9999 FEW030 36/13 A2978=
201103302000 METAR MRLB 302000Z 28015KT 9999 FEW030 34/19 A2975=
201103302100 METAR MRLB 302100Z 28013KT 9999 FEW030 32/21 A2974=
201103302200 METAR MRLB 302200Z 28012KT 9999 FEW030 31/23 A2974=
201103302300 METAR MRLB 302300Z 28012KT CAVOK 29/23 A2975 RMK FEW100=
201103310000 METAR MRLB 310000Z 28010KT CAVOK 28/24 A2977 RMK FEW100=
201103310100 METAR MRLB 310100Z 28006KT CAVOK 28/24 A2979 RMK FEW100=
201103310200 METAR MRLB 310200Z 29006KT CAVOK 27/24 A2981 RMK FEW100=
201103310300 METAR MRLB NIL=
201103310400 METAR MRLB NIL=
201103310500 METAR MRLB NIL=
201103310600 METAR MRLB NIL=
201103310700 METAR MRLB NIL=
201103310800 METAR MRLB NIL=
201103310900 METAR MRLB NIL=
201103311000 METAR MRLB NIL=
201103311100 METAR MRLB NIL=
201103311200 METAR MRLB 311200Z 04005KT CAVOK 23/19 A2981 RMK BKN250=
201103311300 METAR MRLB 311300Z 10004KT CAVOK 25/20 A2983 BKN250=
201103311400 METAR MRLB 311400Z 14004KT CAVOK 27/20 A2986 BKN250=
201103311500 METAR MRLB 311500Z 23002KT CAVOK 29/21 A2989 SCT250=
201103311600 METAR MRLB 311600Z 04003KT 9999 FEW035 SCT250 31/18 A2988=
201103311700 METAR MRLB 311700Z 05003KT 9999 FEW035 BKN250 33/14 A2985=
201103311800 METAR MRLB 311800Z 05007KT 9999 FEW035 BKN250 35/13 A2981=
201103311900 METAR MRLB 311900Z 26010KT 9999 FEW035 BKN250 34/19 A2977=
201103312000 METAR MRLB 312000Z 26012KT 9999 FEW035 BKN250 34/21 A2974=
201103312100 METAR MRLB 312100Z 27015KT 9999 FEW035 BKN250 32/18 A2973=
201103312200 METAR MRLB 312200Z 27013KT 9999 FEW035 BKN240 31/20 A2972=
201103312300 METAR MRLB 312300Z 25010KT CAVOK 30/21 A2973 RMK BKN240=
201104010000 METAR MRLB 010000Z 26010KT CAVOK 28/22 A2975 RMK BKN240 HZ ARND=
201104010100 METAR MRLB 010100Z 25006KT CAVOK 27/23 A2976 BKN230 HZ ARND=
201104010200 METAR MRLB 010200Z 26005KT CAVOK 26/22 A2978 BKN230=
201104010300 METAR MRLB NIL=
201104010400 METAR MRLB NIL=
201104010500 METAR MRLB NIL=
201104010600 METAR MRLB NIL=
201104010700 METAR MRLB NIL=
201104010800 METAR MRLB NIL=
201104010900 METAR MRLB NIL=
201104011000 METAR MRLB NIL=
201104011100 METAR MRLB NIL=
201104011200 METAR MRLB 011200Z 36003KT CAVOK 22/21 A2978 RMK FEW120 SCT280 LGT HZ ARND=
201104011300 METAR MRLB 011300Z 04004KT CAVOK 25/21 A2982 RMK BKN250 HZ ARND=
201104011400 METAR MRLB 011400Z 01004KT CAVOK 28/21 A2985 RMK BKN250 HZ LEVE ARND=
201104011500 METAR MRLB 011500Z VRB02KT CAVOK 32/20 A2987 RMK BKN250 HZ ARND=
201104011600 METAR MRLB 011600Z 27005KT CAVOK 32/20 A2986 RMK OVC250 HZ ARND=
201104011700 METAR MRLB 011700Z 22004KT CAVOK 34/20 A2983 RMK OVC250 HZ LEVE ARND=
201104011800 METAR MRLB 011800Z 26011KT CAVOK 33/21 A2981 RMK OVC230 HZY LEVE ARND=
201104011900 METAR MRLB 011900Z 27013KT CAVOK 34/21 A2978 RMK OVC230 HZ ARND=
201104012000 METAR MRLB 012000Z 28012KT CAVOK 32/20 A2975 RMK FEW150 BKN230=
201104012100 METAR MRLB 012100Z 29012KT CAVOK 32/19 A2973 RMK OVC250 HZ ARND=
201104012200 METAR MRLB 012200Z 26011KT CAVOK 31/21 A2972 RMK OVC250 HZ ARND=
201104012300 METAR MRLB 012300Z 27012KT 9999 FEW040 BKN250 29/22 A2973 RMK HX ARND=
201104020000 METAR MRLB 020000Z 27009KT CAVOK 28/23 A2975 RMK OVC250 HZ ARND=
201104020100 METAR MRLB 020100Z 26008KT CAVOK 28/23 A2977 RMK FEW120 BKN250=
201104020200 METAR MRLB 020200Z 24004KT CAVOK 27/23 A2980 RMK BKN250=
201104020300 METAR MRLB NIL=
201104020400 METAR MRLB NIL=
201104020500 METAR MRLB NIL=
201104020600 METAR MRLB NIL=
201104020700 METAR MRLB NIL=
201104020800 METAR MRLB NIL=
201104020900 METAR MRLB NIL=
201104021000 METAR MRLB NIL=
201104021100 METAR MRLB NIL=
201104021200 METAR MRLB 021200Z 00000KT CAVOK 22/21 A2981 FEW100 SCT250 HZ ARND=
201104021300 METAR MRLB 021300Z 00000KT CAVOK 25/22 A2983 RMK FEW100 SCT250 HZ ARND=
201104021400 METAR MRLB 021400Z 18004KT CAVOK 28/23 A2986 RMK SCT250 HZ ARND=
201104021500 METAR MRLB 021500Z 03006KT CAVOK 30/20 A2989 RMK SCT250 HZ ARND=
201104021600 METAR MRLB 021600Z 03008KT CAVOK 33/17 A2988 RMK SCT250=
201104021700 METAR MRLB 021700Z 11010KT 9999 FEW030 SCT250 34/16 A2985=
201104021800 METAR MRLB 021800Z 35008KT 9999 FEW035 SCT250 34/16 A2982=
201104021900 METAR MRLB 021900Z 30008KT 9999 FEW035 SCT250 34/16 A2979=
201104022000 METAR MRLB NIL=
201104022100 METAR MRLB 022100Z 28008KT 9999 FEW035 SCT250 35/16 A2973=
201104022200 METAR MRLB 022200Z 04004KT 9999 FEW045 SCT250 35/15 A2973=
201104022300 METAR MRLB 022300Z 06008KT CAVOK 33/15 A2974 RMK SCT250=
201104030000 METAR MRLB 030000Z 07008KT CAVOK 31/16 A2976 RMK SCT250=
201104030100 METAR MRLB 030100Z 06010KT CAVOK 29/17 A2978 FEW250 NOSIG=
201104030200 METAR MRLB 030200Z 07008KT CAVOK 28/17 A2980 FEW250=
201104030300 METAR MRLB NIL=
201104030400 METAR MRLB NIL=
201104030500 METAR MRLB NIL=
201104030600 METAR MRLB NIL=
201104030700 METAR MRLB NIL=
201104030800 METAR MRLB NIL=
201104030900 METAR MRLB NIL=
201104031000 METAR MRLB NIL=
201104031100 METAR MRLB NIL=
201104031200 METAR MRLB 031200Z 00000KT CAVOK 21/16 A2980 RMK SCT250 HZ ARND=
201104031300 METAR MRLB 031300Z 03002KT CAVOK 23/17 A2982 RMK SCT250 HZ ARND=
201104031400 METAR MRLB 031400Z 00000KT CAVOK 26/18 A2986 RMK SCT250=
201104031500 METAR MRLB 031500Z 06015KT 9999 FEW035 SCT250 28/20 A2988=
201104031600 METAR MRLB 031600Z 05012KT 9999 FEW035 SCT250 33/19 A2986=
201104031700 METAR MRLB 031700Z 06015KT 9999 FEW035 BKN250 34/18 A2985=
201104031800 METAR MRLB 031800Z 05017KT 9999 SCT035 BKN250 34/19 A2983=
201104031900 METAR MRLB 031900Z 06015KT 9999 SCT035 SCT250 34/19 A2980=
201104032000 METAR MRLB 032000Z 04014KT 9999 SCT035 SCT250 34/18 A2977=
201104032100 METAR MRLB 032100Z 05017KT 9999 SCT035 SCT250 32/19 A2976=
201104032200 METAR MRLB 032200Z 06016KT 9999 FEW035 BKN240 32/19 A2974=
201104032300 METAR MRLB NIL=
201104040000 METAR MRLB 040000Z 07014KT 9999 SCT035 SCT250 30/19 A2978=
201104040100 METAR MRLB 040100Z 06012KT 9999 FEW035 BKN240 29/19 A2980=
201104040200 METAR MRLB NIL=
201104040300 METAR MRLB NIL=
201104040400 METAR MRLB NIL=
201104040500 METAR MRLB NIL=
201104040600 METAR MRLB NIL=
201104040700 METAR MRLB NIL=
201104040800 METAR MRLB NIL=
201104040900 METAR MRLB NIL=
201104041000 METAR MRLB NIL=
201104041100 METAR MRLB NIL=
201104041200 METAR MRLB 041200Z 03007KT CAVOK 25/17 A2977 RMK OVC250=
201104041300 METAR MRLB 041300Z 05007KT CAVOK 25/18 A2979 RMK OVC250=
201104041400 METAR MRLB 041400Z 07020KT CAVOK 29/18 A2982 RMK OVC250=
201104041500 METAR MRLB 041500Z 06018KT CAVOK 31/18 A2984 RMK OVC250=
201104041600 METAR MRLB 041600Z 07017KT CAVOK 32/17 A2983 RMK OVC250=
201104041700 METAR MRLB 041700Z 07016KT CAVOK 33/18 A2982 RMK BKN250=
201104041800 METAR MRLB 041800Z 07018KT CAVOK 33/17 A2980 RMK BKN250=
201104041900 METAR MRLB 041900Z 08015KT CAVOK 35/16 A2978 RMK BKN250=
201104042000 METAR MRLB 042000Z 08012KT CAVOK 35/15 A2975 RMK BKN250=
201104042100 METAR MRLB 042100Z 08013KT CAVOK 34/15 A2974 RMK BKN250=
201104042200 METAR MRLB 042200Z 09009KT 9999 FEW040 BKN250 34/16 A2974=
201104042300 METAR MRLB 042300Z 06010KT 9999 FEW040 BKN250 33/16 A2975=
201104050000 METAR MRLB 050000Z 06012KT 9999 SCT040 BKN250 30/18 A2977=
201104050100 METAR MRLB 050100Z 31009KT 9999 BKN040 SCT250 29/20 A2979=
201104050200 METAR MRLB 050200Z 27006KT 9999 FEW040 BKN250 28/22 A2980=
201104050300 METAR MRLB NIL=
201104050400 METAR MRLB NIL=
201104050500 METAR MRLB NIL=
201104050600 METAR MRLB NIL=
201104050700 METAR MRLB NIL=
201104050800 METAR MRLB NIL=
201104050900 METAR MRLB NIL=
201104051000 METAR MRLB NIL=
201104051100 METAR MRLB NIL=
201104051200 METAR MRLB 051200Z 00000KT CAVOK 25/20 A2981 RMK SCT100=
201104051300 METAR MRLB 051300Z 35004KT 9999 FEW040 SCT100 25/20 A2983=
201104051400 METAR MRLB 051400Z 06005KT CAVOK 29/20 A2986 RMK FEW100 SCT250=
201104051500 METAR MRLB 051500Z 04005KT CAVOK 31/19 A2987 RMK FEW100 SCT250=
201104051600 METAR MRLB 051600Z 08015KT 9999 FEW035 SCT240 32/18 A2986=
201104051700 METAR MRLB 051700Z 08018KT 9999 FEW030 SCT250 34/17 A2984=
201104051800 METAR MRLB 051800Z 09018KT 9999 FEW030 SCT220 35/16 A2983=
201104051900 METAR MRLB 051900Z 08014KT 9999 SCT030 BKN250 35/17 A2980=
201104052000 METAR MRLB 052000Z 08012KT 9999 FEW030 SCT250 35/17 A2977=
201104052100 METAR MRLB 052100Z 06005KT 9999 FEW040 SCT250 35/17 A2975=
201104052200 METAR MRLB 052200Z 08014KT 9999 FEW040 SCT250 33/18 A2975=
201104052300 METAR MRLB 052300Z 06014KT 9999 FEW030 SCT100 31/18 A2975=
201104060000 METAR MRLB 060000Z 07014KT 9999 FEW030 SCT100 30/19 A2977 RMK TCU DST S=
201104060100 METAR MRLB 060100Z 08015KT 9999 FEW030 SCT100 28/19 A2979 RMK TCU DST S=
201104060200 METAR MRLB 060200Z 07010KT 9999 FEW030 SCT100 27/20 A2981=
201104060300 METAR MRLB NIL=
201104060400 METAR MRLB NIL=
201104060500 METAR MRLB NIL=
201104060600 METAR MRLB NIL=
201104060700 METAR MRLB NIL=
201104060800 METAR MRLB NIL=
201104060900 METAR MRLB NIL=
201104061000 METAR MRLB NIL=
201104061100 METAR MRLB NIL=
201104061200 METAR MRLB 061200Z 03004KT CAVOK 24/19 A2983 RMK SCT250=
201104061300 METAR MRLB 061300Z 19005KT CAVOK 27/20 A2985 RK BKN250=
201104061400 METAR MRLB 061400Z 05011KT CAVOK 30/19 A2988 RMK BKN250=
201104061500 METAR MRLB 061500Z 07017KT CAVOK 32/16 A2989 RMK BKN250=
201104061600 METAR MRLB 061600Z 08018KT CAVOK 32/16 A2988 RMK BKN250=
201104061700 METAR MRLB 061700Z 07021KT CAVOK 34/16 A2987 RMK BKN250=
201104061800 METAR MRLB 061800Z 06020KT CAVOK 35/15 A2983 RMK BKN250=
201104061900 METAR MRLB 061900Z 05021KT 9999 FEW035 BKN250 35/16 A2980=
201104062000 METAR MRLB 062000Z 06018KT 9999 FEW035 BKN250 34/15 A2979=
201104062100 METAR MRLB 062100Z 07017KT CAVOK 33/15 A2978 RMK BKN240=
201104062200 METAR MRLB 062200Z 06018KT CAVOK 32/16 A2977 RMK BKN240=
201104062300 METAR MRLB 062300Z 07015KT CAVOK 31/16 A2978 RMK BKN240=
201104070000 METAR MRLB 070000Z 08016KT CAVOK 30/15 A2980 RMK BKN240=
201104070100 METAR MRLB 070100Z 07014KT CAVOK 29/15 A2983 BKN230=
201104070200 METAR MRLB 070200Z 08015KT CAVOK 27/16 A2985 BKN230=
201104070300 METAR MRLB NIL=
201104070400 METAR MRLB NIL=
201104070500 METAR MRLB NIL=
201104070600 METAR MRLB NIL=
201104070700 METAR MRLB NIL=
201104070800 METAR MRLB NIL=
201104070900 METAR MRLB NIL=
201104071000 METAR MRLB NIL=
201104071100 METAR MRLB NIL=
201104071200 METAR MRLB 071200Z 00000KT 9999 NSC 22/18 A2981=
201104071300 METAR MRLB 071300Z 02003KT 9999 SKC 25/18 A2983=
201104071400 METAR MRLB 071400Z 24006KT CAVOK 29/19 A2987 RMK FEW130=
201104071500 METAR MRLB 071500Z 08014KT CAVOK 31/14 A2987 RMK FEW130=
201104071600 METAR MRLB 071600Z 08016KT 9999 FEW040 32/18 A2988 RMK FEW250=
201104071700 METAR MRLB 071700Z 08012KT 9999 FEW040 SCT250 33/18 A2987=
201104071800 METAR MRLB 071800Z 09012KT 9999 FEW040 34/17 A2984 RMK FEW250=
201104071900 METAR MRLB 071900Z 08009KT 9999 SCT040 33/18 A2981=
201104072000 METAR MRLB 072000Z 06013KT 9999 FEW040 34/18 A2978 RMK FEW250=
201104072100 METAR MRLB 072100Z 06014KT CAVOK 33/17 A2977 RMK SCT130 FEW250=
201104072200 METAR MRLB 072200Z 06017KT CAVOK 31/17 A2977 RMK SCT120=
201104072300 METAR MRLB 072300Z 07013KT CAVOK 30/16 A2978 RMK BKN090 FEW250=
201104080000 METAR MRLB 080000Z 07013KT 9999 SCT040 BKN090 29/16 A2980=
201104080100 METAR MRLB 080100Z 07010KT 9999 SCT040 BKN100 28/15 A2980=
201104080200 METAR MRLB 080200Z 08009KT CAVOK 28/16 A2981 RMK OVC120=
201104080300 METAR MRLB NIL=
201104080400 METAR MRLB NIL=
201104080500 METAR MRLB NIL=
201104080600 METAR MRLB NIL=
201104080700 METAR MRLB NIL=
201104080800 METAR MRLB NIL=
201104080900 METAR MRLB NIL=
201104081000 METAR MRLB NIL=
201104081100 METAR MRLB NIL=
201104081200 METAR MRLB 081200Z 00000KT CAVOK 22/18 A2980 RMK SCT250=
201104081300 METAR MRLB 081300Z 02005KT CAVOK 25/19 A2983 RMK SCT250=
201104081400 METAR MRLB 081400Z 00000KT CAVOK 28/19 A2985 RMK SCT250=
201104081500 METAR MRLB 081500Z 03005KT CAVOK 31/19 A2987 RMK SCT250=
201104081600 METAR MRLB 081600Z 09012KT CAVOK 33/18 A2986 RMK SCT250=
201104081700 METAR MRLB 081700Z 09016KT 9999 FEW035 SCT250 33/18 A2985=
201104081800 METAR MRLB 081800Z 08015KT 9999 FEW030 SCT250 34/17 A2982=
201104081900 METAR MRLB 081900Z 08018KT 9999 FEW030 SCT250 34/18 A2980=
201104082000 METAR MRLB 082000Z 08015KT 9999 SCT030 BKN250 34/18 A2977=
201104082100 METAR MRLB 082100Z 05016KT 9999 SCT025 BKN180 33/18 A2975=
201104082200 METAR MRLB 082200Z 06018KT 9999 SCT025 BKN140 32/19 A2975=
201104082300 METAR MRLB 082300Z 07015KT 9999 SCT025 BKN100 30/18 A2977=
201104090000 METAR MRLB 090000Z 07015KT 9999 SCT020 BKN100 28/20 A2979 RMK DZ DST NE=
201104090100 METAR MRLB NIL=
201104090200 METAR MRLB 090200Z 07010KT 9999 SCT020 BKN100 26/20 A2984 DZ ARND=
201104090300 METAR MRLB NIL=
201104090400 METAR MRLB NIL=
201104090500 METAR MRLB NIL=
201104090600 METAR MRLB NIL=
201104090700 METAR MRLB NIL=
201104090800 METAR MRLB NIL=
201104090900 METAR MRLB NIL=
201104091000 METAR MRLB NIL=
201104091100 METAR MRLB NIL=
201104091200 METAR MRLB 091200Z 03004KT 9999 FEW035 BKN250 24/19 A2979=
201104091300 METAR MRLB 091300Z 23005KT 9999 SCT035 SCT130 27/19 A2983=
201104091400 METAR MRLB 091400Z 30003KT 9999 SCT035 BKN130 28/20 A2988=
201104091500 METAR MRLB 091500Z 07010KT 9999 SCT035 BKN130 30/19 A2989=
201104091600 METAR MRLB NIL=
201104091700 METAR MRLB 091700Z 08017KT 9999 FEW035 BKN250 33/18 A2987=
201104091800 METAR MRLB 091800Z 07016KT 9999 SCT 35 BKN250 34/18 A2985=
201104091900 METAR MRLB 091900Z 06018KT 9999 SCT035 BKN250 32/18 A2982=
201104092000 METAR MRLB 092000Z 08013KT 9999 FEW035 BKN250 33/18 A2979=
201104092100 METAR MRLB 092100Z 08014KT 9999 FEW035 BKN250 33/18 A2978=
201104092200 METAR MRLB 092200Z 06018KT 9999 SCT035 BKN250 33/18 A2979=
201104092300 METAR MRLB 092300Z 07011KT 9999 FEW035 BKN240 31/18 A2980=
201104100000 METAR MRLB 100000Z 07012KT 9999 SCT035 BKN240 29/19 A2981=
201104100100 METAR MRLB 100100Z 08014KT 9999 SCT035 BKN230 28/18 A2983=
201104100200 METAR MRLB 100200Z 07013KT 9999 SCT030 BKN230 27/19 A2985=
201104100300 METAR MRLB NIL=
201104100400 METAR MRLB NIL=
201104100500 METAR MRLB NIL=
201104100600 METAR MRLB NIL=
201104100700 METAR MRLB NIL=
201104100800 METAR MRLB NIL=
201104100900 METAR MRLB NIL=
201104101000 METAR MRLB NIL=
201104101100 METAR MRLB NIL=
201104101200 METAR MRLB 101200Z 07004KT CAVOK 24/19 A2986 RMK SCT140 SCT250=
201104101300 METAR MRLB 101300Z VRB02KT CAVOK 26/20 A2988 RMK SCT140 BKN250=
201104101400 METAR MRLB 101400Z 00000KT CAVOK 28/20 A2990 RMK OVC250=
201104101500 METAR MRLB 101500Z 00000KT CAVOK 31/19 A2992 RMK BKN250=
201104101600 METAR MRLB 101600Z 21005KT CAVOK 32/19 A2990 RMK BKN250=
201104101700 METAR MRLB 101700Z 08016KT CAVOK 32/17 A2990 RMK BKN250=
201104101800 METAR MRLB 101800Z 08014KT CAVOK 34/17 A2987 RMK BKN250=
201104101900 METAR MRLB 101900Z 08009KT CAVOK 34/17 A2985 RMK BKN250=
201104102000 METAR MRLB 102000Z 05011KT CAVOK 34/16 A2982 RMK BKN250=
201104102100 METAR MRLB 102100Z 05012KT CAVOK 34/16 A2979 RMK BKN250=
201104102200 METAR MRLB 102200Z 05013KT 9999 FEW035 SCT250 34/17 A2979=
201104102300 METAR MRLB 102300Z 06015KT 9999 FEW035 SCT250 33/17 A2980=
201104110000 METAR MRLB 110000Z 07013KT 9999 SCT040 SCT250 31/18 A2982=
201104110100 METAR MRLB 110100Z 07010KT 9999 SCT040 BKN250 29/19 A2986 CB LTNG DIST SE=
201104110200 METAR MRLB NIL=
201104110300 METAR MRLB NIL=
201104110400 METAR MRLB NIL=
201104110500 METAR MRLB NIL=
201104110600 METAR MRLB NIL=
201104110700 METAR MRLB NIL=
201104110800 METAR MRLB NIL=
201104110900 METAR MRLB NIL=
201104111000 METAR MRLB NIL=
201104111100 METAR MRLB NIL=
201104111200 METAR MRLB 111200Z 02004KT CAVOK 22/18 A2986 RMK SCT250=
201104111300 METAR MRLB 111300Z 03005KT CAVOK 25/19 A2987 RMK SCT250=
201104111400 METAR MRLB 111400Z 31003KT CAVOK 29/19 A2990 RMK SCT250=
201104111500 METAR MRLB 111500Z 10010KT CAVOK 31/18 A2991 RMK SCT250=
201104111600 METAR MRLB 111600Z 06012KT CAVOK 33/16 A2989 RMK SCT250=
201104111700 METAR MRLB 111700Z 10013KT 9999 FEW035 SCT250 34/16 A2987=
201104111800 METAR MRLB 111800Z 08010KT 9999 FEW030 SCT250 35/18 A2984=
201104111900 METAR MRLB 111900Z 08010KT 9999 FEW030 SCT250 35/16 A2980=
201104112000 METAR MRLB 112000Z 10010KT 9999 FEW030 SCT250 34/16 A2978=
201104112100 METAR MRLB 112100Z 08010KT 9999 FEW025 SCT250 34/15 A2976=
201104112200 METAR MRLB 112200Z 06010KT 9999 FEW025 SCT250 33/16 A2976=
201104112300 METAR MRLB 112300Z 04014KT 9999 FEW025 SCT250 32/17 A2978=
201104120000 METAR MRLB 120000Z 06012KT 9999 FEW030 SCT250 30/18 A2981=
201104120100 METAR MRLB 120100Z 07010KT CAVOK 28/19 A2983 RMK FEW100=
201104120200 METAR MRLB 120200Z 06008KT CAVOK 28/19 A2985 RMK FEW120=
201104120300 METAR MRLB NIL=
201104120400 METAR MRLB NIL=
201104120500 METAR MRLB NIL=
201104120600 METAR MRLB NIL=
201104120700 METAR MRLB NIL=
201104120800 METAR MRLB NIL=
201104120900 METAR MRLB NIL=
201104121000 METAR MRLB NIL=
201104121100 METAR MRLB NIL=
201104121200 METAR MRLB 121200Z 04004KT CAVOK 23/19 A2986 RMK SCT250=
201104121300 METAR MRLB 121300Z 06008KT CAVOK 28/19 A2988 RMK SCT250=
201104121400 METAR MRLB 121400Z 05010KT CAVOK 30/18 A2991 RMK SCT250=
201104121500 METAR MRLB 121500Z 05007KT 9999 FEW035 SCT250 31/17 A2992=
201104121600 METAR MRLB 121600Z 08016KT 9999 FEW035 SCT250 32/13 A2990=
201104121700 METAR MRLB 121700Z 08011KT 9999 FEW035 SCT250 33/14 A2988=
201104121800 METAR MRLB 121800Z 08012KT 9999 FEW035 SCT250 34/13 A2985=
201104121900 METAR MRLB 121900Z 07009KT 9999 FEW035 SCT250 35/13 A2981=
201104122000 METAR MRLB 122000Z 07008KT 9999 FEW035 SCT250 35/13 A2978=
201104122100 METAR MRLB 122100Z 06012KT 9999 SCT035 BKN250 35/13 A2976=
201104122200 METAR MRLB 122200Z 06011KT 9999 SCT035 BKN250 33/14 A2975=
201104122300 METAR MRLB 122300Z 06015KT 9999 SCT035 SCT250 32/16 A2976=
201104130000 METAR MRLB 130000Z 06014KT 9999 FEW035 SCT250 30/17 A2978=
201104130100 METAR MRLB 130100Z 05013KT 9999 FEW035 SCT250 29/17 A2980=
201104130200 METAR MRLB 130200Z 07014KT 9999 FEW035 BKN250 27/18 A2982=
201104130300 METAR MRLB NIL=
201104130400 METAR MRLB NIL=
201104130500 METAR MRLB NIL=
201104130600 METAR MRLB NIL=
201104130700 METAR MRLB NIL=
201104130800 METAR MRLB NIL=
201104130900 METAR MRLB NIL=
201104131000 METAR MRLB NIL=
201104131100 METAR MRLB NIL=
201104131200 METAR MRLB 131200Z 00000KT CAVOK 19/16 A2985 RMK FEW300=
201104131300 METAR MRLB 131300Z 19004KT CAVOK 25/17 A2986 RMK FEW300=
201104131400 METAR MRLB 131400Z 04005KT CAVOK 27/17 A2989 RMK FEW300=
201104131500 METAR MRLB 131500Z 06010G21KT CAVOK 30/14 A2990 RMK FEW300=
201104131600 METAR MRLB 131600Z 08015KT CAVOK 32/12 A2989 RMK FEW300=
201104131700 METAR MRLB 131700Z 08010KT CAVOK 33/11 A2987 RMK FEW300=
201104131800 METAR MRLB 131800Z 08013KT CAVOK 34/11 A2984 RMK FEW300=
201104131900 METAR MRLB 131900Z 09010KT CAVOK 35/12 A2981 RMK BKN300=
201104132000 METAR MRLB 132000Z 07011KT CAVOK 35/11 A2978 RMK BKN300=
201104132100 METAR MRLB NIL=
201104132200 METAR MRLB 132200Z 06013KT CAVOK 34/11 A2976 RMK SCT300=
201104132300 METAR MRLB 132300Z 06017KT CAVOK 32/12 A2976 RMK FEW300=
201104140000 METAR MRLB 140000Z 06015KT CAVOK 30/14 A2978 RMK FEW300 RMK=
201104140100 METAR MRLB 140100Z 07014KT 9999 SKC 29/17 A2979=
201104140200 METAR MRLB 140200Z 07017KT 9999 SKC 28/17 A2980=
201104140300 METAR MRLB NIL=
201104140400 METAR MRLB NIL=
201104140500 METAR MRLB NIL=
201104140600 METAR MRLB NIL=
201104140700 METAR MRLB NIL=
201104140800 METAR MRLB NIL=
201104140900 METAR MRLB NIL=
201104141000 METAR MRLB NIL=
201104141100 METAR MRLB NIL=
201104141200 METAR MRLB 141200Z 07005KT CAVOK 18/16 A2984 RMK SCT250=
201104141300 METAR MRLB 141300Z 01004KT CAVOK 23/17 A2985 RMK SCT250=
201104141400 METAR MRLB 141400Z 00000KT CAVOK 27/17 A2987 RMK FEW250=
201104141500 METAR MRLB 141500Z 04008KT CAVOK 31/12 A2988 RMK FEW250=
201104141600 METAR MRLB 141600Z 08012KT CAVOK 34/10 A2986 RMK FEW250=
201104141700 METAR MRLB 141700Z 09010KT CAVOK 34/03 A2984 RMK FEW250=
201104141800 METAR MRLB 141800Z 06014KT CAVOK 35/03 A2981 RMK FEW250=
201104141900 METAR MRLB 141900Z 07012KT CAVOK 35/04 A2978 RMK FEW250=
201104142000 METAR MRLB 142000Z 05012KT CAVOK 35/08 A2975 RMK FEW250=
201104142100 METAR MRLB 142100Z 05015KT CAVOK 35/10 A2972 RMK SCT250=
201104142200 METAR MRLB 142200Z 06013KT CAVOK 34/13 A2972 RNK SCT250=
201104142300 METAR MRLB 142300Z 06013KT CAVOK 32/13 A2973 RMK SCT250=
201104150000 METAR MRLB 150000Z 07013KT CAVOK 30/16 A2974 RMK SCT250=
201104150100 METAR MRLB 150100Z 08010KT CAVOK 29/16 A2976 FEW250=
201104150200 METAR MRLB 150200Z 07010KT CAVOK 28/16 A2978 FEW250=
201104150300 METAR MRLB NIL=
201104150400 METAR MRLB NIL=
201104150500 METAR MRLB NIL=
201104150600 METAR MRLB NIL=
201104150700 METAR MRLB NIL=
201104150800 METAR MRLB NIL=
201104150900 METAR MRLB NIL=
201104151000 METAR MRLB NIL=
201104151100 METAR MRLB NIL=
201104151200 METAR MRLB 151200Z 13004KT 9999 FEW035 BKN250 21/17 A2983=
201104151300 METAR MRLB 151300Z 32003KT 9999 FEW035 BKN250 23/17 A2984=
201104151400 METAR MRLB 151400Z 00000KT 9999 FEW035 BKN250 27/17 A2986=
201104151500 METAR MRLB 151500Z 03004KT CAVOK 29/17 A2988 BKN250=
201104151600 METAR MRLB 151600Z 04006KT CAVOK 32/14 A2986 RMK BKN250=
201104151700 METAR MRLB 151700Z 30006KT CAVOK 33/13 A2983 RMK BKN250=
201104151800 METAR MRLB 151800Z 03003KT 9999 FEW035 SCT250 33/13 A2980=
201104151900 METAR MRLB 151900Z 28011KT 9999 SCT035 SCT250 35/14 A2976=
201104152000 METAR MRLB 152000Z 27011KT 9999 SCT035 BKN250 34/14 A2974=
201104152100 METAR MRLB 152100Z 26012KT 9999 SCT035 BKN250 35/16 A2973=
201104152200 METAR MRLB 152200Z 27012KT 9999 FEW035 BKN250 32/17 A2973=
201104152300 METAR MRLB 152300Z 25010KT 9999 SCT035 BKN250 30/18 A2974=
201104160000 METAR MRLB 160000Z 26004KT 9999 SCT035 BKN230 30/17 A2975=
201104160100 METAR MRLB 160100Z 25004KT 9999 SCT035 BKN240 28/18 A2978=
201104160200 METAR MRLB 160200Z 24005KT 9999 FEW035 BKN230 27/18 A2980=
201104160300 METAR MRLB NIL=
201104160400 METAR MRLB NIL=
201104160500 METAR MRLB NIL=
201104160600 METAR MRLB NIL=
201104160700 METAR MRLB NIL=
201104160800 METAR MRLB NIL=
201104160900 METAR MRLB NIL=
201104161000 METAR MRLB NIL=
201104161100 METAR MRLB NIL=
201104161200 METAR MRLB 161200Z 03004KT CAVOK 20/17 A2984 RMK SCT250 LGT HZ ARND=
201104161300 METAR MRLB 161300Z 00000KT CAVOK 26/19 A2984 RMK FEW250 HZ LGT ARND=
201104161400 METAR MRLB 161400Z VRB02KT CAVOK 29/18 A2990 RMK FEW280 HZ LGT ARND=
201104161500 METAR MRLB 161500Z 24004KT CAVOK 30/18 A2991 RMK FEW280 HZ LGT ARND=
201104161600 METAR MRLB 161600Z 34007KT CAVOK 32/19 A2989 RMK FEW280 HZ ARND=
201104161700 METAR MRLB 161700Z 34008KT 9999 NSC 34/11 A2986=
201104161800 METAR MRLB 161800Z 29004KT CAVOK 35/10 A2982 RMK FEW300=
201104161900 METAR MRLB 161900Z 03009KT CAVOK 35/10 A2977 RMK SCT300=
201104162000 METAR MRLB 162000Z 26009KT 9999 FEW040 SCT300 35/13 A2973=
201104162100 METAR MRLB 162100Z 27008KT 9999 SCT040 SCT300 36/14 A2971=
201104162200 METAR MRLB 162200Z 06009KT CAVOK 35/11 A2970 RMK SCT300=
201104162300 METAR MRLB 162300Z 08010KT CAVOK 34/13 A2971 RMK BKN300=
201104170000 METAR MRLB 170000Z 07014KT CAVOK 31/16 A2973 RMK BKN250=
201104170100 METAR MRLB 170100Z 07012KT CAVOK 30/17 A2974 RMK SCT250=
201104170200 METAR MRLB 170200Z 08011KT CAVOK 29/18 A2976 RNK SCT250=
201104170300 METAR MRLB NIL=
201104170400 METAR MRLB NIL=
201104170500 METAR MRLB NIL=
201104170600 METAR MRLB NIL=
201104170700 METAR MRLB NIL=
201104170800 METAR MRLB NIL=
201104170900 METAR MRLB NIL=
201104171000 METAR MRLB NIL=
201104171100 METAR MRLB NIL=
201104171200 METAR MRLB 171200Z 04004KT CAVOK 20/17 A2983 RMK SCT250=
201104171300 METAR MRLB 171300Z 00000KT CAVOK 26/18 A2985 RMK SCT250=
201104171400 METAR MRLB 171400Z 19005KT CAVOK 28/17 A2988 RMK SCT250=
201104171500 METAR MRLB 171500Z 16004KT CAVOK 31/16 A2989 RMK SCT250=
201104171600 METAR MRLB 171600Z 02006KT CAVOK 33/15 A2988 RMK FEW250=
201104171700 METAR MRLB 171700Z 28008KT 9999 FEW030 SCT250 34/17 A2986=
201104171800 METAR MRLB 171800Z 32006KT 9999 SCT025 BKN250 34/15 A2983=
201104171900 METAR MRLB 171900Z 13005KT 9999 SCT025 BKN250 34/13 A2980=
201104172000 METAR MRLB NIL=
201104172100 METAR MRLB 172100Z 11007KT 9999 SCT035 BKN250 34/13 A2974=
201104172200 METAR MRLB 172200Z 09010KT 9999 FEW035 SCT250 33/15 A2972=
201104172300 METAR MRLB 172300Z 35005KT CAVOK 31/17 A2974 RMK FEW100 SCT250=
201104180000 METAR MRLB 180000Z 04005KT CAVOK 30/16 A2976 RMK FEW100 BKN250=
201104180100 METAR MRLB NIL=
201104180200 METAR MRLB NIL=
201104180300 METAR MRLB NIL=
201104180400 METAR MRLB NIL=
201104180500 METAR MRLB NIL=
201104180600 METAR MRLB NIL=
201104180700 METAR MRLB NIL=
201104180800 METAR MRLB NIL=
201104180900 METAR MRLB NIL=
201104181000 METAR MRLB NIL=
201104181100 METAR MRLB NIL=
201104181200 METAR MRLB 181200Z 00000KT CAVOK 21/16 A2983 RMK BKN250=
201104181300 METAR MRLB 181300Z 26003KT CAVOK 24/17 A2984 RMK BKN250=
201104181400 METAR MRLB 181400Z 00000KT CAVOK 29/17 A2988 RMK BKN250=
201104181500 METAR MRLB 181500Z 05004KT CAVOK 31/16 A2990 RMK SCT250=
201104181600 METAR MRLB 181600Z 35004KT CAVOK 33/16 A2990 RMK SCT250=
201104181700 METAR MRLB NIL=
201104181800 METAR MRLB 181800Z 10006KT 9999 SCT035 SCT250 33/16 A2985=
201104181900 METAR MRLB 181900Z 08004KT 9999 SCT035 BKN250 34/16 A2983=
201104182000 METAR MRLB NIL=
201104182100 METAR MRLB 182100Z 28010KT 9999 SCT035 BKN250 32/18 2979=
201104182200 METAR MRLB 182200Z 28011KT 9999 SCT035 BKN250 32/18 2978=
201104182300 METAR MRLB 182300Z 28008KT 9999 SCT035 BKN250 31/19 2978=
201104190000 METAR MRLB 190000Z 29007KT 9999 SCT035 BKN250 29/20 2980=
201104190100 METAR MRLB 190100Z 26006KT 9999 SCT035 BKN240 28/19 2983=
201104190200 METAR MRLB NIL=
201104190300 METAR MRLB NIL=
201104190400 METAR MRLB NIL=
201104190500 METAR MRLB NIL=
201104190600 METAR MRLB NIL=
201104190700 METAR MRLB NIL=
201104190800 METAR MRLB NIL=
201104190900 METAR MRLB NIL=
201104191000 METAR MRLB NIL=
201104191100 METAR MRLB NIL=
201104191200 METAR MRLB 191200Z 00000KT CAVOK 22/19 A2986 RMK BKN280 HZ LGT ARND=
201104191300 METAR MRLB 191300Z 35003KT CAVOK 25/19 2988 RMK SCT300 HZ LGT ARND=
201104191400 METAR MRLB 191400Z 00000KT CAVOK 31/19 2991 RMK BKN300 HZ LGT ARND=
201104191401 METAR MRLB 191401Z 00000KT CAVOK 31/19 A2991 RMK BKN300 HZ LGT ARND=
201104191500 METAR MRLB 191500Z 07008KT CAVOK 32/17 A2991 RMK BKN300 HZ LGT ARND=
201104191600 METAR MRLB 191600Z 10008KT CAVOK 34/16 A2990 RMK BKN300=
201104191700 METAR MRLB 191700Z 08007KT 9999 FEW035 BKN300 35/15 A 2989=
201104191800 METAR MRLB 191800Z 06005KT 9999 SCT035 SCT300 34/16 A2986=
201104191900 METAR MRLB 191900Z 30005KT 9999 BKN035 SCT300 34/17 A2984=
201104192000 METAR MRLB 192000Z 27012KT 9999 BKN035 FEW300 34/19 A2981=
201104192100 METAR MRLB 192100Z 28010KT 9999 SCT035 33/18 A2980 RMK FEW100=
201104192200 METAR MRLB 192200Z 29012KT 9999 FEW030TCU SCT035 32/19 A2979 RMK CB DST S HZ LEVE ARND=
201104192300 METAR MRLB 192300Z 27007KT 9999 SCT035 33/18 A2980 RMK FEW100 FEW250 HZ LEVE ARND=
201104200000 METAR MRLB 200000Z 03005KT 9999 FEW035TCU 30/30 A2982 RMK FEW250 CB DST SE S HZ LEVE ARND=
201104200100 METAR MRLB 200100Z 21003KT 9999 SCT035 SCT100 29/20 A2985=
201104200200 METAR MRLB 200200Z 17005KT 9999 SCT035 BKN100 29/21 A2986=
201104200300 METAR MRLB NIL=
201104200400 METAR MRLB NIL=
201104200500 METAR MRLB NIL=
201104200600 METAR MRLB NIL=
201104200700 METAR MRLB NIL=
201104200800 METAR MRLB NIL=
201104200900 METAR MRLB NIL=
201104201000 METAR MRLB NIL=
201104201100 METAR MRLB NIL=
201104201200 METAR MRLB 201200Z 06004KT CAVOK 21/19 A2987 RMK SCT250=
201104201300 METAR MRLB 201300Z 00000KT CAVOK 24/19 A2988 RMK SCT250=
201104201400 METAR MRLB 201400Z 14003KT CAVOK 27/17 A2991 RMK SCT250=
201104201500 METAR MRLB 201500Z 00000KT CAVOK 29/18 A2992 RMK SCT250=
201104201600 METAR MRLB 201600Z 08008KT CAVOK 31/18 A2991 RMK BKN250=
201104201700 METAR MRLB 201700Z 17007KT CAVOK 31/19 A2990 RMK BKN250=
201104201800 METAR MRLB 201800Z 17006KT CAVOK 32/17 A2989 RMK BKN250=
201104201900 METAR MRLB 201900Z 08010KT CAVOK 34/16 A2985 RMK BKN250=
201104202000 METAR MRLB 202000Z 05004KT 9999 FEW035 BKN250 34/16 A2982=
201104202100 METAR MRLB 202100Z 28010KT 9999 FEW030 BKN220 33/18 A2980=
201104202200 METAR MRLB 202200Z 28009KT 9999 SCT030 BKN220 32/19 A2978=
201104202300 METAR MRLB 202300Z 27006KT 9999 FEW040 SCT250 30/19 A2980=
201104210000 METAR MRLB 210000Z 00000KT CAVOK 30/18 A2981 RMK SCT250=
201104210100 METAR MRLB 210100Z 00000KT CAVOK 29/18 A2983 SCT250=
201104210200 METAR MRLB 210200Z 00000KT CAVOK 28/18 A2985 FEW180=
201104210300 METAR MRLB NIL=
201104210400 METAR MRLB NIL=
201104210500 METAR MRLB NIL=
201104210600 METAR MRLB NIL=
201104210700 METAR MRLB NIL=
201104210800 METAR MRLB NIL=
201104210900 METAR MRLB NIL=
201104211000 METAR MRLB NIL=
201104211100 METAR MRLB NIL=
201104211200 METAR MRLB 211200Z 17004KT CAVOK 22/18 A2983 RMK BKN250=
201104211300 METAR MRLB 211300Z 06004KT CAVOK 24/18 A2984 RMK BKN250=
201104211400 METAR MRLB 211400Z 04003KT CAVOK 27/18 A2986 RMK BKN250=
201104211500 METAR MRLB 211500Z 10008KT CAVOK 30/16 A2987 RMK BKN250=
201104211600 METAR MRLB 211600Z 09009KT CAVOK 32/15 A2987 RMK BKN250=
201104211700 METAR MRLB 211700Z 05005KT CAVOK 34/13 A2986 RMK BKN250=
201104211800 METAR MRLB 211800Z 06007KT CAVOK 35/13 A2984 RMK BKN250=
201104211900 METAR MRLB 211900Z 07005KT CAVOK 35/13 A2981 RMK BKN250=
201104212000 METAR MRLB 212000Z 04004KT 9999 FEW035 SCT250 35/13 A2978=
201104212100 METAR MRLB 212100Z 26006KT 9999 FEW035 BKN250 34/21 A2978=
201104212200 METAR MRLB 212200Z 27009KT 9999 SCT035 BKN250 33/16 A2978=
201104212300 METAR MRLB 212300Z 25009KT 9999 SCT035 BKN250 32/17 A2979=
201104220000 METAR MRLB 220000Z 22006KT 9999 SCT035 BKN240 30/15 A2981=
201104220100 METAR MRLB 220100Z 20004KT 9999 FEW035 BKN240 29/15 A2983=
201104220200 METAR MRLB 220200Z 24005KT 9999 FEW035 BKN230 28/16 A2985=
201104220300 METAR MRLB NIL=
201104220400 METAR MRLB NIL=
201104220500 METAR MRLB NIL=
201104220600 METAR MRLB NIL=
201104220700 METAR MRLB NIL=
201104220800 METAR MRLB NIL=
201104220900 METAR MRLB NIL=
201104221000 METAR MRLB NIL=
201104221100 METAR MRLB NIL=
201104221200 METAR MRLB 221200Z 21003KT CAVOK 20/17 A2984 RMK SCT280=
201104221300 METAR MRLB 221300Z 09007KT CAVOK 25/18 A2985 RMK FEW250=
201104221400 METAR MRLB 221400Z 36004KT 9999 SKC 29/18 A2987=
201104221500 METAR MRLB 221500Z 10007KT 9999 SKC 31/17 A2990=
201104221600 METAR MRLB 221600Z 10007KT 9999 NSC 32/16 A2989=
201104221700 METAR MRLB 221700Z 09005KT 9999 NSC 34/16 A2986=
201104221800 METAR MRLB 221800Z 08010KT 9999 FEW035 35/15 A2983=
201104221900 METAR MRLB 221900Z 08012KT 9999 SCT035 35/16 A2980=
201104222000 METAR MRLB 222000Z 09005KT 9999 BKN025 35/14 A2977=
201104222100 METAR MRLB 222100Z 08006KT 9999 BKN035 34/14 A2975=
201104222200 METAR MRLB 222200Z 28008KT 9999 BKN035 33/19 A2975=
201104222300 METAR MRLB 222300Z 30007KT 9999 SCT035 32/19 A2976=
201104230000 METAR MRLB 230000Z 29005KT 9999 SCT035 30/20 A2978=
201104230100 METAR MRLB 230100Z 00000KT 9999 SCT035 29/20 A2980=
201104230200 METAR MRLB NIL=
201104230300 METAR MRLB NIL=
201104230400 METAR MRLB NIL=
201104230500 METAR MRLB NIL=
201104230600 METAR MRLB NIL=
201104230700 METAR MRLB NIL=
201104230800 METAR MRLB NIL=
201104230900 METAR MRLB NIL=
201104231000 METAR MRLB NIL=
201104231100 METAR MRLB NIL=
201104231200 METAR MRLB NIL=
201104231300 METAR MRLB 231300Z 00000KT CAVOK 27/18 A2987 SCT250=
201104231400 METAR MRLB 231400Z 15005KT CAVOK 30/17 A2989 SCT250=
201104231500 METAR MRLB NIL=
201104231600 METAR MRLB 231600Z 05010KT 9999 FEW030 SCT250 33/16 A2990=
201104231700 METAR MRLB 231700Z 10011KT 9999 SCT025 BKN250 34/15 A2988=
201104231800 METAR MRLB 231800Z 04010KT 9999 SCT025 BKN250 34/14 A2985=
201104231900 METAR MRLB 231900Z 13008KT 9999 SCT025 BKN250 34/14 A2983=
201104232000 METAR MRLB 232000Z 27012KT 9999 SCT025 BKN180 31/18 A2981 RMK TCU DST S=
201104232100 METAR MRLB 232100Z 23010KT 9999 SCT025 BKN180 31/19 A2979 RMK TCU DST S=
201104232200 METAR MRLB 232200Z 28010KT 9999 -RA SCT025TCU BKN150 29/22 A2979=
201104232300 METAR MRLB 232300Z 34006KT 9999 SCT025 BKN150 27/24 A2978 RERA=
201104240000 METAR MRLB 240000Z 28004KT 9999 FEW030 SCT120 27/24 A2980 RMK TCU RN DST SW=
201104240100 METAR MRLB 240100Z 19005KT 9999 FEW030 SCT100 26/23 A2982=
201104240200 METAR MRLB 240200Z 18004KT 9999 FEW030 SCT140 25/23 A2984=
201104240300 METAR MRLB NIL=
201104240400 METAR MRLB NIL=
201104240500 METAR MRLB NIL=
201104240600 METAR MRLB NIL=
201104240700 METAR MRLB NIL=
201104240800 METAR MRLB NIL=
201104240900 METAR MRLB NIL=
201104241000 METAR MRLB NIL=
201104241100 METAR MRLB NIL=
201104241200 METAR MRLB NIL=
201104241300 METAR MRLB 241300Z 00000KT CAVOK 24/20 A2975 RMK SCT250=
201104241400 METAR MRLB 241400Z 00000KT CAVOK 27/20 A2987 RMK SCT250=
201104241500 METAR MRLB 241500Z 03005KT CAVOK 30/21 A2986 RMK SCT250=
201104241600 METAR MRLB 241600Z 09003KT CAVOK 32/18 A2990 RMK FEW250=
201104241700 METAR MRLB 241700Z 08003KT 9999 FEW035 34/17 A2987=
201104241800 METAR MRLB 241800Z 24004KT 9999 SCT035 34/15 A2984=
201104241900 METAR MRLB 241900Z 26009KT 9999 SCT035 34/18 A2980=
201104242000 METAR MRLB 242000Z 26008KT 9999 SCT035 35/18 A2977=
201104242100 METAR MRLB 242100Z 25005KT 9999 SCT035TCU BKN240 33/18 A2976=
201104242200 METAR MRLB 242200Z 29008KT 9999 SCT035 BKN240 32/18 A2975=
201104242300 METAR MRLB 242300Z 29007KT 9999 SCT035 SCT240 31/19 A2976=
201104250000 METAR MRLB 250000Z 25004KT 9999 SCT035 BKN240 30/19 A2977=
201104250100 METAR MRLB 250100Z 26005KT 9999 SCT035 BKN240 29/18 A2979=
201104250200 METAR MRLB 250200Z 24004KT 9999 SCT035 BKN230 28/18 A2981=
201104250300 METAR MRLB NIL=
201104250400 METAR MRLB NIL=
201104250500 METAR MRLB NIL=
201104250600 METAR MRLB NIL=
201104250700 METAR MRLB NIL=
201104250800 METAR MRLB NIL=
201104250900 METAR MRLB NIL=
201104251000 METAR MRLB NIL=
201104251100 METAR MRLB NIL=
201104251200 METAR MRLB 251200Z 10003KT CAVOK 22/18 A2983 RMK SCT300=
201104251300 METAR MRLB 251300Z VRB02KT CAVOK 26/19 A2985 RMK FEW300=
201104251400 METAR MRLB 251400Z 22004KT 9999 SKC 29/18 A2988=
201104251500 METAR MRLB 251500Z 14003KT 9999 SKC 31/16 A2988=
201104251600 METAR MRLB 251600Z 30004KT 9999 SKC 34/15 A2986=
201104251700 METAR MRLB 251700Z 05007KT 9999 NSC 35/14 A2984=
201104251800 METAR MRLB 251800Z 05005KT 9999 NSC 36/14 A2980=
201104251900 METAR MRLB 251900Z 07006KT 9999 FEW035 36/15 A2976=
201104252000 METAR MRLB 252000Z 26010KT 9999 SCT035 35/17 A2974=
201104252100 METAR MRLB 252100Z 27013KT 9999 SCT035 34/18 A2973=
201104252200 METAR MRLB 252200Z 27011KT 9999 SCT040 33/17 A2972=
201104252300 METAR MRLB 252300Z 24009KT 9999 FEW040 32/16 A2974=
201104260000 METAR MRLB 260000Z 22007KT 9999 FEW040 30/18 A2975 RMK FEW280=
201104260100 METAR MRLB 260100Z 21004KT 9999 NSC 29/19 A2977=
201104260200 METAR MRLB 260200Z VRB02KT 9999 SCT035 29/19 A2978=
201104260300 METAR MRLB NIL=
201104260400 METAR MRLB NIL=
201104260500 METAR MRLB NIL=
201104260600 METAR MRLB NIL=
201104260700 METAR MRLB NIL=
201104260800 METAR MRLB NIL=
201104260900 METAR MRLB NIL=
201104261000 METAR MRLB NIL=
201104261100 METAR MRLB NIL=
201104261200 METAR MRLB 261200Z 05004KT CAVOK 23/20 A2980 RMK SCT250=
201104261300 METAR MRLB 261300Z 32006KT CAVOK 26720 A2982 RMK SCT250=
201104261400 METAR MRLB 261400Z 35006KT CAVOK 29/21 A2985 RMK SCT250 HZ ARND=
201104261500 METAR MRLB 261500Z 29005KT CAVOK 32/20 A2986 RMK SCT250 HZ ARND=
201104261600 METAR MRLB 261600Z 27006KT 9999 FEW030 SCT250 33/20 A2985 RMK HZY ARND=
201104261700 METAR MRLB 261700Z 28008KT 9999 SCT030 BKN220 33/20 A2984 RMK HZY ARND NOSIG=
201104261800 METAR MRLB 261800Z 28008KT 9999 SCT025 BKN200 34/19 A2981 RMK HZ ARND=
201104261900 METAR MRLB 261900Z 28010KT 9999 SCT025 BKN200 32/21 A2979 RMK HZY ARND=
201104262000 METAR MRLB 262000Z 26010KT 9999 SCT030 BKN200 33/20 A2976 RMK HZY ARND=
201104262100 METAR MRLB 262100Z 07014KT 9999 SCT030 BKN200 33/20 A2975 RMK HZ ARND=
201104262200 METAR MRLB 262200Z 28012KT 9999 SCT030 BKN180 32/21 A2975=
201104262300 METAR MRLB 262300Z 28010KT 9999 SCT030 BKN250 29/23 A2976=
201104270000 METAR MRLB NIL=
201104270100 METAR MRLB 270100Z 28009KT 9999 FEW030 SCT100 27/23 A2979 RMK TCU E S=
201104270200 METAR MRLB 270200Z 26008KT 9999 FEW035 SCT140 27/24 A2981 LTNG DIST S=
201104270300 METAR MRLB NIL=
201104270400 METAR MRLB NIL=
201104270500 METAR MRLB NIL=
201104270600 METAR MRLB NIL=
201104270700 METAR MRLB NIL=
201104270800 METAR MRLB NIL=
201104270900 METAR MRLB NIL=
201104271000 METAR MRLB NIL=
201104271100 METAR MRLB NIL=
201104271200 METAR MRLB 271200Z 00000KT CAVOK 25/22 A2980 RMK BKN250 HZ ARND=
201104271300 METAR MRLB 271300Z 03003KT CAVOK 27/23 A2983 RMK BKN250 HZ ARND=
201104271400 METAR MRLB 271400Z 00000KT 9999 FEW035 BKN250 31/24 A2987 RMK HZ ARND=
201104271500 METAR MRLB 271500Z 25005KT 9999 FEW035 BKN250 30/23 A2988 RMK HZ ARND=
201104271600 METAR MRLB 271600Z 23005KT 9999 SCT035 BKN250 32/23 A2987 RMK HZ ARND=
201104271700 METAR MRLB 271700Z 29007KT 9999 SCT035 BKN250 33/22 A2986=
201104271800 METAR MRLB 271800Z 29011KT 9999 SCT035 BKN250 34/22 A2983 RMK HZ ARND=
201104271900 METAR MRLB 271900Z 26013KT 9999 4000E RA FEW020CB SCT035 BKN140 31/22 A2982=
201104272000 METAR MRLB 272000Z 27009KT 9999 VCSH SCT030 BKN130 29/23 A2981 RERA=
201104272100 METAR MRLB 272100Z 12003KT 9999 VCSH SCT025 BKN120 27/24 A2981=
201104272200 METAR MRLB 272200Z 17006KT 9999 SCT025 BKN100 24/22 A2982 RMK RN DST N=
201104272300 METAR MRLB 272300Z 05007KT 9999 SCT030 BKN100 25/23 A2983 RMK RN DST E=
201104280000 METAR MRLB 280000Z 15003KT 9999 SCT030 BKN120 24/23 A2983 RMK RN DST NE=
201104280100 METAR MRLB 280100Z 17003KT 9999 DZ SCT035 BKN120 25/23 A2985=
201104280200 METAR MRLB NIL=
201104280300 METAR MRLB NIL=
201104280400 METAR MRLB NIL=
201104280500 METAR MRLB NIL=
201104280600 METAR MRLB NIL=
201104280700 METAR MRLB NIL=
201104280800 METAR MRLB NIL=
201104280900 METAR MRLB NIL=
201104281000 METAR MRLB NIL=
201104281100 METAR MRLB NIL=
201104281200 METAR MRLB 281200Z 00000KT 6000 2000N BR FEW040 BKN250 23/22 A2986 RMK FEW13 0 VIS E UNL=
201104281300 METAR MRLB 281300Z VRB02KT 9999 3000NW BR SCT005 BKN250 24/23 A2988=
201104281400 METAR MRLB 281400Z VRB02KT CAVOK 28/24 A2991 RMK BKN250 LGHT HZ ARND=
201104281500 METAR MRLB 281500Z 27003KT CAVOK 31/23 A2991 RMK BKN250 LGHT HZ ARND=
201104281600 METAR MRLB 281600Z 25005KT 9999 SCT035 SCT250 31/22 A2990 RMK LGHT HZ ARND=
201104281700 METAR MRLB 281700Z 10003KT 9999 SCT035 35/21 A2988 RMK FEW250=
201104281800 METAR MRLB 281800Z 03008KT 9999 FEW030TCU SCT035 36/20 A2985=
201104281900 METAR MRLB 281900Z 08010KT 9999 FEW030TCU SCT035 36/18 A2981=
201104282000 METAR MRLB 282000Z 06009KT 9999 SCT035 36/19 A2978 RMK TCU RN DST SW CB DST E=
201104282100 METAR MRLB 282100Z 07010KT 9999 FEW035 SCT130 34/19 A2976 RMK FEW250 CB DST E SE=
201104282200 METAR MRLB 282200Z 08010KT 9999 FEW035 SCT130 34/20 A2975 RMK SCT250 CB DST S=
201104282300 METAR MRLB 282300Z 12013KT CAVOK 33/20 A2976 RMK SCT130 FEW250 CB DST S=
201104290000 METAR MRLB 290000Z 11009KT CAVOK 31/21 A2978 RMK SCT140 SCT250 CB DST N=
201104290100 METAR MRLB 290100Z 12011KT CAVOK 30/21 A2979 RMK SCT140 SCT250=
201104290200 METAR MRLB 290200Z 12009KT CAVOK 29/22 A2983 RMK SCT140 BKN250=
201104290300 METAR MRLB NIL=
201104290400 METAR MRLB NIL=
201104290500 METAR MRLB NIL=
201104290600 METAR MRLB NIL=
201104290700 METAR MRLB NIL=
201104290800 METAR MRLB NIL=
201104290900 METAR MRLB NIL=
201104291000 METAR MRLB NIL=
201104291100 METAR MRLB NIL=
201104291200 METAR MRLB 291200Z 07007KT CAVOK 27/21 A2982 RMK SCT250=
201104291300 METAR MRLB 291300Z 06010KT CAVOK 29/21 A2984 RMK SCT250=
201104291400 METAR MRLB 291400Z 06012KT CAVOK 32/20 A2986 RMK SCT250=
201104291500 METAR MRLB 291500Z 06011KT 9999 FEW025 SCT250 33/20 A2988=
201104291600 METAR MRLB 291600Z 05014KT 9999 SCT025 BKN250 34/19 A2986=
201104291700 METAR MRLB 291700Z 06016KT 9999 SCT025 BKN250 35/18 A2984=
201104291800 METAR MRLB 291800Z 08010KT 9999 SCT025 BKN250 35/18 A2981=
201104291900 METAR MRLB 291900Z 06012KT 9999 SCT025 BKN250 36/17 A2977=
201104292000 METAR MRLB 292000Z 06013KT 9999 SCT025 BKN250 36/17 A2974=
201104292100 METAR MRLB 292100Z 04013KT 9999 SCT025 BKN250 36/18 A2971=
201104292200 METAR MRLB 292200Z 03010KT 9999 SCT025 BKN 250 35/18 A2971=
201104292300 METAR MRLB 292300Z 27008KT 9999 FEW025 SCT250 32/22 A2972 RMK TCU RN DST SW=
201104300000 METAR MRLB 300000Z 24005KT 9999 FEW035 SCT250 29/23 A2975 RMK TCU DST S=
201104300100 METAR MRLB 300100Z 27005KT 9999 FEW045 28/23 A2977=
201104300200 METAR MRLB 300200Z 31005KT CAVOK 27/24 A2980 RMK FEW140=
201104300300 METAR MRLB NIL=
201104300400 METAR MRLB NIL=
201104300500 METAR MRLB NIL=
201104300600 METAR MRLB NIL=
201104300700 METAR MRLB NIL=
201104300800 METAR MRLB NIL=
201104300900 METAR MRLB NIL=
201104301000 METAR MRLB NIL=
201104301100 METAR MRLB NIL=
201104301200 METAR MRLB 301200Z 00000KT CAVOK 24/19 A2975 RMK SCT250=
201104301300 METAR MRLB 301300Z 32004KT CAVOK 29/20 A2979 RMK SCT250=
201104301400 METAR MRLB 301400Z 28003KT CAVOK 30/20 A2982 RMK SCT250=
201104301500 METAR MRLB 301500Z 07016KT 9999 FEW035 SCT250 31/18 A2981=
201104301600 METAR MRLB 301600Z 05012KT 9999 FEW035 BKN250 33/18 A2980=
201104301700 METAR MRLB 301700Z 05010KT 9999 FEW035 BKN250 35/17 A2978=
201104301800 METAR MRLB 301800Z 06011KT 9999 SCT035 BKN250 34/16 A2976=
201104301900 METAR MRLB 301900Z 06012KT 9999 SCT035 BKN250 35/16 A2973=
201104302000 METAR MRLB 302000Z 09010KT 9999 SCT035 BKN250 36/15 A2969=
201104302100 METAR MRLB 302100Z 08009KT 9999 FEW035 BKN250 35/15 A2968=
201104302200 METAR MRLB 302200Z 06011KT 9999 FEW035 BKN240 34/15 A2968=
201104302300 METAR MRLB 302300Z 05012KT 9999 FEW035 BKN240 32/16 A2969=
201105010000 METAR MRLB 010000Z 05010KT 9999 FEW035 BKN230 31/17 A2971=
201105010100 METAR MRLB 010100Z 04010KT 9999 FEW035 BKN230 29/17 A2973=
201105010200 METAR MRLB 010200Z 05009KT 9999 SCT035 BKN230 28/16 A2975=
201105010300 METAR MRLB NIL=
201105010400 METAR MRLB NIL=
201105010500 METAR MRLB NIL=
201105010600 METAR MRLB NIL=
201105010700 METAR MRLB NIL=
201105010800 METAR MRLB NIL=
201105010900 METAR MRLB NIL=
201105011000 METAR MRLB NIL=
201105011100 METAR MRLB NIL=
201105011200 METAR MRLB 011200Z 00000KT CAVOK 24/19 A2975=
201105011300 METAR MRLB 011300Z 16003KT 9999 NSC 27/22 A2976=
201105011400 METAR MRLB 011400Z 09011KT 9999 NSC 31/19 A2979=
201105011500 METAR MRLB 011500Z 04011KT 9999 FEW040 32/19 A2980=
201105011600 METAR MRLB 011600Z 07012KT 9999 SCT040 33/19 A2980=
201105011700 METAR MRLB 011700Z 04014KT 9999 FEW035 34/19 A2978=
201105011800 METAR MRLB 011800Z 05014KT 9999 FEW035 34/19 A2976=
201105011900 METAR MRLB 011900Z 07013KT 9999 FEW035 34/18 A2973=
201105012000 METAR MRLB 012000Z 05015KT 9999 FEW035 34/18 A2970=
201105012100 METAR MRLB 012100Z 06015KT 9999 FEW040 34/18 A2969 RMK FEW130=
201105012200 METAR MRLB 012200Z 06013KT CAVOK 33/16 A2969 RMK FEW130=
201105012300 METAR MRLB 012300Z 07015KT CAVOK 31/18 A2969 RMK FEW130=
201105020000 METAR MRLB 020000Z 06013KT 9999 FEW040 SCT120 29/17 A2970=
201105020100 METAR MRLB 020100Z 08012KT CAVOK 28/17 A2972 RMK SCT120=
201105020200 METAR MRLB 020200Z 10006KT CAVOK 28/18 A2975 RMK SCT120=
201105020300 METAR MRLB NIL=
201105020400 METAR MRLB NIL=
201105020500 METAR MRLB NIL=
201105020600 METAR MRLB NIL=
201105020700 METAR MRLB NIL=
201105020800 METAR MRLB NIL=
201105020900 METAR MRLB NIL=
201105021000 METAR MRLB NIL=
201105021100 METAR MRLB NIL=
201105021200 METAR MRLB NIL=
201105021300 METAR MRLB 021300Z 08004KT CAVOK 29/20 A2977 RMK FEW250=
201105021400 METAR MRLB 021400Z 34007KT 9999 FEW035 30/20 A2988=
201105021500 METAR MRLB 021500Z 08018KT 9999 FEW030 31/19 A2980=
201105021600 METAR MRLB 021600Z 07018KT 9999 FEW030 32/18 A2980=
201105021700 METAR MRLB 021700Z 08018KT 9999 FEW025 33/18 A2978=
201105021800 METAR MRLB 021800Z 06018KT 9999 SCT025 33/18 A2976=
201105021900 METAR MRLB 021900Z 07018KT 9999 SCT025 BKN250 32/19 A2974=
201105022000 METAR MRLB NIL=
201105022100 METAR MRLB 022100Z 05018KT 9999 SCT030 BKN200 34/18 A2969=
201105022200 METAR MRLB 022200Z 06018KT 9999 FEW025 SCT250 33/18 A2967=
201105022300 METAR MRLB 022300Z 06015KT 9999 FEW025 SCT250 31/19 A2969=
201105030000 METAR MRLB 030000Z 06016KT 9999 FEW035 29/19 A2970=
201105030100 METAR MRLB 030100Z 08016KT CAVOK 28/20 A2972 FEW100=
201105030200 METAR MRLB 030200Z 06015KT CAVOK 27/21 A2974 FEW180=
201105030300 METAR MRLB NIL=
201105030400 METAR MRLB NIL=
201105030500 METAR MRLB NIL=
201105030600 METAR MRLB NIL=
201105030700 METAR MRLB NIL=
201105030800 METAR MRLB NIL=
201105030900 METAR MRLB NIL=
201105031000 METAR MRLB NIL=
201105031100 METAR MRLB NIL=
201105031200 METAR MRLB 031200Z 06003KT CAVOK 25/20 A2977 RMK SCT250=
201105031300 METAR MRLB 031300Z 29004KT CAVOK 29/21 A2980 RMK SCT250=
201105031400 METAR MRLB 031400Z 16003KT CAVOK 31/20 A2983 RMK SCT250=
201105031500 METAR MRLB 031500Z 04006KT CAVOK 33/17 A2984 RMK SCT250=
201105031600 METAR MRLB 031600Z 08014KT CAVOK 34/16 A2982 RMK SCT250=
201105031700 METAR MRLB 031700Z 07015KT CAVOK 34/17 A2981 RMK SCT250=
201105031800 METAR MRLB 031800Z 08014KT CAVOK 35/17 A2979 RMK SCT250=
201105031900 METAR MRLB 031900Z 06015KT CAVOK 35/18 A2976 RMK SCT250=
201105032000 METAR MRLB 032000Z 09010KT 9999 FEW035 35/19 A2972=
201105032100 METAR MRLB 032100Z 06015KT 9999 SCT035 35/19 A2971=
201105032200 METAR MRLB 032200Z 06014KT 9999 SCT035 34/18 A2970=
201105032300 METAR MRLB 032300Z 06016KT 9999 FEW035 SCT250 32/19 A2971=
201105040000 METAR MRLB 040000Z 07016KT 9999 FEW035 SCT250 30/19 A2973=
201105040100 METAR MRLB 040100Z 05015KT 9999 FEW035 SCT250 28/18 A2975=
201105040200 METAR MRLB NIL=
201105040300 METAR MRLB NIL=
201105040400 METAR MRLB NIL=
201105040500 METAR MRLB NIL=
201105040600 METAR MRLB NIL=
201105040700 METAR MRLB NIL=
201105040800 METAR MRLB NIL=
201105040900 METAR MRLB NIL=
201105041000 METAR MRLB NIL=
201105041100 METAR MRLB NIL=
201105041200 METAR MRLB 041200Z 06008KT CAVOK 25/21 A2979 RMK FEW250=
201105041300 METAR MRLB 041300Z 27005KT CAVOK 30/21 A2991 RMK FEW130 FEW250=
201105041400 METAR MRLB NIL=
201105041500 METAR MRLB 041500Z 07019KT CAVOK 32/19 A2982 RMK VEL MAX VTO 26KT BKN250=
201105041600 METAR MRLB 041600Z 07020KT CAVOK 33/19 A2981 RMK BKN250 VEL MAX VTO 27KT=
201105041700 METAR MRLB 041700Z 07021KT CAVOK 34/19 A2980 RMK BKN250 VEL MAX VTO 28KT=
201105041800 METAR MRLB 041800Z 07019KT CAVOK 34/20 A2979 RMK BKN250 VEL MAX VTO 25KT=
201105041900 METAR MRLB 041900Z 06017KT 9999 FEW040 BKN250 35/19 A2977=
201105042000 METAR MRLB 042000Z 05018KT 9999 FEW040 BKN250 35/19 A2975=
201105042100 METAR MRLB 042100Z 06022KT CAVOK 33/20 A2973 RMK SCT130 SCT250=
201105042200 METAR MRLB 042200Z 06020KT CAVOK 33/19 A2973 RMK FEW130 BKN250=
201105042300 METAR MRLB 042300Z 06021KT CAVOK 31/20 A2975 RMK SCT120 BKN250=
201105050000 METAR MRLB 050000Z 07020KT CAVOK 30/20 A2977 SCT120 BKN250=
201105050100 METAR MRLB 050100Z 08016KT CAVOK 29/20 A2980 SCT120 SCT250=
201105050200 METAR MRLB 050200Z 08016KT CAVOK 29/21 A2980 BKN120 SCT250=
201105050300 METAR MRLB NIL=
201105050400 METAR MRLB NIL=
201105050500 METAR MRLB NIL=
201105050600 METAR MRLB NIL=
201105050700 METAR MRLB NIL=
201105050800 METAR MRLB NIL=
201105050900 METAR MRLB NIL=
201105051000 METAR MRLB NIL=
201105051100 METAR MRLB NIL=
201105051200 METAR MRLB 051200Z 28004KT 9999 FEW045 SCT250 26/21 A2977=
201105051300 METAR MRLB 051300Z 20007KT 9999 FEW030 SCT140 28/21 A2980=
201105051400 METAR MRLB 051400Z 03012KT 9999 FEW025 SCT120 32/20 A2983=
201105051500 METAR MRLB 051500Z 08014KT 9999 FEW025 SCT140 32/19 A2983=
201105051600 METAR MRLB 051600Z 09012KT 9999 FEW025 SCT140 31/20 A2982=
201105051700 METAR MRLB 051700Z 04008KT 9999 FEW030 SCT200 33/19 A2981=
201105051800 METAR MRLB 051800Z 05018KT 9999 FEW030 BKN250 36/17 A2977=
201105051900 METAR MRLB 051900Z 09018KT 9999 FEW030 SCT180 33/20 A2975=
201105052000 METAR MRLB 052000Z 08018KT 9999 FEW030 SCT140 34/18 A2972=
201105052100 METAR MRLB 052100Z 07018KT 9999 FEW030 SCT250 34/18 A2969=
201105052200 METAR MRLB 052200Z 08018KT 9999 FEW030 SCT240 33/20 A2971=
201105052300 METAR MRLB 052300Z 08018KT 9999 FEW040 SCT250 30/20 A2972=
201105060000 METAR MRLB 060000Z 07016KT CAVOK 29/20 A2974 RMK FEW100=
201105060100 METAR MRLB 060100Z 08016KT CAVOK 28/20 A2976 RMK FEW100=
201105060200 METAR MRLB 060200Z 07018KT CAVOK 27/21 A2978 RMK FEW120=
201105060300 METAR MRLB NIL=
201105060400 METAR MRLB NIL=
201105060500 METAR MRLB NIL=
201105060600 METAR MRLB NIL=
201105060700 METAR MRLB NIL=
201105060800 METAR MRLB NIL=
201105060900 METAR MRLB NIL=
201105061000 METAR MRLB NIL=
201105061100 METAR MRLB NIL=
201105061200 METAR MRLB 061200Z 00000KT CAVOK 26/21 A2978 RMK BKN240=
201105061300 METAR MRLB 061300Z 20004KT CAVOK 29/21 A2979 RMK BKN240=
201105061400 METAR MRLB 061400Z 23006KT 9999 FEW035 BKN140 29/21 A2981=
201105061500 METAR MRLB 061500Z 08003KT 9999 FEW035 BKN140 31/19 A2983=
201105061600 METAR MRLB NIL=
201105061700 METAR MRLB 061700Z 07014KT 9999 FEW035 BKN250 34/17 A2980=
201105061800 METAR MRLB 061800Z 08018KT 9999 FEW035 BKN250 33/18 A2981=
201105061900 METAR MRLB 061900Z 08013KT 9999 FEW035 SCT250 35/18 A2980=
201105062000 METAR MRLB 062000Z 07014KT 9999 SCT035 SCT250 34/19 A2977=
201105062100 METAR MRLB 062100Z 08016KT 9999 SCT035 BKN240 34/19 A2975=
201105062200 METAR MRLB 062200Z 07013KT 9999 SCT035 BKN240 32/18 A2976=
201105062300 METAR MRLB 062300Z 07011KT 9999 SCT035 BKN240 31/18 A2976=
201105070000 METAR MRLB 070000Z 08012KT 9999 SCT035 BKN140 30/18 A2978=
201105070100 METAR MRLB 070100Z 07010KT 9999 SCT035 BKN130 29/18 A2980=
201105070200 METAR MRLB 070200Z 06011KT 9999 SCT035 BKN130 28/17 A2982=
201105070300 METAR MRLB NIL=
201105070400 METAR MRLB NIL=
201105070500 METAR MRLB NIL=
201105070600 METAR MRLB NIL=
201105070700 METAR MRLB NIL=
201105070800 METAR MRLB NIL=
201105070900 METAR MRLB NIL=
201105071000 METAR MRLB NIL=
201105071100 METAR MRLB NIL=
201105071200 METAR MRLB 071200Z 10010KT CAVOK 27/21 A2975 RMK FEW250=
201105071300 METAR MRLB 071300Z 08011KT 9999 FEW035 SCT100 29/21 A2980=
201105071400 METAR MRLB 071400Z 09011KT 9999 FEW035 BKN100 31/20 A2983=
201105071500 METAR MRLB NIL=
201105071600 METAR MRLB 071600Z 06007KT 9999 FEW035 33/20 A2983 RMK FEW250=
201105071700 METAR MRLB 071700Z 04013KT 9999 FEW035 SCT100 34/20 A2981 RMK SCT250=
201105071800 METAR MRLB 071800Z 07012KT 9999 FEW035 SCT120 34/20 A2979 RMK FEW250=
201105071900 METAR MRLB 071900Z 06019KT 9999 BKN040 SCT100 31/21 A2977 RMK RA DST N NE=
201105072000 METAR MRLB 072000Z 04017KT 9999 FEW040 SCT100 32/21 A2975 RMK FEW250=
201105072100 METAR MRLB 072100Z 05014KT 9999 BKN040 SCT100 32/20 A2975=
201105072200 METAR MRLB 072200Z 06011KT 9999 FEW040 SCT100 31/21 A2974 RMK CB DST S SCT250=
201105072300 METAR MRLB 072300Z 07008KT 9999 FEW040 BKN100 31/20 A2975=
201105080000 METAR MRLB 080000Z 36007KT 9999 BKN045 SCT250 29/21 A2977=
201105080100 METAR MRLB 080100Z 27003KT CAVOK 28/21 A2977 RMK FEW100 BKN250=
201105080200 METAR MRLB 080200Z 32003KT CAVOK 27/21 A2978 RMK FEW130 SCT250=
201105080300 METAR MRLB NIL=
201105080400 METAR MRLB NIL=
201105080500 METAR MRLB NIL=
201105080600 METAR MRLB NIL=
201105080700 METAR MRLB NIL=
201105080800 METAR MRLB NIL=
201105080900 METAR MRLB NIL=
201105081000 METAR MRLB NIL=
201105081100 METAR MRLB NIL=
201105081200 METAR MRLB 081200Z 22005KT 9999 FEW030 SCT100 BKN250 25/21 A2979=
201105081300 METAR MRLB 081300Z 18004KT 9999 FEW030 SCT140 27/22 A2980=
201105081400 METAR MRLB 081400Z 32006KT 9999 FEW030 SCT120 29/22 A2983=
201105081500 METAR MRLB 081500Z 22004KT 9999 FEW030 SCT120 30/21 A2982=
201105081600 METAR MRLB 081600Z 07014KT 9999 FEW030 SCT150 33/21 A2980=
201105081700 METAR MRLB 081700Z 10007KT 9999 FEW030 SCT200 34/20 A2978=
201105081800 METAR MRLB 081800Z 08008KT 9999 FEW030 SCT200 35/19 A2976=
201105081900 METAR MRLB 081900Z 08017KT 9999 SCT025 BKN220 34/20 A2973=
201105082000 METAR MRLB 082000Z 08018KT 9999 SCT025 BKN220 35/19 A2971=
201105082100 METAR MRLB 082100Z 10018KT 9999 FEW030 BKN180 34/20 A2970=
201105082200 METAR MRLB 082200Z 09014KT 9999 FEW030 BKN180 33/21 A2972=
201105082300 METAR MRLB 082300Z 07020KT 9999 FEW030 SCT100 BKN250 31/20 A2972 RMK TCU DST NE=
201105090000 METAR MRLB 090000Z 08018KT 9999 FEW030 SCT100 29/24 A2974=
201105090100 METAR MRLB NIL=
201105090200 METAR MRLB NIL=
201105090300 METAR MRLB NIL=
201105090400 METAR MRLB NIL=
201105090500 METAR MRLB NIL=
201105090600 METAR MRLB NIL=
201105090700 METAR MRLB NIL=
201105090800 METAR MRLB NIL=
201105090900 METAR MRLB NIL=
201105091000 METAR MRLB NIL=
201105091100 METAR MRLB NIL=
201105091200 METAR MRLB 091200Z 09007KT 9999 SCT035 BKN140 27/21 A2976=
201105091300 METAR MRLB 091300Z 08010KT 9999 SCT035 BKN140 29/21 A2978=
201105091400 METAR MRLB 091400Z 07016KT 9999 SCT035 BKN240 31/21 A2979=
201105091500 METAR MRLB 091500Z 07015KT 9999 SCT035 BKN140 31/21 A2979=
201105091600 METAR MRLB 091600Z 07016KT 9999 SCT035 BKN140 32/21 A2978=
201105091700 METAR MRLB 091700Z 09017KT 9999 FEW035 BKN130 32/21 A2976=
201105091800 METAR MRLB 091800Z 07012KT 9999 FEW035 BKN130 33/20 A2974=
201105091900 METAR MRLB 091900Z 10012KT 9999 FEW035 BKN130 34/19 A2970=
201105092000 METAR MRLB 092000Z 08013KT 9999 SCT035 BKN130 34/20 A2968=
201105092100 METAR MRLB 092100Z 09013KT 9999 SCT035 BKN130 33/21 A2968=
201105092200 METAR MRLB 092200Z 12011KT 9999 SCT035 BKN120 32/21 A2968=
201105092300 METAR MRLB 092300Z 08012KT 9999 SCT030 BKN120 31/22 A2970=
201105100000 METAR MRLB 100000Z 08014KT 9999 SCT030 BKN120 29/21 A2971=
201105100100 METAR MRLB 100100Z 09013KT 9999 SCT030 BKN120 28/21 A2973=
201105100200 METAR MRLB 100200Z 09012KT 9999 SCT035 BKN130 27/20 A2975=
201105100300 METAR MRLB NIL=
201105100400 METAR MRLB NIL=
201105100500 METAR MRLB NIL=
201105100600 METAR MRLB NIL=
201105100700 METAR MRLB NIL=
201105100800 METAR MRLB NIL=
201105100900 METAR MRLB NIL=
201105101000 METAR MRLB NIL=
201105101100 METAR MRLB NIL=
201105101200 METAR MRLB 101200Z VRB02KT CAVOK 25/23 A2972 RMK OVC120=
201105101300 METAR MRLB 101300Z 02005KT CAVOK 27/23 A2975 RMK OVC140=
201105101400 METAR MRLB 101400Z 29003KT CAVOK 29/23 A2977 RMK OVC150=
201105101500 METAR MRLB 101500Z 24004KT 9999 FEW035 BKN150 30/22 A2978 RMK FEW250=
201105101600 METAR MRLB 101600Z 09008KT 9999 SCT035 BKN250 32/21 A2978=
201105101700 METAR MRLB 101700Z 04015KT 9999 SCT040 SCT250 33/21 A2977 RMK RN DST N=
201105101800 METAR MRLB 101800Z 06010KT 9999 FEW040 BKN250 35/21 A2974=
201105101900 METAR MRLB 101900Z 09010KT 9999 FEW040 BKN250 34/20 A2971=
201105102000 METAR MRLB 102000Z 04010KT 9999 FEW040 SCT130 BKN250 33/20 A2968=
201105102100 METAR MRLB 102100Z 06012KT 9999 FEW040 SCT130 BKN250 35/19 A2966=
201105102200 METAR MRLB 102200Z 07012KT 9999 FEW040 SCT130 BKN250 34/20 A2986 RMK CB DST S=
201105102300 METAR MRLB 102300Z 06010KT 9999 FEW040 SCT130 BKN250 33/21 A2968 RMK CB DST S=
201105110000 METAR MRLB 110000Z 06010KT 9999 FEW040 SCT130 BKN250 31/20 A2970=
201105110100 METAR MRLB 110100Z 06010KT 9999 FEW040 BKN130 30/20 A2971 LTNG DST SW=
201105110200 METAR MRLB 110200Z 07007KT 9999 FEW040 SCT130 29/21 A2973=
201105110300 METAR MRLB NIL=
201105110400 METAR MRLB NIL=
201105110500 METAR MRLB NIL=
201105110600 METAR MRLB NIL=
201105110700 METAR MRLB NIL=
201105110800 METAR MRLB NIL=
201105110900 METAR MRLB NIL=
201105111000 METAR MRLB NIL=
201105111100 METAR MRLB NIL=
201105111200 METAR MRLB 111200Z 00000KT CAVOK 26/22 A2975 RMK FEW100 BKN250=
201105111300 METAR MRLB 111300Z 22006KT CAVOK 29/22 A2979 RMK FEW100 SCT250=
201105111400 METAR MRLB 111400Z 06010KT CAVOK 32/21 A2981 RMK FEW090 SCT250=
201105111500 METAR MRLB 111500Z 34007KT 9999 FEW030 SCT150 32/20 A2983=
201105111600 METAR MRLB 111600Z 04010KT 9999 FEW030 SCT250 34/20 A2982=
201105111700 METAR MRLB 111700Z 09010KT 9999 SCT025 BKN220 35/20 A2981=
201105111800 METAR MRLB 111800Z 07010KT 9999 SCT025 BKN240 34/20 A2978=
201105111900 METAR MRLB 111900Z 06014KT 9999 SCT025 BKN200 35/18 2974=
201105112000 METAR MRLB 112000Z 07010KT 9999 SCT025TCU BKN200 36/19 A2972 RMK TCU RA N=
201105112100 METAR MRLB NIL=
201105112200 METAR MRLB 112200Z 11010KT CAVOK 34/20 A2972 RMK FEW100 BKN250=
201105112300 METAR MRLB 112300Z 08008KT CAVOK 33/20 A2973 RMK FEW100 BKN250 TCU DST SE S=
201105120000 METAR MRLB 120000Z 08010KT 9999 FEW030 SCT100 BKN250 31/18 A2975 RMK TCU DST SE S=
201105120100 METAR MRLB 120100Z 07008KT 9999 FEW040 SCT140 29/20 A2978 RMK LTNG DST SE/S=
201105120200 METAR MRLB 120200Z 08008KT 9999 FEW045 SCT180 28/21 A2980 RMK LTNG DST S=
201105120300 METAR MRLB NIL=
201105120400 METAR MRLB NIL=
201105120500 METAR MRLB NIL=
201105120600 METAR MRLB NIL=
201105120700 METAR MRLB NIL=
201105120800 METAR MRLB NIL=
201105120900 METAR MRLB NIL=
201105121000 METAR MRLB NIL=
201105121100 METAR MRLB NIL=
201105121200 METAR MRLB 121200Z 05004KT CAVOK 25/21 A2979 RMK BKN240=
201105121300 METAR MRLB 121300Z 03006KT CAVOK 26/21 A2980 RMK BKN240=
201105121400 METAR MRLB 121400Z 28003KT CAVOK 30/21 A2982 RMK BKN230=
201105121500 METAR MRLB 121500Z 16004KT CAVOK 32/21 A2984 RMK BKN250=
201105121600 METAR MRLB 121600Z 12010KT 9999 FEW030 BKN230 33/19 A2985=
201105121700 METAR MRLB 121700Z 17008KT 9999 FEW035 BKN240 34/21 A2984=
201105121800 METAR MRLB 121800Z 10005KT 9999 SCT035 BKN250 36/18 A2982=
201105121900 METAR MRLB 121900Z 27011KT 9999 SCT035 BKN250 32/20 A2980=
201105122000 METAR MRLB 122000Z 27013KT 9999 FEW020TCU SCT035 BKN250 32/21 A2978 RKM RA DST E SE=
201105122100 METAR MRLB 122100Z 05009KT 9999 -RA SCT025TCU BKN140 29/23 A2978=
201105122200 METAR MRLB 122200Z 12006KT 9999 SCT035 BKN130 27/23 A2979 RMK RN DST S=
201105122300 METAR MRLB 122300Z 15004KT 9999 SCT035 BKN130 26/23 A2979=
201105130000 METAR MRLB 130000Z 20003KT 9999 SCT035 BKN120 26/23 A2980=
201105130100 METAR MRLB 130100Z 14003KT 9999 FEW035 BKN120 26/22 A2982=
201105130200 METAR MRLB NIL=
201105130300 METAR MRLB NIL=
201105130400 METAR MRLB NIL=
201105130500 METAR MRLB NIL=
201105130600 METAR MRLB NIL=
201105130700 METAR MRLB NIL=
201105130800 METAR MRLB NIL=
201105130900 METAR MRLB NIL=
201105131000 METAR MRLB NIL=
201105131100 METAR MRLB NIL=
201105131200 METAR MRLB 131200Z 16003KT CAVOK 23/22 A2980 RMK FEW140 BKN250 CB DST SW=
201105131300 METAR MRLB 131300Z VRB02KT CAVOK 26/22 A2982 RMK FEW140 BKN250 CB DST S=
201105131400 METAR MRLB 131400Z 21005KT CAVOK 28/22 A2984 RMK OVC230 CB DST S SW=
201105131500 METAR MRLB 131500Z 09003KT CAVOK 31/21 A2986 RMK OVC230 CB DST S=
201105131600 METAR MRLB 131600Z 06005KT CAVOK 31/21 A2984 RMK OVC230=
201105131700 METAR MRLB 131700Z 09004KT CAVOK 33/21 A2982 RMK OVC230=
201105131800 METAR MRLB 131800Z 15006KT 9999 FEW035 BKN230 33/22 A2979=
201105131900 METAR MRLB 131900Z 13004KT 9999 FEW035TCU BKN230 34/20 A2977=
201105132000 METAR MRLB 132000Z 27012KT 9999 SCT035TCU SCT130 31/23 A2975 RMK FEW230 CB DST N=
201105132100 METAR MRLB 132100Z 27015KT 9999 SCT035TCU SCT250 30/23 A2975 RMK CB DST E=
201105132200 METAR MRLB 132200Z 27012KT 9999 FEW035 BKN130 29/23 A2972 RMK FEW250 CB DST E=
201105132300 METAR MRLB 132300Z 24005KT 9999 SCT035 BKN120 27/24 A2974 RMK CB DST SE=
201105140000 METAR MRLB 140000Z 16008KT 9999 FEW040 BKN120 27/23 A2976=
201105140100 METAR MRLB 140100Z 04005KT 9999 SCT040 BKN120 25/22 A2978=
201105140200 METAR MRLB 140200Z 00000KT 9999 FEW040 BKN100 25/22 A2981=
201105140300 METAR MRLB NIL=
201105140400 METAR MRLB NIL=
201105140500 METAR MRLB NIL=
201105140600 METAR MRLB NIL=
201105140700 METAR MRLB NIL=
201105140800 METAR MRLB NIL=
201105140900 METAR MRLB NIL=
201105141000 METAR MRLB NIL=
201105141100 METAR MRLB NIL=
201105141200 METAR MRLB 141200Z 00000KT CAVOK 24/22 A2979 RMK FEW100 SCT250 HZ ARND=
201105141300 METAR MRLB 141300Z 00000KT CAVOK 27/23 A2981 RMK FEW100 SCT250 HZ ARND=
201105141400 METAR MRLB 141400Z 13006KT 9999 FEW035 SCT250 29/24 A2984 RMK HZ ARND=
201105141500 METAR MRLB 141500Z 08005KT 9999 BKN030 30/24 A2988 RMK SCT250 HZ ARND=
201105141600 METAR MRLB 141600Z 18007KT 9999 FEW030 SCT250 31/23 A2982=
201105141700 METAR MRLB 141700Z 24005KT 9999 SCT025TCU BKN250 34/22 A2981 RMK TCU RA DST NE=
201105141800 METAR MRLB 141800Z 10012KT 9999 VCSH SCT020TCU BKN180 30/23 A2979 RERA=
201105141900 METAR MRLB 141900Z 15010KT 9999 -RA SCT025TCU BKN240 26/24 A2977 RMK VIS S 7KM=
201105142000 METAR MRLB 142000Z 18008KT 9999 SCT030 BKN250 28/22 A2973 RMK TCU DST ARND=
201105142100 METAR MRLB 142100Z 18007KT 9999 SCT030 BKN250 31/22 A2973 RMK TCU RN DST N SE=
201105142200 METAR MRLB 142200Z 12007KT 9999 -RA SCT030CB BKN150 30/23 A2974=
201105142300 METAR MRLB 142300Z 30003KT 8000 -RA FEW010CB SCT025 BKN100 24/23 A2974=
201105150000 METAR MRLB 150000Z 01003KT 9999 DZ FEW030CB SCT100 24/23 A2974 RMK CB RN DST NW=
201105150100 METAR MRLB 150100Z 34003KT 9999 FEW025 SCT100 24/23 A2976 RMK LTNG DST S=
201105150200 METAR MRLB 150200Z 00000KT 9999 FEW025 SCT100 24/23 A2979=
201105150300 METAR MRLB NIL=
201105150400 METAR MRLB NIL=
201105150500 METAR MRLB NIL=
201105150600 METAR MRLB NIL=
201105150700 METAR MRLB NIL=
201105150800 METAR MRLB NIL=
201105150900 METAR MRLB NIL=
201105151000 METAR MRLB NIL=
201105151100 METAR MRLB NIL=
201105151200 METAR MRLB 151200Z 00000KT 9999 FEW035 BKN140 25/24 A2980=
201105151300 METAR MRLB 151300Z 00000KT 9999 FEW035 BKN130 26/25 A2984=
201105151400 METAR MRLB 151400Z 21004KT 9999 SCT035 BKN130 27/25 A2987=
201105151500 METAR MRLB 151500Z 16003KT 9999 SCT035 BKN120 28/24 A2987=
201105151600 METAR MRLB 151600Z 16004KT 9999 SCT035 BKN120 29/24 A2987=
201105151700 METAR MRLB 151700Z 29008KT 9999 SCT035 BKN120 27/24 A2987=
201105151800 METAR MRLB 151800Z 26010KT 9999 SCT035 BKN130 29/24 A2985=
201105151900 METAR MRLB 151900Z 29008KT 9999 SCT035 BKN120 28/24 A2983 RMK RN DST NE E=
201105152000 METAR MRLB 152000Z 32008KT 9999 FEW020 SCT035 BKN120 26/23 A2979 RMK RN DST S=
201105152100 METAR MRLB 152100Z 35005KT 9999 SCT030 BKN120 26/23 A2979 RMK RA DST S SE=
201105152200 METAR MRLB 152200Z 06003KT 9999 DZ SCT030 BKN120 26/24 A2976=
201105152300 METAR MRLB 152300Z 14003KT 9999 FEW035 BKN120 26/24 A2977=
201105160000 METAR MRLB 160000Z 15005KT 9999 FEW035 BKN120 26/24 A2979=
201105160100 METAR MRLB 160100Z 14003KT 9999 SCT035 BKN130 24/23 A2983=
201105160200 METAR MRLB 160200Z 14003KT 9999 SCT035 BKN130 24/23 A2983=
201105160300 METAR MRLB NIL=
201105160400 METAR MRLB NIL=
201105160500 METAR MRLB NIL=
201105160600 METAR MRLB NIL=
201105160700 METAR MRLB NIL=
201105160800 METAR MRLB NIL=
201105160900 METAR MRLB NIL=
201105161000 METAR MRLB NIL=
201105161100 METAR MRLB NIL=
201105161200 METAR MRLB 161200Z VRB02KT CAVOK 24/22 A2984 RMK FEW100 BKN250=
201105161300 METAR MRLB 161300Z 03003KT CAVOK 25/23 A2986 RMK OVC230 HZ ARND=
201105161400 METAR MRLB 161400Z 35005KT CAVOK 27/23 A2987 RMK OVC230 HZ ARND LGT=
201105161500 METAR MRLB 161500Z VRB02KT 9999 FEW035 BKN250 28/23 A2989 RMK FEW150 HZ ARND LGT=
201105161600 METAR MRLB 161600Z 32004KT 9999 SCT030 BKN250 30/23 A2989 RMK HZ ARND=
201105161700 METAR MRLB 161700Z 33003KT 9999 SCT030 BKN250 31/22 A2986 RMK HZ LGT ARND=
201105161800 METAR MRLB 161800Z 28009KT 9999 FEW035 BKN250 32/22 A2984=
201105161900 METAR MRLB 161900Z 28009KT 9999 FEW035 BKN250 32/22 A2981=
201105162000 METAR MRLB 162000Z 28012KT 9999 FEW035 BKN250 32/22 A2978=
201105162100 METAR MRLB 162100Z 28010KT 9999 FEW035 BKN250 31/22 A2977=
201105162200 METAR MRLB 162200Z 28011KT 9999 FEW035 BKN250 31/22 A2977=
201105162300 METAR MRLB 162300Z 26009KT 9999 FEW035 BKN150 29/23 A2978=
201105170000 METAR MRLB 170000Z 25006KT 9999 FEW035 BKN140 28/23 A2979=
201105170100 METAR MRLB 170100Z 28005KT 9999 FEW035 BKN140 28/24 A2978=
201105170200 METAR MRLB 170200Z 00000KT 9999 FEW035 BKN140 27/24 A2985=
201105170300 METAR MRLB NIL=
201105170400 METAR MRLB NIL=
201105170500 METAR MRLB NIL=
201105170600 METAR MRLB NIL=
201105170700 METAR MRLB NIL=
201105170800 METAR MRLB NIL=
201105170900 METAR MRLB NIL=
201105171000 METAR MRLB NIL=
201105171100 METAR MRLB NIL=
201105171200 METAR MRLB 171200Z 00000KT CAVOK 24/23 A2984 RMK BKN250 HZ ARND=
201105171300 METAR MRLB 171300Z 00000KT CAVOK 26/23 A2986 RMK BKN250 HZ ARND=
201105171400 METAR MRLB 171400Z 11005KT CAVOK 28/24 A2988 RMK BKN250 HZ ARND=
201105171500 METAR MRLB 171500Z 11005KT 9999 FEW025 BKN250 29/23 A2988 RMK HZ ARND=
201105171600 METAR MRLB 171600Z 18007KT 9999 FEW025 BKN250 30/23 A2988=
201105171700 METAR MRLB 171700Z 16007KT 9999 SCT025 BKN250 32/22 A2987=
201105171800 METAR MRLB 171800Z 24006KT 9999 FEW030 BKN250 33/22 A2985 RMK FEW150=
201105171900 METAR MRLB 171900Z 27012KT 9999 SCT030 BKN250 32/23 A2982=
201105172000 METAR MRLB 172000Z 28012KT 9999 FEW030TCU BKN250 32/23 A2978=
201105172100 METAR MRLB 172100Z 26012KT 9999 SCT025CB BKN250 31/22 A2977 RMK CB RN DST SE E NE=
201105172200 METAR MRLB 172200Z 28010KT 9999 SCT025TCU BKN250 30/22 A2977 RMK CB RA DST S=
201105172300 METAR MRLB 172300Z 16005KT 9999 FEW025TCU SCT100 BKN250 28/22 A2978 RMK TCU RA DST S=
201105180000 METAR MRLB 180000Z 22003KT 9999 FEW040 BKN250 27/22 A2979 RMK TCU DST S=
201105180100 METAR MRLB 180100Z 24003KT CAVOK 27/22 A2980 RMK FEW100 SCT250 LHTNG DST S=
201105180200 METAR MRLB 180200Z 00000KT CAVOK 27/23 A2982 RMK FEW100 SCT250=
201105180300 METAR MRLB NIL=
201105180400 METAR MRLB NIL=
201105180500 METAR MRLB NIL=
201105180600 METAR MRLB NIL=
201105180700 METAR MRLB NIL=
201105180800 METAR MRLB NIL=
201105180900 METAR MRLB NIL=
201105181000 METAR MRLB NIL=
201105181100 METAR MRLB NIL=
201105181200 METAR MRLB 181200Z 00000KT 9999 SCT030 BKN140 24/23 A2981 RMK HZ ARND=
201105181300 METAR MRLB 181300Z 00000KT 9999 SCT035 BKN230 26/23 A2984 RMK HZ ARND=
201105181400 METAR MRLB 181400Z 14003KT 9999 FEW035 BKN230 28/23 A2987 RMK HZ ARND=
201105181500 METAR MRLB 181500Z 18003KT 9999 SCT035 BKN230 30/23 A2989 RMK HZ ARND=
201105181600 METAR MRLB 181600Z 17004KT 9999 SCT035 BKN230 32/23 A2989 RMK HZ ARND=
201105181700 METAR MRLB 181700Z 25010KT 9999 FEW020TCU SCT035 BKN230 30/23 A2987 RMK RN DST NE=
201105181800 METAR MRLB 181800Z 16005KT 9999 -RA FEW020TCU SCT030 BKN130 31/21 A2986=
201105181900 METAR MRLB 181900Z 27011KT 9999 SCT030 BKN140 33/21 A2984 RMK RN DST NE=
201105182000 METAR MRLB 182000Z 25014KT 9999 4000S -TSRA SCT020CB BKN120 30/23 A2982=
201105182100 METAR MRLB 182100Z 05010KT 9999 VCSH SCT030 BKN100 23/21 A2982 RETSRA=
201105182200 METAR MRLB 182200Z 06007KT 9999 SCT035 BKN120 23/21 A2982=
201105182300 METAR MRLB 182300Z 35004KT 9999 SCT035 BKN120 23/21 A2980=
201105190000 METAR MRLB 190000Z 06003KT 9999 SCT035 BKN120 23/22 A2982=
201105190100 METAR MRLB 190100Z 04004KT 9999 FEW035 BKN130 23/22 A2985=
201105190200 METAR MRLB 190200Z 05003KT 9999 SCT035 BKN130 22/21 A2987=
201105190300 METAR MRLB NIL=
201105190400 METAR MRLB NIL=
201105190500 METAR MRLB NIL=
201105190600 METAR MRLB NIL=
201105190700 METAR MRLB NIL=
201105190800 METAR MRLB NIL=
201105190900 METAR MRLB NIL=
201105191000 METAR MRLB NIL=
201105191100 METAR MRLB NIL=
201105191200 METAR MRLB 191200Z 09002KT CAVOK 22/21 A2987 RMK OVC250 HZ ARND=
201105191300 METAR MRLB 191300Z 04002KT CAVOK 25/22 A2989 RMK OVC250 HZ ARND=
201105191400 METAR MRLB 191400Z 00000KT CAVOK 28/23 A2990 RMK OVC250 HZY=
201105191500 METAR MRLB 191500Z 06002KT 9999 FEW030 BKN250 29/23 A2993 RMK HZ ARND=
201105191600 METAR MRLB 191600Z 10003KT 9999 SCT030 BKN250 31/22 A2993 RMK HZ ARND=
201105191700 METAR MRLB 191700Z 15003KT 9999 SCT030 BKN250 32/22 A2991 RMK HZ LGT ARND=
201105191800 METAR MRLB 191800Z 26005KT 9999 SCT030 SCT240 32/23 A2989 RMK HZ LGT ARND=
201105191900 METAR MRLB 191900Z 27007KT 9999 SCT030 BKN250 33/23 A2975 RMK CB RA DST N=
201105192000 METAR MRLB 192000Z 29011KT 9999 -RA SCT030 SCT130 30/22 A2986=
201105192100 METAR MRLB 192100Z 32009KT 9999 FEW030 SCT130 BKN250 30/22 A2983 RERA RMK RA DST S=
201105192200 METAR MRLB 192200Z 28010KT 9999 FEW030 SCT130 BKN250 29/23 A2982 RMK CB DST E SE S=
201105192300 METAR MRLB 192300Z 27008KT 9999 SCT030 BKN130 29/23 A2984=
201105200000 METAR MRLB 200000Z 27008KT 9999 FEW030 BKN130 28/23 A2985=
201105200100 METAR MRLB 200100Z 25002KT 9999 SCT030 BKN130 28/24 A2987=
201105200200 METAR MRLB 200200Z 25002KT 9999 SCT030 BKN130 28/24 A2987=
201105200300 METAR MRLB NIL=
201105200400 METAR MRLB NIL=
201105200500 METAR MRLB NIL=
201105200600 METAR MRLB NIL=
201105200700 METAR MRLB NIL=
201105200800 METAR MRLB NIL=
201105200900 METAR MRLB NIL=
201105201000 METAR MRLB NIL=
201105201100 METAR MRLB NIL=
201105201200 METAR MRLB 201200Z NIL=
201105201210 METAR MRLB 201210Z 00000KT 9000 FEW010 BKN250 25/23 A2986=
201105201300 METAR MRLB 201300Z 00000KT 9000 FEW010 SCT250 27/23 A2986=
201105201400 METAR MRLB 201400Z 00000KT 9999 FEW012 SCT250 28/23 A2988=
201105201500 METAR MRLB 201500Z 00000KT 9999 FEW020 SCT250 30/23 A2990=
201105201600 METAR MRLB 201600Z 18007KT 9999 SCT020 BKN220 30/24 A2990=
201105201700 METAR MRLB 201700Z 18003KT 9999 FEW020 SCT250 32/23 A2988=
201105201800 METAR MRLB 201800Z 28008KT 9999 SCT020 BKN250 30/26 A2987 RMK TCU DST N SE=
201105201900 METAR MRLB 201900Z 25008KT 9999 FEW025 SCT250 31/25 A2983=
201105202000 METAR MRLB 202000Z 27012KT 9999 SCT025 BKN250 30/24 A2980=
201105202100 METAR MRLB 202100Z 27012KT 9999 FEW030 SCT250 32/23 A2979=
201105202200 METAR MRLB 202200Z 28012KT 9999 FEW040 SCT250 31/22 A2978 RMK TCU DST E N=
201105202300 METAR MRLB 202300Z 28010KT CAVOK 29/23 A2978 RMK FEW100 SCT250 TCU E=
201105210000 METAR MRLB 210000Z 27010KT CAVOK 28/23 A2979 RMK SCT250 TCU S=
201105210100 METAR MRLB 210100Z 28008KT CAVOK 27/24 A2980 FEW250 LTNG DST S=
201105210200 METAR MRLB 210200Z 26006KT CAVOK 26/23 A2982 FEW180=
201105210300 METAR MRLB NIL=
201105210400 METAR MRLB NIL=
201105210500 METAR MRLB NIL=
201105210600 METAR MRLB NIL=
201105210700 METAR MRLB NIL=
201105210800 METAR MRLB NIL=
201105210900 METAR MRLB NIL=
201105211000 METAR MRLB NIL=
201105211100 METAR MRLB NIL=
201105211200 METAR MRLB 211200Z 00000KT 9999 SCT035 BKN140 24/23 A2983=
201105211300 METAR MRLB 211300Z 00000KT 9999 FEW035 BKN140 26/24 A2986=
201105211400 METAR MRLB 211400Z 00000KT 9999 FEW035 BKN130 27/24 A2987=
201105211500 METAR MRLB 211500Z 00000KT 9999 SCT035 BKN130 29/23 A2989=
201105211600 METAR MRLB 211600Z 18004KT 9999 SCT035 BKN130 28/23 A2989=
201105211700 METAR MRLB 211700Z 15004KT 9999 SCT035 BKN130 30/24 A2990 RMK RA DST E NE=
201105211800 METAR MRLB 211800Z 05011KT 9999 2000N -TSRA FEW020CB SCT030 BKN120 27/21 A2987=
201105211900 METAR MRLB 211900Z 31004KT 9999 SCT030 BKN120 24/22 A2983 RERA=
201105212000 METAR MRLB NIL=
201105212100 METAR MRLB 212100Z 25006KT 9999 FEW035 BKN120 28/24 A2978=
201105212200 METAR MRLB 212200Z 25005KT 9999 SCT035 BKN120 29/23 A2979=
201105212300 METAR MRLB 212300Z 26010KT 9999 SCT035 BKN110 27/24 A2978 RMK RA DST NE=
201105220000 METAR MRLB 220000Z 27003KT 9999 SCT035 BKN120 27/24 A2981 RMK RA DST E=
201105220100 METAR MRLB 220100Z 20003KT 9999 SCT030 BKN120 25/23 A2983=
201105220200 METAR MRLB NIL=
201105220300 METAR MRLB NIL=
201105220400 METAR MRLB NIL=
201105220500 METAR MRLB NIL=
201105220600 METAR MRLB NIL=
201105220700 METAR MRLB NIL=
201105220800 METAR MRLB NIL=
201105220900 METAR MRLB NIL=
201105221000 METAR MRLB NIL=
201105221100 METAR MRLB NIL=
201105221200 METAR MRLB 221200Z 00000KT 9999 3000SW BR SCT035 BKN120 24/23 A2986=
201105221300 METAR MRLB 221300Z 13003KT 9999 FEW035 BKN130 24/24 A2988=
201105221400 METAR MRLB 221400Z 16003KT 9999 FEW035 BKN130 25/24 A2990=
201105221500 METAR MRLB 221500Z 19005KT 9999 SCT030 BKN250 26/25 A2991=
201105221600 METAR MRLB 221600Z 17004KT 9999 SCT030 BKN250 29/25 A2992=
201105221700 METAR MRLB NIL=
201105221800 METAR MRLB NIL=
201105221900 METAR MRLB NIL=
201105222000 METAR MRLB NIL=
201105222100 METAR MRLB NIL=
201105222200 METAR MRLB NIL=
201105222300 METAR MRLB NIL=
201105230000 METAR MRLB NIL=
201105230100 METAR MRLB NIL=
201105230200 METAR MRLB NIL=
201105230300 METAR MRLB NIL=
201105230400 METAR MRLB NIL=
201105230500 METAR MRLB NIL=
201105230600 METAR MRLB NIL=
201105230700 METAR MRLB NIL=
201105230800 METAR MRLB NIL=
201105230900 METAR MRLB NIL=
201105231000 METAR MRLB NIL=
201105231100 METAR MRLB NIL=
201105231200 METAR MRLB 231200Z 00000KT 0100 FG VV/// 22/22 A2986=
201105231300 METAR MRLB 231300Z 00000KT 0400 FG BKN001 23/22 A2988=
201105231400 METAR MRLB 231400Z 00000KT 8000 VCFG FEW004 SCT100 24/23 A2989=
201105231500 METAR MRLB 231500Z 16004KT 9999 FEW012 SCT120 26/25 A2992=
201105231600 METAR MRLB 231600Z 00000KT 9999 FEW015 SCT120 28/25 A2992=
201105231700 METAR MRLB 231700Z 22004KT 9999 FEW025 BKN140 30/24 A2990=
201105231800 METAR MRLB 231800Z 27006KT 9999 FEW025 BKN140 31/23 A2989=
201105231900 METAR MRLB 231900Z 27010KT 9999 FEW030TCU SCT140 32/23 A2987 RMK CB DST SE S=
201105232000 METAR MRLB 232000Z 28014KT 9999 SCT030TCU BKN140 30/24 A2984 RMK CB RN SE S=
201105232100 METAR MRLB 232100Z 29012KT 9999 SCT025TCU BKN100 30/23 A2982 RMK CB RN DST E SE S=
201105232200 METAR MRLB 232200Z 11012KT 2000 RA SCT010CB BKN025 23/20 A2981 RMK VIS UNL NW SE=
201105232300 METAR MRLB 232300Z 05005KT 9999 DZ SCT025TCU BKN100 24/22 A2982=
201105240000 METAR MRLB 240000Z 07005KT 9999 FEW030 SCT100 24/22 A2984=
201105240100 METAR MRLB 240100Z 06005KT 9999 SCT025 BKN120 24/22 A2986=
201105240200 METAR MRLB 240200Z 07004KT 9999 FEW025 SCT100 24/23 A2988=
201105240300 METAR MRLB NIL=
201105240400 METAR MRLB NIL=
201105240500 METAR MRLB NIL=
201105240600 METAR MRLB NIL=
201105240700 METAR MRLB NIL=
201105240800 METAR MRLB NIL=
201105240900 METAR MRLB NIL=
201105241000 METAR MRLB NIL=
201105241100 METAR MRLB NIL=
201105241200 METAR MRLB 241200Z 00000KT 9999 DZ SCT025 BKN100 23/23 A2985=
201105241300 METAR MRLB 241300Z 12003KT 9999 FEW035 BKN110 24/23 A2987 REDZ=
201105241400 METAR MRLB 241400Z 16003KT 9999 SCT020 BKN120 24/23 A2991 RMK RN DST S=
201105241500 METAR MRLB 241500Z 10003KT 9999 SCT030 BKN140 27/24 A2990=
201105241600 METAR MRLB 241600Z 12003KT 9999 SCT035 BKN140 28/24 12991=
201105241700 METAR MRLB 241700Z 30003KT 9999 SCT035 BKN140 30/24 A2990=
201105241800 METAR MRLB 241800Z 27004KT 9999 SCT035 BKN230 31/24 A2988=
201105241900 METAR MRLB 241900Z 28004 9999 SCT035 BKN250 31/23 A2986=
201105242000 METAR MRLB 242000Z 26008KT 9999 SCT035 BKN230 31/23 A2983=
201105242100 METAR MRLB 242100Z 27009KT 9999 FEW035 BKN230 29/23 A2980=
201105242200 METAR MRLB 242200Z 27010KT 9999 FEW035 BKN230 28/23 A2979=
201105242300 METAR MRLB 242300Z 27010KT 9999 SCT035 BKN140 28/23 A2980=
201105250000 METAR MRLB 250000Z 28008KT 9999 SCT035 BKN140 27/23 A2982=
201105250100 METAR MRLB 250100Z 27006KT 9999 SCT035 BKN130 26/23 A2984=
201105250200 METAR MRLB 250200Z 25006KT 9999 SCT025 BKN120 25/22 A2986=
201105250300 METAR MRLB NIL=
201105250400 METAR MRLB NIL=
201105250500 METAR MRLB NIL=
201105250600 METAR MRLB NIL=
201105250700 METAR MRLB NIL=
201105250800 METAR MRLB NIL=
201105250900 METAR MRLB NIL=
201105251000 METAR MRLB NIL=
201105251100 METAR MRLB NIL=
201105251200 METAR MRLB 251200Z 22003KT 9999 SCT020 BKN250 23/22 A2985 RMK LW ST SE=
201105251300 METAR MRLB 251300Z 00000KT 9999 BKN030 25/23 A2986 RMK SCT250=
201105251400 METAR MRLB 251400Z 00000KT 9999 SCT030 BKN250 28/25 A2987=
201105251500 METAR MRLB 251500Z 00000KT 9999 SCT030 BKN250 30/24 A2989=
201105251600 METAR MRLB 251600Z 00000KT 9999 SCT030 BKN250 30/23 A2988=
201105251700 METAR MRLB 251700Z 23004KT 9999 BKN030 31/23 A2988 RMK SCT250=
201105251800 METAR MRLB 251800Z 25005KT 9999 SCT030 BKN250 31/23 A2986 RMK RN N NE=
201105251900 METAR MRLB 251900Z 28010KT 9999 BKN025 32/23 A2984 RMK SCT250 TSRA DST N RA DST NE=
201105252000 METAR MRLB 252000Z 32009KT 9999 FEW025 BKN250 30/23 A2982 RMK RN DST SW=
201105252100 METAR MRLB 252100Z 31006KT 9999 FEW030 BKN250 31/23 A2981 RMK CB E=
201105252200 METAR MRLB 252200Z 28009KT 9999 FEW030 SCT130 BKN250 31/22 A2978 RMK=
201105252300 METAR MRLB 252300Z 28007KT 9999 FEW030 BKN250 28/25 A2980 RMK CB DST S=
201105260000 METAR MRLB 260000Z 28005KT 9999 FEW030 BKN250 28/24 A2981 RMK CB DST N S=
201105260100 METAR MRLB 260100Z 27005KT 9999 SCT030 BKN140 28/23 A2982=
201105260200 METAR MRLB 260200Z 26003KT 9999 SCT030 BKN140 27/23 A2984=
201105260300 METAR MRLB NIL=
201105260400 METAR MRLB NIL=
201105260500 METAR MRLB NIL=
201105260600 METAR MRLB NIL=
201105260700 METAR MRLB NIL=
201105260800 METAR MRLB NIL=
201105260900 METAR MRLB NIL=
201105261000 METAR MRLB NIL=
201105261100 METAR MRLB NIL=
201105261200 METAR MRLB 261200Z 31003KT 9999 SCT015 BKN100 25/24 A2985 RMK RA DST N=
201105261300 METAR MRLB 261300Z 00000KT 9999 FEW020 BKN140 26/23 A2987=
201105261400 METAR MRLB 261400Z 00000KT 9999 SCT025 BKN150 26/23 A2989=
201105261500 METAR MRLB 261500Z 00000KT 9999 FEW025 SCT100 BKN250 27/23 A2989=
201105261600 METAR MRLB NIL=
201105261700 METAR MRLB 261700Z 22008KT 9999 FEW025 BKN250 29/24 A2988 RMK TCU N=
201105261800 METAR MRLB 261800Z 26012KT 9999 SCT025 BKN150 29/24 A2988=
201105261900 METAR MRLB 261900Z 29012KT 9999 SCT025TCU BKN120 29/24 A2985 RMK TCU RN NE E=
201105262000 METAR MRLB 262000Z 31009KT 9999 SCT015TCU BKN120 29/24 A2983 RMK VIS N NE E 6000 RA=
201105262100 METAR MRLB 262100Z 02010KT 9999 FEW025 BKN140 27/23 A2982=
201105262200 METAR MRLB 262200Z 31005KT 9999 FEW020 SCT150 28/24 A2981=
201105262300 METAR MRLB 262300Z 28008KT 9999 FEW020 SCT100 BKN220 28/23 A2981=
201105270000 METAR MRLB 270000Z 28004KT 9999 FEW025 BKN250 27/24 A2982=
201105270100 METAR MRLB NIL=
201105270200 METAR MRLB NIL=
201105270300 METAR MRLB NIL=
201105270400 METAR MRLB NIL=
201105270500 METAR MRLB NIL=
201105270600 METAR MRLB NIL=
201105270700 METAR MRLB NIL=
201105270800 METAR MRLB NIL=
201105270900 METAR MRLB NIL=
201105271000 METAR MRLB NIL=
201105271100 METAR MRLB NIL=
201105271200 METAR MRLB 271200Z 00000KT 9999 SCT020 BKN140 24/23 A2982=
201105271300 METAR MRLB 271300Z 00000KT 9999 FEW030 BKN140 25/24 A2984=
201105271400 METAR MRLB 271400Z 00000KT 9999 FEW035 BKN140 27/24 A2986=
201105271500 METAR MRLB 271500Z 17003KT 9999 SCT035 BKN140 29/25 A2988=
201105271600 METAR MRLB 271600Z 26003KT 9999 FEW035 BKN240 31/25 A2987=
201105271700 METAR MRLB 271700Z 24003KT 9999 SCT035 BKN240 31/23 A2984=
201105271800 METAR MRLB 271800Z 20004KT 9999 SCT035 BKN250 33/22 A2982=
201105271900 METAR MRLB NIL=
201105272000 METAR MRLB 272000Z 28009KT 9999 SCT035 BKN250 32/22 A2977=
201105272100 METAR MRLB 272100Z 26010KT 9999 SCT035 BKN140 30/22 A2975=
201105272200 METAR MRLB 272200Z 24008KT 9999 SCT035 BKN140 29/23 A2976=
201105272300 METAR MRLB 272300Z 27006KT 9999 FEW035 BKN140 28/25 A2977=
201105280000 METAR MRLB 280000Z 27005KT 9999 FEW035 BKN140 28/24 A2979=
201105280100 METAR MRLB 280100Z 25003KT 9999 SCT035 BKN140 27/23 A2981=
201105280200 METAR MRLB 280200Z 26003KT 9999 SCT030 BKN140 26/23 A2983=
201105280300 METAR MRLB NIL=
201105280400 METAR MRLB NIL=
201105280500 METAR MRLB NIL=
201105280600 METAR MRLB NIL=
201105280700 METAR MRLB NIL=
201105280800 METAR MRLB NIL=
201105280900 METAR MRLB NIL=
201105281000 METAR MRLB NIL=
201105281100 METAR MRLB NIL=
201105281200 METAR MRLB 281200Z 24002KT 9999 SCT020 BKN100 24/23 A2979 RMK RA DST SW=
201105281300 METAR MRLB 281300Z 13002KT 9999 FEW010 BKN100 24/24 A2981=
201105281400 METAR MRLB 281400Z 17004KT 9999 FEW010 BKN100 25/24 A2982 RMK HZ ARND=
201105281500 METAR MRLB 281500Z 12002KT 9999 -RA FEW015 BKN100 25/25 A2983 RMK HZ ARND=
201105281600 METAR MRLB 281600Z 20004KT 9999 SCT015 BKN100 27/25 A2983 RMK HZ ARND=
201105281700 METAR MRLB 281700Z 00000KT 9999 FEW020 BKN120 28/26 A2982 RMK HZ ARND=
201105281800 METAR MRLB 281800Z 28003KT 9999 FEW030 BKN250 30/26 A2979=
201105281900 METAR MRLB 281900Z 29004KT 9999 FEW030 BKN250 31/25 A2975=
201105282000 METAR MRLB 282000Z 28002KT 9999 FEW035 BKN250 32/25 A2972=
201105282100 METAR MRLB 282100Z 27009KT 9999 FEW035 BKN250 31/25 A2970 RMK CB DST E=
201105282200 METAR MRLB 282200Z 28011KT 9999 SCT030 BKN250 30/24 A2970 RMK TS RA DST E=
201105282300 METAR MRLB 282300Z 27008KT 9999 -RA SCT020 SCT030 23/23 A2971 RMK TS DST NE S=
201105290000 METAR MRLB NIL=
201105290100 METAR MRLB 290100Z 00000KT 9999 -RA FEW010 BKN100 24/22 A2975 RMK TS DST W=
201105290200 METAR MRLB 290200Z 21004KT 9999 -RA FEW010 BKN100 24/23 A2978 RMK TS DST W=
201105290300 METAR MRLB NIL=
201105290400 METAR MRLB NIL=
201105290500 METAR MRLB NIL=
201105290600 METAR MRLB NIL=
201105290700 METAR MRLB NIL=
201105290800 METAR MRLB NIL=
201105290900 METAR MRLB NIL=
201105291000 METAR MRLB NIL=
201105291100 METAR MRLB NIL=
201105291200 METAR MRLB 291200Z 00000KT 1000 FG FEW001 SCT250 23/22 A2974 RMK UNL N=
201105291300 METAR MRLB 291300Z 00000KT 8000 VCFG FEW005 SCT250 25/23 A2977=
201105291400 METAR MRLB 291400Z 00000KT 9999 SCT012 BKN250 27/25 A2979=
201105291500 METAR MRLB 291500Z 10007KT 9999 SCT015 BKN250 27/26 A2981=
201105291600 METAR MRLB 291600Z 10006KT 9999 FEW015 SCT250 29/16 A2981=
201105291700 METAR MRLB 291700Z 17005KT 9999 FEW020 SCT250 30/25 A2981=
201105291800 METAR MRLB 291800Z 15007KT 9999 FEW020 SCT250 30/24 A2979=
201105291900 METAR MRLB 291900Z 18006KT 9999 FEW020 SCT150 31/24 A2976=
201105292000 METAR MRLB 292000Z 15005KT 9999 FEW020 SCT100 32/24 A2974=
201105292100 METAR MRLB 292100Z 00000KT 9999 FEW020 SCT120 31/23 A2971=
201105292200 METAR MRLB 292200Z 28008KT 9999 SCT025 BKN250 30/24 A2970 RMK TCU/RA DST N=
201105292300 METAR MRLB 292300Z 29008KT 9999 SCT250 29/24 A2971=
201105300000 METAR MRLB 300000Z 31008KT 9999 FEW025 SCT250 27/23 A2971 RMK TCU/RA DST SE=
201105300100 METAR MRLB 300100Z 30005KT 9999 FEW040 SCT180 27/23 A2973 RMK TCU DST S=
201105300200 METAR MRLB 300200Z 00000KT 9999 FEW045 26/23 A2975=
201105300300 METAR MRLB NIL=
201105300400 METAR MRLB NIL=
201105300500 METAR MRLB NIL=
201105300600 METAR MRLB NIL=
201105300700 METAR MRLB NIL=
201105300800 METAR MRLB NIL=
201105300900 METAR MRLB NIL=
201105301000 METAR MRLB NIL=
201105301100 METAR MRLB NIL=
201105301200 METAR MRLB 301200Z 15003KT 9999 SCT035 BKN130 25/23 A2976=
201105301300 METAR MRLB 301300Z 17005KT 9999 FEW035 BKN140 27/25 A2980=
201105301400 METAR MRLB 301400Z 17006KT 9999 FEW035 BKN250 29/25 A2982=
201105301500 METAR MRLB 301500Z 15003KT 9999 FEW035 SCT250 29/24 A2982=
201105301600 METAR MRLB 301600Z 18006KT 9999 FEW035 BKN140 30/25 A2983=
201105301700 METAR MRLB 301700Z 16004KT 9999 SCT035 SCT250 31/24 A2981=
201105301800 METAR MRLB 301800Z 28009KT 9999 SCT035 BKN250 31/24 A2979=
201105301900 METAR MRLB 301900Z 27010KT 9999 SCT035 SCT250 31/24 A2976=
201105302000 METAR MRLB 302000Z 27011KT 9999 SCT035 BKN250 31/24 A2972=
201105302100 METAR MRLB 302100Z 26006KT 9999 SCT035 BKN250 31/24 A2972=
201105302200 METAR MRLB NIL=
201105302300 METAR MRLB 302300Z 15006KT 9999 SCT030 BKN140 25/22 A2973=
201105310000 METAR MRLB 310000Z 10003KT 9999 SCT035 BKN140 25/23 A2974=
201105310100 METAR MRLB 310100Z 00000KT 9999 FEW035 BKN140 25/23 A2977=
201105310200 METAR MRLB 310200Z 05003KT 9999 SCT035 BKN140 24/23 A2979=
201105310300 METAR MRLB NIL=
201105310400 METAR MRLB NIL=
201105310500 METAR MRLB NIL=
201105310600 METAR MRLB NIL=
201105310700 METAR MRLB NIL=
201105310800 METAR MRLB NIL=
201105310900 METAR MRLB NIL=
201105311000 METAR MRLB NIL=
201105311100 METAR MRLB NIL=
201105311200 METAR MRLB 311200Z 30002KT 9999 -RA FEW010 BKN120 23/23 A2980=
201105311300 METAR MRLB 311300Z 34002KT 9999 -RA FEW010 BKN100 23/23 A2980=
201105311400 METAR MRLB 311400Z 14002KT 9999 FEW010 BKN100 24/24 A2980=
201105311500 METAR MRLB 311500Z 22005KT 9999 FEW010 BKN100 25/24 A2982=
201105311600 METAR MRLB 311600Z 22005KT 9999 FEW020 BKN120 26/25 A2984=
201105311700 METAR MRLB 311700Z 34003KT 9999 FEW030 BKN120 28/27 A2983=
201105311800 METAR MRLB 311800Z 15004KT 9999 FEW030 BKN120 30/26 A2981=
201105311900 METAR MRLB 311900Z 00000KT 9999 FEW030 BKN120 31/25 A2979 RMK RN DST N CB DST S=
201105312000 METAR MRLB 312000Z 29009KT 9999 SCT025 BKN120 30/23 A2977 RMK RN DST NE S=
201105312100 METAR MRLB 312100Z 29008KT 9999 FEW025 BKN120 30/24 A2974 RMK RA DST E=
201105312200 METAR MRLB 312200Z 27005KT 9999 FEW025 BKN120 29/25 A2973 RMK CB RA DST SW=
201105312300 METAR MRLB 312300Z 34004KT 9999 FEW020 BKN120 29/24 A2974 RMK TCU RA DST S=
201106010000 METAR MRLB 010000Z 21002KT 9999 FEW020 BKN130 29/24 A2976=
201106010100 METAR MRLB NIL=
201106010200 METAR MRLB 010200Z 20003KT 9999 FEW025 BKN130 27/23 A2978=
201106010300 METAR MRLB NIL=
201106010400 METAR MRLB NIL=
201106010500 METAR MRLB NIL=
201106010600 METAR MRLB NIL=
201106010700 METAR MRLB NIL=
201106010800 METAR MRLB NIL=
201106010900 METAR MRLB NIL=
201106011000 METAR MRLB NIL=
201106011100 METAR MRLB NIL=
201106011200 METAR MRLB 011200Z 00000KT 9999 SCT015 BKN040 25/24 A2982=
201106011300 METAR MRLB 011300Z 04004KT 9999 SCT015 BKN080 25/24 A2984 RMK RA DST S SE=
201106011400 METAR MRLB 011400Z 11005KT 9999 SCT012 BKN070 26/24 A2986 RMK RA E SE S=
201106011500 METAR MRLB 011500Z 13005KT 6000 -RA SCT012 BKN050 24/23 A2987=
201106011600 METAR MRLB 011600Z 10006KT 9999 -RA FEW010 SCT025 BKN100 24/23 A2986=
201106011700 METAR MRLB NIL=
201106011800 METAR MRLB 011800Z 08007KT 9999 FEW015 BKN140 28/25 A2981=
201106011900 METAR MRLB 011900Z 10005KT 9999 FEW020 BKN140 28/24 A2981=
201106012000 METAR MRLB 012000Z 00000KT 9999 FEW025 BKN150 29/24 A2981=
201106012100 METAR MRLB 012100Z 26006KT 9999 FEW020 SCT100 BKN220 29/23 A2978=
201106012200 METAR MRLB 012200Z 31003KT 9999 FEW020 BKN140 29/23 A2976=
201106012300 METAR MRLB 012300Z 16003KT 9999 FEW025 BKN140 28/23 A2978=
201106020000 METAR MRLB 020000Z 18003KT 9999 FEW035 BKN180 27/23 A2980=
201106020100 METAR MRLB 020100Z 00000KT 9999 FEW035 SCT150 27/23 A2982=
201106020200 METAR MRLB 020200Z 00000KT 9999 FEW030 SCT140 26/23 A2984=
201106020300 METAR MRLB NIL=
201106020400 METAR MRLB NIL=
201106020500 METAR MRLB NIL=
201106020600 METAR MRLB NIL=
201106020700 METAR MRLB NIL=
201106020800 METAR MRLB NIL=
201106020900 METAR MRLB NIL=
201106021000 METAR MRLB NIL=
201106021100 METAR MRLB NIL=
201106021200 METAR MRLB 021200Z 00000KT 9999 FEW035 BKN130 24/22 A2981=
201106021300 METAR MRLB 021300Z 35003KT 9999 FEW035 BKN140 26/24 A2983=
201106021400 METAR MRLB 021400Z 09003KT 9999 FEW035 BKN140 28/25 A2984=
201106021500 METAR MRLB 021500Z 17004KT 9999 SCT035 BKN250 29/24 A2987=
201106021600 METAR MRLB 021600Z 18005KT 9999 SCT035 SCT250 30/24 A2986=
201106021700 METAR MRLB 021700Z 16005KT 9999 SCT035 SCT250 30/23 A2985=
201106021800 METAR MRLB 021800Z 18003KT 9999 SCT035 BKN250 31/23 A2983 RMK RN DST SW=
201106021900 METAR MRLB 021900Z 24006KT 9999 VCSH FEW020TCU SCT035 BKN140 31/22 A2981=
201106022000 METAR MRLB 022000Z 16007KT 9999 VCSH SCT025TCU BKN130 27/21 A2980 RERA=
201106022100 METAR MRLB 022100Z 14006KT 9999 SCT030 BKN130 25/22 A2979=
201106022200 METAR MRLB 022200Z 12003KT 9999 SCT035 BKN120 26/23 A2980=
201106022300 METAR MRLB 022300Z 13004KT 9999 -DZ SCT035 BKN120 25/23 A2980=
201106030000 METAR MRLB 030000Z 10005KT 9999 SCT025 BKN100 25/23 A2981=
201106030100 METAR MRLB 030100Z 19004KT 9999 -DZ SCT030 BKN100 24/23 A2983=
201106030200 METAR MRLB 030200Z 17004KT 9999 SCT025 BKN100 24/22 A2985=
201106030300 METAR MRLB NIL=
201106030400 METAR MRLB NIL=
201106030500 METAR MRLB NIL=
201106030600 METAR MRLB NIL=
201106030700 METAR MRLB NIL=
201106030800 METAR MRLB NIL=
201106030900 METAR MRLB NIL=
201106031000 METAR MRLB NIL=
201106031100 METAR MRLB NIL=
201106031200 METAR MRLB 031200Z 13003KT 9999 FEW030 SCT130 BKN250 24/23 A2986=
201106031300 METAR MRLB 031300Z 18004KT 9999 SCT015 BKN120 25/24 A2985=
201106031400 METAR MRLB 031400Z 17005KT 9999 FEW020 BKN250 26/24 A2986=
201106031500 METAR MRLB 031500Z 14003KT 9999 FEW030 BKN250 28/25 A2988=
201106031600 METAR MRLB 031600Z 07003KT 9999 FEW035 BKN250 30/25 A2987=
201106031700 METAR MRLB 031700Z 18005KT 9999 SCT035 SCT250 31/24 A2986=
201106031800 METAR MRLB 031800Z 14004KT 9999 SCT030 SCT140 31/23 A2984=
201106031900 METAR MRLB 031900Z 30004KT 9999 SCT030 SCT250 32/24 A2982=
201106032000 METAR MRLB 032000Z 18003KT 9999 SCT030 SCT250 31/23 A2980=
201106032100 METAR MRLB 032100Z 28012KT 9999 SCT030 BKN250 31/23 A2978=
201106032200 METAR MRLB 032200Z 27011KT 9999 SCT020 BKN120 29/23 A2977 RMK RN DST E/NE=
201106032300 METAR MRLB 032300Z 27011KT 9999 SCT020 SCT120 28/24 A2977 RMK RN DST E/NE/SE=
201106040000 METAR MRLB 040000Z 33005KT 9999 SCT020 SCT120 28/24 A2979 RMK RN DST SE S=
201106040100 METAR MRLB 040100Z 11006KT 9999 BKN020 SCT120 26/23 A2982=
201106040200 METAR MRLB 040200Z 14004KT 9999 SCT020 SCT120 25/22 A2983=
201106040300 METAR MRLB NIL=
201106040400 METAR MRLB NIL=
201106040500 METAR MRLB NIL=
201106040600 METAR MRLB NIL=
201106040700 METAR MRLB NIL=
201106040800 METAR MRLB NIL=
201106040900 METAR MRLB NIL=
201106041000 METAR MRLB NIL=
201106041100 METAR MRLB NIL=
201106041200 METAR MRLB 041200Z 00000KT 9999 FEW025 SCT100 24/23 A2986=
201106041300 METAR MRLB 041300Z 00000KT 9999 SCT015 BKN140 27/25 A2987=
201106041400 METAR MRLB 041400Z 11004KT 9999 FEW015 SCT150 28/26 A2986=
201106041500 METAR MRLB 041500Z 12005KT 9999 FEW015 SCT180 29/25 A2987=
201106041600 METAR MRLB 041600Z 19008KT 9999 SCT015 BKN150 30/25 A2988=
201106041700 METAR MRLB 041700Z 00000KT 9999 SCT020 BKN150 31/25 A2986=
201106041800 METAR MRLB 041800Z 24004KT 9999 SCT020TCU BKN180 31/25 A2985 RMK TCU/RN DST N=
201106041900 METAR MRLB 041900Z 28010KT 9999 SCT020CB BKN140 31/25 A2982 RMK CB/RA DST NE/E=
201106042000 METAR MRLB 042000Z 32006KT 9999 SCT020TCU BKN140 28/23 A2981 RMK TCU/RN DST S=
201106042100 METAR MRLB 042100Z 28006KT 9999 SCT025TCU BKN180 28/24 A2979 RMK TCU DST NE S=
201106042200 METAR MRLB 042200Z 27004KT 9999 FEW025 SCT100 28/24 A2980 RMK TCU S=
201106042300 METAR MRLB 042300Z 24004KT 9999 FEW020 SCT120 27/24 A2981=
201106050000 METAR MRLB 050000Z 15006KT 9999 FEW020 SCT100 26/23 A2982=
201106050100 METAR MRLB 050100Z 17004KT 9999 FEW020 SCT120 25/23 A2984=
201106050200 METAR MRLB 050200Z 00000KT 9999 FEW020 SCT140 25/23 A2986=
201106050300 METAR MRLB NIL=
201106050400 METAR MRLB NIL=
201106050500 METAR MRLB NIL=
201106050600 METAR MRLB NIL=
201106050700 METAR MRLB NIL=
201106050800 METAR MRLB NIL=
201106050900 METAR MRLB NIL=
201106051000 METAR MRLB NIL=
201106051100 METAR MRLB NIL=
201106051200 METAR MRLB 051200Z 00000KT 9999 SCT035 BKN130 24/23 A2984=
201106051300 METAR MRLB NIL=
201106051400 METAR MRLB 051400Z 12003KT 9999 SCT035 BKN250 26/24 A2987=
201106051500 METAR MRLB 051500Z 09003KT 9999 SCT035 BKN250 29/26 A2989=
201106051600 METAR MRLB 051600Z 22003KT 9999 SCT035 SCT250 30/25 A2989=
201106051700 METAR MRLB 051700Z 20009KT 9999 4000SE RA FEW020CB SCT030 BKN140 27/22 A2988=
201106051800 METAR MRLB 051800Z 19007KT 9999 SCT030 BKN250 29/24 A2986 RERA RMK RA E=
201106051900 METAR MRLB 051900Z 21008KT 9999 SCT030 BKN250 29/24 A2981 RMK RA E NE=
201106052000 METAR MRLB 052000Z 15013KT 9999 3000S RA FEW020TCU SCT030 BKN140 23/19 A2981=
201106052100 METAR MRLB 052100Z 10003KT 9999 -RA SCT030 BKN120 24/22 A2981=
201106052200 METAR MRLB 052200Z 06003KT 9999 -RA SCT025 BKN100 25/23 A2981=
201106052300 METAR MRLB 052300Z 07004KT 9999 DZ SCT030 BKN100 24/23 A2982=
201106060000 METAR MRLB 060000Z 09003KT 9999 DZ SCT030 BKN100 24/23 A2983=
201106060100 METAR MRLB 060100Z 10003KT 9999 SCT035 BKN100 24/23 A2986=
201106060200 METAR MRLB 060200Z 12003KT 9999 SCT030 BKN110 23/22 A2988=
201106060300 METAR MRLB NIL=
201106060400 METAR MRLB NIL=
201106060500 METAR MRLB NIL=
201106060600 METAR MRLB NIL=
201106060700 METAR MRLB NIL=
201106060800 METAR MRLB NIL=
201106060900 METAR MRLB NIL=
201106061000 METAR MRLB NIL=
201106061100 METAR MRLB NIL=
201106061200 METAR MRLB 061200Z 11003KT 9999 SCT020 BKN130 23/22 A2985=
201106061300 METAR MRLB 061300Z 10002KT 9999 FEW020 BKN130 24/22 A2987=
201106061400 METAR MRLB 061400Z 14003KT 9999 SCT020 BKN100 25/24 A2989=
201106061500 METAR MRLB 061500Z 14004KT 9999 SCT020 BKN100 25/24 A2990 RMK RA DST W NW=
201106061600 METAR MRLB 061600Z 04002KT 3000 SHRA SCT006 BKN100 23/21 A2991 RMK UNL W=
201106061700 METAR MRLB 061700Z 03005KT 9999 FEW010 BKN100 23/23 A2991 RESHRA=
201106061800 METAR MRLB 061800Z 01003KT 9999 -RA SCT010 BKN100 23/23 A2989=
201106061900 METAR MRLB 061900Z 00000KT 9999 FEW010 BKN100 25/24 A2987=
201106062000 METAR MRLB 062000Z 16003KT 9999KT SCT010 BKN100 26/25 A2987 RMK RA DST E S=
201106062100 METAR MRLB 062100Z 11004KT 9999 SCT015 BKN100 26/25 A2984 RMK RA DST S=
201106062200 METAR MRLB 062200Z 13004KT 9999 SCT015 BKN100 26/24 A2983 RMK CB DST S=
201106062300 METAR MRLB 062300Z 14004KT 9999 SCT015 BKN100 25/23 A2982=
201106070000 METAR MRLB 070000Z 14005KT 9999 SCT025 SCT100 25/23 A2982=
201106070100 METAR MRLB 070100Z 11003KT 9999 SCT020 SCT100 24/23 A2985=
201106070200 METAR MRLB 070200Z 15002KT 9999 FEW020 SCT100 24/23 A2986=
201106070300 METAR MRLB NIL=
201106070400 METAR MRLB NIL=
201106070500 METAR MRLB NIL=
201106070600 METAR MRLB NIL=
201106070700 METAR MRLB NIL=
201106070800 METAR MRLB NIL=
201106070900 METAR MRLB NIL=
201106071000 METAR MRLB NIL=
201106071100 METAR MRLB NIL=
201106071200 METAR MRLB NIL=
201106071300 METAR MRLB NIL=
201106071400 METAR MRLB NIL=
201106071500 METAR MRLB NIL=
201106071600 METAR MRLB 071600Z 17005KT 9999 FEW012 BKN120 26/23 A2989=
201106071700 METAR MRLB 071700Z 16004KT 9999 SCT020 BKN070 27/24 A2989=
201106071800 METAR MRLB 071800Z 00000KT 9999 VCSH SCT020 BKN080 28/25 A2988 RMK RN SW=
201106071900 METAR MRLB 071900Z 27006KT 9999 -RA SCT015 BKN050 26/23 A2986 RMK VIS N 3KM=
201106072000 METAR MRLB 072000Z 14004KT 9999 RA SCT015 BKN060 25/22 A2984 RMK VIS N 3KM=
201106072100 METAR MRLB 072100Z 15007KT 9999 SCT015 BKN100 25/24 A2983 RMK RA DST ARND=
201106072200 METAR MRLB 072200Z 14006KT 9999 FEW012 SCT100 BKN250 25/24 A2982=
201106072300 METAR MRLB 072300Z 16003KT 9999 FEW012 SCT040 BKN180 25/23 A2982=
201106080000 METAR MRLB 080000Z 10003KT 9999 FEW020 SCT250 25/23 A2983=
201106080100 METAR MRLB 080100Z 00000KT 9999 FEW015 SCT180 25/23 A2985=
201106080200 METAR MRLB NIL=
201106080300 METAR MRLB NIL=
201106080400 METAR MRLB NIL=
201106080500 METAR MRLB NIL=
201106080600 METAR MRLB NIL=
201106080700 METAR MRLB NIL=
201106080800 METAR MRLB NIL=
201106080900 METAR MRLB NIL=
201106081000 METAR MRLB NIL=
201106081100 METAR MRLB NIL=
201106081200 METAR MRLB 081200Z 00000KT 9999 SCT020 BKN130 23/22 A2987 RMK LOW ST SW=
201106081300 METAR MRLB 081300Z 00000KT 9999 FEW035 SCT140 25/24 A2989=
201106081400 METAR MRLB 081400Z 14003KT 9999 FEW035 SCT250 27/25 A2989=
201106081500 METAR MRLB 081500Z 14003KT 9999 SCT035 SCT250 27/25 A2991=
201106081600 METAR MRLB 081600Z 15003KT 9999 SCT035 SCT250 29/25 A2990=
201106081700 METAR MRLB NIL=
201106081800 METAR MRLB 081800Z 28005KT 9999 SCT035 BKN250 31/25 A2988=
201106081900 METAR MRLB 081900Z 26004KT 9999 SCT035 BKN250 32/24 A2985=
201106082000 METAR MRLB 082000Z 28010KT 9999 SCT035 SCT250 31/24 A2983=
201106082100 METAR MRLB 082100Z 28012KT 9999 FEW035 BKN250 29/23 A2981=
201106082200 METAR MRLB 082200Z 28011KT 9999 SCT035 SCT250 29/24 A2980=
201106082300 METAR MRLB 082300Z 27010KT 9999 SCT035 BKN250 28/23 A2981=
201106090000 METAR MRLB 090000Z 27007KT 9999 SCT035 BKN250 27/23 A2983=
201106090100 METAR MRLB 090100Z 28006KT 9999 SCT035 BKN230 26/23 A2985=
201106090200 METAR MRLB NIL=
201106090300 METAR MRLB NIL=
201106090400 METAR MRLB NIL=
201106090500 METAR MRLB NIL=
201106090600 METAR MRLB NIL=
201106090700 METAR MRLB NIL=
201106090800 METAR MRLB NIL=
201106090900 METAR MRLB NIL=
201106091000 METAR MRLB NIL=
201106091100 METAR MRLB NIL=
201106091200 METAR MRLB NIL=
201106091300 METAR MRLB 091300Z 13003KT 9999 SCT010 BKN120 26/25 A2986=
201106091400 METAR MRLB 091400Z 17002KT 9999 SCT010 BKN100 27/25 A2987=
201106091500 METAR MRLB 091500Z 22003KT 9999 SCT020 BKN100 27/25 A2987=
201106091600 METAR MRLB 091600Z 26003KT 9999 SCT020 BKN100 30/26 A2990=
201106091700 METAR MRLB 091700Z 27006KT 9999 BKN020 SCT100 30/25 A2987 RMK RN DST N SW=
201106091800 METAR MRLB 091800Z 28006KT 9999 -RA SCT020 BKN100 29/24 A2987=
201106091900 METAR MRLB 091900Z 28009KT 9999 VCSH SCT015 BKN100 29/25 A2986=
201106092000 METAR MRLB 092000Z 27008KT 9999 FEW020 BKN120 28/24 A2992 RMK CB DST E/S=
201106092100 METAR MRLB 092100Z 27007KT 9999 FEW025 BKN120 28/24 A2979=
201106092200 METAR MRLB 092200Z 27008KT 9999 FEW025 BKN130 29/24 A2979=
201106092300 METAR MRLB 092300Z 27007KT 9999 SCT020 BKN130 28/24 A2978=
201106100000 METAR MRLB 100000Z 27004KT 9999 SCT020 SCT130 28/24 A2980=
201106100100 METAR MRLB NIL=
201106100200 METAR MRLB NIL=
201106100300 METAR MRLB NIL=
201106100400 METAR MRLB NIL=
201106100500 METAR MRLB NIL=
201106100600 METAR MRLB NIL=
201106100700 METAR MRLB NIL=
201106100800 METAR MRLB NIL=
201106100900 METAR MRLB NIL=
201106101000 METAR MRLB NIL=
201106101100 METAR MRLB NIL=
201106101200 METAR MRLB NIL=
201106101300 METAR MRLB 101300Z 31004KT 9999 7000W BCFG FEW003 SCT015 BKN070 26/25 A2984=
201106101400 METAR MRLB 101400Z 01005KT 9999 FEW010 BKN100 26/25 A2985=
201106101500 METAR MRLB 101500Z 31005KT 9999 SCT015 BKN100 27/25 A2986=
201106101600 METAR MRLB 101600Z 30003KT 9999 SCT020 BKN100 29/26 A2985=
201106101700 METAR MRLB NIL=
201106101800 METAR MRLB NIL=
201106101900 METAR MRLB NIL=
201106102000 METAR MRLB 102000Z 28007KT 9999 FEW025 BKN200 30/24 A2979=
201106102100 METAR MRLB 102100Z 28010KT 9999 FEW030 SCT250 30/24 A2975=
201106102200 METAR MRLB 102200Z 27010KT 9999 FEW030 SCT250 29/25 A2975 RMK TCU DST S=
201106102300 METAR MRLB 102300Z 27010KT 9999 FEW020 SCT150 28/23 A2976 RMK TCU RA DST E SE=
201106110000 METAR MRLB 110000Z 28006KT 9999 FEW040 SCT180 27/24 A2978=
201106110100 METAR MRLB 110100Z 24005KT 9999 FEW040 SCT120 26/25 A2980=
201106110200 METAR MRLB NIL=
201106110300 METAR MRLB NIL=
201106110400 METAR MRLB NIL=
201106110500 METAR MRLB NIL=
201106110600 METAR MRLB NIL=
201106110700 METAR MRLB NIL=
201106110800 METAR MRLB NIL=
201106110900 METAR MRLB NIL=
201106111000 METAR MRLB NIL=
201106111100 METAR MRLB NIL=
201106111200 METAR MRLB 111200Z 00000KT SCT035 BKN250 25/22 A2977 RMK ST LOW S=
201106111300 METAR MRLB 111300Z 00000KT 9999 SCT035 BKN250 27/25 A2978=
201106111400 METAR MRLB 111400Z 27003KT 9999 SCT035 SCT250 29/26 A2981=
201106111500 METAR MRLB NIL=
201106111600 METAR MRLB 111600Z 03003KT 9999 SCT035 BKN250 31/25 A2981=
201106111700 METAR MRLB 111700Z 09003KT 9999 SCT035 BKN250 32/25 A2979=
201106111800 METAR MRLB 111800Z 27007KT 9999 SCT035 BKN250 32/24 A2977=
201106111900 METAR MRLB 111900Z 28008KT 9999 SCT035 SCT250 32/25 A2975=
201106112000 METAR MRLB 112000Z 28006KT 9999 SCT035 SCT250 33/25 A2972=
201106112100 METAR MRLB 112100Z 29008KT 9999 SCT035 BKN250 33/25 A2970=
201106112200 METAR MRLB NIL=
201106112300 METAR MRLB NIL=
201106120000 METAR MRLB NIL=
201106120100 METAR MRLB 120100Z 12008KT 9999 FEW035 BKN250 29/22 A2973=
201106120200 METAR MRLB 120200Z 13007KT 9999 SCT035 BKN240 28/21 A2975=
201106120300 METAR MRLB NIL=
201106120400 METAR MRLB NIL=
201106120500 METAR MRLB NIL=
201106120600 METAR MRLB NIL=
201106120700 METAR MRLB NIL=
201106120800 METAR MRLB NIL=
201106120900 METAR MRLB NIL=
201106121000 METAR MRLB NIL=
201106121100 METAR MRLB NIL=
201106121200 METAR MRLB 121200Z 17004KT 9999 FEW035 BKN100 25/23 A2973=
201106121300 METAR MRLB 121300Z 18006KT 9999 -RA FEW030 BKN100 25/23 A2975=
201106121400 METAR MRLB 121400Z 27004KT 9999 FEW030 BKN120 27/25 A2975=
201106121500 METAR MRLB 121500Z 33003KT 9999 FEW030 BKN120 28/26 A2975=
201106121600 METAR MRLB 121600Z 27005KT 9999 FEW030 BKN120 30/26 A2977=
201106121700 METAR MRLB 121700Z 10009KT 9999 FEW035 BKN120 31/24 A2976=
201106121800 METAR MRLB 121800Z 09011KT CAVOK 31/23 A2974 RMK OVC120=
201106121900 METAR MRLB 121900Z 09009KT CAVOK 31/23 A2972 RMK OVC120=
201106122000 METAR MRLB 122000Z 11009KT CAVOK 32/23 A2970 RMK OVC130=
201106122100 METAR MRLB 122100Z 15004KT CAVOK 31/23 A2971 RMK OVC130=
201106122200 METAR MRLB 122200Z 20004KT CAVOK 31/23 A2971 RMK OVC130=
201106122300 METAR MRLB 122300Z 30005KT 9999 FEW035 BKN130 30/24 A2972=
201106130000 METAR MRLB 130000Z 25003KT CAVOK 29/23 A2972 RMK OVC130=
201106130100 METAR MRLB NIL=
201106130200 METAR MRLB NIL=
201106130300 METAR MRLB NIL=
201106130400 METAR MRLB NIL=
201106130500 METAR MRLB NIL=
201106130600 METAR MRLB NIL=
201106130700 METAR MRLB NIL=
201106130800 METAR MRLB NIL=
201106130900 METAR MRLB NIL=
201106131000 METAR MRLB NIL=
201106131100 METAR MRLB NIL=
201106131200 METAR MRLB NIL=
201106131300 METAR MRLB 131300Z 01005KT CAVOK 28/24 A2976 RMK FEW100 SCT250=
201106131400 METAR MRLB 131400Z 00000KT CAVOK 31/26 A2978 RMK FEW100 SCT250=
201106131500 METAR MRLB 131500Z 32004KT 9999 FEW025 SCT250 31/24 A2978=
201106131600 METAR MRLB 131600Z 06010KT 9999 FEW030 SCT250 32/24 A2980=
201106131700 METAR MRLB 131700Z 10012KT 9999 FEW030 SCT250 32/22 A2979=
201106131800 METAR MRLB 131800Z 06016KT 9999 SCT030 BKN250 33/22 A2979=
201106131900 METAR MRLB 131900Z 05014KT 9999 SCT030 BKN250 33/22 A2978=
201106132000 METAR MRLB 132000Z 05018KT 9999 SCT030 BKN180 32/23 A2977 RMK RA DST NE=
201106132100 METAR MRLB 132100Z 06016KT 9999 SCT030TCU BKN180 31/22 A2974 RMK TCU DST S=
201106132200 METAR MRLB 132200Z 07018KT 9999 FEW020 SCT100 BKN250 31/22 A2973=
201106132300 METAR MRLB 132300Z 08012KT 9999 FEW020 SCT100 BKN220 30/22 A2974=
201106140000 METAR MRLB 140000Z 10014KT 9999 FEW035 SCT250 28/22 A2976=
201106140100 METAR MRLB 140100Z 09010KT 9999 FEW045 SCT180 28/22 A2978=
201106140200 METAR MRLB NIL=
201106140300 METAR MRLB NIL=
201106140400 METAR MRLB NIL=
201106140500 METAR MRLB NIL=
201106140600 METAR MRLB NIL=
201106140700 METAR MRLB NIL=
201106140800 METAR MRLB NIL=
201106140900 METAR MRLB NIL=
201106141000 METAR MRLB NIL=
201106141100 METAR MRLB NIL=
201106141200 METAR MRLB 141200Z 10003KT 9999 FEW035 BKN250 26/22 A2976=
201106141300 METAR MRLB 141300Z 10006KT 9999 FEW035 BKN250 27/22 A2978=
201106141400 METAR MRLB 141400Z 09011KT 9999 FEW035 BKN250 30/23 A2978=
201106141500 METAR MRLB 141500Z 08012KT 9999 FEW035 BKN250 30/23 A2981=
201106141600 METAR MRLB 141600Z 07012KT 9999 FEW035 SCT250 32/23 A2982 RMK FEW130=
201106141700 METAR MRLB 141700Z 05013KT 9999 FEW035 BKN250 32/23 A2980 RMK FEW130=
201106141800 METAR MRLB 141800Z 08010KT 9999 FEW035 SCT140 33/23 A2979 RMK SCT250 CB DST N=
201106141900 METAR MRLB 141900Z 06012KT 9999 FEW035 SCT140 BKN250 33/23 A2977 RMK CB DST N/E=
201106142000 METAR MRLB 142000Z 05014KT 9999 FEW035 BKN250 33/23 A2975 RMK FEW140 CB DST E=
201106142100 METAR MRLB 142100Z 05016KT 9999 SCT035 BKN250 32/22 A2974=
201106142200 METAR MRLB 142200Z 06016KT 9999 SCT035 BKN250 31/21 A2972=
201106142300 METAR MRLB 142300Z 07015KT 9999 SCT035 BKN140 29/21 A2975=
201106150000 METAR MRLB 150000Z 07011KT 9999 SCT035 BKN140 28/21 A2977=
201106150100 METAR MRLB NIL=
201106150200 METAR MRLB NIL=
201106150300 METAR MRLB NIL=
201106150400 METAR MRLB NIL=
201106150500 METAR MRLB NIL=
201106150600 METAR MRLB NIL=
201106150700 METAR MRLB NIL=
201106150800 METAR MRLB NIL=
201106150900 METAR MRLB NIL=
201106151000 METAR MRLB NIL=
201106151100 METAR MRLB NIL=
201106151200 METAR MRLB 151200Z 17004KT CAVOK 24/22 A2975 RMK OVC120=
201106151300 METAR MRLB 151300Z 18003KT CAVOK 26/24 A2977 RMK BKN130 SCT250=
201106151400 METAR MRLB 151400Z 20005KT CAVOK 28/25 A2979 RMK BKN130 SCT250=
201106151500 METAR MRLB NIL=
201106151600 METAR MRLB 151600Z 11003KT 9999 FEW035 BKN130 30/24 A2982=
201106151700 METAR MRLB 151700Z 36006KT 9999 FEW035 BKN120 31/24 A2982=
201106151800 METAR MRLB 151800Z 09007KT 9999 SCT030 BKN120 30/23 A2983=
201106151900 METAR MRLB 151900Z 09009KT 9999 FEW025 BKN100 0/22 A2982 RMK RN DST E S SW=
201106152000 METAR MRLB 152000Z 11006KT 9999 FEW020 BKN100 30/22 A2980 RMK RN DST S W=
201106152100 METAR MRLB 152100Z 14004KT 9999 -RA FEW020 BKN100 27/22 A2979=
201106152200 METAR MRLB 152200Z 17008KT 9999 -RA FEW020 BKN100 25/22 A2978=
201106152300 METAR MRLB 152300Z 19003KT 9999 -RA SCT010 BKN100 26/24 A2978=
201106160000 METAR MRLB 160000Z 16003KT 9999 FEW010 BKN100 25/24 A2978=
201106160100 METAR MRLB 160100Z 00000KT 9999 FEW010 BKN100 25/24 A2981=
201106160200 METAR MRLB 160200Z 18004KT 9999 FEW010 BKN100 25/24 A2982=
201106160300 METAR MRLB NIL=
201106160400 METAR MRLB NIL=
201106160500 METAR MRLB NIL=
201106160600 METAR MRLB NIL=
201106160700 METAR MRLB NIL=
201106160800 METAR MRLB NIL=
201106160900 METAR MRLB NIL=
201106161000 METAR MRLB NIL=
201106161100 METAR MRLB NIL=
201106161200 METAR MRLB 161200Z 00000KT 9999 FEW030 BKN120 24/22 A2981=
201106161300 METAR MRLB 161300Z 03006KT CAVOK 25/23 A2983 RMK FEW100 SCT220=
201106161400 METAR MRLB 161400Z 06003KT CAVOK 28/25 A2984 RMK FEW100 SCT250 TCU DST SW=
201106161500 METAR MRLB NIL=
201106161600 METAR MRLB NIL=
201106161700 METAR MRLB 161700Z 24006KT 9999 SCT020 BKN250 31/24 A2986=
201106161800 METAR MRLB 161800Z 25007KT 9999 SCT020TCU BKN150 31/24 A2985=
201106161900 METAR MRLB 161900Z 28010KT 9999 SCT020TCU BKN140 31/23 A2983 RMK CB RN N NE=
201106162000 METAR MRLB 162000Z 29010KT 9999 SCT02TCU BKN140 30/23 A2981 RMK CBS RN DST ARND=
201106162100 METAR MRLB 162100Z 29010KT 9999 VCTS SHRA FEW015CB SCT035 BKN120 28/23 A2979=
201106162200 METAR MRLB 162200Z 27004KT 9999 -RA SCT020CB BKN100 27/23 A2978 RMK TSSH DST S=
201106162300 METAR MRLB 162300Z 12010KT 9999 -RA FEW015 SCT025 BKN100 26/23 A2979=
201106170000 METAR MRLB 170000Z 10005KT 9999 SCT020 BKN100 25/22 A2982=
201106170100 METAR MRLB 170100Z 08004KT 9999 DZ SCT018 BKN080 25/22 A2984=
201106170200 METAR MRLB 170200Z 09005KT 9000 SCT015 BKN100 25/22 A2985=
201106170300 METAR MRLB NIL=
201106170400 METAR MRLB NIL=
201106170500 METAR MRLB NIL=
201106170600 METAR MRLB NIL=
201106170700 METAR MRLB NIL=
201106170800 METAR MRLB NIL=
201106170900 METAR MRLB NIL=
201106171000 METAR MRLB NIL=
201106171100 METAR MRLB NIL=
201106171200 METAR MRLB 171200Z 00000KT 9999 SCT025 BKN130 23/22 A2983 RMK ST LOW SW=
201106171300 METAR MRLB 171300Z 03005KT 9999 FEW035 BKN130 23/23 A2983=
201106171400 METAR MRLB 171400Z 03004KT 9999 FEW035 BKN140 25/24 A2985=
201106171500 METAR MRLB 171500Z 15003KT 9999 FEW035 BKN140 27/25 A2986=
201106171600 METAR MRLB 171600Z 19003KT 9999 FEW035 SCT140 29/25 A2988=
201106171700 METAR MRLB 171700Z 18003KT 9999 SCT035 SCT140 30/24 A2987=
201106171800 METAR MRLB 171800Z 18004KT 9999 FEW030 SCT140 31/24 A2985=
201106171900 METAR MRLB 171900Z 17005KT 9999 SCT030 SCT140 31/24 A2983 RMK TCU DST S=
201106172000 METAR MRLB 172000Z 18006KT 9999 SCT035 SCT140 31/23 A2980=
201106172100 METAR MRLB 172100Z 18007KT 9999 SCT035 BKN140 30/23 A2979 RMK RA DST N NE=
201106172200 METAR MRLB 172200Z 28006KT 9999 SCT035 BKN130 28/23 A2978=
201106172300 METAR MRLB 172300Z 05007KT 9999 SCT035 BKN120 26/22 A2980 RMK RA DST S=
201106180000 METAR MRLB 180000Z 34005KT 9999 RA SCT025 BKN100 24/21 A2981=
201106180100 METAR MRLB 180100Z 05003KT 9999 -RA SCT020 BKN100 23/22 A2984 RERA=
201106180200 METAR MRLB 180200Z 03004KT 9999 -DZ SCT030 BKN100 24/22 A2986=
201106180300 METAR MRLB NIL=
201106180400 METAR MRLB NIL=
201106180500 METAR MRLB NIL=
201106180600 METAR MRLB NIL=
201106180700 METAR MRLB NIL=
201106180800 METAR MRLB NIL=
201106180900 METAR MRLB NIL=
201106181000 METAR MRLB NIL=
201106181100 METAR MRLB NIL=
201106181200 METAR MRLB 181200Z 03004KT 9999 SCT020 BKN100 23/23 A2987 RN DST NE=
201106181300 METAR MRLB 181300Z 04004KT 9999 FEW020 BKN100 24/23 A2988 RMK CB DST SW=
201106181400 METAR MRLB 181400Z 10003KT 9999 FEW020 BKN120 26/25 A2990=
201106181500 METAR MRLB 181500Z 21003KT 9999 SCT020 BKN120 27/25 A2992=
201106181600 METAR MRLB 181600Z 19003KT 9999 FEW020 BKN120 28/26 A2992 RMK CB RA DST NE=
201106181700 METAR MRLB 181700Z 23003KT 9999 SCT020 BKN250 30/26 A2991 RMK RA DST N NE SW=
201106181800 METAR MRLB 181800Z 03004KT 9999 BKN020 SCT250 30/24 A2988 RMK RA DST NE E=
201106181900 METAR MRLB 181900Z 06015KT 2000 SHRA OVC020 24/21 A2986 RMK TS DST S=
201106182000 METAR MRLB 182000Z 26009KT 9999 -RA SCT020 BKN100 24/22 A2987=
201106182100 METAR MRLB 182100Z 27003KT 9999 SCT020 BKN100 25/24 A2986 RMK RA DST NE E SE=
201106182200 METAR MRLB 182200Z 13002KT 9999 -RA FEW020 BKN100 25/24 A2983 RMK TS DST E=
201106182300 METAR MRLB 182300Z 08006KT 9999 -RA FEW020 BKN100 25/23 A2986=
201106190000 METAR MRLB NIL=
201106190100 METAR MRLB NIL=
201106190200 METAR MRLB NIL=
201106190300 METAR MRLB NIL=
201106190400 METAR MRLB NIL=
201106190500 METAR MRLB NIL=
201106190600 METAR MRLB NIL=
201106190700 METAR MRLB NIL=
201106190800 METAR MRLB NIL=
201106190900 METAR MRLB NIL=
201106191000 METAR MRLB NIL=
201106191100 METAR MRLB NIL=
201106191200 METAR MRLB 191200Z 00000KT 0100 FG VV/// 22/22 A2986=
201106191300 METAR MRLB 191300Z 23003KT 0300 FG VV/// 23/23 A2988=
201106191400 METAR MRLB 191400Z 00000KT 9999 FEW005 SCT250 25/24 A2990=
201106191500 METAR MRLB 191500Z 29005KT 9999 FEW015 SCT250 26/25 A2988=
201106191600 METAR MRLB 191600Z 00000KT 9999 FEW020 SCT250 28/27 A2989=
201106191700 METAR MRLB 191700Z 18004KT 9999 FEW020 SCT250 30/25 A2988=
201106191710 METAR MRLB 171900Z 18004KT 9999 FEW020 SCT250 30/25 A2988=
201106191721 METAR MRLB 171900Z 18004KT 9999 FEW020 SCT250 30/25 A2988=
201106191800 METAR MRLB 191800Z 24005KT 9999 FEW020 SCT250 30/25 A2987=
201106191900 METAR MRLB 191900Z 27005KT 9999 FEW025 SCT250 31/25 A2984 RMK TCU DST S=
201106192000 METAR MRLB 192000Z 27005KT 9999 SCT025 BKN250 32/25 A2983=
201106192100 METAR MRLB 192100Z 29006KT 9999 SCT015TCU BKN250 32/24 A2981=
201106192200 METAR MRLB 192200Z 28006KT 9999 VCTS SH SCT020CB BKN150 29/23 A2978 RMK TS SH S SW=
201106192300 METAR MRLB 192300Z 00000KT 9999 VCTS SH SCT020CB BKN100 26/22 A2979 RMK TS SH N NE=
201106200000 METAR MRLB NIL=
201106200100 METAR MRLB NIL=
201106200200 METAR MRLB NIL=
201106200300 METAR MRLB NIL=
201106200400 METAR MRLB NIL=
201106200500 METAR MRLB NIL=
201106200600 METAR MRLB NIL=
201106200700 METAR MRLB NIL=
201106200800 METAR MRLB NIL=
201106200900 METAR MRLB NIL=
201106201000 METAR MRLB NIL=
201106201100 METAR MRLB NIL=
201106201200 METAR MRLB 201200Z 00000KT 9999 SCT035 BKN250 24/23 A2980=
201106201300 METAR MRLB 201300Z 00000KT 9999 FEW035 BKN250 27/25 A2982=
201106201400 METAR MRLB 201400Z 35005KT 9999 SCT035 BKN240 26/24 A2985=
201106201500 METAR MRLB 201500Z 15003KT 9999 SCT035 BKN240 28/26 A2984=
201106201600 METAR MRLB 201600Z 14004KT 9999 FEW035 BKN250 30/26 A2985=
201106201700 METAR MRLB 201700Z 14005KT 9999 SCT035 BKN240 30/25 A2985=
201106201800 METAR MRLB 201800Z 13007KT 9999 SCT035 BKN240 31/25 A2983=
201106201900 METAR MRLB 201900Z 17008KT 9999 FEW020TCU SCT035 BKN240 32725 A2981 RMK RA NE=
201106202000 METAR MRLB 202000Z 13007KT 999 TS SHRA FEW015CB FEW025TCU BKN100 29/23 A2979 RMK 5KMS N=
201106202100 METAR MRLB 202100Z 30004KT 9999 FEW035 BKN120 26/22 A2977=
201106202200 METAR MRLB 202200Z 30003KT 9999 FEW035 BKN120 26/23 A2976=
201106202300 METAR MRLB 202300Z 27003KT 9999 FEW035 BKN120 26/23 A2974=
201106210000 METAR MRLB 210000Z 00000KT 9999 FEW035 BKN130 26/24 A2976=
201106210100 METAR MRLB 210100Z 26003KT 9999 FEW035 BKN130 26/23 A2981=
201106210200 METAR MRLB NIL=
201106210300 METAR MRLB NIL=
201106210400 METAR MRLB NIL=
201106210500 METAR MRLB NIL=
201106210600 METAR MRLB NIL=
201106210700 METAR MRLB NIL=
201106210800 METAR MRLB NIL=
201106210900 METAR MRLB NIL=
201106211000 METAR MRLB NIL=
201106211100 METAR MRLB NIL=
201106211200 METAR MRLB 211200Z 17002KT 0800 FG SCT003 SCT030 24/24 A2980=
201106211300 METAR MRLB 211300Z 16002KT 9999 3000SW BR SCT005 SCT250 25/25 A2982=
201106211400 METAR MRLB NIL=
201106211500 METAR MRLB 211500Z 01002KT 9999 SCT020 29/27 A2985=
201106211600 METAR MRLB 211600Z 27005KT 9999 BKN025 31/213 A2979=
201106211700 METAR MRLB 211700Z 20004KT 9999 SCT030 30/23 A2977=
201106211800 METAR MRLB 211800Z 22004KT 9999 BKN030 31/23 A2976=
201106211900 METAR MRLB 211900Z 29006KT 9999 SCT025 BKN250 32/24 A2974=
201106212000 METAR MRLB 212000Z 28011KT 9999 SCT020 SCT250 30/24 A2972 RMK RN DST SW S=
201106212100 METAR MRLB 212100Z 25009KT 9999 SCT020 SCT120 28/24 A2975 RERA RMK RN DST SE S SW=
201106212200 METAR MRLB 212200Z 21010KT 5000 RA SCT020 BKN100 25/23 A2978 RETS RMK VIS 9999 NW=
201106212300 METAR MRLB 212300Z 22002KT 9999 -RA SCT020 BKN100 24/23 A2977 RERA RMK TS DST N=
201106220000 METAR MRLB 220000Z 07003KT 9999 -RA FEW020 BKN120 24/23 A2981=
201106220100 METAR MRLB 220100Z 05005KT 9999 -RA SCT020 BKN100 24/23 A2982 RETSRA RMK TS DST NE=
201106220200 METAR MRLB 220200Z 08002KT 9999 -RA FEW020 BKN100 23/22 A2983 RMK LTNG DST NE=
201106220300 METAR MRLB NIL=
201106220400 METAR MRLB NIL=
201106220500 METAR MRLB NIL=
201106220600 METAR MRLB NIL=
201106220700 METAR MRLB NIL=
201106220800 METAR MRLB NIL=
201106220900 METAR MRLB NIL=
201106221000 METAR MRLB NIL=
201106221100 METAR MRLB NIL=
201106221200 METAR MRLB 221200Z 20003KT 9999 BCFG FEW005 SCT250 23/22 A2984=
201106221300 METAR MRLB 221300Z 34004KT 2000 BR FEW001 SCT012 24/24 A2986=
201106221400 METAR MRLB 221400Z 00000KT 9999 FEW010 BKN250 26/25 A2986=
201106221500 METAR MRLB 221500Z 00000KT 9999 FEW015 BKN250 28/26 A2989=
201106221600 METAR MRLB 221600Z 18005KT 9999 FEW015 BKN250 29/23 A2988=
201106221700 METAR MRLB 221700Z 22005KT 9999 FEW020 BKN250 30/24 A2986=
201106221800 METAR MRLB 221800Z 27004KT 9999 SCT030 BKN250 31/23 A2984=
201106221900 METAR MRLB 221900Z 33003KT 9999 SCT025TCU BKN150 31/23 A2982=
201106222000 METAR MRLB 222000Z 15005KT 9999 SCT025TCU BKN150 32/22 A2980=
201106222100 METAR MRLB 222100Z 28006KT 9999 SCT025TCU BKN240 32/24 A2979 RMK RA DST S=
201106222200 METAR MRLB 222200Z 28008KT 9999 SCT025 BKN250 31/24 A2977=
201106222300 METAR MRLB 222300Z 24008KT 9999 VCSH SCT020TCU BKN150 29/24 A2978 RMK RA DST N W S=
201106230000 METAR MRLB 230000Z 24006KT 9999 SCT025 BKN180 28/24 A2979 RMK RA DST N=
201106230100 METAR MRLB 230100Z 00000KT 9999 SCT020TCU BKN150 27/24 A2981=
201106230200 METAR MRLB NIL=
201106230300 METAR MRLB NIL=
201106230400 METAR MRLB NIL=
201106230500 METAR MRLB NIL=
201106230600 METAR MRLB NIL=
201106230700 METAR MRLB NIL=
201106230800 METAR MRLB NIL=
201106230900 METAR MRLB NIL=
201106231000 METAR MRLB NIL=
201106231100 METAR MRLB NIL=
201106231200 METAR MRLB 231200Z 00000KT 9999 SCT035 BKN130 24/23 A2983=
201106231300 METAR MRLB 231300Z 03006KT 9999 FEW035 BKN240 25/23 A2982=
201106231400 METAR MRLB 231400Z 10005KT 9999 FEW035 BKN250 28/23 A2980=
201106231500 METAR MRLB 231500Z 18004KT 9999 SCT035 BKN250 29/25 A2987=
201106231600 METAR MRLB 231600Z 12003KT 9999 SCT035 BKN240 29/24 A2987=
201106231700 METAR MRLB 231700Z 29006KT 9999 SCT035 BKN240 30/25 A2984 RMK RA DST SE=
201106231800 METAR MRLB 231800Z 22005KT 9999 SCT035 BKN240 30/24 A2982=
201106231900 METAR MRLB 231900Z 26007KT 9999 FEW020TCU SCT035 BKN240 32/25 A2979 RMK RA DST N E=
201106232000 METAR MRLB 232000Z 35004KT 9999 2000E -TSRA FEW015CB SCT025 BKN100 26/22 A2977=
201106232100 METAR MRLB 232100Z 35003KT 9999 SCT035 BKN130 25/22 A2974 RETS=
201106232200 METAR MRLB 232200Z 04005KT 9999 FEW035 BKN130 26/23 A2976=
201106232300 METAR MRLB 232300Z 00000KT 9999 FEW035 BKN130 26/24 A2976=
201106240000 METAR MRLB 240000Z 15003KT 9999 SCT035 BKN120 26/24 A2979 RMK RN DST E/NE=
201106240100 METAR MRLB 240100Z 14005KT 9999 -RA SCT035 BKN100 25/24 A2979=
201106240200 METAR MRLB 240200Z 13004KT 9999 -DZ SCT030 BKN100 24/23 A2981=
201106240300 METAR MRLB NIL=
201106240400 METAR MRLB NIL=
201106240500 METAR MRLB NIL=
201106240600 METAR MRLB NIL=
201106240700 METAR MRLB NIL=
201106240800 METAR MRLB NIL=
201106240900 METAR MRLB NIL=
201106241000 METAR MRLB NIL=
201106241100 METAR MRLB NIL=
201106241200 METAR MRLB NIL=
201106241300 METAR MRLB 241300Z 10004KT 9999 FEW015 BKN100 24/23 A2981=
201106241400 METAR MRLB 241400Z 15003KT 9999 SCT015 BKN100 25/24 A2984=
201106241500 METAR MRLB 241500Z 13003KT 9999 BKN015 SCT100 26/24 A2985 RMK RN DST S/SW=
201106241600 METAR MRLB 241600Z 18003KT 9999 2000SW RA OVC015 26/24 A2986=
201106241700 METAR MRLB 241700Z 17004KT 2000 RA BKN010 SCT100 24/23 A2984=
201106241800 METAR MRLB 241800Z 10002KT 9999 -RA BKN010 24/13 A2983=
201106241900 METAR MRLB 241900Z 03005KT 9999 2000SW RA OVC008 24/24 A2982=
201106242000 METAR MRLB 242000Z 00000KT 9999 -RA SCT010 BKN100 24/24 A2880=
201106242100 METAR MRLB 242100Z 14002KT 5000 RA SCT010 BKN100 23/23 A2977=
201106242200 METAR MRLB 242200Z 05003KT 9999 -RA SCT010 BKN100 24/24 A2976=
201106242300 METAR MRLB 242300Z 07004KT 9999 -RA OVC015 24/24 A2977=
201106250000 METAR MRLB 250000Z 06006KT 9999 SCT020 BKN100 24/24 A2978 RMK RA DST NE E=
201106250100 METAR MRLB 250100Z 06004KT 9999 FEW020 BKN100 23/23 A2980=
201106250200 METAR MRLB 250200Z 10003KT 9999 FEW020 BKN100 23/23 A2983=
201106250300 METAR MRLB NIL=
201106250400 METAR MRLB NIL=
201106250500 METAR MRLB NIL=
201106250600 METAR MRLB NIL=
201106250700 METAR MRLB NIL=
201106250800 METAR MRLB NIL=
201106250900 METAR MRLB NIL=
201106251000 METAR MRLB NIL=
201106251100 METAR MRLB NIL=
201106251200 METAR MRLB 251200Z 10005KT 9999 FEW010 BKN100 24/23 A2981=
201106251300 METAR MRLB 251300Z 11005KT 9999 FEW010 BKN100 24/23 A2983=
201106251400 METAR MRLB 251400Z 11005KT 9999 FEW010 BKN100 25/24 A2983=
201106251500 METAR MRLB 251500Z 12006KT 9999 FEW010 BKN100 25/24 A2985=
201106251600 METAR MRLB 251600Z 12007KT 9999 FEW015 BKN140 27/25 A2985=
201106251700 METAR MRLB 251700Z 10007KT 9000 VCSH SCT012 BKN100 27/25 A2986 RMK RA S SW W=
201106251800 METAR MRLB 251800Z 20006KT 9999 VCSH SCT012 BKN100 27/24 A2985 RMK VIS SW 7KMS=
201106251900 METAR MRLB 251900Z 12005KT 9999 FEW010 BKN100 28/25 A2981=
201106252000 METAR MRLB 252000Z 12005KT 9999 SCT015 BKN180 29/25 A2981=
201106252100 METAR MRLB 252100Z 15005KT 9999 VCSH SCT015TCU BKN180 29/25 A2979 RMK SH S SW W=
201106252200 METAR MRLB 252200Z 24009KT 9999 3000SW RA SCT010 BKN045 25/21 A2978=
201106252300 METAR MRLB 252300Z 00000KT 9999 SCT015 BKN100 25/23 A2979 RERA RMK RN DST ARND=
201106260000 METAR MRLB 260000Z 00000KT 9000 DZ SCT012 BKN100 24/23 A2981=
201106260100 METAR MRLB 260100Z 00000KT 9000 DZ SCT012 OVC080 24/23 A2983=
201106260200 METAR MRLB NIL=
201106260300 METAR MRLB NIL=
201106260400 METAR MRLB NIL=
201106260500 METAR MRLB NIL=
201106260600 METAR MRLB NIL=
201106260700 METAR MRLB NIL=
201106260800 METAR MRLB NIL=
201106260900 METAR MRLB NIL=
201106261000 METAR MRLB NIL=
201106261100 METAR MRLB NIL=
201106261200 METAR MRLB 261200Z 00000KT 0800 FG SCT003 BKN025 23/22 A2983=
201106261300 METAR MRLB 261300Z 00000KT 9999 SCT020 BKN120 23/23 A2984 RMK LOW ST E=
201106261400 METAR MRLB 261400Z 10003KT 9999 FEW035 BKN120 24/22 A2982=
201106261500 METAR MRLB 261500Z 09003KT 9999 FEW035 BKN130 25/23 A2984=
201106261600 METAR MRLB 261600Z 29003KT 9999 FEW035 BKN130 27/22 A2983=
201106261700 METAR MRLB 261700Z 28004KT 9999 FEW035 BKN140 29/22 A2983=
201106261800 METAR MRLB 261800Z 27004KT 9999 SCT035 BKN140 29/23 A2981=
201106261900 METAR MRLB 261900Z 29007KT 9999 FEW035 BKN140 29/22 A2980=
201106262000 METAR MRLB 262000Z 28010KT 9999 SCT035 BKN240 29/21 A2978=
201106262100 METAR MRLB 262100Z 30007KT 9999 SCT035 BKN140 29/22 A2976=
201106262200 METAR MRLB 262200Z 29006KT 9999 FEW035 BKN140 27/22 A2976=
201106262300 METAR MRLB 262300Z 29005KT 9999 FEW035 BKN140 27/22 A2975=
201106270000 METAR MRLB 270000Z 29004KT 9999 SCT035 BKN130 26/22 A2975=
201106270100 METAR MRLB 270100Z 30002KT 9999 SCT035 BKN130 26/22 A2977=
201106270200 METAR MRLB 270200Z 34003KT 9999 SCT030 BKN130 25/23 A2980=
201106270300 METAR MRLB NIL=
201106270400 METAR MRLB NIL=
201106270500 METAR MRLB NIL=
201106270600 METAR MRLB NIL=
201106270700 METAR MRLB NIL=
201106270800 METAR MRLB NIL=
201106270900 METAR MRLB NIL=
201106271000 METAR MRLB NIL=
201106271100 METAR MRLB NIL=
201106271200 METAR MRLB 271200Z 18002KT CAVOK 24/22 A2980 RMK SCT140=
201106271300 METAR MRLB 271300Z 00000KT CAVOK 27/25 A2982 RMK FEW140=
201106271400 METAR MRLB 271400Z 06005KT CAVOK 28/25 A2984 RMK FEW140=
201106271500 METAR MRLB 271500Z 05005KT CAVOK 29/25 A2985 RMK FEW220=
201106271600 METAR MRLB 271600Z 06003KT 9999 FEW035 30/25 A2985=
201106271700 METAR MRLB 271700Z 08003KT 9999 SCT035 31/24 A2985=
201106271800 METAR MRLB 271800Z 14006KT 9999 SCT035 32/23 A2983=
201106271900 METAR MRLB 271900Z 17006KT 9999 BKN035 32/23 A2982=
201106272000 METAR MRLB 272000Z 17006KT 9999 SCT035 33/23 A2980 RMK CB DST SW=
201106272100 METAR MRLB 272100Z 22007KT 9999 SCT035 SCT250 31/23 A2978 RMK RA DST N NE S=
201106272200 METAR MRLB 272200Z 26011KT 9999 VCSH SCT030 SCT250 30/23 A2977 RMK RA N=
201106272300 METAR MRLB 272300Z 32006KT 9999 SCT020 BKN130 29/23 A2978 RETS RMK RA DST N SW=
201106280000 METAR MRLB 280000Z 22005KT 9999 -RA BKN020 SCT130 27/23 A2979=
201106280100 METAR MRLB 280100Z 18002KT 9999 OVC020 26/24 A2981 RMK LTNG DST NE=
201106280200 METAR MRLB NIL=
201106280300 METAR MRLB NIL=
201106280400 METAR MRLB NIL=
201106280500 METAR MRLB NIL=
201106280600 METAR MRLB NIL=
201106280700 METAR MRLB NIL=
201106280800 METAR MRLB NIL=
201106280900 METAR MRLB NIL=
201106281000 METAR MRLB NIL=
201106281100 METAR MRLB NIL=
201106281200 METAR MRLB 281200Z 00000KT 0100 FG VV/// 24/24 A2976=
201106281300 METAR MRLB 281300Z 05004KT 2000 BR FEW001 SCT015 25/24 A2979=
201106281400 METAR MRLB 281400Z 00000KT 9999 SCT015 BKN250 26/24 A2980=
201106281500 METAR MRLB 281500Z 00000KT 9999 FEW020 BKN250 29/24 A2984=
201106281600 METAR MRLB 281600Z 00000KT 9999 SCT025 BKN250 30/24 A2984=
201106281700 METAR MRLB 281700Z 11010KT 9999 SCT025 BKN250 31/23 A2983=
201106281800 METAR MRLB 281800Z 12010KT 9999 SCT025 BKN240 31/23 A2983=
201106281900 METAR MRLB 281900Z 14010KT 9999 SCT025 BKN220 30/23 A2983 RMK RA DST N=
201106282000 METAR MRLB 282000Z 12005KT 9999 SCT035 BKN250 30/22 A2981 RMK CB RA DST N=
201106282100 METAR MRLB 282100Z 13004KT 9999 FEW035 SCT100 BKN250 30/23 A2970=
201106282200 METAR MRLB 282200Z 28006KT 9999 FEW030 SCT100 BKN250 28/24 A2978=
201106282300 METAR MRLB 282300Z 01006KT 9999 FEW035 BKN140 27/24 A2977=
201106290000 METAR MRLB 290000Z 34005KT 9999 VCSH FEW025 BKN140 26/24 A2978 RMK RN SW=
201106290100 METAR MRLB 290100Z 00000KT 9999 FEW035 BKN120 26/24 A2980 RMK TCU DST S=
201106290200 METAR MRLB NIL=
201106290300 METAR MRLB NIL=
201106290400 METAR MRLB NIL=
201106290500 METAR MRLB NIL=
201106290600 METAR MRLB NIL=
201106290700 METAR MRLB NIL=
201106290800 METAR MRLB NIL=
201106290900 METAR MRLB NIL=
201106291000 METAR MRLB NIL=
201106291100 METAR MRLB NIL=
201106291200 METAR MRLB 291200Z 00000KT 9999 SCT035 BKN140 23/22 A2980=
201106291300 METAR MRLB 291300Z 00000KT 9999 SCT035 BKN130 24/23 A2982=
201106291400 METAR MRLB 291400Z 34004KT 9999 SCT030 BKN130 24/23 A2985=
201106291500 METAR MRLB 291500Z 35004KT 9999 SCT035 BKN130 26/24 A2985=
201106291600 METAR MRLB 291600Z 35004KT CAVOK 29/24 A2985 RMK SCT140 BKN250=
201106291700 METAR MRLB 291700Z 34003KT CAVOK 30/23 A2984 RMK BKN140 SCT250=
201106291800 METAR MRLB 291800Z 06009KT 9999 FEW030 32/23 A2982 RMK FEW140 FEW280=
201106291900 METAR MRLB 291900Z 12005KT 9999 FEW030 33/23 A2979 RMK FEW140=
201106292000 METAR MRLB 292000Z 06005KT 9999 SCT030 SCT250 32/22 A2977 RMK CB DST S=
201106292100 METAR MRLB 292100Z 07004KT 9999 FEW035 SCT140 BKN250 31/22 A2975 RMK CB DST N=
201106292200 METAR MRLB 292200Z 25003KT 9999 FEW035 BKN140 33/23 A2974 RMK FEW250 CB DST SE=
201106292300 METAR MRLB 292300Z VRB02KT 9999 FEW030TCU BKN130 33/21 A2975=
201106300000 METAR MRLB 300000Z 00000KT 9999 FEW030TCU BKN130 30/23 A2975 RMK CB S=
201106300100 METAR MRLB 300100Z 19008KT 9999 SCT030TCU BKN120 28/23 A2977 RMK CB=
201106300200 METAR MRLB 300200Z 16007KT 9999 VCTS SHRA FEW020TCU SCT030 BKN100 26/23 A2979 RMK TS SH N NE=
201106300300 METAR MRLB NIL=
201106300400 METAR MRLB NIL=
201106300500 METAR MRLB NIL=
201106300600 METAR MRLB NIL=
201106300700 METAR MRLB NIL=
201106300800 METAR MRLB NIL=
201106300900 METAR MRLB NIL=
201106301000 METAR MRLB NIL=
201106301100 METAR MRLB NIL=
201106301200 METAR MRLB 301200Z 03003KT 9999 FEW010 BKN120 24/23 A2981=
201106301300 METAR MRLB 301300Z 05004KT 9999 FEW010 BKN140 25/24 A2981=
201106301400 METAR MRLB 301400Z 15003KT 9999 FEW010 BKN130 25/24 A2982=
201106301500 METAR MRLB 301500Z 15005KT 9999 FEW020 BKN240 26/25 A2982=
201106301600 METAR MRLB 301600Z 14004KT 9999 FEW020 BKN140 27/25 A2982=
201106301700 METAR MRLB NIL=
201106301800 METAR MRLB 301800Z 00000KT 9999 SCT030 BKN250 30/24 A2979=
201106301900 METAR MRLB 301900Z 27003KT 9999 FEW035 BKN250 31/25 A2977=
201106302000 METAR MRLB 302000Z 20004KT 9999 SCT030 SCT250 31/25 A2975=
201106302100 METAR MRLB 302100Z 27010KT 9999 SCT030 BKN250 31/25 A2974=
201106302200 METAR MRLB 302200Z 27010KT 9999 SCT025 BKN250 30/24 A2973 RMK RN DST NE E=
201106302300 METAR MRLB 302300Z 25008KT 9999 BKN020 SCT250 28/24 A2975 RMK RN DST NE SE TS RN DST NE=
201107010000 METAR MRLB 010000Z 21005KT 9999 4000E TSRA FEW010CB BKN020 27/24 A2974=
201107010100 METAR MRLB 010100Z 15005KT 9999 -RA SCT020 BKN100 25/22 A2976 RETSSH RMK LTNG DST NE SE=
201107010200 METAR MRLB NIL=
201107010300 METAR MRLB NIL=
201107010400 METAR MRLB NIL=
201107010500 METAR MRLB NIL=
201107010600 METAR MRLB NIL=
201107010700 METAR MRLB NIL=
201107010800 METAR MRLB NIL=
201107010900 METAR MRLB NIL=
201107011000 METAR MRLB NIL=
201107011100 METAR MRLB NIL=
201107011200 METAR MRLB 011200Z 13003KT CAVOK 23/22 A2978 RMK FEW100 BKN180=
201107011300 METAR MRLB 011300Z 14003KT 9999 FEW010 BKN220 24/23 A2980=
201107011400 METAR MRLB 011400Z 12003KT FEW010 BKN250 25/24 A2981=
201107011500 METAR MRLB 011500Z 11004KT CAVOK 26/24 A2982 RMK BKN150=
201107011600 METAR MRLB 011600Z 14004KT CAVOK 27/23 A2983 RMK FEW100 BKN250=
201107011700 METAR MRLB 011700Z 18005KT 9999 FEW020 BKN250 29/22 A2984=
201107011800 METAR MRLB 011800Z 22005KT 9999 VCSH FEW030TCU BKN150 30/22 A2983=
201107011900 METAR MRLB 011900Z 24010KT 9999 SCT030 BKN150 28/23 A2981 RMK TCU RN DST S=
201107012000 METAR MRLB 012000Z 25008KT 9999 SCT025TCU BKN120 28/23 A2979=
201107012100 METAR MRLB 012100Z 18006KT 9000 RA FEW01TCU SCT025 BKN100 24/21 A2979 RMK VIS 6000 N S=
201107012200 METAR MRLB 012200Z 00000KT 9999 DZ SCT020CB BKN100 25/22 A2975 RERA=
201107012300 METAR MRLB 012300Z 04005KT 9999 DZ SCT035 BKN120 24/22 A2980=
201107020000 METAR MRLB 020000Z 01003KT 9999 DZ SCT030 BKN140 24/23 A2983=
201107020100 METAR MRLB 020100Z 00000KT 9999 FEW025 BKN100 24/23 A2985 RMK RN DST N=
201107020200 METAR MRLB 020200Z 00000KT 9999 FEW030 BKN100 24/23 A2987 RN ARND DST=
201107020300 METAR MRLB NIL=
201107020400 METAR MRLB NIL=
201107020500 METAR MRLB NIL=
201107020600 METAR MRLB NIL=
201107020700 METAR MRLB NIL=
201107020800 METAR MRLB NIL=
201107020900 METAR MRLB NIL=
201107021000 METAR MRLB NIL=
201107021100 METAR MRLB NIL=
201107021200 METAR MRLB 021200Z 00000KT 3000 BR SCT010 BKN120 22/22 A2982=
201107021300 METAR MRLB 021300Z 00000KT 9999 FEW035 BKN140 25/23 A2982=
201107021400 METAR MRLB 021400Z 00000KT 9999 FEW035 SCT140 27/24 A2983=
201107021500 METAR MRLB 021500Z 24004KT 9999 FEW035 BKN250 28/25 A2985=
201107021600 METAR MRLB 021600Z 15005KT 9999 FEW035 BKN140 28/25 A2985=
201107021700 METAR MRLB 021700Z 22003KT 9999 FEW035 BKN140 29/25 A2985=
201107021800 METAR MRLB 021800Z 22005KT 9999 SCT035 BKN140 30/24 A2984=
201107021900 METAR MRLB 021900Z 26004KT 9999 SCT035 BKN140 31/24 A2982=
201107022000 METAR MRLB 022000Z 27009KT 9999 SCT035 BKN140 31/24 A2979 RMK RN DST E=
201107022100 METAR MRLB 022100Z 27008KT 9999 2000E RA FEW020CB SCT030 BKN130 30/24 A2977=
201107022200 METAR MRLB 022200Z 30003KT 9999 -RA SCT030 BKN100 25/21 A2974 RERA=
201107022300 METAR MRLB 022300Z 16010KT 9999 -RA SCT025 BKN100 23/21 A2976=
201107030000 METAR MRLB 030000Z 14005KT 9999 -RA SCT030 BKN100 23/21 A2978=
201107030100 METAR MRLB 030100Z 07009KT 9999 -RA SCT025 BKN100 23/21 A2981=
201107030200 METAR MRLB NIL=
201107030300 METAR MRLB NIL=
201107030400 METAR MRLB NIL=
201107030500 METAR MRLB NIL=
201107030600 METAR MRLB NIL=
201107030700 METAR MRLB NIL=
201107030800 METAR MRLB NIL=
201107030900 METAR MRLB NIL=
201107031000 METAR MRLB NIL=
201107031100 METAR MRLB NIL=
201107031200 METAR MRLB 031200Z 09003KT 9999 SCT010 BKN100 23/23 A2980=
201107031300 METAR MRLB 031300Z 08004KT 9999 SCT010 BKN100 24/23 A2980=
201107031400 METAR MRLB 031400Z 09005KT 9999 SCT015 BKN120 26/25 A2981=
201107031500 METAR MRLB 031500Z 12004KT 9999 SCT020 SCT250 27/22 A2984=
201107031600 METAR MRLB 031600Z 14004KT 9999 SCT030 BKN120 29/22 A2985=
201107031700 METAR MRLB 031700Z 17003KT 9999 SCT030 SCT120 29/24 A2984=
201107031800 METAR MRLB 031800Z 13005KT 9999 -RA SCT025 SCT120 30/24 A2984 RMK RA DST S SW=
201107031900 METAR MRLB 031900Z 13003KT 9999 -RA SCT020 BKN100 27/23 A2980 RMK TS DST S=
201107032000 METAR MRLB 032000Z 26007KT 9999 FEW020 BKN100 27/24 A2978 RMK RA DST E SE S=
201107032100 METAR MRLB 032100Z 23005KT 9999 FEW020 BKN120 27/24 A2977 RMK RN DST NE/E/SE=
201107032200 METAR MRLB 032200Z 00000KT 9999 SCT020 BKN120 28/24 A2977 RMK RN DST NE=
201107032300 METAR MRLB 032300Z 28002KT 9999 SCT020 BKN100 27/23 A2977 RMK RA DST N/W=
201107040000 METAR MRLB 040000Z 01004KT 9999 -RA SCT015 BKN100 26/23 A2977=
201107040100 METAR MRLB 040100Z VRB02KT 9999 FEW020 BKN100 25/23 A2979=
201107040200 METAR MRLB 040200Z 35003KT 9999 FEW020 BKN100 25/23 A2981=
201107040300 METAR MRLB NIL=
201107040400 METAR MRLB NIL=
201107040500 METAR MRLB NIL=
201107040600 METAR MRLB NIL=
201107040700 METAR MRLB NIL=
201107040800 METAR MRLB NIL=
201107040900 METAR MRLB NIL=
201107041000 METAR MRLB NIL=
201107041100 METAR MRLB NIL=
201107041200 METAR MRLB 041200Z 00000KT CAVOK 23/22 A2982 RMK FEW100 SCT250 ST LOW SW=
201107041300 METAR MRLB 041300Z 00000KT CAVOK 26/22 A2983 RMK FEW100 SCT250 ST LOW ARND=
201107041400 METAR MRLB 041400Z 00000KT CAVOK 28/23 A2985 RMK SCT250 ST LOW S=
201107041500 METAR MRLB 041500Z 08004KT 9999 FEW035 SCT270 30/22 A2987 RMK FEW100 FEW140 CB RA DST NE E HZ ARND=
201107041600 METAR MRLB 041600Z 25006KT 9999 FEW015 SCT250 30/22 A2985=
201107041700 METAR MRLB 041700Z 30006KT 9999 FEW015 SCT140 30/22 A2985=
201107041800 METAR MRLB 041800Z 27008KT 9999 SCT020 BKN120 30/22 A2983=
201107041900 METAR MRLB 041900Z 28008KT 9999 SCT025TCU BKN150 31/23 A2980 RMK TCU RA ARND=
201107042000 METAR MRLB 042000Z 28010KT 9999 VCSH SCT020TCU BKN100 28/22 A2979 RMK TCU RA ARND=
201107042100 METAR MRLB 042100Z 28009KT 9999 -TSRA SCT015CB BKN100 27/23 A2975 RMK VIS S 5KMS=
201107042200 METAR MRLB 042200Z 01004KT 9999 DZ SCT020 BKN100 26723 A2976=
201107042300 METAR MRLB 042300Z 01005KT 9999 SCT025 BKN150 26/23 A2976=
201107050000 METAR MRLB 050000Z 01004KT 9999 FEW025 SCT150 25/23 A2978 RMK CB DST E=
201107050100 METAR MRLB 050100Z 34004KT 9999 FEW030 SCT140 25/23 A2980 RMK TCU DST S=
201107050200 METAR MRLB 050200Z 00000KT 9999 FEW030 SCT120 25/23 A2982=
201107050300 METAR MRLB NIL=
201107050400 METAR MRLB NIL=
201107050500 METAR MRLB NIL=
201107050600 METAR MRLB NIL=
201107050700 METAR MRLB NIL=
201107050800 METAR MRLB NIL=
201107050900 METAR MRLB NIL=
201107051000 METAR MRLB NIL=
201107051100 METAR MRLB NIL=
201107051200 METAR MRLB 051200Z 00000KT 9999 SCT035 BKN130 24/23 A2984=
201107051300 METAR MRLB 051300Z 35004KT 9999 FEW035 BKN250 25/24 A2985=
201107051400 METAR MRLB NIL=
201107051500 METAR MRLB 051500Z 29003KT 9999 SCT035 BKN250 29/25 A2987=
201107051600 METAR MRLB 051600Z 26005KT 9999 SCT035 BKN250 29/25 A2987=
201107051700 METAR MRLB 051700Z 25006KT 9999 SCT035 BKN240 30/24 A2986=
201107051800 METAR MRLB 051800Z 27008KT 9999 SCT035 BKN140 30/23 A2985=
201107051900 METAR MRLB 051900Z 28010KT 9999 SCT035 BKN140 29/24 A2983 RMK RA N=
201107052000 METAR MRLB 052000Z 28009KT 9999 SCT035 BKN140 29/24 A2981 RMK RA NE=
201107052100 METAR MRLB 052100Z 28011KT 9999 SCT035 BKN240 30/24 A2978=
201107052200 METAR MRLB 052200Z 28010KT 9999 SCT035 BKN240 29/24 A2978=
201107052300 METAR MRLB 052300Z 28010KT 9999 FEW035 BKN240 28/23 A2978=
201107060000 METAR MRLB 060000Z 26008KT 9999 FEW035 BKN240 28/24 A2980=
201107060100 METAR MRLB 060100Z 30004KT 9999 SCT035 BKN140 27/23 A2982=
201107060200 METAR MRLB NIL=
201107060300 METAR MRLB NIL=
201107060400 METAR MRLB NIL=
201107060500 METAR MRLB NIL=
201107060600 METAR MRLB NIL=
201107060700 METAR MRLB NIL=
201107060800 METAR MRLB NIL=
201107060900 METAR MRLB NIL=
201107061000 METAR MRLB NIL=
201107061100 METAR MRLB NIL=
201107061200 METAR MRLB 061200Z 05005KT 9999 BKN015 SCT250 23/22 A2982=
201107061300 METAR MRLB 061300Z 03003KT 9999 FEW015 BKN250 26/24 A2983=
201107061400 METAR MRLB 061400Z 00000KT 9999 FEW020 BKN250 28/25 A2982=
201107061500 METAR MRLB 061500Z 05002KT CAVOK 30/25 A2982 RMK OVC250=
201107061600 METAR MRLB 061600Z 29003KT 9999 FEW030 BKN250 31/24 A2982=
201107061700 METAR MRLB 061700Z 19004KT 9999 FEW030 BKN250 31/24 A2982=
201107061800 METAR MRLB 061800Z 10011KT 9999 SCT035 BKN250 32/22 A2981=
201107061900 METAR MRLB 061900Z 08008KT 9999 SCT035 BKN250 32/22 A2980=
201107062000 METAR MRLB 062000Z 06006KT 9999 SCT035 SCT250 33/22 A2977=
201107062100 METAR MRLB 062100Z 08006KT 9999 BKN030 SCT120 32/23 A2977 RMK RN DST N SSE=
201107062200 METAR MRLB 062200Z 25007KT 9999 SCT025 BKN120 30/22 A2977 RMK RN DST N SSW=
201107062300 METAR MRLB 062300Z 08003KT 9999 FEW020 BKN120 29/24 A2977 RMK RN DST S=
201107070000 METAR MRLB 070000Z 13005KT 9999 FEW020 BKN120 27/22 A2979 RMK RN DST SW=
201107070100 METAR MRLB 070100Z 14004KT 9999 FEW020 BKN120 27/23 A2981=
201107070200 METAR MRLB 070200Z 14006KT 9999 FEW030 BKN120 26/23 A2982=
201107070300 METAR MRLB NIL=
201107070400 METAR MRLB NIL=
201107070500 METAR MRLB NIL=
201107070600 METAR MRLB NIL=
201107070700 METAR MRLB NIL=
201107070800 METAR MRLB NIL=
201107070900 METAR MRLB NIL=
201107071000 METAR MRLB NIL=
201107071100 METAR MRLB NIL=
201107071200 METAR MRLB 071200Z 16006KT 9999 FEW025 SCT100 29/23 A2980=
201107071300 METAR MRLB 071300Z 14005KT 9999 FEW010 SCT120 26/24 A2982 RMK ST LOW ARND=
201107071400 METAR MRLB 071400Z 08005KT 9999 FEW015 BKN250 28/23 A2982=
201107071500 METAR MRLB 071500Z 09004KT 9999 FEW015 SCT250 29/23 A2985=
201107071600 METAR MRLB 071600Z 10006KT 9999 FEW020 SCT150 29/23 A2983=
201107071700 METAR MRLB 071700Z 14006KT 9999 FEW020 SCT150 28/23 A2983=
201107071800 METAR MRLB 071800Z 13005KT 9999 FEW025 SCT140 29/23 A2983=
201107071900 METAR MRLB 071900Z 12006KT 9999 FEW025 BKN250 31/22 A2980 RMK TCU DST N=
201107072000 METAR MRLB 072000Z 10006KT 9999 FEW025 BKN150 30/22 A2977=
201107072100 METAR MRLB 072100Z 15004KT CAVOK 30/22 A2974 RMK FEW100 BKN250=
201107072200 METAR MRLB 072200Z 33005KT CAVOK 29/22 A2975 RMK FEW100 BKN250=
201107072300 METAR MRLB 072300Z 27005KT 9999 FEW030 BKN140 28/23 A2974=
201107080000 METAR MRLB 080000Z 28005KT CAVOK 27/23 A2975 RMK FEW100 SCT250=
201107080100 METAR MRLB NIL=
201107080200 METAR MRLB NIL=
201107080300 METAR MRLB NIL=
201107080400 METAR MRLB NIL=
201107080500 METAR MRLB NIL=
201107080600 METAR MRLB NIL=
201107080700 METAR MRLB NIL=
201107080800 METAR MRLB NIL=
201107080900 METAR MRLB NIL=
201107081000 METAR MRLB NIL=
201107081100 METAR MRLB NIL=
201107081200 METAR MRLB 081200Z 23003KT 2000 BR SCT003 BKN015 23/22 A2979=
201107081300 METAR MRLB 081300Z 00000KT 9999 3000SW BR SCT002 BKN010 24/23 A2978=
201107081400 METAR MRLB 081400Z 00000KT 9999 SCT025 BKN130 24/23 A2979=
201107081500 METAR MRLB 081500Z 19003KT 9999 SCT015 BKN120 25/23 A2979=
201107081600 METAR MRLB 081600Z 16003KT 9999 SCT015 BKN120 26/23 A2982=
201107081700 METAR MRLB 081700Z 15004KT 9999 FEW035 BKN240 28/24 A2980=
201107081800 METAR MRLB 081800Z 20003KT 9999 SCT035 BKN240 30/24 A2978=
201107081900 METAR MRLB 081900Z 34003KT 9999 SCT035 BKN250 31/24 A2976=
201107082000 METAR MRLB 082000Z 17003KT 9999 SCT030 BKN140 32/25 A2974=
201107082100 METAR MRLB 082100Z 27009KT 9999 SCT035 BKN140 30/25 A2973=
201107082200 METAR MRLB 082200Z 27008KT 9999 SCT035 BKN140 28/24 A2973=
201107082300 METAR MRLB 082300Z 20006KT 9999 FEW035 BKN140 27/25 A2972 RMK RN DST S=
201107090000 METAR MRLB 090000Z 25003KT 9999 FEW035 BKN140 27/24 A2974=
201107090100 METAR MRLB 090100Z 17003KT 9999 SCT035 BKN130 26/24 A2976=
201107090200 METAR MRLB 090200Z 15003KT 9999 SCT030 BKN130 25/23 A2979=
201107090300 METAR MRLB NIL=
201107090400 METAR MRLB NIL=
201107090500 METAR MRLB NIL=
201107090600 METAR MRLB NIL=
201107090700 METAR MRLB NIL=
201107090800 METAR MRLB NIL=
201107090900 METAR MRLB NIL=
201107091000 METAR MRLB NIL=
201107091100 METAR MRLB NIL=
201107091200 METAR MRLB 091200Z 00000KT 0200 FG VV/// 24/23 A2978=
201107091300 METAR MRLB 091300Z 00000KT 3000 BR FEW002 BKN250 28/26 A2979=
201107091400 METAR MRLB 091400Z 35002KT 9999 FEW010 BKN250 29/25 A2982=
201107091500 METAR MRLB 091500Z 00000KT 9999 FEW020 BKN250 30/25 A2985=
201107091600 METAR MRLB 091600Z 11002KT 9999 SCT030 SCT250 31/24 A2982=
201107091700 METAR MRLB 091700Z 26004KT 9999 BKN030 SCT250 31/24 A2980=
201107091800 METAR MRLB 091800Z 25008KT 9999 BKN030 SCT250 30/25 A2980=
201107091900 METAR MRLB 091900Z 26006KT 9999 SCT035 BKN250 32/24 A2979=
201107092000 METAR MRLB 092000Z 26004KT 9999 SCT030 SCT250 33/25 A2977=
201107092100 METAR MRLB 092100Z 30009KT 9999 SCT035 BKN250 31/25 A2976=
201107092200 METAR MRLB 092200Z 30005KT 9999 FEW035 BKN250 31/25 A2974=
201107092300 METAR MRLB 092300Z 30003KT 9999 FEW035 BKN250 31/25 A2975=
201107100000 METAR MRLB 100000Z 08002KT 9999 FEW035 BKN140 31/25 A2976=
201107100100 METAR MRLB 100100Z 27002KT 9999 FEW035 BKN140 28/25 A2976=
201107100200 METAR MRLB NIL=
201107100300 METAR MRLB NIL=
201107100400 METAR MRLB NIL=
201107100500 METAR MRLB NIL=
201107100600 METAR MRLB NIL=
201107100700 METAR MRLB NIL=
201107100800 METAR MRLB NIL=
201107100900 METAR MRLB NIL=
201107101000 METAR MRLB NIL=
201107101100 METAR MRLB NIL=
201107101200 METAR MRLB 101200Z 00000KT 9000 DZ SCT015 BKN080 25/24 A2980 RMK VIS NE 6KM=
201107101300 METAR MRLB 101300Z 04005KT 9999 -RA SCT015 BKN070 23/22 A2981 RMK VIS NE 7KMS=
201107101400 METAR MRLB 101400Z 11003KT 9999 -RA SCT025 BKN100 24/23 A2980=
201107101500 METAR MRLB 101500Z 04005KT 9999 FEW035 BKN120 25/23 A2981 RERA=
201107101600 METAR MRLB 101600Z 33003KT 9999 FEW035 BKN150 28/23 A2982=
201107101700 METAR MRLB 101700Z 24005KT 999 FEW030 BKN140 29/24 A2987=
201107101800 METAR MRLB 101800Z 24005KT 9999 FEW025 BKN140 31/24 A2982=
201107101900 METAR MRLB 101900Z 04006KT 9999 FEW020 BKN240 33/22 A2979=
201107102000 METAR MRLB 102000Z 08006KT 9999 FEW020 BKN150 33/22 A2978=
201107102100 METAR MRLB 102100Z 07006KT 9999 FEW025 BKN170 33/21 A2976=
201107102200 METAR MRLB 102200Z 27005KT 9999 FEW020TCU SCT100 BKN200 30/22 A2975 RMK RN DST S=
201107102300 METAR MRLB 102300Z 24008KT 9999 SCT030 BKN140 28/22 A2976 RMK TCU DST S SW=
201107110000 METAR MRLB 110000Z 20006KT 9999 FEW020 SCT100 27/24 A2978=
201107110100 METAR MRLB NIL=
201107110200 METAR MRLB NIL=
201107110300 METAR MRLB NIL=
201107110400 METAR MRLB NIL=
201107110500 METAR MRLB NIL=
201107110600 METAR MRLB NIL=
201107110700 METAR MRLB NIL=
201107110800 METAR MRLB NIL=
201107110900 METAR MRLB NIL=
201107111000 METAR MRLB NIL=
201107111100 METAR MRLB NIL=
201107111200 METAR MRLB 111200Z 00000KT 9999 FEW035 BKN140 24/23 A2980=
201107111300 METAR MRLB 111300Z 00000KT 9999 SCT035 BKN140 25/24 A2983=
201107111400 METAR MRLB 111400Z 17003KT 9999 SCT025 BKN140 28/25 A2984=
201107111500 METAR MRLB 111500Z 09004KT 9999 SCT020 BKN140 28/24 A2985=
201107111600 METAR MRLB 111600Z 14005KT 9999 SCT025 BKN140 29/23 A2987 RMK RN DST NE=
201107111700 METAR MRLB 111700Z 13003KT 9999 FEW020TCU SCT030 BKN140 31/24 A2985=
201107111800 METAR MRLB 111800Z 18004KT 9999 SCT020 BKN140 31/23 A2984 RMK RN DST S N=
201107111900 METAR MRLB 111900Z 20007KT 9999 -RA FEW007CB SCT020 BKN100 24/23 A2982 RETS RMK TS DST N=
201107112000 METAR MRLB 112000Z 35004KT 9999 FEW010 SCT020 BKN100 24/23 A2981 RMK RN DST S NE=
201107112100 METAR MRLB 112100Z 03005KT 9999 SCT020 BKN100 23/22 A2980 RMK RN DST E=
201107112200 METAR MRLB 112200Z 23003KT 9999 -RA SCT015 BKN100 23/22 A2981=
201107112300 METAR MRLB 112300Z 07003KT 9999 -RA FEW008 SCT020 BKN100 24/23 A2983=
201107120000 METAR MRLB 120000Z 00000KT 9999 RA SCT007 BKN020 24/23 A2984=
201107120100 METAR MRLB 120100Z 10003KT 9999 DZ SCT015 BKN100 23/23 A2988=
201107120200 METAR MRLB 120200Z 10003KT 9999 DZ SCT015 BKN100 23/23 A2988=
201107120300 METAR MRLB NIL=
201107120400 METAR MRLB NIL=
201107120500 METAR MRLB NIL=
201107120600 METAR MRLB NIL=
201107120700 METAR MRLB NIL=
201107120800 METAR MRLB NIL=
201107120900 METAR MRLB NIL=
201107121000 METAR MRLB NIL=
201107121100 METAR MRLB NIL=
201107121200 METAR MRLB 121200Z 12003KT 9999 FEW005 BKN120 23/22 A2986=
201107121300 METAR MRLB 121300Z 12004KT 9999 FEW008 BKN120 24/23 A2987=
201107121400 METAR MRLB 121400Z 10005KT 9999 FEW010 BKN120 25/23 A2987=
201107121500 METAR MRLB 121500Z 11004KT 9999 FEW015 BKN120 27/23 A2988=
201107121600 METAR MRLB 121600Z 13003KT 9999 SCT020 BKN120 28/23 A2990=
201107121700 METAR MRLB 121700Z 18002KT 9999 SCT030 BKN120 29/23 A2991=
201107121800 METAR MRLB 121800Z 17004KT 9999 FEW035 BKN120 28/24 A2999=
201107121900 METAR MRLB 121900Z 18005KT 9999 SCT030 BKN120 29/24 A2989 RMK RN DST N NE=
201107122000 METAR MRLB 122000Z 18005KT 9999 SCT025 BKN120 28/23 A2988 RMK RN DST NE=
201107122100 METAR MRLB 122100Z 00000KT 9999 VCSH OVC020 27/22 A2986=
201107122200 METAR MRLB 122200Z 02004KT 9999 -RA FEW020 BKN100 25/23 A2985=
201107122300 METAR MRLB 122300Z 01004KT 9999 -RA FEW020 BKN100 24/23 A2986=
201107130000 METAR MRLB 130000Z 02003KT 9999 -RA FEW020 BKN100 24/23 A2987=
201107130100 METAR MRLB 130100Z 12003KT 9999 -RA FEW020 BKN100 24/23 A2990=
201107130200 METAR MRLB 130200Z 30002KT 9999 FEW020 BKN100 24/23 A2992=
201107130300 METAR MRLB NIL=
201107130400 METAR MRLB NIL=
201107130500 METAR MRLB NIL=
201107130600 METAR MRLB NIL=
201107130700 METAR MRLB NIL=
201107130800 METAR MRLB NIL=
201107130900 METAR MRLB NIL=
201107131000 METAR MRLB NIL=
201107131100 METAR MRLB NIL=
201107131200 METAR MRLB 131200Z 33004KT 9999 RA SCT008 BKN015 23/22 A2989=
201107131201 METAR MRLB 131201Z 33004KT 1000 RA SCT008 BKN015 23/22 A2989=
201107131300 METAR MRLB 131300Z 06010KT 1000 RA SCT005 BKN025 23/22 A2990=
201107131400 METAR MRLB 131400Z 08003KT 5000 RA SCT010 BKN040 23/22 A2992=
201107131500 METAR MRLB 131500Z 05004KT 9000 -RA SCT015 BKN100 24/23 A2992 RERA RMK ST LOW ARND=
201107131600 METAR MRLB 131600Z 09004KT 9999 DZ SCT025 BKN100 25/23 A2991 RMK ST LOW ARND=
201107131700 METAR MRLB 131700Z 00000KT 9999 SCT020 BKN120 27/23 A2992 RMK TCU DST ARND=
201107131800 METAR MRLB 131800Z 24003KT 9999 VCSH SCT015TCU BKN100 28/22 A2992=
201107131900 METAR MRLB 131900Z 31005KT 9000 1500NE RA SCT012 BKN100 24/23 A2990=
201107132000 METAR MRLB 132000Z 06005KT 8000 RA SCT012CB BKN080 23/22 A2990 RMK VIS N S 3KM=
201107132100 METAR MRLB 132100Z 35003KT 9000 -RA FEW010 SCT025 BKN100 23/21 A2987=
201107132200 METAR MRLB 132200Z 29003KT 9999 -RA SCT025 BKN100 23/22 A2987=
201107132300 METAR MRLB 132300Z 25005KT 9999 -RA FEW005 SCT015 BKN100 23/22 A2987=
201107140000 METAR MRLB 140000Z 24003KT 9999 DZ FEW015 BKN100 23/21 A2987 RMK LW ST ARND=
201107140100 METAR MRLB 140100Z 00000KT 9999 SCT020 BKN100 23/22 A2988=
201107140200 METAR MRLB 140200Z 00000KT 9999 SCT020 BKN100 23/22 A2988=
201107140300 METAR MRLB NIL=
201107140400 METAR MRLB NIL=
201107140500 METAR MRLB NIL=
201107140600 METAR MRLB NIL=
201107140700 METAR MRLB NIL=
201107140800 METAR MRLB NIL=
201107140900 METAR MRLB NIL=
201107141000 METAR MRLB NIL=
201107141100 METAR MRLB NIL=
201107141200 METAR MRLB 141200Z 10003KT 0400 FG VV/// 22/21 A2985=
201107141300 METAR MRLB 141300Z 13004KT 9999 4000S BCFG SCT004 SCT010 22/21 A2986=
201107141400 METAR MRLB 141400Z 10004KT 9999 SCT020 BKN140 25/22 A2987=
201107141500 METAR MRLB 141500Z 10005KT 9999 FEW030 BKN240 26/23 A2987=
201107141600 METAR MRLB 141600Z 09006KT 9999 FEW035 BKN240 28/22 A2987=
201107141700 METAR MRLB 141700Z 10007KT 9999 FEW035 BKN240 28/22 A2986=
201107141800 METAR MRLB 141800Z 13006KT 9999 SCT035 BKN240 29/22 A2984=
201107141900 METAR MRLB 141900Z 13004KT 9999 SCT030 BKN240 30/23 A2982 RMK RN DST E=
201107142000 METAR MRLB 142000Z 21005KT 9999 VCSH FEW015TCU SCT030 BKN240 30/23 A2980=
201107142100 METAR MRLB 142100Z 28004KT 9999 SCT025 BKN140 26/24 A2977 RMK RA DST N=
201107142200 METAR MRLB 142200Z 27004KT 9999 SCT030 BKN140 25/23 A2977 RMK RA E SW=
201107142300 METAR MRLB 142300Z 24004KT 9999 -RA FEW010 BKN030 25/23 A2978=
201107150000 METAR MRLB 150000Z 07006KT 5000 RA SCT008 BKN025 24/23 A2979=
201107150100 METAR MRLB 150100Z 15004KT 9999 SCT015 BKN100 23/22 A2979 RERA=
201107150200 METAR MRLB 150200Z 17003KT 9999 SCT020 BKN100 23/22 A2981=
201107150300 METAR MRLB NIL=
201107150400 METAR MRLB NIL=
201107150500 METAR MRLB NIL=
201107150600 METAR MRLB NIL=
201107150700 METAR MRLB NIL=
201107150800 METAR MRLB NIL=
201107150900 METAR MRLB NIL=
201107151000 METAR MRLB NIL=
201107151100 METAR MRLB NIL=
201107151200 METAR MRLB 151200Z 21002KT 9999 SCT010 BKN120 23/22 A2981=
201107151300 METAR MRLB 151300Z 20002KT 9999 FEW010 BKN120 25/23 A2982=
201107151400 METAR MRLB NIL=
201107151500 METAR MRLB 151500Z 05002KT 9999 SCT020 SCT130 28/23 A2984=
201107151600 METAR MRLB 151600Z 13004KT 9999 SCT020 BKN120 28/23 A2986 RA DST N=
201107151700 METAR MRLB 151700Z 35007KT 9999 SCT020 BKN120 27/23 A2985 RMK RA N NE S=
201107151800 METAR MRLB 151800Z 34009KT 9999 SCT020 BKN120 27/22 A2983 RMK RA N NE S=
201107151900 METAR MRLB 151900Z 34006KT 9999 SCT020 BKN020 28/23 A2981 RMK RA N/NE/SE/S/S W=
201107152000 METAR MRLB 152000Z 06005KT 9999 SCT015 BKN120 29/23 A2979 RMK RA DST SW/W=
201107152100 METAR MRLB 152100Z 26008KT 9999 VCSH SCT010 BKN120 29/23 A2978=
201107152200 METAR MRLB 152200Z 26006KT 9999 VCSH SCT010 BKN020 27/23 A2976 RMK TS DST E=
201107152300 METAR MRLB 152300Z 16003KT 9999 -RA SCT010 BKN020 25/23 A2976 RERA=
201107160000 METAR MRLB 160000Z 35004KT 9999 FEW020 BKN120 25/24 A2977 RMK RN DST SES=
201107160100 METAR MRLB NIL=
201107160200 METAR MRLB NIL=
201107160300 METAR MRLB NIL=
201107160400 METAR MRLB NIL=
201107160500 METAR MRLB NIL=
201107160600 METAR MRLB NIL=
201107160700 METAR MRLB NIL=
201107160800 METAR MRLB NIL=
201107160900 METAR MRLB NIL=
201107161000 METAR MRLB NIL=
201107161100 METAR MRLB NIL=
201107161200 METAR MRLB 161200Z 00000KT 9999 RA SCT015 BKN100 23/22 A2979=
201107161300 METAR MRLB 161300Z 08003KT 9999 RA SCT015 BKN100 23/22 A2981=
201107161400 METAR MRLB 161400Z 00000KT 9000 -RA SCT015 BKN100 23/22 A2982 RMK LOW ST ARND=
201107161500 METAR MRLB 161500Z 00000KT 9999 FEW010 SCT020 BKN100 27/22 A2984 RERA=
201107161600 METAR MRLB 161600Z 29007KT 9999 SCT020 BKN140 28/22 A2984=
201107161700 METAR MRLB 161700Z 26003KT 9999 DZ SCT020 BKN120 28/24 A2984=
201107161800 METAR MRLB 161800Z 27008KT 9999 SCT020 BKN100 29/23 A2982 RMK RN DST E=
201107161900 METAR MRLB 161900Z 27010KT 9999 VCSH SCT020 BKN100 28/23 A2981=
201107162000 METAR MRLB 162000Z 27007KT 9999 -RA SCT018 BKN100 26/23 A2979 RMK VIS 8KMS=
201107162100 METAR MRLB 162100Z 27005KT 9999 -RA SCT018 BKN100 25/24 A2978=
201107162200 METAR MRLB 162200Z 31003KT 9999 DZ SCT020 BKN100 25/23 A2978=
201107162300 METAR MRLB 162300Z 15007KT 9000 RA FEW010 SCT020 BKN070 24/22 A2979=
201107170000 METAR MRLB 170000Z 14005KT 8000 -RA SCT012 OVC080 23/22 A2980=
201107170100 METAR MRLB 170100Z 14004KT 8000 -RA SCT015 OVC080 23/22 A2980=
201107170200 METAR MRLB NIL=
201107170300 METAR MRLB NIL=
201107170400 METAR MRLB NIL=
201107170500 METAR MRLB NIL=
201107170600 METAR MRLB NIL=
201107170700 METAR MRLB NIL=
201107170800 METAR MRLB NIL=
201107170900 METAR MRLB NIL=
201107171000 METAR MRLB NIL=
201107171100 METAR MRLB NIL=
201107171200 METAR MRLB 171200Z 13004KT 9999 SCT015 BKN100 22/22 A2984 RMK ST LOW SW=
201107171300 METAR MRLB 171300Z 12003KT 9999 SCT030 BKN100 23/22 A2985=
201107171400 METAR MRLB 171400Z 10004KT 9999 FEW030 BKN130 25/23 A2984=
201107171500 METAR MRLB 171500Z 13007KT 9999 SCT030 BKN140 26/23 A2987=
201107171600 METAR MRLB 171600Z 12010KT 9999 SCT030 BKN140 27/23 A2987=
201107171700 METAR MRLB 171700Z 14009KT 9999 SCT035 BKN140 28/23 A2987=
201107171800 METAR MRLB 171800Z 13010KT 9999 SCT030 BKN140 29/23 A2987 RMK RN DST N=
201107171900 METAR MRLB 171900Z 13007KT 9999 SCT025 BKN130 28/23 A2985 RMK RN DST N=
201107172000 METAR MRLB 172000Z 16005KT 9999 SCT030 BKN130 27/23 A2983 RMK RN DST S=
201107172100 METAR MRLB 172100Z 10008KT 9999 VCSH SCT025 BKN120 28/23 A2983=
201107172200 METAR MRLB 172200Z 17006KT 9999 DZ SCT020 BKN120 25/23 A2983=
201107172300 METAR MRLB 172300Z 12003KT 9999 DZ SCT020 BKN100 25/23 A2984=
201107180000 METAR MRLB 180000Z 08005KT 9999 SCT030 BKN100 24/23 A2984 REDZ=
201107180100 METAR MRLB 180100Z 10004KT 9999 SCT030 BKN110 25/23 A2987=
201107180200 METAR MRLB NIL=
201107180300 METAR MRLB NIL=
201107180400 METAR MRLB NIL=
201107180500 METAR MRLB NIL=
201107180600 METAR MRLB NIL=
201107180700 METAR MRLB NIL=
201107180800 METAR MRLB NIL=
201107180900 METAR MRLB NIL=
201107181000 METAR MRLB NIL=
201107181100 METAR MRLB NIL=
201107181200 METAR MRLB 181200Z 16003KT 9999 FEW005 SCT250 22/21 A2984=
201107181300 METAR MRLB 181300Z 18004KT CAVOK 25/22 A2984 RMK SCT250=
201107181400 METAR MRLB 181400Z 21003KT CAVOK 28/23 A2987 RMK SCT250=
201107181500 METAR MRLB 181500Z 17004KT 9999 FEW020 SCT130 28/23 A2991 RMK FEW250=
201107181600 METAR MRLB 181600Z 11002KT 9999 SCT025 SCT130 31/23 A2991=
201107181700 METAR MRLB 181700Z 35002KT 9999 BKN030 SCT130 30/23 A2991=
201107181800 METAR MRLB 181800Z 17003KT 9999 SCT035 BKN250 30/25 A2989=
201107181900 METAR MRLB 181900Z 10002KT 9999 FEW035 SCT250 31/23 A2987=
201107182000 METAR MRLB 182000Z 08005KT 9999 SCT035 BKN250 32/22 A2985=
201107182100 METAR MRLB 182100Z 29008KT 9999 FEW035 BKN250 30/25 A2992=
201107182200 METAR MRLB 182200Z 27010KT 9999 FEW030 BKN250 29/24 A2981 RMK CB DST SW=
201107182300 METAR MRLB 182300Z 27008KT 9999 FEW030 BKN250 28/24 A2980=
201107190000 METAR MRLB 190000Z 28007KT 9999 FEW030 BKN250 27/24 A2981=
201107190100 METAR MRLB 190100Z 30005KT 9999 FEW030 BKN250 26/23 A2983=
201107190200 METAR MRLB NIL=
201107190300 METAR MRLB NIL=
201107190400 METAR MRLB NIL=
201107190500 METAR MRLB NIL=
201107190600 METAR MRLB NIL=
201107190700 METAR MRLB NIL=
201107190800 METAR MRLB NIL=
201107190900 METAR MRLB NIL=
201107191000 METAR MRLB NIL=
201107191100 METAR MRLB NIL=
201107191200 METAR MRLB 191200Z 01003KT 0500 FG BKN001 23/22 A2985=
201107191300 METAR MRLB 191300Z 18003KT 4000 BR FEW001 SCT015 24/23 A2986=
201107191400 METAR MRLB 191400Z 00000KT 9999 FEW015 SCT250 27/23 A2987=
201107191500 METAR MRLB 191500Z 00000KT CAVOK 29/23 A2989 RMK SCT250=
201107191600 METAR MRLB 191600Z 25004KT 9999 FEW030 SCT250 30/23 A2990=
201107191700 METAR MRLB 191700Z 18003KT 9999 SCT025 BKN240 31/23 A2989=
201107191800 METAR MRLB 191800Z 15005KT 9999 SCT025 BKN250 30/23 A2987=
201107191900 METAR MRLB 191900Z 17005KT 9999 SCT025TCU BKN250 32/23 A2984=
201107192000 METAR MRLB 192000Z 28008KT 9999 SCT030 BKN250 31/24 A2982=
201107192100 METAR MRLB NIL=
201107192200 METAR MRLB 192200Z 25008KT 9999 SCT030 BKN250 30/23 A2999=
201107192300 METAR MRLB 192300Z 28008KT 9999 FEW035 SCT250 28/23 A2979=
201107200000 METAR MRLB 200000Z 27006KT 9999 FEW035 SCT150 27/23 A2980 RMK TCU DST E=
201107200100 METAR MRLB NIL=
201107200200 METAR MRLB NIL=
201107200300 METAR MRLB NIL=
201107200400 METAR MRLB NIL=
201107200500 METAR MRLB NIL=
201107200600 METAR MRLB NIL=
201107200700 METAR MRLB NIL=
201107200800 METAR MRLB NIL=
201107200900 METAR MRLB NIL=
201107201000 METAR MRLB 201000Z 29005KT 9999 FEW030 SCT150 26/23 A2981 RMK TCU DST S=
201107201100 METAR MRLB NIL=
201107201200 METAR MRLB 201200Z 00000KT 9999 FEW035 BKN250 23/22 A2981=
201107201300 METAR MRLB 201300Z 00000KT CAVOK 27/23 A2983 RMK BKN250=
201107201400 METAR MRLB 201400Z 19003KT CAVOK 28/23 A2985 RMK BKN250=
201107201500 METAR MRLB NIL=
201107201600 METAR MRLB 201600Z 31005KT 9999 FEW035 BKN250 30/23 A2987=
201107201700 METAR MRLB 201700Z 28003KT 9999 FEW035 BKN250 32/24 A2985=
201107201800 METAR MRLB 201800Z 06011KT 9999 FEW035 SCT250 33/22 A2984=
201107201900 METAR MRLB 201900Z 10006KT 9999 SCT030 BKN250 33/23 A2981=
201107202000 METAR MRLB 202000Z 04008KT 9999 SCT030 BKN240 33/22 A2989=
201107202100 METAR MRLB 202100Z 06008KT 9999 SCT035 BKN240 33/22 A2979=
201107202200 METAR MRLB 202200Z 06005KT 9999 FEW035 BKN240 32/22 A2978=
201107202300 METAR MRLB 202300Z 05010KT 9999 SCT035 BKN240 31/22 A2979=
201107210000 METAR MRLB 210000Z 08007KT 9999 FEW035 BKN240 29/22 A2980=
201107210100 METAR MRLB 210100Z 08006KT 9999 SCT035 BKN230 28/21 A2980=
201107210200 METAR MRLB NIL=
201107210300 METAR MRLB NIL=
201107210400 METAR MRLB NIL=
201107210500 METAR MRLB NIL=
201107210600 METAR MRLB NIL=
201107210700 METAR MRLB NIL=
201107210800 METAR MRLB NIL=
201107210900 METAR MRLB NIL=
201107211000 METAR MRLB NIL=
201107211100 METAR MRLB NIL=
201107211200 METAR MRLB 211200Z 07005KT CAVOK 24/22 A2980 RMK FEW100 SCT250=
201107211300 METAR MRLB 211300Z 03005KT CAVOK 29/22 A2981 RMK FEW100 SCT250=
201107211400 METAR MRLB 211400Z 06012KT CAVOK 30/22 A2983 RMK FEW080 SCT250=
201107211500 METAR MRLB 211500Z 07012KT CAVOK 30/22 A2982 FEW100 BKN250=
201107211600 METAR MRLB 211600Z 07016KT CAVOK 31/22 A2982 RMK FEW120 BKN250=
201107211700 METAR MRLB 211700Z 07016KT 9999 FEW025 BKN250 32/22 A2981=
201107211800 METAR MRLB 211800Z 08014KT 9999 FEW025 SCT250 32/22 A2979=
201107211900 METAR MRLB 211900Z 05012KT 9999 FEW025 SCT250 33/23 A2978=
201107212000 METAR MRLB 212000Z 05012KT 9999 FEW025 SCT250 33/22 A2977=
201107212100 METAR MRLB 212100Z 04013KT 9999 FEW025 SCT250 33/22 A2975=
201107212200 METAR MRLB 212200Z 06012KT 9999 FEW025 SCT250 32/22 A2976=
201107212300 METAR MRLB 212300Z 06008KT 9999 FEW030 SCT250 31/22 A2977=
201107220000 METAR MRLB 220000Z 07010KT 9999 FEW040 SCT250 29/22 A2978 RMK TCU DST S=
201107220100 METAR MRLB 220100Z 07008KT 9999 FEW045 28/22 A2979=
201107220200 METAR MRLB 220200Z 07008KT CAVOK 27/22 A2980 FEW100=
201107220300 METAR MRLB NIL=
201107220400 METAR MRLB NIL=
201107220500 METAR MRLB NIL=
201107220600 METAR MRLB NIL=
201107220700 METAR MRLB NIL=
201107220800 METAR MRLB NIL=
201107220900 METAR MRLB NIL=
201107221000 METAR MRLB NIL=
201107221100 METAR MRLB NIL=
201107221200 METAR MRLB 221200Z 10004KT CAVOK 24/22 A2980 RMK FEW100 SCT250=
201107221300 METAR MRLB 221300Z 08006KT CAVOK 28/22 A2980 RMK FEW100 SCT250=
201107221400 METAR MRLB 221400Z 06010KT CAVOK 30/22 A2981 RMK FEW100 SCT250=
201107221500 METAR MRLB 221500Z 09009KT 9999 FEW030 SCT100 BKN250 30/22 A2984=
201107221600 METAR MRLB 221600Z 08010KT 9999 FEW025 SCT100 BKN250 30/23 A2985 RMK RN DST NE=
201107221700 METAR MRLB 221700Z 07014KT 9999 DZ SCT020 BKN100 27/23 A2985=
201107221800 METAR MRLB 221800Z 04005KT 9999 SCT020 BKN100 27/24 A2982 REDZ RMK RN DST E SW=
201107221900 METAR MRLB 221900Z 02006KT 9999 SCT020 BKN120 27/24 A2979=
201107222000 METAR MRLB NIL=
201107222100 METAR MRLB NIL=
201107222200 METAR MRLB NIL=
201107222300 METAR MRLB 222300Z 02005KT CAVOK 26/23 A2976 RMK BKN120=
201107230000 METAR MRLB 230000Z 08006KT 9999 FEW040 BKN120 26/22 A2976=
201107230100 METAR MRLB 230100Z 08004KT CAVOK 26/22 A2978 RMK FEW070 BKN100=
201107230200 METAR MRLB 230200Z 03004KT CAVOK 25/21 A2979 RMK FEW080 BKN120=
201107230300 METAR MRLB NIL=
201107230400 METAR MRLB NIL=
201107230500 METAR MRLB NIL=
201107230600 METAR MRLB NIL=
201107230700 METAR MRLB NIL=
201107230800 METAR MRLB NIL=
201107230900 METAR MRLB NIL=
201107231000 METAR MRLB NIL=
201107231100 METAR MRLB NIL=
201107231200 METAR MRLB 231200Z 05004KT 9999 SCT030 BKN140 23/21 A2981=
201107231300 METAR MRLB 231300Z 10004KT 9999 SCT035 BKN140 26/22 A2982=
201107231400 METAR MRLB 231400Z 15003KT 9999 SCT030 BKN130 27/23 A2985=
201107231500 METAR MRLB 231500Z 13003KT 9999 SCT035 BKN140 29/23 A2986=
201107231600 METAR MRLB 231600Z 06009KT 9999 FEW035 BKN140 30/21 A2986=
201107231700 METAR MRLB 231700Z 07012KT 9999 FEW035 BKN140 31/21 A2986=
201107231800 METAR MRLB 231800Z 07010KT 9999 SCT035 BKN230 31/20 A2984=
201107231900 METAR MRLB 231900Z 08008KT 9999 FEW035 BKN230 32/21 A2982=
201107232000 METAR MRLB 232000Z 07010KT 9999 FEW035 BKN240 32/21 A2979=
201107232100 METAR MRLB 232100Z 06015KT 9999 FEW035 BKN230 32/20 A2978=
201107232200 METAR MRLB 232200Z 07015KT 9999 SCT035 BKN230 30/20 A2978=
201107232300 METAR MRLB 232300Z 08012KT 9999 FEW035 BKN240 30/20 A2979=
201107240000 METAR MRLB 240000Z 09010KT 9999 SCT035 BKN230 28/21 A2980=
201107240100 METAR MRLB 240100Z 08011KT 9999 SCT035 BKN140 28/20 A2982=
201107240200 METAR MRLB 240200Z 09010KT 9999 FEW035 BKN140 27/20 A2984=
201107240300 METAR MRLB NIL=
201107240400 METAR MRLB NIL=
201107240500 METAR MRLB NIL=
201107240600 METAR MRLB NIL=
201107240700 METAR MRLB NIL=
201107240800 METAR MRLB NIL=
201107240900 METAR MRLB NIL=
201107241000 METAR MRLB NIL=
201107241100 METAR MRLB NIL=
201107241200 METAR MRLB 241200Z 00000KT 9999 BKN030 23/21 A2980=
201107241300 METAR MRLB 241300Z 14002KT 9999 BKN030 29/22 A2981=
201107241400 METAR MRLB 241400Z 09011KT 9999 SCT030 SCT100 28/22 A2983=
201107241500 METAR MRLB 241500Z 09014KT 9999 SCT035 BKN120 29/22 A2987=
201107241600 METAR MRLB 241600Z 07015KT 9999 FEW035 BKN120 30/21 A2986=
201107241700 METAR MRLB 241700Z 07016KT 9999 FEW035 BKN120 31/21 A2985=
201107241800 METAR MRLB 241800Z 07018KT 9999 FEW035 BKN120 33/21 A2984=
201107241900 METAR MRLB 241900Z 05016KT 9999 FEW035 BKN120 32/21 A2981=
201107242000 METAR MRLB 242000Z 07009KT 9999 FEW035 BKN120 31/22 A2980=
201107242100 METAR MRLB 242100Z 07009KT CAVOOK 31/21 A2977 RMK BKN130 FEW250=
201107242200 METAR MRLB 242200Z 09008KT CAVOK 32/21 A2975 RMK BKN130 FEW250=
201107242300 METAR MRLB 242300Z 07010KT CAVOK 30/18 A2977 RMK BKN130 SCT250=
201107250000 METAR MRLB 250000Z 07013KT CAVOK 29/19 A2980 RMK BKN130 SCT250=
201107250100 METAR MRLB 250100Z 08006KT CAVOK 29/19 A2980 RMK BKN130 FEW250=
201107250200 METAR MRLB 250200Z 08010KT CAVOK 28/21 A2978 RMK BKN130 FEW250=
201107250300 METAR MRLB NIL=
201107250400 METAR MRLB NIL=
201107250500 METAR MRLB NIL=
201107250600 METAR MRLB NIL=
201107250700 METAR MRLB NIL=
201107250800 METAR MRLB NIL=
201107250900 METAR MRLB NIL=
201107251000 METAR MRLB NIL=
201107251100 METAR MRLB NIL=
201107251200 METAR MRLB 251200Z 00000KT CAVOK 24/22 A2979 RMK FEW100 SCT250=
201107251300 METAR MRLB 251300Z 19004KT CAVOK 26/23 A2981 RMK SCT250=
201107251400 METAR MRLB 251400Z 17003KT CAVOK 27/23 A2984 RMK SCT250=
201107251500 METAR MRLB 251500Z 09006KT CAVOK 30/23 A2985 RMK FEW080 SCT250=
201107251600 METAR MRLB 251600Z 07008KT CAVOK 31/22 A2984 RMK FEW100 SCT250=
201107251700 METAR MRLB 251700Z 08014KT CAVOK 30/22 A2983 RMK FEW100 SCT250=
201107251800 METAR MRLB 251800Z 08010KT CAVOK 31/22 A2981 RMK BKN250=
201107251900 METAR MRLB 251900Z 09010KT CAVOK 33/22 A2977 RMK BKN250=
201107252000 METAR MRLB 252000Z 08011KT CAVOK 33/21 A2976 RMK FEW100 BKN250=
201107252100 METAR MRLB 252100Z 05012KT 9999 SCT030 BKN250 33/21 A2975 RMK TCU DST SE=
201107252200 METAR MRLB 252200Z 07010KT 9999 SCT025 BKN250 33/22 A2976 RMK TCU RN DST N S=
201107252300 METAR MRLB 252300Z 08008KT 9999 SCT025 BKN150 31/21 A2977 RMK TCU DST E S=
201107260000 METAR MRLB 260000Z 11003KT 9999 FEW025 SCT120 29/22 A2977 RMK TCU DST S=
201107260100 METAR MRLB 260100Z 09004KT 9999 FEW025 SCT120 28/22 A2979 RMK LTNG DST S=
201107260200 METAR MRLB NIL=
201107260300 METAR MRLB NIL=
201107260400 METAR MRLB NIL=
201107260500 METAR MRLB NIL=
201107260600 METAR MRLB NIL=
201107260700 METAR MRLB NIL=
201107260800 METAR MRLB NIL=
201107260900 METAR MRLB NIL=
201107261000 METAR MRLB NIL=
201107261100 METAR MRLB NIL=
201107261200 METAR MRLB 261200Z 08003KT 9999 FEW035 SCT250 23/22 A2976=
201107261300 METAR MRLB 261300Z 00000KT 9999 FEW035 BKN250 28/23 A2977=
201107261400 METAR MRLB 261400Z 24003KT 9999 FEW035 SCT250 29/23 A2979=
201107261500 METAR MRLB 261500Z 22003KT 9999 FEW035 BKN250 30/24 A2981=
201107261600 METAR MRLB 261600Z 06009KT 9999 SCT035 BKN250 31/22 A2981=
201107261700 METAR MRLB 261700Z 09011KT 9999 SCT035 BKN250 32/22 A2979=
201107261800 METAR MRLB 261800Z 08009KT 9999 SCT035 BKN250 33/21 A2977=
201107261900 METAR MRLB 261900Z 11005KT 9999 SCT035 SCT250 33/21 A2974=
201107262000 METAR MRLB 262000Z 03008G20KT 9999 2000N -TSRA FEW010CB SCT020TCU BKN130 29/23 A2974=
201107262100 METAR MRLB 262100Z 30004KT 9999 FEW030 BKN140 28/23 A2972 RETS=
201107262200 METAR MRLB 262200Z 28003KT 9999 FEW035 BKN140 28/23 A2971=
201107262300 METAR MRLB 262300Z 31002KT 9999 SCT035 BKN140 28/24 A2971=
201107270000 METAR MRLB 270000Z 00000KT 9999 FEW035 BKN140 27/24 A2972=
201107270100 METAR MRLB 270100Z 09004KT 9999 SCT035 BKN140 27/22 A2973=
201107270200 METAR MRLB 270200Z 10005KT 9999 FEW035 BKN140 26/22 A2975=
201107270300 METAR MRLB NIL=
201107270400 METAR MRLB NIL=
201107270500 METAR MRLB NIL=
201107270600 METAR MRLB NIL=
201107270700 METAR MRLB NIL=
201107270800 METAR MRLB NIL=
201107270900 METAR MRLB NIL=
201107271000 METAR MRLB NIL=
201107271100 METAR MRLB NIL=
201107271200 METAR MRLB 271200Z 10004KT CAVOK 23/22 A2978 RMK OVC140=
201107271300 METAR MRLB 271300Z 00000KT CAVOK 25/23 A2980 RMK OVC140=
201107271400 METAR MRLB 271400Z 22002KT 9999 FEW010 BKN250 27/24 A2982=
201107271500 METAR MRLB 271500Z 15004KT 9999 FEW030 BKN250 29/23 A2982=
201107271600 METAR MRLB NIL=
201107271700 METAR MRLB NIL=
201107271800 METAR MRLB 271800Z 09004KT 9999 SCT035 BKN250 32/22 A2982=
201107271900 METAR MRLB 271900Z 30003KT 9999 SCT030 SCT250 32/23 A2978=
201107272000 METAR MRLB 272000Z 26004KT 0000 OVC030 32/24 A2976=
201107272100 METAR MRLB 272100Z 21011KT 9999 2000W TSRA FEW010CB BKN025 25/24 A2974=
201107272200 METAR MRLB 272200Z 29004KT 9999 -RA SCT020 BKN100 23/23 A2974 RMK TS DST N S=
201107272300 METAR MRLB 272300Z 12006KT 9999 RA FEW020 BKN100 23/23 A2976 RETS RMK TS DAT W=
201107280000 METAR MRLB 280000Z 00000KT 9999 -RA FEW020 BKN100 24/23 A2978=
201107280100 METAR MRLB 280100Z 09005KT 9999 -RA FEW020 BKN100 23/22 A2980=
201107280200 METAR MRLB 280200Z 06003KT 9999 -RA FEW020 BKN100 24/23 A2981=
201107280300 METAR MRLB NIL=
201107280400 METAR MRLB NIL=
201107280500 METAR MRLB NIL=
201107280600 METAR MRLB NIL=
201107280700 METAR MRLB NIL=
201107280800 METAR MRLB NIL=
201107280900 METAR MRLB NIL=
201107281000 METAR MRLB NIL=
201107281100 METAR MRLB NIL=
201107281200 METAR MRLB 281200Z NIL=
201107281300 METAR MRLB 281300Z 00000KT 0500 FG VV/// 23/23 A2981=
201107281400 METAR MRLB 281400Z 18004KT 9999 FEW008 BKN250 25/24 A2982=
201107281500 METAR MRLB 281500Z 15005KT 9999 FEW020 BKN250 27/24 A2980=
201107281600 METAR MRLB 281600Z 20004KT 9999 SCT020 BKN250 29/24 A2986=
201107281700 METAR MRLB NIL=
201107281800 METAR MRLB NIL=
201107281900 METAR MRLB NIL=
201107282000 METAR MRLB 282000Z 33007KT 8000 TSRA FEW015CB SCT020 BKN100 25/24 A2979=
201107282100 METAR MRLB 282100Z 06002KT 9999 -RA SCT020 BKN100 24/23 A2980 RETSRA RMK TS DST SW=
201107282200 METAR MRLB 282200Z 31002KT 9999 FEW020 BKN120 25/24 A2978 RMK RN DST NE=
201107282300 METAR MRLB 282300Z 00000KT 9999 FEW020 BKN120 25/23 A2979 RMK RA DST SE=
201107290000 METAR MRLB 290000Z 00000KT CAVOK 25/24 A2979 RMK OVC120=
201107290100 METAR MRLB 290100Z 19003KT 9999 FEW020 BKN120 25/24 A2980=
201107290200 METAR MRLB 290200Z 08004KT 9999 FEW020 BKN120 25/24 A2984=
201107290300 METAR MRLB NIL=
201107290400 METAR MRLB NIL=
201107290500 METAR MRLB NIL=
201107290600 METAR MRLB NIL=
201107290700 METAR MRLB NIL=
201107290800 METAR MRLB NIL=
201107290900 METAR MRLB NIL=
201107291000 METAR MRLB NIL=
201107291100 METAR MRLB NIL=
201107291200 METAR MRLB 291200Z 10006KT 9999 VCSH FEW008 SCT015 BKN100 24/23 A2983=
201107291300 METAR MRLB 291300Z 26004KT 9999 SCT015 BKN120 24/23 A2985=
201107291400 METAR MRLB 291400Z 10005KT 9999 SCT020 BKN130 25/23 A2987=
201107291500 METAR MRLB 291500Z 13007KT 9999 SCT030 BKN130 26/22 A2988=
201107291600 METAR MRLB 291600Z 13008KT 9999 SCT030 BKN140 27/23 A2989=
201107291700 METAR MRLB 291700Z 14006KT 9999 SCT030 BKN140 28/23 A2989=
201107291800 METAR MRLB 291800Z 12007KT 9999 SCT035 BKN140 28/23 A2987=
201107291900 METAR MRLB 291900Z 10006KT 9999 SCT035 BKN140 29/23 A2984=
201107292000 METAR MRLB 292000Z 10009KT 9999 FEW035 BKN140 28/23 A2982=
201107292100 METAR MRLB 292100Z 12005KT 9999 FEW035 BKN140 28/22 A2980=
201107292200 METAR MRLB 292200Z 09008KT 9999 SCT035 BKN130 26/23 A2979=
201107292300 METAR MRLB 292300Z 08004KT 9999 FEW035 BKN130 25/22 A2977=
201107300000 METAR MRLB 300000Z 09003KT 9999 FEW035 BKN130 25/22 A2975=
201107300100 METAR MRLB 300100Z 24004KT 9999 FEW035 BKN120 29/22 A2976=
201107300200 METAR MRLB 300200Z 20005KT 9999 SCT030 BKN120 23/21 A2979=
201107300300 METAR MRLB NIL=
201107300400 METAR MRLB NIL=
201107300500 METAR MRLB NIL=
201107300600 METAR MRLB NIL=
201107300700 METAR MRLB NIL=
201107300800 METAR MRLB NIL=
201107300900 METAR MRLB NIL=
201107301000 METAR MRLB NIL=
201107301100 METAR MRLB NIL=
201107301200 METAR MRLB 301200Z 00000KT 4000 BR FEW004 BKN035 22/21 A2981 RMK E SE UNL=
201107301300 METAR MRLB 301300Z 00000KT 9999 FEW005 BKN100 24/23 A2982=
201107301400 METAR MRLB 301400Z 00000KT 9999 FEW010 BKN100 26/23 A2985=
201107301500 METAR MRLB 301500Z 19002KT 9999 FEW030 BKN120 27/22 A2987=
201107301600 METAR MRLB 301600Z 14002KT 9999 SCT035 BKN250 30/23 A2988 RMK FEW120=
201107301700 METAR MRLB 301700Z 16003KT 9999 SCT035 BKN120 29/22 A2987=
201107301800 METAR MRLB 301800Z 19002KT 9999 SCT035 BKN120 30/22 A2985=
201107301900 METAR MRLB 301900Z 19003KT 9999 SCT030 BKN120 30/22 A2983 RMK RA N NE S=
201107302000 METAR MRLB 302000Z 25004KT 9999 BKN020 SCT100 29/22 A2981 RMK RA DST N S=
201107302100 METAR MRLB 302100Z 36004KT 9999 -RA OVC020 24/22 A2976 RERA=
201107302200 METAR MRLB 302200Z 01002KT 9999 FEW020 BKN120 27/23 A2975 RMK RA E SE=
201107302300 METAR MRLB 302300Z 11007KT 9999 SCT020 BKN120 27/23 A2976 RMK RA E SE=
201107310000 METAR MRLB 310000Z 13006KT 9999 FEW020 BKN130 26/22 A2977 RMK RA DST SW=
201107310100 METAR MRLB 310100Z 16004KT 9999 FEW020 BKN130 24/22 A2978=
201107310200 METAR MRLB 310200Z 00000KT 9999 FEW020 BKN130 23/22 A2981=
201107310300 METAR MRLB NIL=
201107310400 METAR MRLB NIL=
201107310500 METAR MRLB NIL=
201107310600 METAR MRLB NIL=
201107310700 METAR MRLB NIL=
201107310800 METAR MRLB NIL=
201107310900 METAR MRLB NIL=
201107311000 METAR MRLB NIL=
201107311100 METAR MRLB NIL=
201107311200 METAR MRLB 311200Z 09005KT 9999 FEW040 SCT100 BKN250 23/22 A2981 RMK TCU W=
201107311300 METAR MRLB 311300Z 06004KT CAVOK 25/22 A2984 RMK FEW100 SCT250=
201107311400 METAR MRLB 311400Z 00000KT CAVOK 26/22 A2985 RMK FEW100 BKN250=
201107311500 METAR MRLB 311500Z 14005KT CAVOK 28/23 A2988 RMK FEW080 BKN250=
201107311600 METAR MRLB 311600Z 15006KT 9999 FEW030 SCT180 30/23 A2989=
201107311700 METAR MRLB 311700Z 13007KT 9999 SCT025 BKN180 30/21 A2989=
201107311800 METAR MRLB 311800Z 24010KT 9999 SCT025 BKN250 31/21 A2986=
201107311900 METAR MRLB 311900Z 24008KT 9999 SCT025TCU BKN200 26/24 A2982 RMK RA DST S=
201107312000 METAR MRLB 312000Z 20008KT 9999 SCT025 BKN150 28/23 A2982 RMK TCU DST E S=
201107312100 METAR MRLB 312100Z 18008KT 9999 SCT015 BKN140 25/23 A2980 RMK RN DST ARND=
201107312200 METAR MRLB 312200Z 10005KT 9999 SCT025 28/23 A2982 RMK FEW120 FEW250 CB DST S SW=
201107312300 METAR MRLB 312300Z 14003KT 9999 SCT025 BKN120 24/23 A2980=
201108010000 METAR MRLB 010000Z 08003KT 9999 SCT020 BKN100 24/23 A2982 RMK RN DST S SE=
201108010100 METAR MRLB 010100Z 09003KT 9999 DZ SCT025 BKN100 24/23 A2984 LTNG DST S=
201108010200 METAR MRLB 010200Z 00000KT 9999 DZ SCT020 BKN100 24/23 A2985 LTNG DST S=
201108010300 METAR MRLB NIL=
201108010400 METAR MRLB NIL=
201108010500 METAR MRLB NIL=
201108010600 METAR MRLB NIL=
201108010700 METAR MRLB NIL=
201108010800 METAR MRLB NIL=
201108010900 METAR MRLB NIL=
201108011000 METAR MRLB NIL=
201108011100 METAR MRLB NIL=
201108011200 METAR MRLB 011200Z 00000KT 9999 FEW030 BKN130 23/22 A2985 RMK ST LOW SW=
201108011300 METAR MRLB 011300Z 00000KT 9999 FEW025 BKN130 24/23 A2986=
201108011400 METAR MRLB 011400Z 00000KT 9999 FEW025 BKN140 27/23 A2987=
201108011500 METAR MRLB 011500Z 00000KT 9999 FEW035 BKN250 27/23 A2988=
201108011600 METAR MRLB 011600Z 07003KT 9999 SCT035 BKN250 29/23 A2989=
201108011700 METAR MRLB 011700Z 14003KT 9999 SCT035 SCT250 31/23 A2988=
201108011800 METAR MRLB 011800Z 14004KT 9999 SCT035 SCT250 31/22 A2987=
201108011900 METAR MRLB 011900Z 24003KT 9999 VCSH FEW020TCU SCT030 BKN240 32/22 A2984=
201108012000 METAR MRLB 012000Z 33008KT 9999 4000SW RA SCT020 BKN130 23/22 A2980=
201108012100 METAR MRLB 012100Z 26006KT 9999 SCT030 BKN130 25/23 A2978 RMK RN DST SW=
201108012200 METAR MRLB 012200Z 25009KT 9999 SCT035 BKN140 27/24 A2978 RMK RA DST SE=
201108012300 METAR MRLB 012300Z 10005KT 9999 VCSH FEW015TCU SCT025 BKN140 26/23 A2980=
201108020000 METAR MRLB 020000Z 00000KT 9999 SCT030 BKN120 25/23 A2982 RMK RA DST E N RETSRA=
201108020100 METAR MRLB 020100Z 05010KT 7000 -TSRA FEW010CB SCT020 BKN100 23/22 A2985=
201108020200 METAR MRLB 020200Z 35006KT 8000 -RA SCT015 BKN100 22/22 A2986=
201108020300 METAR MRLB NIL=
201108020400 METAR MRLB NIL=
201108020500 METAR MRLB NIL=
201108020600 METAR MRLB NIL=
201108020700 METAR MRLB NIL=
201108020800 METAR MRLB NIL=
201108020900 METAR MRLB NIL=
201108021000 METAR MRLB NIL=
201108021100 METAR MRLB NIL=
201108021200 METAR MRLB 021200Z 00000KT 0200 FG VV/// 22/21 A2981=
201108021300 METAR MRLB 021300Z 00000KT 9999 FEW004 BKN100 22/22 A2984=
201108021400 METAR MRLB 021400Z 18002KT 9999 3000 SW BR SCT010 BKN100 23/23 A2984=
201108021500 METAR MRLB 021500Z 00000KT 9999 SCT015 SCT250 27/24 A2986=
201108021600 METAR MRLB 021600Z 00000KT 9999 SCT020 SCT250 28/24 A2986=
201108021700 METAR MRLB 021700Z 00000KT 9999 BKN020 SCT100 30/23 A2985 RMK RA DST SW=
201108021800 METAR MRLB 021800Z 02007KT 9999 FEW025 BKN090 29/24 A2986 RMK FEW150 CB RA DST N NE E HZ ARND=
201108021900 METAR MRLB 021900Z 00000KT 9999 BKN025 31/24 A2981 RMK FEW250=
201108022000 METAR MRLB 022000Z 27009KT 4000 RA SCT020 BKN030 29/24 A2979 RMK VIS UNL W=
201108022100 METAR MRLB 022100Z 30005KT -RA SCT020 BKN100 26/24 A2976 RERA=
201108022200 METAR MRLB 022200Z 06007KT 9999 -RA SCT020 BKN100 25/24 A2977 RETS RMK TS DST S=
201108022300 METAR MRLB 022300Z 00000KT 9999 -RA BKN100 26/24 A2976 RMK RA DST S=
201108030000 METAR MRLB 030000Z 12003KT 9999 FEW020 BKN100 25/24 A2978 RMK RN DST S SW=
201108030100 METAR MRLB 030100Z 15003KT 9999 FEW020 BKN100 25/24 A2981=
201108030200 METAR MRLB 030200Z 15002KT 9999 FEW020 BKN100 24/24 A2982=
201108030300 METAR MRLB NIL=
201108030400 METAR MRLB NIL=
201108030500 METAR MRLB NIL=
201108030600 METAR MRLB NIL=
201108030700 METAR MRLB NIL=
201108030800 METAR MRLB NIL=
201108031000 METAR MRLB NIL=
201108031100 METAR MRLB NIL=
201108031200 METAR MRLB NIL=
201108031300 METAR MRLB 031300Z 18008KT 0100 FG VV/// 22/22 A2981=
201108031400 METAR MRLB 031400Z 15003KT 9999 FEW010 SCT250 25/23 A2983=
201108031500 METAR MRLB 031500Z 00000KT 9999 FEW015 SCT250 26/23 A2983=
201108031600 METAR MRLB 031600Z 00000KT 9999 FEW030 SCT140 27/23 A2985=
201108031700 METAR MRLB 031700Z 00000KT 9999 FEW025 SCT100 BKN250 29/23 A2984 RMK TCU RA DST SE=
201108031800 METAR MRLB 031800Z 08008KT 9999 FEW025 SCT100 BKN250 29/23 A2981=
201108031900 METAR MRLB 031900Z 15005KT 9999 FEW025 BKN160 29/23 A2979=
201108032000 METAR MRLB 032000Z 27005KT 9999 FEW025 BKN250 30/23 A2978=
201108032100 METAR MRLB 032100Z 00000KT 9999 SCT025 BKN200 31/23 A2977 RMK TCU RA DST SE=
201108032200 METAR MRLB 032200Z 00000KT 9999 VCSH SCT020TCU BKN200 28/23 A2976=
201108032300 METAR MRLB 032300Z 24005KT 9999 VCSH SCT020TCU BKN150 28/24 A2976 RMK VIS N 4KMS=
201108040000 METAR MRLB 040000Z 30004KT 9999 FEW025 SCT150 26/24 A2978 RMK TCU DST S=
201108040100 METAR MRLB 040100Z 28003KT 9999 FEW025 SCT250 26/24 A2979 RMK LTNG DST N S=
201108040200 METAR MRLB 040200Z 00000KT 9999 FEW025 SCT040 25/23 A2981 RMK LTNG DST NE S=
201108040300 METAR MRLB NIL=
201108040400 METAR MRLB NIL=
201108040500 METAR MRLB NIL=
201108040600 METAR MRLB NIL=
201108040700 METAR MRLB NIL=
201108040800 METAR MRLB NIL=
201108040900 METAR MRLB NIL=
201108041000 METAR MRLB NIL=
201108041100 METAR MRLB NIL=
201108041200 METAR MRLB 041200Z 00000KT 9999 4000S BCFG FEW003 SCT010 BKN250 23/22 A2980=
201108041300 METAR MRLB 041300Z 00000KT 0300 FG VV/// 23/23 A2981=
201108041400 METAR MRLB 041400Z 00000KT 9999 SCT010 SCT250 25/23 A2983 RMK ST LOW S=
201108041500 METAR MRLB 041500Z 00000KT 9999 FEW035 SCT250 29/24 A2983=
201108041600 METAR MRLB 041600Z 34003KT 9999 FEW035 SCT250 29/24 A2985=
201108041700 METAR MRLB 041700Z 14004KT 9999 SCT035 SCT250 32/22 A2984=
201108041800 METAR MRLB 041800Z 09005KT 9999 SCT035 SCT250 33/21 A2983=
201108041900 METAR MRLB 041900Z 12006KT 9999 SCT035 SCT250 33/21 A2980=
201108042000 METAR MRLB 042000Z 27007KT 9999 SCT035 BKN250 32/24 A2978=
201108042100 METAR MRLB 042100Z 27010KT 9999 SCT035 BKN250 31/23 A2977=
201108042200 METAR MRLB NIL=
201108042300 METAR MRLB 042300Z 29009KT 9999 SCT035 SCT250 29/24 A2977=
201108050000 METAR MRLB 050000Z 28005KT 9999 SCT035 BKN250 28/24 A2978=
201108050100 METAR MRLB NIL=
201108050200 METAR MRLB 050200Z 23003KT 9999 SCT030 BKN230 26/24 A2984=
201108050300 METAR MRLB NIL=
201108050400 METAR MRLB NIL=
201108050500 METAR MRLB NIL=
201108050600 METAR MRLB NIL=
201108050700 METAR MRLB NIL=
201108050800 METAR MRLB NIL=
201108050900 METAR MRLB NIL=
201108051000 METAR MRLB NIL=
201108051100 METAR MRLB NIL=
201108051200 METAR MRLB 051200Z 00000KT 0500 FG FEW130 23/22 A2983 RMK VIS E S UNL=
201108051300 METAR MRLB 051300Z 00000KT 9999 FEW004 25/24 A2985=
201108051400 METAR MRLB 051400Z 00000KT 9999 NSC 29/24 A2986=
201108051500 METAR MRLB 051500Z 00000KT CAVOK 29/24 A2987 RMK SCT300=
201108051600 METAR MRLB 051600Z 00000KT 9999 SCT025 29/24 A2987=
201108051700 METAR MRLB 051700Z 26003KT 9999 SCT030 31/24 A2987=
201108051800 METAR MRLB 051800Z 10003KT 9999 SCT030 SCT130 33/22 A2986=
201108051900 METAR MRLB 051900Z 28008KT 9999 SCT030 32/24 A2983 RMK FEW130=
201108052000 METAR MRLB 052000Z 31008KT 9999 SCT030 32/24 A2981 RMK FEW300=
201108052100 METAR MRLB 052100Z 27007KT 9999 SCT030 32/24 A2979 RMK FEW250=
201108052200 METAR MRLB 052200Z 27007KT 9999 SCT030 BKN250 31/24 A2979=
201108052300 METAR MRLB 052300Z 35007KT 9999 -RA SCT020 BKN100 25/23 A2981 RESH=
201108060000 METAR MRLB 060000Z 13014KT 2000 TSRA FEW010CB BKN025 23/21 A2982=
201108060100 METAR MRLB 060100Z 20005KT 9999 -RA FEW020 BKN100 23/22 A2981=
201108060200 METAR MRLB 060200Z 36005KT 9999 FEW020 BKN100 23/22 A2984=
201108060300 METAR MRLB NIL=
201108060400 METAR MRLB NIL=
201108060500 METAR MRLB NIL=
201108060600 METAR MRLB NIL=
201108060700 METAR MRLB NIL=
201108060800 METAR MRLB NIL=
201108060900 METAR MRLB NIL=
201108061000 METAR MRLB NIL=
201108061100 METAR MRLB NIL=
201108061200 METAR MRLB 061200Z 00000KT CAVOK 22/22 A2982 RMK FEW100 BKN250=
201108061300 METAR MRLB 061300Z 00000KT CAVOK 24/23 A2984 RMK FEW100 BKN250=
201108061400 METAR MRLB 061400Z 00000KT CAVOK 25/23 A2986 RMK FEW100 BKN250=
201108061500 METAR MRLB 061500Z 00000KT CAVOK 28/23 A2987 RMK FEW080 BKN250=
201108061600 METAR MRLB 061600Z 21004KT 9999 FEW045 BKN250 29/23 A2986=
201108061700 METAR MRLB 061700Z 07010KT 9999 FEW030 SCT250 30/22 A2985=
201108061800 METAR MRLB 061800Z 09008KT 9999 FEW025 BKN250 31/22 A2984=
201108061900 METAR MRLB 061900Z 01008KT 9999 FEW030 BKN250 31/23 A2983=
201108062000 METAR MRLB 062000Z 06008KT 9999 FEW025 BKN250 31/22 A2981=
201108062100 METAR MRLB 062100Z 08006KT 9999 FEW030 BKN220 31/23 A2979=
201108062200 METAR MRLB 062200Z 07007KT 9999 FEW035 BKN150 30/22 A2978=
201108062300 METAR MRLB 062300Z 10005KT CAVOK 29/23 A2977 RMK FEW100 BKN250=
201108070000 METAR MRLB 070000Z 00000KT CAVOK 29/22 A2978 RMK FEW100 BKN250=
201108070100 METAR MRLB NIL=
201108070200 METAR MRLB NIL=
201108070300 METAR MRLB NIL=
201108070400 METAR MRLB NIL=
201108070500 METAR MRLB NIL=
201108070600 METAR MRLB NIL=
201108070700 METAR MRLB NIL=
201108070800 METAR MRLB NIL=
201108070900 METAR MRLB NIL=
201108071000 METAR MRLB NIL=
201108071100 METAR MRLB NIL=
201108071200 METAR MRLB 071200Z 00000KT CAVOK 24/22 A2980 RMK BKN250=
201108071300 METAR MRLB 071300Z 00000KT CAVOK 29/23 A2983 RMK BKN250=
201108071400 METAR MRLB 071400Z 00000KT CAVOK 29/23 A2985 RMK BKN250=
201108071500 METAR MRLB 071500Z 15004KT 9999 FEW035 SCT250 30/23 A2986=
201108071600 METAR MRLB 071600Z 10006KT 9999 SCT035 SCT250 31/23 A2986=
201108071700 METAR MRLB 071700Z 10009KT 9999 SCT035 BKN250 32/23 A2987=
201108071800 METAR MRLB 071800Z 10010KT 9999 SCT035 BKN250 32/22 A2985=
201108071900 METAR MRLB 071900Z 09009KT 9999 SCT035 BKN250 33/22 A2981=
201108072000 METAR MRLB 072000Z 09007KT 9999 SCT035 BKN240 33/23 A2980=
201108072100 METAR MRLB 072100Z 07006KT 9999 FEW035 BKN140 30/24 A2978=
201108072200 METAR MRLB 072200Z 28008KT 9999 FEW035 BKN140 29/26 A2977=
201108072300 METAR MRLB 072300Z 29009KT 9999 SCT035 BKN140 29/26 A2978 RMK RN DST S=
201108080000 METAR MRLB 080000Z 20003KT 9999 SCT030 BKN130 26/24 A2979 RERA RMK RN DST NE=
201108080100 METAR MRLB 080100Z 00000KT 9999 SCT035 BKN130 26/24 A2981=
201108080200 METAR MRLB 080200Z 16003KT 9999 SCT030 BKN140 25/23 A2983=
201108080300 METAR MRLB NIL=
201108080400 METAR MRLB NIL=
201108080500 METAR MRLB NIL=
201108080600 METAR MRLB NIL=
201108080700 METAR MRLB NIL=
201108080800 METAR MRLB NIL=
201108080900 METAR MRLB NIL=
201108081000 METAR MRLB NIL=
201108081100 METAR MRLB NIL=
201108081200 METAR MRLB 081200Z 00000KT 9999 1000S BR BCFG FEW001 BKN130 24/23 A2983=
201108081300 METAR MRLB 081300Z 00000KT 9999 FEW004 BKN130 24/23 A2986=
201108081400 METAR MRLB 081400Z 00000KT 9999 FEW010 BKN130 27/24 A2986=
201108081500 METAR MRLB 081500Z 11002KT 9999 SCT020 BKN250 27/24 A2988=
201108081600 METAR MRLB 081600Z 22003KT 9999 SCT025 BKN250 28/25 A2990=
201108081700 METAR MRLB 081700Z 21003KT 9999 SCT030 SCT250 30/25 A2989=
201108081800 METAR MRLB 081800Z 28002KT 9999 BKN025 SCT250 31/25 A2990 RMK RA DST N=
201108081900 METAR MRLB 081900Z 28010KT 9999 BKN025 28/24 A2986=
201108082000 METAR MRLB 082000Z 30008KT 9999 -RA SCT020 SCT130 28/24 A2983 RERA=
201108082100 METAR MRLB 082100Z 29009KT 9999 -RA BKN020 29/24 A2984 RMK FEW130 VIS N 5KMS=
201108082200 METAR MRLB 082200Z 27009KT 9999 SCT020 BKN130 28/24 A2981=
201108082300 METAR MRLB 082300Z 28006KT 9999 SCT020 BKN130 28/24 A2981=
201108090000 METAR MRLB 090000Z 28005KT 9999 FEW020 BKN130 27/24 A2981=
201108090100 METAR MRLB 090100Z 00000KT 9999 SCT020 SCT130 27/24 A2984=
201108090200 METAR MRLB 090200Z 00000KT 9999 FEW020 BKN250 26/24 A2986=
201108090300 METAR MRLB NIL=
201108090400 METAR MRLB NIL=
201108090500 METAR MRLB NIL=
201108090600 METAR MRLB NIL=
201108090700 METAR MRLB NIL=
201108090800 METAR MRLB NIL=
201108090900 METAR MRLB NIL=
201108091000 METAR MRLB NIL=
201108091100 METAR MRLB NIL=
201108091200 METAR MRLB 091200Z 00000KT 9999 FEW025 SCT250 23/22 A2984=
201108091300 METAR MRLB 091300Z 00000KT 9999 FEW020 SCT250 27/24 A2985=
201108091400 METAR MRLB NIL=
201108091500 METAR MRLB 091500Z 00000KT 9999 SCT015 BKN250 28/24 A2989=
201108091600 METAR MRLB 091600Z 27003KT 9999 SCT020 BKN250 30/24 A2990=
201108091700 METAR MRLB 091700Z 00000KT 9999 SCT020 BKN250 31/24 A2988=
201108091800 METAR MRLB 091800Z 28003KT 9999 SCT020 BKN170 31/24 A2986=
201108091900 METAR MRLB 091900Z 27008KT 9999 SCT020 BKN240 31/24 A2983=
201108092000 METAR MRLB 092000Z 26008KT 9999 SCT020 BKN250 32/24 A2981=
201108092100 METAR MRLB 092100Z 27008KT 9999 SCT025 BKN250 32/24 A2979=
201108092200 METAR MRLB 092200Z 28008KT 9999 SCT025 BKN250 31/24 A2978=
201108092300 METAR MRLB 092300Z 32008KT 9999 1000NE TSRA SCT015CB BKN040 27/23 A2980=
201108100000 METAR MRLB 100000Z VRB02KT 8000 TSRA FEW015CB BKN100 25/24 A2982=
201108100100 METAR MRLB NIL=
201108100200 METAR MRLB 100200Z 00000KT 9999 FEW025 SCT100 25/23 A2986 RMK LGTNG DST S=
201108100300 METAR MRLB NIL=
201108100400 METAR MRLB NIL=
201108100500 METAR MRLB NIL=
201108100600 METAR MRLB NIL=
201108100700 METAR MRLB NIL=
201108100800 METAR MRLB NIL=
201108100900 METAR MRLB NIL=
201108101000 METAR MRLB NIL=
201108101100 METAR MRLB NIL=
201108101200 METAR MRLB 101200Z 00000KT 9999 SCT030 BKN250 24/23 A2980=
201108101300 METAR MRLB 101300Z 00000KT 9999 FEW030 BKN250 26/24 A2982=
201108101400 METAR MRLB 101400Z 00000KT 9999 FEW035 BKN250 29/25 A2985=
201108101500 METAR MRLB 101500Z 30003KT 9999 FEW035 SCT250 30/24 A2986=
201108101600 METAR MRLB 101600Z 08010KT 9999 FEW035 SCT250 31/23 A2985=
201108101700 METAR MRLB 101700Z 07011KT 9999 FEW035 BKN250 32/22 A2985=
201108101800 METAR MRLB 101800Z 07010KT 9999 SCT035 BKN240 33/22 A2983=
201108101900 METAR MRLB 101900Z 06014KT 9999 SCT035 BKN240 32/23 A2980=
201108102000 METAR MRLB 102000Z 05009KT 9999 SCT035 BKN230 32/23 A2977=
201108102100 METAR MRLB 102100Z 07008KT 9999 SCT035 BKN140 31/22 A2975=
201108102200 METAR MRLB 102200Z 08009KT 9999 FEW035 BKN140 30/21 A2973=
201108102300 METAR MRLB 102300Z 12007KT 9999 FEW035 BKN140 29/22 A2975=
201108110000 METAR MRLB 110000Z 10008KT 9999 FEW035 BKN140 27/21 A2978=
201108110100 METAR MRLB 110100Z 12008KTM 9999 SCT035 BKN130 27/20 A2979=
201108110200 METAR MRLB 110200Z 10007KT 9999 SCT030 BKN130 26721 A2981=
201108110300 METAR MRLB NIL=
201108110400 METAR MRLB NIL=
201108110500 METAR MRLB NIL=
201108110600 METAR MRLB NIL=
201108110700 METAR MRLB NIL=
201108110800 METAR MRLB NIL=
201108110900 METAR MRLB NIL=
201108111000 METAR MRLB NIL=
201108111100 METAR MRLB NIL=
201108111200 METAR MRLB 111200Z 04002KT 9999 FEW035 BKN130 24/22 A2982=
201108111300 METAR MRLB 111300Z 00000KT 9999 FEW035 BKN130 25/23 A2982=
201108111400 METAR MRLB 111400Z 03004KT CAVOK 27/24 A2982 RMK OVC130=
201108111500 METAR MRLB 111500Z 00000KT CAVOK 28/24 A2983 RMK OVC250=
201108111600 METAR MRLB 111600Z 00000KT 9999 FEW030 BKN250 30/24 A2983=
201108111700 METAR MRLB 111700Z 35002KT 9999 FEW030 BKN130 31/23 A2983=
201108111800 METAR MRLB 111800Z 10008KT 9999 FEW035 BKN250 31/23 A2983=
201108111900 METAR MRLB 111900Z 10006KT 9999 FEW035 BKN250 32/23 A2982=
201108112000 METAR MRLB 112000Z 09007KT 9999 SCT035 BKN250 32/22 A2980 RMK CB DST S=
201108112100 METAR MRLB 112100Z 07006KT 9999 SCT030 BKN140 31/22 A2978=
201108112200 METAR MRLB 112200Z 25005KT 9999 FEW030 BKN130 29/24 A2975=
201108112300 METAR MRLB 112300Z 29003KT 9999 FEW025 BKN130 29/25 A2975=
201108120000 METAR MRLB 120000Z 30004KT 9999 FEW035 BKN130 28/25 A2976=
201108120100 METAR MRLB 120100Z 35002KT 9999 FEW035 BKN130 27/24 A2979=
201108120200 METAR MRLB 120200Z 10004KT 9999 FEW035 BKN130 26/24 A2981=
201108120300 METAR MRLB NIL=
201108120400 METAR MRLB NIL=
201108120500 METAR MRLB NIL=
201108120600 METAR MRLB NIL=
201108120700 METAR MRLB NIL=
201108120800 METAR MRLB NIL=
201108120900 METAR MRLB NIL=
201108121000 METAR MRLB NIL=
201108121100 METAR MRLB NIL=
201108121200 METAR MRLB 121200Z 00000KT 9999 SCT015 BKN100 24/22 A2984=
201108121300 METAR MRLB 121300Z 00000KT 9999 FEW025 BKN250 25/22 A2985=
201108121400 METAR MRLB 121400Z 07006KT CAVOK 26/22 A2985 RMK BKN250=
201108121500 METAR MRLB 121500Z 05004KT CAVOK 29/23 A2987 RMK BKN250=
201108121600 METAR MRLB 121600Z 00000KT CAVOK 29/23 A2986 RMK BKN250=
201108121700 METAR MRLB 121700Z 00000KT 9999 FEW030 BKN250 31/22 A2986=
201108121800 METAR MRLB NIL=
201108121900 METAR MRLB NIL=
201108122000 METAR MRLB 122000Z 27010KT 9999 SCT025 BKN250 30/23 A2978 RMK TS RA DST E=
201108122100 METAR MRLB 122100Z 28006KT 9999 SCT025CB BKN140 28/22 A2977 RMK CB RA DST S=
201108122200 METAR MRLB 122200Z 16004KT 9999 SCT025 BKN140 27/23 A2978 RMK TCU DST S=
201108122300 METAR MRLB 122300Z 25004KT CAVOK 26/22 A2977 RMK FEW070 BKN140=
201108130000 METAR MRLB 130000Z 00000KT CAVOK 26/22 A2980 RMK FEW080 BKN140=
201108130100 METAR MRLB 130100Z 00000KT CAVOK 26/22 A2982 RMK LGTNG DST S FEW100 SCT150=
201108130200 METAR MRLB 130200Z 00000KT CAVOK 25/22 A2983 RMK FEW100 SCT140 LGTNG DST S=
201108130300 METAR MRLB NIL=
201108130400 METAR MRLB NIL=
201108130500 METAR MRLB NIL=
201108130600 METAR MRLB NIL=
201108130700 METAR MRLB NIL=
201108130800 METAR MRLB NIL=
201108130900 METAR MRLB NIL=
201108131000 METAR MRLB NIL=
201108131100 METAR MRLB NIL=
201108131200 METAR MRLB 131200Z 00000KT 9999 FEW025 BKN250 23/22 A2982 RMK LOW ST SW=
201108131300 METAR MRLB 131300Z 00000KT 9999 SCT020 BKN250 25/23 A2983 RMK LW ST SW=
201108131400 METAR MRLB 131400Z 00000KT 9999 FEW035 BKN250 27/24 A2985=
201108131500 METAR MRLB 131500Z 00000KT 9999 FEW035 BKN250 28/23 A2986=
201108131600 METAR MRLB 131600Z 28004KT 9999 SCT035 SCT250 29/23 A2986=
201108131700 METAR MRLB 131700Z 25004KT 9999 SCT035 BKN240 30/23 A2986=
201108131800 METAR MRLB 131800Z 28003KT 9999 SCT035 BKN240 31/23 A2983=
201108131900 METAR MRLB 131900Z 26006KT 9999 FEW020TCU SCT030 BKN240 30/23 A2980=
201108132000 METAR MRLB 132000Z 29009KT 9999 -RA FEW015TCU SCT025 BKN140 28/23 A2978=
201108132100 METAR MRLB 132100Z 30005KT 9999 SCT030 BKN140 28/24 A2975 RERA RMK RA DST S SE=
201108132200 METAR MRLB 132200Z 14005KT 9999 3000SW -RA SCT025 BKN120 24/20 A2977=
201108132300 METAR MRLB 132300Z 00000KT 9999 SCT020 BKN110 23/22 A2979 RERA RA S=
201108140000 METAR MRLB 140000Z 18003KT 9999 SCT035 BKN110 23/22 A2980 RMK RA DST S=
201108140100 METAR MRLB 140100Z 14002KT 9999 SCT030 BKN120 24/22 A2982=
201108140200 METAR MRLB 140200Z 15003KT 9999 SCT025 BKN120 23/22 A2984=
201108140300 METAR MRLB NIL=
201108140400 METAR MRLB NIL=
201108140500 METAR MRLB NIL=
201108140600 METAR MRLB NIL=
201108140700 METAR MRLB NIL=
201108140800 METAR MRLB NIL=
201108140900 METAR MRLB NIL=
201108141000 METAR MRLB NIL=
201108141100 METAR MRLB NIL=
201108141200 METAR MRLB 141200Z 00000KT 9999 FEW035 BKN130 22/22 A2982 RMK BCFG S=
201108141300 METAR MRLB 141300Z 00000KT 9999 2000SE VCFG FEW005 BKN120 23/22 A2983=
201108141400 METAR MRLB 141400Z 00000KT 9999 FEW010 BKN120 25/23 A2984=
201108141500 METAR MRLB 141500Z 00000KT 9999 FEW015 BKN120 27/24 A2985=
201108141555 METAR MRLB 141555Z 00000KT 9999 FEW030 SCT120 28/24 A2987=
201108141600 METAR MRLB 00000KT 9999 FEW030 SCT120 28/24 A2987=
201108141700 METAR MRLB 141700Z 00000KT 9999 FEW030 BKN130 30/23 A2987=
201108141800 METAR MRLB 141800Z 00000KT 9999 SCT035 BKN120 30/22 A2985=
201108141900 METAR MRLB 141900Z 27005KT 9999 SCT035 BKN130 30/23 A2982=
201108142000 METAR MRLB 142000Z 30004KT 9999 FEW035 BKN130 31/22 A2979=
201108142100 METAR MRLB 142100Z 27009KT 9999 SCT025 BKN120 30/23 A2978 RMK RN DST N NE=
201108142200 METAR MRLB 142200Z 08012KT 9999 3000E TSRA FEW015CB BKN025 24/21 A2976=
201108142300 METAR MRLB 142300Z 19006KT 9999 -RA FEW020 BKN100 23/21 A2977 RMK RETSRA TS DST SW=
201108150000 METAR MRLB NIL=
201108150100 METAR MRLB 150100Z 00000KT 9999 -RA FEW020 BKN100 23/22 A2980=
201108150200 METAR MRLB 150200Z 00000KT 9999 -RA FEW020 BKN100 23/22 A2982=
201108150300 METAR MRLB NIL=
201108150400 METAR MRLB NIL=
201108150500 METAR MRLB NIL=
201108150600 METAR MRLB NIL=
201108150700 METAR MRLB NIL=
201108150800 METAR MRLB NIL=
201108150900 METAR MRLB NIL=
201108151000 METAR MRLB NIL=
201108151100 METAR MRLB NIL=
201108151200 METAR MRLB 151200Z 00000KT 9999 1500SW BR FEW001 SCT010 BKN250 23/22 A2980=
201108151300 METAR MRLB 151300Z 00000KT 9999 PRFG FEW010 BKN250 26/22 A2982 NEAR FG BANKS NEAR APCH RWY07=
201108151400 METAR MRLB 151400Z 00000KT 9999 FEW010 SCT250 27/23 A2984=
201108151500 METAR MRLB 1500Z 00000KT 9999 FEW012 SCT250 28/23 A2986=
201108151600 METAR MRLB 151600Z 00000KT 9999 FEW020 SCT250 30/23 A2987=
201108151700 METAR MRLB 151700Z 28008KT 9999 SCT020 BKN200 30/22 A2987 RMK TCU DST ARND=
201108151800 METAR MRLB 151800Z 27008KT 9999 SCT020 BKN180 30/22 A2985 RMK TCU DST ARND=
201108151900 METAR MRLB 151900Z 30008KT 9999 RA SCT020 BKN100 28/22 A2982=
201108152000 METAR MRLB 152000Z 26008KT 9999 FEW030 BKN140 29/22 A2980 RERA=
201108152100 METAR MRLB 152100Z 26006KT 9999 FEW030 BKN150 30/23 A2978=
201108152200 METAR MRLB 152200Z 27005KT 9999 FEW025 SCT100 30/22 A2978 RMK TCU RN DST E=
201108152300 METAR MRLB 152300Z 24005KT 9999 -RA SCT025 BKN140 28/22 A2979=
201108160000 METAR MRLB 160000Z 13004KT 9999 FEW030 BKN150 26/22 A2979 RMK RN DST ARND=
201108160100 METAR MRLB 160100Z 00000KT 9999 DZ FEW020 SCT100 25/22 A2980=
201108160200 METAR MRLB 160200Z 00000KT 9999 FEW020 SCT100 25/22 A2982=
201108160300 METAR MRLB NIL=
201108160400 METAR MRLB NIL=
201108160500 METAR MRLB NIL=
201108160600 METAR MRLB NIL=
201108160700 METAR MRLB NIL=
201108160800 METAR MRLB NIL=
201108160900 METAR MRLB NIL=
201108161000 METAR MRLB NIL=
201108161100 METAR MRLB NIL=
201108161200 METAR MRLB 161200Z 00000KT 9999 SCT020 BKN130 23/22 A2983 RMK ST LOW S SW=
201108161300 METAR MRLB 161300Z 00000KT 9999 SCT025 BKN130 23/22 A2985 RMK LOW ST S SW=
201108161400 METAR MRLB 161400Z 00000KT 9999 FEW030 BKN130 25/23 A2986=
201108161500 METAR MRLB 161500Z 00000KT 9999 FEW030 BKN120 25/23 A2988=
201108161600 METAR MRLB 161600Z VRB02KT 9999 FEW030 BKN100 26/24 A2989=
201108161700 METAR MRLB 161700Z 00000KT 9999 RA SCT025TCU BKN100 27/24 A2990 RMK VIS 5000 SE=
201108161800 METAR MRLB 161800Z 14005KT 9999 FEW025 BKN250 28/25 A2986 RMK TCU CB DST SW=
201108161900 METAR MRLB 161900Z 10009KT 9999 SCT025 BKN140 28/22 A2984=
201108162000 METAR MRLB 162000Z 09007KT 9999 FEW030 BKN140 28/22 A2983=
201108162100 METAR MRLB 162100Z 10008KT 9999 FEW035 BKN140 29/22 A2981=
201108162200 METAR MRLB 162200Z 11008KT 9999 FEW035 BKN140 30/22 A2981=
201108162300 METAR MRLB 162300Z 11006KT 9999 SCT035 BKN140 28/22 A2981=
201108162351 METAR MRLB 170000Z 10005KT 9999 FEW035 BKN130 27/22 A2982=
201108170000 METAR MRLB 170000Z 10005KT 9999 FEW035 BKN130 27/22 A2982=
201108170100 METAR MRLB 170100Z 12004KT 9999 SCT035 BKN130 26/21 A2984=
201108170200 METAR MRLB 170200Z 11005KT 9999 SCT030 BKN130 25/21 A2986=
201108170300 METAR MRLB NIL=
201108170400 METAR MRLB NIL=
201108170500 METAR MRLB NIL=
201108170600 METAR MRLB NIL=
201108170700 METAR MRLB NIL=
201108170800 METAR MRLB NIL=
201108170900 METAR MRLB NIL=
201108171000 METAR MRLB NIL=
201108171100 METAR MRLB NIL=
201108171200 METAR MRLB 171200Z 00000KT 9999 SCT030 BKN120 23/22 A2985 RN DST NE=
201108171300 METAR MRLB 171300Z 00000KT 9999 SCT030 BKN120 25/23 A2987 RMK RA DST NE=
201108171400 METAR MRLB 171400Z 00000KT 9999 FEW030 BKN120 26/23 A2989=
201108171500 METAR MRLB 171500Z 12004KT 9999 FEW030 BKN120 28/23 A2991=
201108171600 METAR MRLB 171600Z 08007KT 9999 FEW035 SCT120 BKN250 29/22 A2992=
201108171700 METAR MRLB 171700Z 11006KT 9999 FEW035 BKN250 30/22 A2990=
201108171800 METAR MRLB 171800Z 10007KT 9999 FEW035 BKN140 30/22 A2988=
201108171900 METAR MRLB 171900Z 08006KT 9999 FEW035 BKN140 30/22 A2986=
201108172000 METAR MRLB 172000Z 08004KT 9999 FEW035 BKN140 30/22 A2985=
201108172100 METAR MRLB 172100Z 15003KT 9999 SCT030 SCT250 31/23 A2982=
201108172200 METAR MRLB 172200Z 10003KT 9999 FEW030 BKN130 31/23 A2982 RMK RA DST S=
201108172300 METAR MRLB 172300Z 07004KT 9999 FEW030 BKN130 30/21 A2982 RMK RA DST S=
201108172356 METAR MRLB 180000Z 30002KT 9999 FEW020 BKN120 28/24 A2981 RMK RN DST E SE=
201108180000 METAR MRLB 180000Z 30002KT 9999 FEW020 BKN120 28/24 A2981 RMK RN DST E SE=
201108180100 METAR MRLB 180100Z 11006KT 9999 FEW020 BKN120 27/23 A2983=
201108180200 METAR MRLB NIL=
201108180300 METAR MRLB NIL=
201108180400 METAR MRLB NIL=
201108180500 METAR MRLB NIL=
201108180600 METAR MRLB NIL=
201108180700 METAR MRLB NIL=
201108180800 METAR MRLB NIL=
201108180900 METAR MRLB NIL=
201108181000 METAR MRLB NIL=
201108181100 METAR MRLB NIL=
201108181200 METAR MRLB 181200Z 04003KT CAVOK 23/22 A2984 RMK SCT250 LOW ST ARND=
201108181300 METAR MRLB 181300Z 00000KT CAVOK 26/22 A2985 RMK SCT250 LW ST ARND=
201108181400 METAR MRLB 181400Z 04003KT CAVOK 27/23 A2987 RMK SCT250=
201108181500 METAR MRLB 181500Z 03005KT CAVOK 30/22 A2988 RMK SCT250=
201108181600 METAR MRLB 181600Z 16005KT 9999 FEW030 SCT250 30/23 A2989=
201108181700 METAR MRLB 181700Z 24004KT 9999 SCT025 BKN250 32/23 A2988=
201108181800 METAR MRLB 181800Z 00000KT 9999 SCT025 BKN250 32/22 A2985=
201108181900 METAR MRLB 181900Z 00000KT 9999 SCT025 BKN250 33/22 A2982=
201108182000 METAR MRLB 182000Z 28010KT 9999 SCT025 BKN250 31/23 A2979=
201108182100 METAR MRLB 182100Z 28010KT 9999 SCT025 BKN250 32/23 A2976 RMK TCU RA E=
201108182200 METAR MRLB 182200Z 25008KT 9999 DZ SCT020 BKN250 28/23 A2975 RMK TCU RA DST S SE=
201108182300 METAR MRLB 182300Z 15004KT 9999 -RA SCT020CB BKN200 27/23 A2976 RMK VIS S 4KMS=
201108190000 METAR MRLB 190000Z 17004KT 9999 FEW030 SCT250 25/23 A2977 RMK TCU ARND=
201108190100 METAR MRLB 190100Z 00000KT 9999 FEW035 SCT250 25/22 A2978=
201108190200 METAR MRLB 190200Z 00000KT 9999 FEW040 SCT250 24/22 A2980=
201108190300 METAR MRLB NIL=
201108190400 METAR MRLB NIL=
201108190500 METAR MRLB NIL=
201108190600 METAR MRLB NIL=
201108190700 METAR MRLB NIL=
201108190800 METAR MRLB NIL=
201108190900 METAR MRLB NIL=
201108191000 METAR MRLB NIL=
201108191100 METAR MRLB NIL=
201108191200 METAR MRLB 191200Z 05003KT CAVOK 23/22 A2979 RMK SCT250=
201108191300 METAR MRLB 191300Z 03003KT CAVOK 25/22 A2981 RMK SCT250=
201108191400 METAR MRLB 191400Z 35003KT CAVOK 28/23 A2982 RMK BKN250=
201108191500 METAR MRLB 191500Z 28003KT 9999 FEW035 SCT250 30/24 A2983=
201108191600 METAR MRLB 191600Z 26003KT 9999 SCT035 SCT250 31/23 A2983=
201108191700 METAR MRLB 191700Z 24004KT 9999 SCT035 BKN250 32/22 A2982=
201108191800 METAR MRLB 191800Z 27009KT 9999 SCT030TCU BKN250 31/24 A2980=
201108191900 METAR MRLB 191900Z 28007KT 9999 VCSH FEW015TCU SCT025 BKN140 25 /23 A2975 RERA=
201108192000 METAR MRLB 192000Z 29009KT 9999 SCT025 BKN140 28/25 A2976 RMK RA N NE=
201108192100 METAR MRLB 192100Z 28008KT 9999 SCT020 BKN120 27/24 A2977 RMK RN DST S SE=
201108192200 METAR MRLB 192200Z 20003KT 9999 VCSH SCT015 BKN100 24/22 A2975=
201108192300 METAR MRLB 192300Z 06003KT 9999 SCT025 BKN100 24/23 A2975=
201108200000 METAR MRLB 200000Z 00000KT 9999 SCT035 BKN110 24/22 A2979=
201108200100 METAR MRLB 200100Z 13003KT 9999 SCT030 BKN120 23/22 A2982=
201108200200 METAR MRLB NIL=
201108200300 METAR MRLB NIL=
201108200400 METAR MRLB NIL=
201108200500 METAR MRLB NIL=
201108200600 METAR MRLB NIL=
201108200700 METAR MRLB NIL=
201108200800 METAR MRLB NIL=
201108200900 METAR MRLB NIL=
201108201000 METAR MRLB NIL=
201108201100 METAR MRLB NIL=
201108201200 METAR MRLB 201200Z 07002KT CAVOK 22/22 A2981 RMK OVC250=
201108201300 METAR MRLB 201300Z 17002KT CAVOK 24/22 A2982 OVC250=
201108201400 METAR MRLB 201400Z 17005KT 9999 FEW010 BKN250 24/23 A2984=
201108201500 METAR MRLB 201500Z 15003KT CAVOK 27/23 A2986 OVC250=
201108201600 METAR MRLB 201600Z 14004KT 9999 FEW030 BKN250 29/24 A2986=
201108201700 METAR MRLB 201700Z 18004KT 9999 FEW030 BKN250 30/24 A2986 RMK CB DST SW=
201108201800 METAR MRLB 201800Z 18005KT 9999 SCT030 BKN250 30/22 A2985=
201108201900 METAR MRLB 201900Z 21008KT 9999 SCT025 SCT120 28/24 A2982 RMK RN DST S=
201108202000 METAR MRLB 202000Z 22009KT 9999 SCT030 BKN250 29/24 A2979 RMK RN DST N/NE=
201108202100 METAR MRLB 202100Z 26009KT 9999 OVC020 29/24 A2978 RMK RN DST N/NE=
201108202200 METAR MRLB 202200Z 30004KT 9999 4000SE RA SCT015 BKN100 26/24 A2977=
201108202300 METAR MRLB 202300Z 02003KT 9999 -RA SCT015 BKN100 25/24 A2978 RERA=
201108210000 METAR MRLB 210000Z 09003KT 9999 FEW015 BKN100 24/23 A2980=
201108210100 METAR MRLB 210100Z 09005KT 9999 FEW015 BKN100 24/23 A2982=
201108210200 METAR MRLB 210200Z 09005KT 9999 FEW015 BKN100 24/23 A2982=
201108210300 METAR MRLB NIL=
201108210400 METAR MRLB NIL=
201108210500 METAR MRLB NIL=
201108210600 METAR MRLB NIL=
201108210700 METAR MRLB NIL=
201108210800 METAR MRLB NIL=
201108210900 METAR MRLB NIL=
201108211000 METAR MRLB NIL=
201108211100 METAR MRLB NIL=
201108211200 METAR MRLB 211200Z 00000KT 9999 4000S BR SCT008 BKN250 23/22 A2986=
201108211300 METAR MRLB 211300Z 09003KT 9999 SCT020 BKN250 25/23 A2987=
201108211400 METAR MRLB 211400Z 18003KT 9999 SCT025 SCT250 25/23 A29880=
201108211500 METAR MRLB 211500Z 16004KT 9999 FEW035 SCT250 27/23 A2989=
201108211600 METAR MRLB NIL=
201108211700 METAR MRLB 211700Z 13004KT 9999 SCT035 SCT250 29/23 A2989=
201108211800 METAR MRLB 211800Z 15006KT 9999 SCT035 BKN250 30/22 A2987=
201108211900 METAR MRLB 211900Z 11005KT 9999 SCT035 BKN250 31/21 A2984=
201108212000 METAR MRLB 212000Z 27010KT 9999 SCT035 BKN240 30/24 A2982=
201108212100 METAR MRLB 212100Z 25012KT 2000 RA FEW010CB SCT020 BKN130 27/24 A2981 RMK N NW UNL=
201108212200 METAR MRLB 212200Z 28007KT 7000 -RA FEW008TCU BKN025 23/22 A2982=
201108212300 METAR MRLB 212300Z 04004KT 9999 SCT030 BKN100 24/23 A2983=
201108212353 METAR MRLB 220000Z 09003KT 9999 SCT035 BKN100 24/23 A2984=
201108220000 METAR MRLB 220000Z 09003KT 9999 SCT035 BKN100 24/23 A2984=
201108220100 METAR MRLB 220100Z 10003KT 9999 -DZ SCT030 BKN110 24/23 A2987=
201108220200 METAR MRLB NIL=
201108220300 METAR MRLB NIL=
201108220400 METAR MRLB NIL=
201108220500 METAR MRLB NIL=
201108220600 METAR MRLB NIL=
201108220700 METAR MRLB NIL=
201108220800 METAR MRLB NIL=
201108220900 METAR MRLB NIL=
201108221000 METAR MRLB NIL=
201108221100 METAR MRLB NIL=
201108221200 METAR MRLB 221200Z 00000KT CAVOK 22/21 A2984 RMK FEW100 SCT250 LOW ST ARND=
201108221300 METAR MRLB 221300Z 21003KT 9999 FEW005 SCT250 23/22 A2986 RMK VIS E 3KM=
201108221400 METAR MRLB 221400Z 30004KT 9999 FEW010 SCT250 27/23 A2987=
201108221500 METAR MRLB 221500Z 00000KT CAVOK 28/23 A2988 RMK FEW100 SCT250=
201108221600 METAR MRLB 221600Z 08004KT 9999 FEW020 SCT250 30/23 A2987=
201108221700 METAR MRLB 221700Z 09005KT 9999 SCT020 BKN250 31/22 A2987=
201108221800 METAR MRLB 221800Z 06010KT 9999 SCT020 BKN250 32/22 A2984=
201108221900 METAR MRLB 221900Z 14006KT 9999 SCT020 BKN250 32/22 A2982=
201108222000 METAR MRLB 222000Z 10008KT 9999 SCT020 BKN250 33/22 A2979=
201108222100 METAR MRLB 222100Z 26004KT 9999 SCT020 BKN250 33/22 A2978=
201108222200 METAR MRLB 222200Z 27007KT 9999 SCT020TCU BKN150 31/23 A2977 RMK TCU RN DST S SE SW=
201108222300 METAR MRLB 222300Z 21003KT 9999 2000SW -RA SCT015CB BKN120 26/23 A2978=
201108222359 METAR MRLB 230000Z 19006KT 9999 SCT025CB BKN150 26/23 A2982 RMK CB RN DST SW=
201108230000 METAR MRLB 230000Z 19006KT 9999 SCT025CB BKN150 26/23 A2982 RMK CB RN DST SW=
201108230100 METAR MRLB 230100Z 14005KT 9999 FEW025 SCT120 25/22 A2984 RMK LGTNG DST SW=
201108230200 METAR MRLB 230200Z 00000KT 9999 FEW025 SCT120 25/23 A2985 RMK LGTNG DST NW N=
201108230300 METAR MRLB NIL=
201108230400 METAR MRLB NIL=
201108230500 METAR MRLB NIL=
201108230600 METAR MRLB NIL=
201108230700 METAR MRLB NIL=
201108230800 METAR MRLB NIL=
201108230900 METAR MRLB NIL=
201108231000 METAR MRLB NIL=
201108231100 METAR MRLB NIL=
201108231200 METAR MRLB NIL=
201108231300 METAR MRLB 231300Z 00000KT CAVOK 24/22 A2982 RMK BKN130 CB DST SW=
201108231400 METAR MRLB 231400Z 18003KT CAVOK 26/23 A2983 RMK FEW140=
201108231500 METAR MRLB 231500Z 19005KT 9999 FEW020 28/23 A2985=
201108231600 METAR MRLB 231600Z 31003KT 9999 SCT025 30/23 A2984=
201108231700 METAR MRLB 231700Z 21004KT 9999 BKN020 30/24 A2985 RMK RA DST E SW=
201108231800 METAR MRLB 231800Z 33007KT 9999 2000N TSRA FEW010CB BKN020 27/24 A2982=
201108231900 METAR MRLB 231900Z 29005KT 9999 SCT020 BKN100 26/23 A2979 RMK RN SW W=
201108232000 METAR MRLB 232000Z 28006KT 9999 FEW020 BKN100 30/24 A2978 RMK RN DST NE E S=
201108232100 METAR MRLB 232100Z 28005KT 2000 TS RA FEW010CB BKN020 29/24 A2978 RMK VIS W UNL=
201108232200 METAR MRLB 232200Z 36011KT 9999 3000 S RA SCT010 BKN020 24/23 A2976 TS DST S=
201108232300 METAR MRLB 232300Z 09003KT 9999 SCT020 BKN100 24/23 A2977 RERA RMK TS RA DST S RA SW=
201108240000 METAR MRLB 240000Z 00000KT 9999 FEW020 BKN100 24/23 A2980 RMK RA DST S SW=
201108240100 METAR MRLB 240100Z 00000KT 9999 -RA FEW020 BKN100 24/23 A2980=
201108240200 METAR MRLB NIL=
201108240300 METAR MRLB NIL=
201108240400 METAR MRLB NIL=
201108240500 METAR MRLB NIL=
201108240600 METAR MRLB NIL=
201108240700 METAR MRLB NIL=
201108240800 METAR MRLB NIL=
201108240900 METAR MRLB NIL=
201108241000 METAR MRLB NIL=
201108241100 METAR MRLB NIL=
201108241200 METAR MRLB 241200Z 00000KT 1000 BR SCT001 BKN080 24/23 A2982=
201108241300 METAR MRLB 241300Z 00000KT 9999 FEW010 SCT150 25/23 A2984 RMK LOW ST=
201108241400 METAR MRLB NIL=
201108241500 METAR MRLB 241500Z 15005KT 9999 SCT012 BKN140 27/23 A2988=
201108241600 METAR MRLB 241600Z 13004KT 9999 SCT015 BKN140 29/123 A2988=
201108241700 METAR MRLB 241700Z 15003KT 9999 SCT025 BKN250 30/23 A2986=
201108241800 METAR MRLB 241800Z 15005KT 9999 SCT025 BKN250 30/22 A2985=
201108241900 METAR MRLB 241900Z 24005KT 9999 SCT025 BKN250 31/22 A2982 RMK RA DST NE=
201108242000 METAR MRLB 242000Z 27010KT 9999 -RA SCT020 BKN120 29/23 A2978 RMK VIS N 3KMS=
201108242100 METAR MRLB 242100Z 03008KT 0800 TSRA FEW005CB BKN015 23/22 A2979=
201108242200 METAR MRLB 242200Z 03004KT 7000 -RA SCT015CB BKN100 23/22 A2979=
201108242300 METAR MRLB 242300Z 02004KT 9999 -RA SCT025 BKN100 23/22 A2979 RETS=
201108250000 METAR MRLB 250000Z 00000KT 9999 SCT025 BKN150 23/22 A2980 RERA=
201108250100 METAR MRLB 250100Z 00000KT 9999 FEW015 BKN100 23/22 A2982=
201108250200 METAR MRLB 250200Z 00000KT 9000 DZ FEW015 BKN100 23/22 A2984=
201108250300 METAR MRLB NIL=
201108250400 METAR MRLB NIL=
201108250500 METAR MRLB NIL=
201108250600 METAR MRLB NIL=
201108250700 METAR MRLB NIL=
201108250800 METAR MRLB NIL=
201108250900 METAR MRLB NIL=
201108251000 METAR MRLB NIL=
201108251100 METAR MRLB NIL=
201108251200 METAR MRLB 251200Z 12006KT 4000 RA FEW006 BKN015 23/22 A2986=
201108251300 METAR MRLB 251300Z 09004KT 9999 -RA SCT020 BKN100 23/22 A2988 RERA=
201108251400 METAR MRLB 251400Z 09005KT 9999 SCT030 BKN120 25/23 A2990=
201108251500 METAR MRLB 251500Z 12003KT 9999 FEW035 BKN130 26/22 A2990=
201108251600 METAR MRLB 251600Z 18004KT 9999 SCT030 BKN130 27/22 A2992=
201108251700 METAR MRLB 251700Z 14005KT 9999 SCT025 BKN130 28/22 A2991 RMK RN DST S=
201108251800 METAR MRLB 251800Z 17009KT 9999 -RA SCT020 BKN130 26/23 A2989=
201108251900 METAR MRLB 251900Z 22008KT 9999 FEW010 SCT025 BKN130 29/22 A2988 RMK RN DST E NE=
201108252000 METAR MRLB 252000Z 19004KT 9999 VCSH FEW010 SCT030 BKN120 28/22 A2985=
201108252100 METAR MRLB 252100Z 09007KT 9999 VCSH FEW008 SCT015 BKN110 26/23 A2983=
201108252200 METAR MRLB 252200Z 12005KT 9999 SCT012 BKN100 24/22 A2983 RMK RN DST N=
201108252300 METAR MRLB 252300Z 06004KT 9999 SCT030 BKN120 24/22 A2984=
201108260000 METAR MRLB 260000Z 09003KT 9999 FEW030 BKN120 24/22 A2986=
201108260100 METAR MRLB 260100Z 10003KT 9999 DZ SCT030 BKN120 23/22 A29880=
201108260200 METAR MRLB 260200Z 12003KT 9999 DZ SCT025 BKN110 23/22 A2990=
201108260300 METAR MRLB NIL=
201108260400 METAR MRLB NIL=
201108260500 METAR MRLB NIL=
201108260600 METAR MRLB NIL=
201108260700 METAR MRLB NIL=
201108260800 METAR MRLB NIL=
201108260900 METAR MRLB NIL=
201108261000 METAR MRLB NIL=
201108261100 METAR MRLB NIL=
201108261200 METAR MRLB 261200Z 08002KT CAVOK 23/22 A2990 RMK OVC140=
201108261300 METAR MRLB 261300Z 18005KT 9999 FEW005 BKN140 24/22 A2993=
201108261400 METAR MRLB 261400Z 16005KT 9999 FEW010 SCT140 BKN250 25/23 A2996=
201108261500 METAR MRLB 261500Z 20006KT 9999 SCT020 BKN100 26/23 A2997 RMK RN DST SW W=
201108261600 METAR MRLB NIL=
201108261700 METAR MRLB 261700Z 31009KT 9999 FEW025 BKN100 27/23 A2997 RMK RN DST N S NW=
201108261800 METAR MRLB 261800Z 31007KT 9999 FEW020 SCT250 28/22 A2996 RMK FEW100 RN DST S SW=
201108261900 METAR MRLB 261900Z 27007KT 9999 FEW020 BKN100 27/25 A2994 RMK RN DST S=
201108262000 METAR MRLB 262000Z 27008KT 9999 SCT020 BKN120 28/25 A2990=
201108262100 METAR MRLB 262100Z 28008KT 9999 SCT020 BKN120 28/24 A2988=
201108262200 METAR MRLB 262200Z 30007KT 9999 FEW020 BKN120 27/23 A2987=
201108262300 METAR MRLB 262300Z 29005KT 9999 FEW020 BKN120 27/23 A2986=
201108262351 METAR MRLB 270000Z 32004KT 9999 FEW020 BKN120 26/24 A2988=
201108270000 METAR MRLB 270000Z 32004KT 9999 FEW020 BKN120 26/24 A2988=
201108270100 METAR MRLB 270100Z 03003KT 9999 FEW020 BKN120 25/24 A2991=
201108270200 METAR MRLB 270200Z 32002KT 9999 FEW020 BKN120 25/23 A2992=
201108270300 METAR MRLB NIL=
201108270400 METAR MRLB NIL=
201108270500 METAR MRLB NIL=
201108270600 METAR MRLB NIL=
201108270700 METAR MRLB NIL=
201108270800 METAR MRLB NIL=
201108270900 METAR MRLB NIL=
201108271000 METAR MRLB NIL=
201108271100 METAR MRLB NIL=
201108271200 METAR MRLB 271200Z 01003KT CAVOK 24/23 A2987 RMK FEW100 SCT250 TCU DST SW=
201108271300 METAR MRLB 271300Z 01006KT CAVOK 26/23 A2990 RMK FEW100 SCT250=
201108271400 METAR MRLB 271400Z 30005KT CAVOK 28/23 A2991 RMK SCT250 TCU DST SW=
201108271500 METAR MRLB 271500Z 28007KT 9999 SCT015 BKN250 27/23 A2993 RMK TCU DST SW=
201108271600 METAR MRLB 271600Z 25008KT 9999 SCT015 BKN250 29/23 A2994=
201108271700 METAR MRLB 271700Z 27008KT 9999 SCT120 BKN250 30/24 A2991=
201108271800 METAR MRLB 271800Z 28010KT 9999 SCT020 BKN250 29/24 A2989=
201108271900 METAR MRLB 271900Z 27010KT 9999 SCT015 BKN250 30/24 A2987=
201108272000 METAR MRLB 272000Z 27010KT 9999 SCT020 BKN250 30/23 A2984 RMK TCU RA DST SE=
201108272100 METAR MRLB 272100Z 26010KT 9999 SCT018CB BKN180 28/24 A2981 RMK CB RN NE/E/S E=
201108272200 METAR MRLB 272200Z 27008KT 9999 FEW015 SCT100 BKN250 27/24 A2980=
201108272300 METAR MRLB 272300Z 28007KT 9999 FEW025 SCT250 27/24 A2980=
201108272357 METAR MRLB 280000Z 30003KT 9999 FEW025 SCT250 26/23 A2982=
201108280000 METAR MRLB 280000Z 30003KT 9999 FEW025 SCT250 26/23 A2982=
201108280100 METAR MRLB 280100Z 29003KT 9999 FEW015 SCT250 26/23 A2984 RMK TCU DST S=
201108280200 METAR MRLB 280200Z 00000KT 9999 FEW020 SCT150 25/23 A2985=
201108280300 METAR MRLB NIL=
201108280400 METAR MRLB NIL=
201108280500 METAR MRLB NIL=
201108280600 METAR MRLB NIL=
201108280700 METAR MRLB NIL=
201108280800 METAR MRLB NIL=
201108280900 METAR MRLB NIL=
201108281000 METAR MRLB NIL=
201108281100 METAR MRLB NIL=
201108281200 METAR MRLB 281200Z 00000KT 9999 SCT030 BKN250 23/23 A2978=
201108281300 METAR MRLB 281300Z 10003KT 9999 SCT025 BKN250 25/23 A2981=
201108281400 METAR MRLB 281400Z 00000KT 9999 SCT030 BKN250 26/24 A2983=
201108281500 METAR MRLB 281500Z 03003KT 9999 SCT035 BKN140 28/24 A2986=
201108281600 METAR MRLB 281600Z 24003KT 9999 SCT035 BKN140 30/24 A2987=
201108281700 METAR MRLB 281700Z 18006KT 9999 SCT035 BKN140 30/27 A2988=
201108281800 METAR MRLB 281800Z 14006KT 9999 SCT030 BKN130 30/24 A2984 RMK RN DST N NE=
201108281900 METAR MRLB 281900Z 13010KT 9999 4000S RA FEW010CB SCT025 BKN120 27/21 A2983=
201108282000 METAR MRLB 282000Z 18003KT 9999 FEW030 BKN120 26/23 A2980 RERA=
201108282100 METAR MRLB 282100Z 00000KT 9999 SCT035 BKN120 27/23 A2978 RMK RA N=
201108282200 METAR MRLB 292200Z 27007KT 9999 SCT030 BKN130 26/23 A2977=
201108282300 METAR MRLB 282300Z 26003KT 9999 FEW030 BKN140 27/23 A2978=
201108290000 METAR MRLB 290000Z 30003KT 9999 SCT030 BKN130 26723 A2980=
201108290100 METAR MRLB 290100Z 28003KT 9999 SCT030 BKN120 25/23 A2982=
201108290200 METAR MRLB NIL=
201108290300 METAR MRLB NIL=
201108290400 METAR MRLB NIL=
201108290500 METAR MRLB NIL=
201108290600 METAR MRLB NIL=
201108290700 METAR MRLB NIL=
201108290800 METAR MRLB NIL=
201108290900 METAR MRLB NIL=
201108291000 METAR MRLB NIL=
201108291100 METAR MRLB NIL=
201108291200 METAR MRLB NIL=
201108291300 METAR MRLB 291300Z 07004KT 9999 FEW030 BKN140 24/23 A2975=
201108291400 METAR MRLB 291400Z 00000KT 9999 SCT030 BKN130 26/24 A2986=
201108291500 METAR MRLB 291500Z 18004KT 9999 SCT030 BKN130 27/24 A2988=
201108291600 METAR MRLB 291600Z 16005KT 9999 SCT030 SCT120 28/24 A2989=
201108291700 METAR MRLB 291700Z 14005KT 9999 SCT020 BKN120 29/24 A2989 RMK CB DST SE=
201108291800 METAR MRLB 291800Z 17005KT 9999 SCT020 BKN250 28/24 A2985 RMK RA DST SW=
201108291900 METAR MRLB 291900Z 16003KT 9999 SCT020 BKN250 30/24 A2983 RMK RA DST W=
201108292000 METAR MRLB 292000Z 24005KT 9999 FEW020 BKN120 29724 A2980 RMK RA DST S SW=
201108292100 METAR MRLB 292100Z 25005KT 9999 SCT020 BKN120 29/24 A2978 RMK RN DST N SW=
201108292200 METAR MRLB 292200Z 21005KT 9999 -RA FEW015 BKN120 26/23 A2977 RERA=
201108292300 METAR MRLB 292300Z 21003KT 9999 SCT020 BKN120 25/23 A2977 RMK RN DST E SE=
201108300000 METAR MRLB 300000Z 02002KT 9999 FEW020 BKN100 26/24 A2997 RMK RN DST E=
201108300100 METAR MRLB 300100Z 01004KT 9999 FEW020 BKN100 26/24 A2978=
201108300200 METAR MRLB 300200Z 11002KT 9999 FEW030 BKN100 25/24 A2981=
201108300300 METAR MRLB NIL=
201108300400 METAR MRLB NIL=
201108300500 METAR MRLB NIL=
201108300600 METAR MRLB NIL=
201108300700 METAR MRLB NIL=
201108300800 METAR MRLB NIL=
201108300900 METAR MRLB NIL=
201108301000 METAR MRLB NIL=
201108301100 METAR MRLB NIL=
201108301200 METAR MRLB 301200Z 04003KT CAVOK 23/22 A2981 RMK FEW100 SCT250=
201108301300 METAR MRLB 301300Z 05003KT CAVOK 24/23 A2982 RMK FEW080 SCT250=
201108301400 METAR MRLB 301400Z 15003KT 9999 FEW010 SCT250 27/24 A2985=
201108301500 METAR MRLB 301500Z 14004KT 9999 FEW015 SCT250 28/24 A2987=
201108301600 METAR MRLB 301600Z 18004KT 9999 SCT020 BKN250 28/23 A2987=
201108301700 METAR MRLB NIL=
201108301800 METAR MRLB 301800Z 22004KT 9999 SCT025 BKN250 31/24 A2984=
201108301900 METAR MRLB 301900Z 21003KT 9999 SCT025 BKN140 30/23 A2981=
201108302000 METAR MRLB 302000Z 29010KT 9999 SCT025 BKN150 29/23 A2977=
201108302100 METAR MRLB 302100Z 29008KT 9999 SCT020 BKN150 28/24 A2977=
201108302200 METAR MRLB 302200Z 28008KT 9999 SCT015CB BKN170 28/24 A2976 RMK CB RN DST S=
201108302300 METAR MRLB 302300Z 18005KT 9999 SCT015 BKN120 26/22 A2977 RMK RN DST SE=
201108310000 METAR MRLB 310000Z 19003KT CAVOK 27/24 A2981 RMK FEW130 BKN270 CB RN DST S W=
201108310100 METAR MRLB 310100Z 00000KT 9999 SSCT020 BKN140 25/21 A2978=
201108310200 METAR MRLB NIL=
201108310300 METAR MRLB NIL=
201108310400 METAR MRLB NIL=
201108310500 METAR MRLB NIL=
201108310600 METAR MRLB NIL=
201108310700 METAR MRLB NIL=
201108310800 METAR MRLB NIL=
201108310900 METAR MRLB NIL=
201108311000 METAR MRLB NIL=
201108311100 METAR MRLB NIL=
201108311200 METAR MRLB 311200Z 00000KT 2500 BR FEW003 SCT010 BKN130 23/22 A2982=
201108311300 METAR MRLB 311300Z 14003KT 9999 FEW035 BKN240 25/23 A2983=
201108311400 METAR MRLB 311400Z 10003KT 9999 FEW035 BKN250 27/24 A2983=
201108311500 METAR MRLB 311500Z 10004KT 9999 FEW035 BKN250 28/25 A2984=
201108311600 METAR MRLB 311600Z 19004KT 9999 FEW035 BKN250 29/24 A2985=
201108311700 METAR MRLB 311700Z 16003KT 9999 SCT035 BKN240 30/24 A2985=
201108311800 METAR MRLB 311800Z 25003KT 9999 SCT035 BKN140 30/24 A2984=
201108311900 METAR MRLB 311900Z 26003KT 9999 SCT035 BKN140 31/24 A2982=
201108312000 METAR MRLB 312000Z 26003KT 9999 SCT025 BKN140 32/24 A2979=
201108312100 METAR MRLB 28004KT 9999 SCT035 BKN140 32/24 A2978=
201108312102 METAR MRLB 312102Z 28004KT 9999 SCT035 BKN140 32/24 A2978=
201108312200 METAR MRLB 312200Z 12003KT 9999 FEW035 BKN240 31/23 A2977=
201108312300 METAR MRLB 312300Z 27006KT 9999 FEW035 BKN240 29/24 A2977=
201108312358 METAR MRLB 010000Z 25005KT 9999 FEW035 BKN240 27/24 A2977=
201109010000 METAR MRLB 010000Z 25005KT 9999 FEW035 BKN240 27/24 A2977=
201109010100 METAR MRLB 010100Z 24004KT 9999 FEW035 BKN140 26/24 A2979=
201109010200 METAR MRLB NIL=
201109010300 METAR MRLB NIL=
201109010400 METAR MRLB NIL=
201109010500 METAR MRLB NIL=
201109010600 METAR MRLB NIL=
201109010700 METAR MRLB NIL=
201109010800 METAR MRLB NIL=
201109010900 METAR MRLB NIL=
201109011000 METAR MRLB NIL=
201109011100 METAR MRLB NIL=
201109011200 METAR MRLB 011200Z 10002KT 0500 FG OVC250 24/24 A2984=
201109011300 METAR MRLB 011300Z 35003KT 1000 BR FEW002 BKN250 24/24 A2985=
201109011400 METAR MRLB 011400Z 35002KT 9999 FEW005 BKN160 26/25 A2986=
201109011500 METAR MRLB 011500Z 28002KT 9999 FEW010 BKN150 28/25 A2986=
201109011600 METAR MRLB 011600Z 22003KT 9999 FEW020 BKN250 29/25 A2988=
201109011700 METAR MRLB 011700Z 25002KT 9999 BKN030 SCT250 31/24 A2988=
201109011800 METAR MRLB 011800Z 21003KT 9999 SCT030 SCT130 31/25 A2986=
201109011900 METAR MRLB 011900Z 13002KT 9999 SCT030 BKN120 31/24 A2983=
201109012000 METAR MRLB 012000Z 26005KT 9999 SCT030 BKN120 31/25 A2981=
201109012100 METAR MRLB 012100Z 28006KT 9999 FEW030 BKN120 31/25 A2979=
201109012200 METAR MRLB 012200Z 23005KT 9999 FEW030 BKN130 30/25 A2978 RMK CB DST E=
201109012300 METAR MRLB 012300Z 24005KT 9999 SCT025 BKN120 29/25 A2978=
201109020000 METAR MRLB 020000Z 24004KT 9999 -RA SCT015 SCT120 28/24 A2981=
201109020100 METAR MRLB 020100Z 14007KT 9999 BKN015 SCT120 26/24 A2982 RMK LGTNG DST W=
201109020200 METAR MRLB 020200Z 04004KT 8000 -RA SCT020 OVC100 24/23 A2991=
201109020300 METAR MRLB NIL=
201109020400 METAR MRLB NIL=
201109020500 METAR MRLB NIL=
201109020600 METAR MRLB NIL=
201109020700 METAR MRLB NIL=
201109020800 METAR MRLB NIL=
201109020900 METAR MRLB NIL=
201109021000 METAR MRLB NIL=
201109021100 METAR MRLB NIL=
201109021200 METAR MRLB NIL=
201109021300 METAR MRLB 021300Z 19005KT 9999 FEW035 SCT250 25/23 A2988 RMK LW ST SW=
201109021400 METAR MRLB 021400Z 23003KT CAVOK 26/23 A2991 RMK FEW100 SCT250=
201109021500 METAR MRLB 021500Z 24004KT 9999 FEW030 SCT250 27/23 A2994=
201109021600 METAR MRLB 021600Z 29005KT 9999 SCT020 BKN220 28/23 A2994=
201109021700 METAR MRLB 021700Z 26010KT 9999 SCT018 BKN240 29/23 A2993=
201109021800 METAR MRLB 021800Z 28008KT 9999 SCT025 BKN250 30/23 A2991=
201109021900 METAR MRLB 021900Z 25010KT 9999 SCT025 BKN250 30/24 A2987=
201109022000 METAR MRLB 022000Z 26010KT 9999 SCT025 BKN250 30/24 A2985=
201109022100 METAR MRLB 022100Z 26010KT 9999 SCT025 BKN250 29/23 A2984=
201109022200 METAR MRLB 022200Z 27008KT 9999 SCT025 BKN150 27/23 A2983=
201109022300 METAR MRLB 022300Z 32005KT 9999 SCT030 BKN150 26724 A2984=
201109030000 METAR MRLB 030000Z 03005KT 9999 -TSRA SCT025CB BKN100 25/23 A2987 RMK LTNG DST SE=
201109030100 METAR MRLB 030100Z 06005KT 8000 -RA SCT020CB OVC100 24/23 A2989 RMK LTNG DST N=
201109030200 METAR MRLB NIL=
201109030300 METAR MRLB NIL=
201109030400 METAR MRLB NIL=
201109030500 METAR MRLB NIL=
201109030600 METAR MRLB NIL=
201109030700 METAR MRLB NIL=
201109030800 METAR MRLB NIL=
201109030900 METAR MRLB NIL=
201109031000 METAR MRLB NIL=
201109031100 METAR MRLB NIL=
201109031200 METAR MRLB NIL=
201109031300 METAR MRLB 031300Z 00000KT 9999 3000N VCFG SCT003 BKN120 23/22 A2987=
201109031400 METAR MRLB 031400Z 00000KT 9999 SCT025 BKN140 26/23 A2988=
201109031500 METAR MRLB 031500Z 16004KT 9999 FEW035 BKN140 26/22 A2990=
201109031600 METAR MRLB 031600Z 17003KT 9999 FEW035 BKN230 28/23 A2991=
201109031700 METAR MRLB 031700Z 2003KT 9999 SCT045 BKN230 28/23 A2991=
201109031800 METAR MRLB 031800Z 26004KT 9999 SCT035 BKN240 30/23 A2989=
201109031900 METAR MRLB 031900Z 28010KT 9999 SCT035 BKN240 30/24 A2987=
201109032000 METAR MRLB 032000Z 28009KT 9999 FEW035 BKN140 27/24 A2984=
201109032100 METAR MRLB 032100Z 26008KT 9999 SCT030 BKN140 27/24 A2983=
201109032200 METAR MRLB 032200Z 27008KT 9999 SCT030 BKN140 27/23 A2983=
201109032300 METAR MRLB 032300Z 24006KT 9999 SCT030 BKN130 27/23 A2984=
201109040000 METAR MRLB NIL=
201109040100 METAR MRLB 040100Z 17003KT 9999 SCT030 BKN130 25/23 A2986=
201109040200 METAR MRLB 040200Z 14003KT 9999 SCT030 BKN120 25/24 A2987=
201109040300 METAR MRLB NIL=
201109040400 METAR MRLB NIL=
201109040500 METAR MRLB NIL=
201109040600 METAR MRLB NIL=
201109040700 METAR MRLB NIL=
201109040800 METAR MRLB NIL=
201109040900 METAR MRLB NIL=
201109041000 METAR MRLB NIL=
201109041100 METAR MRLB NIL=
201109041200 METAR MRLB 041200Z 08002KT 9999 -RA FEW030 BKN120 23/23 A2985=
201109041300 METAR MRLB 041300Z 00000KT 9999 -RA SCT010 BKLN120 24/23 A2985=
201109041400 METAR MRLB 041400Z 15005KT 9999 -RA SCT010 BKN120 24/23 A2989=
201109041500 METAR MRLB 041500Z 13004KT 9999 SCT020 SCT100 25/23 A2990=
201109041600 METAR MRLB 041600Z 13002KT 9999 FEW030 BKN100 27/24 A2990=
201109041700 METAR MRLB 041700Z 09004KT 9999 SCT030 BKN100 27/23 A2990=
201109041800 METAR MRLB 041800Z 16004KT 9999 SCT030 SCT120 29/23 A2989=
201109041900 METAR MRLB 041900Z 14003KT 9999 FEW035 BKN120 30/22 A2985 RMK DST SW=
201109042000 METAR MRLB 042000Z 16004KT 9999 FEW035 BKN130 31/22 A2982=
201109042100 METAR MRLB 042100Z 21004KT 9999 SCT035 BKN130 31/22 A2980=
201109042200 METAR MRLB 042200Z 27009KT 9999 -RA SCT020 BKN130 28/23 A2980 RMK CB DST NE E=
201109042300 METAR MRLB 042300Z 24005KT 9999 -RA SCT020 BKN120 26/23 A2979 RMK TS DST SW=
201109050000 METAR MRLB 050000Z 24002KT 9999 FEW020 BKN120 24/22 A2985 RMK CB DST E S=
201109050100 METAR MRLB 050100Z 07003KT 9999 FEW020 BKN120 24/23 A2983=
201109050200 METAR MRLB 050200Z 09005KT 9999 -RA SCT020 BKN120 24/23 A2986=
201109050300 METAR MRLB NIL=
201109050400 METAR MRLB NIL=
201109050500 METAR MRLB NIL=
201109050600 METAR MRLB NIL=
201109050700 METAR MRLB NIL=
201109050800 METAR MRLB NIL=
201109050900 METAR MRLB NIL=
201109051000 METAR MRLB NIL=
201109051100 METAR MRLB NIL=
201109051200 METAR MRLB 051200Z 17003KT 0200 VV/// 22/22 A2985=
201109051300 METAR MRLB 051300Z 19002KT 2000 BR SCT002 SCT250 23/23 A2985=
201109051400 METAR MRLB 051400Z 00000KT 9999 FEW010 BKN140 26/23 A2986=
201109051500 METAR MRLB 051500Z 01002KT 9999 SCT025 BKN140 27/24 A2988=
201109051600 METAR MRLB 051600Z 05002KT 9999 FEW030 SCT140 BKN250 29/23 A2990=
201109051700 METAR MRLB 051700Z 19002KT 9999 SCT030 SCT130 30/23 A2989=
201109051800 METAR MRLB 051800Z 20004KT 9999 SCT030 BKN250 31/22 A2987 RMK RN DST N S SW=
201109051900 METAR MRLB 051900Z 24008KT 9999 SCT025 SCT120 30/24 A2984 RMK RN DST NE SW=
201109052000 METAR MRLB 052000Z 25010KT 9999 -TSRA FEW010CB BKN030 27/23 A2981=
201109052100 METAR MRLB 052100Z 25005KT 9999 BKN020 SCT120 27/23 A2981 RETSRA RMK TS RA DST N=
201109052200 METAR MRLB 052200Z 30003KT 9999 SCT020 BKN120 27/23 A2981 RMK RA DST E=
201109052300 METAR MRLB 052300Z 32003KT 9999 FEW020 BKN120 27/24 A2982=
201109060000 METAR MRLB 060000Z 36004KT 9999 SCT020 SCT120 25/24 A2983=
201109060100 METAR MRLB 060100Z 13003KT 9999 FEW020 BKN120 25/24 A2984=
201109060200 METAR MRLB 060200Z 36003KT 9999 FEW020 BKN120 24/23 A2984=
201109060300 METAR MRLB NIL=
201109060400 METAR MRLB NIL=
201109060500 METAR MRLB 0500Z 00000KT FG VV/// 23/23 A2989=
201109060600 METAR MRLB NIL=
201109060700 METAR MRLB NIL=
201109060800 METAR MRLB NIL=
201109060900 METAR MRLB NIL=
201109061000 METAR MRLB NIL=
201109061100 METAR MRLB NIL=
201109061200 METAR MRLB 061200Z 00000KT 0300 FG VV/// 23/22 A2986=
201109061300 METAR MRLB 061300Z 00000KT 0500 FG VV/// 23/23 A2989=
201109061400 METAR MRLB 061400Z 00000KT 4500 BR SCT002 BKN015 24/23 A2990=
201109061500 METAR MRLB 061500Z 35003KT 9999 SCT030 BKN130 25/23 A2991=
201109061600 METAR MRLB 061600Z 30003KT 9999 FEW035 BKN130 27/24 A2990=
201109061700 METAR MRLB 061700Z 26003KT 9999 FEW035 BKN140 28/23 A2990=
201109061800 METAR MRLB 061800Z 24006KT 9999 FEW035 BKN140 28/23 A2988=
201109061900 METAR MRLB 061900Z 26006KT 9999 FEW035 BKN240 30/23 A2986=
201109062000 METAR MRLB 062000Z 29008KT 9999 SCT035 BKN250 30/23 A2983=
201109062100 METAR MRLB 062100Z 27009KT 9999 SCT035 BKN140 28/24 A2980=
201109062200 METAR MRLB 062200Z 28010KT 9999 FEW035 BKN140 28/24 A2980=
201109062300 METAR MRLB 062300Z 27007KT 9999 SCT035 BKN140 27/24 A2981=
201109062356 METAR MRLB 070000Z 26004KT 9999 FEW035 BKN140 26/24 A2981=
201109070000 METAR MRLB 070000Z 26004KT 9999 FEW035 BKN140 26/24 A2981=
201109070100 METAR MRLB 070100Z 24004KT 9999 SCT030 BKN130 26/24 A2984=
201109070200 METAR MRLB 070200Z 26004KT 9999 SCT030 BKN130 25/24 A2986=
201109070300 METAR MRLB NIL=
201109070400 METAR MRLB NIL=
201109070500 METAR MRLB NIL=
201109070600 METAR MRLB NIL=
201109070700 METAR MRLB NIL=
201109070800 METAR MRLB NIL=
201109070900 METAR MRLB NIL=
201109071000 METAR MRLB NIL=
201109071100 METAR MRLB NIL=
201109071200 METAR MRLB 071200Z 03003KT 9999 FEW030 BKN250 24/24 A2986=
201109071300 METAR MRLB 071300Z 01004KT 9999 FEW020 BKN250 26/24 A2988=
201109071400 METAR MRLB 071400Z 31003KT 9999 SCT020 BKN250 27/24 A2991=
201109071500 METAR MRLB 071500Z 29005KT 9999 SCT025 SCT250 29/24 A2994=
201109071600 METAR MRLB 071600Z 29003KT 9999 SCT030 BKN250 30/24 A2993=
201109071700 METAR MRLB 071700Z 29003KT 9999 SCT035 BKN250 31/24 A2991=
201109071800 METAR MRLB 071800Z 29004KT 9999 SCT035 BKN250 31/24 A2988=
201109071900 METAR MRLB 071900Z 28009KT 9999 SCT030 BKN250 31/25 A2984=
201109072000 METAR MRLB 072000Z 27008KT 9999 SCT025 BKN250 31/25 A2983 RMK RA DST NE E=
201109072100 METAR MRLB 072100Z 19003KT 9999 FEW020 BKN120 29/24 A2979 RMK RA S=
201109072200 METAR MRLB 072200Z 26003KT 9999 FEW020 BKN120 28/25 A2981 RMK RA DST S=
201109072300 METAR MRLB 072300Z 17006KT 9999 FEW020 BKN120 25/22 A2981=
201109080000 METAR MRLB 080000Z 21003KT 9999 FEW020 BKN120 25/23 A2983=
201109080100 METAR MRLB 080100Z 00000KT 9999 FEW020 BKN120 25/22 A2984=
201109080200 METAR MRLB 080200Z 00000KT CAVOK 24/23 A2987 RMK OVC120=
201109080300 METAR MRLB NIL=
201109080400 METAR MRLB NIL=
201109080500 METAR MRLB NIL=
201109080600 METAR MRLB NIL=
201109080700 METAR MRLB NIL=
201109080800 METAR MRLB NIL=
201109080900 METAR MRLB NIL=
201109081000 METAR MRLB NIL=
201109081100 METAR MRLB NIL=
201109081200 METAR MRLB 081200Z 00000KT CAVOK 23/22 A2989 RMK FEW100 SCT200=
201109081300 METAR MRLB 081300Z 00000KT CAVOK 24/22 A2980 RMK FEW100 BKN250=
201109081400 METAR MRLB 081400Z 00000KT CAVOK 25/23 A2993 RMK FEW080 BKN120=
201109081500 METAR MRLB 081500Z 00000KT CAVOK 27/23 A2995 RMK FEW070 BKN120=
201109081600 METAR MRLB 081600Z 24003KT 9999 FEW025 BKN140 27/23 A2995=
201109081700 METAR MRLB 081700Z 22003KT 9999 FEW020 BKN150 29/23 A2995=
201109081800 METAR MRLB 081800Z 29003KT 9999 FEW020 BKN150 30/23 A2992=
201109081900 METAR MRLB 081900Z 32005KT 9999 SCT020 BKN140 29/23 A2988 RMK TCU RN DST N SE=
201109082000 METAR MRLB 082000Z 13003KT 9999 DZ SCT020TCU BKN120 27/23 A2985=
201109082100 METAR MRLB 082100Z 28005KT 9999 FEW030 BKN240 29/24 A2984 REDZ=
201109082200 METAR MRLB NIL=
201109082300 METAR MRLB 082300Z 17004KT 9999 4000SW RA SCT025 BKN150 27/23 A2983 RMK CB RN DS SE S=
201109090000 METAR MRLB 090000Z 15005KT 8000 -RA SCT020CB BKN100 24/23 A2986 RETS RMK VIS NE UNL=
201109090100 METAR MRLB NIL=
201109090200 METAR MRLB NIL=
201109090300 METAR MRLB NIL=
201109090400 METAR MRLB NIL=
201109090500 METAR MRLB NIL=
201109090600 METAR MRLB NIL=
201109090700 METAR MRLB NIL=
201109090800 METAR MRLB NIL=
201109090900 METAR MRLB NIL=
201109091000 METAR MRLB NIL=
201109091100 METAR MRLB NIL=
201109091200 METAR MRLB 091200Z 00000KT 9999 SCT025 BKN250 23/22 A2987 RMK LW ST S SW=
201109091300 METAR MRLB 091300Z 20003KT 9999 FEW035 SCT250 24/23 A2989=
201109091400 METAR MRLB 091400Z 00000KT 9999 FEW035 SCT250 26/23 A2991=
201109091500 METAR MRLB 091500Z 00000KT 9999 FEW035 SCT250 28/24 A2992=
201109091600 METAR MRLB 091600Z 26003KT 9999 FEW035 SCT250 29/24 A2992=
201109091700 METAR MRLB 091700Z 27005KT 9999 FEW035 BKN250 30/23 A2990=
201109091800 METAR MRLB 091800Z 23004KT 9999 SCT035 BKN250 30/23 A2987=
201109091900 METAR MRLB 091900Z 19005KT 9999 SCT030 BKN250 31/23 A2983=
201109092000 METAR MRLB 092000Z 28006KT 9999 FEW020TCU SCT035 BKN230 29/23 A2981=
201109092100 METAR MRLB 092100Z 28008KT 9999 SCT030 BKN230 28/24 A2979 RMK RN DST S=
201109092200 METAR MRLB 092200Z 21009KT 9999 SCT035 BKN230 28/23 A2979=
201109092300 METAR MRLB 092300Z 22003KT 9999 SCT035 BKN240 28/24 A2980=
201109100000 METAR MRLB 100000Z 19004KT 9999 SCT030 BKN240 27/24 A2981=
201109100100 METAR MRLB 100100Z 00000KT 9999 SCT030 BKN140 26/24 A2982=
201109100200 METAR MRLB 100200Z 06003KT 9999 SCT035 BKN140 25/24 A2984=
201109100300 METAR MRLB NIL=
201109100400 METAR MRLB NIL=
201109100500 METAR MRLB NIL=
201109100600 METAR MRLB NIL=
201109100700 METAR MRLB NIL=
201109100800 METAR MRLB NIL=
201109100900 METAR MRLB NIL=
201109101000 METAR MRLB NIL=
201109101100 METAR MRLB NIL=
201109101200 METAR MRLB 101200Z 00000KT 1000 BR SCT002 BKN250 24/23 A2986=
201109101300 METAR MRLB 101300Z 00000KT 9999 SCT005 BKN250 25/24 A2987=
201109101400 METAR MRLB 101400Z 32003KT 9999 OVC010 25/24 A2988=
201109101500 METAR MRLB 101500Z 25003KT 9999 SCT020 BKN250 27/25 A2990=
201109101600 METAR MRLB 101600Z 21005KT 9999 SCT025 BKN250 28/25 A2990=
201109101700 METAR MRLB 101700Z 18004KT 9999 SCT030 BKN250 29/25 A2990=
201109101800 METAR MRLB 101800Z 30004KT 9999 SCT030 BKN250 30/24 A2998=
201109101900 METAR MRLB 101900Z 28004KT 9999 SCT025 BKN250 31/24 A2985=
201109102000 METAR MRLB 102000Z 29007KT 9999 SCT025 BKN250 31/24 A2981 RMK RA DST E=
201109102100 METAR MRLB 102100Z 27008KT 9999 -RA BKN020 SCT250 29/23 A2980=
201109102200 METAR MRLB 102200Z 28006KT 9999 SCT020 SCT250 27/25 A2978 RMK TS RA DST SW=
201109102300 METAR MRLB 102300Z 28004KT 9999 FEW020 SCT140 BKN250 27/24 A2979 RMK RA DST S SW=
201109110000 METAR MRLB 110000Z 17003KT 9999 FEW020 SCT140 BKN250 26/24 A2980=
201109110100 METAR MRLB NIL=
201109110200 METAR MRLB NIL=
201109110300 METAR MRLB NIL=
201109110400 METAR MRLB NIL=
201109110500 METAR MRLB NIL=
201109110600 METAR MRLB NIL=
201109110700 METAR MRLB NIL=
201109110800 METAR MRLB NIL=
201109110900 METAR MRLB NIL=
201109111000 METAR MRLB NIL=
201109111100 METAR MRLB NIL=
201109111200 METAR MRLB 111200Z 00000KT 9999 FEW035 SCT250 23/22 A2984 RMK LOW ST ARND=
201109111300 METAR MRLB 111300Z 00000KT 9999 FEW025 SCT250 25/23 A2986=
201109111400 METAR MRLB NIL=
201109111500 METAR MRLB 111500Z 17004KT 9999 SCT018 BKN250 27/23 A2990 NOSIG=
201109111600 METAR MRLB 111600Z 19004KT 9999 SCT020 BKN180 29/23 A2991=
201109111700 METAR MRLB 111700Z 20004KT 9999 DZ SCT020TCU BKN150 28/23 A2989=
201109111800 METAR MRLB 111800Z 17008KT SCT018 BKN150 29/23 A2987=
201109111900 METAR MRLB 111900Z 32007KT 9999 RA SCT015TCU BKN100 27/22 A2985=
201109112000 METAR MRLB 112000Z 20006KT 9999 DZ SCT020 BKN120 25/22 A2980 RERA=
201109112100 METAR MRLB 112100Z 18003KT 9999 SCT020 BKN140 26/23 A2980 RMK TCU RA DST S=
201109112200 METAR MRLB 112200Z 17004KT 9999 SCT020CB BKN100 26/23 A2981=
201109112300 METAR MRLB 112300Z 20005KT 9999 SCT025 BKN120 26/23 A2982=
201109112357 METAR MRLB 120000Z 20004KT 9999 FEW020 SCT100 25/23 A2983 RMK LGTNG DST W=
201109120000 METAR MRLB 120000Z 20004KT 9999 FEW020 SCT100 25/23 A2983 RMK LGTNG DST W=
201109120100 METAR MRLB 120100Z 00000KT 9999 FEW015 SCT100 25/23 A2985=
201109120200 METAR MRLB 120200Z 00000KT 9999 FEW015 SCT100 25/22 A2987=
201109120300 METAR MRLB NIL=
201109120400 METAR MRLB NIL=
201109120500 METAR MRLB NIL=
201109120600 METAR MRLB NIL=
201109120700 METAR MRLB NIL=
201109120800 METAR MRLB NIL=
201109120900 METAR MRLB NIL=
201109121000 METAR MRLB NIL=
201109121100 METAR MRLB NIL=
201109121200 METAR MRLB 121200Z 00000KT 9999 SCT035 BKN130 23/22 A2991=
201109121300 METAR MRLB 121300Z 14003KT 9999 FEW035 SCT130 26/23 A2993=
201109121400 METAR MRLB 121400Z 12003KT 9999 FEW035 SCT140 27/23 A2996=
201109121500 METAR MRLB 121500Z 12004KT 9999 FEW035 BKN250 28/23 A2998=
201109121600 METAR MRLB 121600Z 17004KT 9999 SCT035 BKN250 28/23 A2998=
201109121700 METAR MRLB 121700Z 16004KT 9999 SCT035 BKN140 29/23 A2997=
201109121800 METAR MRLB 121800Z 17004KT 9999 VCSH FEW010TCU SCT030 BKN140 29/23 A2995=
201109121900 METAR MRLB 121900Z 15006KT 9999 VCSH FEW012 SCT025 BKN140 28/24 A2992=
201109122000 METAR MRLB 122000Z 17003KT 9999 SCT035 BKN140 29/24 A2988=
201109122100 METAR MRLB 122100Z 15004KT 9999 SCT030 BKN230 28/23 A2987=
201109122200 METAR MRLB 122200Z 27008KT 9999 SCT035 BKN240 28/24 A2985=
201109122300 METAR MRLB 122300Z 28006KT 9999 FEW035 BKN240 28/24 A2987=
201109130000 METAR MRLB 130000Z 22005KT 9999 RA SCT020 BKN120 24/23 A2988=
201109130100 METAR MRLB 130100Z 08003KT 9999 SCT025 BKN120 24/23 A2989 RERA=
201109130200 METAR MRLB 130200Z 12004KT 9999 SCT030 BKN120 23/22 A2991=
201109130300 METAR MRLB NIL=
201109130400 METAR MRLB NIL=
201109130500 METAR MRLB NIL=
201109130600 METAR MRLB NIL=
201109130700 METAR MRLB NIL=
201109130800 METAR MRLB NIL=
201109130900 METAR MRLB NIL=
201109131000 METAR MRLB NIL=
201109131100 METAR MRLB NIL=
201109131200 METAR MRLB 131200Z 00000KT 0100 FG VV/// 23/23 A2990=
201109131300 METAR MRLB 131300Z 12002KT 0200 FG VV/// 24/23 A2992=
201109131400 METAR MRLB 131400Z 34002KT 9999 SCT005 SCT010 25/24 A2994=
201109131500 METAR MRLB 131500Z 00000KT 9999 SCT025 28/25 A2994 RMK FEW250=
201109131600 METAR MRLB 131600Z 25002KT 9999 SCT030 29/24 A2994 RMK FEW250=
201109131700 METAR MRLB 131700Z 27006KT 9999 SCT030 SCT250 29/24 A2992=
201109131800 METAR MRLB 131800Z 29005KT 9999 SCT035 SCT250 30/24 A2989=
201109131900 METAR MRLB 131900Z 25008KT 9999 FEW035 SCT250 30/24 A2987=
201109131955 METAR MRLB 131955Z 27009KT 9999 FEW035 30/25 A29/84 RMK FEW130=
201109132000 METAR MRLB 132000Z 27009KT 9999 FEW035 30/25 A2984 RMK FEW130=
201109132100 METAR MRLB 132100Z 27010KT 9999 FEW035 SCT130 30/24 A2982=
201109132200 METAR MRLB NIL=
201109132300 METAR MRLB 132300Z 27006KT 9999 BKN025 SCT120 27/24 A2981 RMK RN DST S=
201109140000 METAR MRLB 140000Z 25004KT 9999 SCT025 BKN120 27/24 A2982=
201109140100 METAR MRLB 140100Z 24002KT 9999 SCT020 BKN120 26/24 A2983=
201109140200 METAR MRLB 140200Z 00000KT 9999 SCT020 BKN120 26/24 A2984=
201109140300 METAR MRLB NIL=
201109140400 METAR MRLB NIL=
201109140500 METAR MRLB NIL=
201109140600 METAR MRLB NIL=
201109140700 METAR MRLB NIL=
201109140800 METAR MRLB NIL=
201109140900 METAR MRLB NIL=
201109141000 METAR MRLB NIL=
201109141100 METAR MRLB NIL=
201109141200 METAR MRLB 141200Z 00000KT 0100 FG BKN001 24/23 A2983=
201109141300 METAR MRLB 141300Z 00000KT 9999 FEW010 SCT045 25/23 A2984 LOW ST ARND=
201109141400 METAR MRLB NIL=
201109141500 METAR MRLB 141500Z 00000KT 9999 FEW018 SCT250 29/24 A2988=
201109141600 METAR MRLB NIL=
201109141700 METAR MRLB NIL=
201109141800 METAR MRLB 141800Z 15005KT 9999 SCT020 BKN250 33/23 A2984=
201109141900 METAR MRLB 141900Z 26008KT 9999 SCT020 BKN250 32/24 A2980=
201109142000 METAR MRLB 14200Z 27010KT 9999 SCT020 BKN250 32/24 A2978=
201109142100 METAR MRLB 142100Z 26008KT 9999 SCT015 BKN250 29/24 A2978=
201109142200 METAR MRLB 142200Z 28008KT 9999 SCT015CB BKN200 28/24 A2977 RMK TCU RN DST SW=
201109142300 METAR MRLB 142300Z 00000KT 9999 SCT018 BKN170 27/24 A2976=
201109150000 METAR MRLB 150000Z 22005KT 9999 SCT018TCU BKN100 26/23 A2979 RMK RN DST S=
201109150100 METAR MRLB 150100Z 00000KT 9999 SCT015 BKN120 25/22 A2981 RN ARND=
201109150200 METAR MRLB 150200Z 00000KT 9999 SCT020 BKN140 25/22 A29830=
201109150300 METAR MRLB NIL=
201109150400 METAR MRLB NIL=
201109150500 METAR MRLB NIL=
201109150600 METAR MRLB NIL=
201109150700 METAR MRLB NIL=
201109150800 METAR MRLB NIL=
201109150900 METAR MRLB NIL=
201109151000 METAR MRLB NIL=
201109151100 METAR MRLB NIL=
201109151200 METAR MRLB 151200Z 00000KT 0500 FG VV/// 23/22 A2983=
201109151300 METAR MRLB 151300Z 1500 BR SCT002 SCT010 24/23 A2985=
201109151400 METAR MRLB 151400Z 35003KT 9999 SCT020 SCT250 25/24 A2987 RMK LOW ST SW=
201109151500 METAR MRLB 151500Z 25003KT 9999 FEW035 SCT250 28/25 A2988=
201109151600 METAR MRLB 151600Z 00000KT 9999 SCT035 SCT250 30/25 A2989=
201109151700 METAR MRLB 151700Z 22003KT 9999 SCT035 SCT250 30/24 A2989=
201109151800 METAR MRLB 151800Z 19003KT 9999 SCT035 BKN250 31/24 A2987=
201109151900 METAR MRLB 151900Z 21003KT 9999 SCT025 BKN250 33/24 A2983=
201109152000 METAR MRLB 152000Z 29008KT 9999 SCT035 BKN240 31/25 A2981=
201109152100 METAR MRLB 152100Z 20007 KT 9999 3000SW TSRA FEW010CB SCT020 BKN130 24/23 A2979=
201109152200 METAR MRLB NIL=
201109152300 METAR MRLB 152300Z 14004KT 9999 SCT030 BKN120 23/22 A2983=
201109160000 METAR MRLB 160000Z 11004KT 9999 FEW030 BKN120 23/23 A2985=
201109160100 METAR MRLB NIL=
201109160200 METAR MRLB NIL=
201109160300 METAR MRLB NIL=
201109160400 METAR MRLB NIL=
201109160500 METAR MRLB NIL=
201109160600 METAR MRLB NIL=
201109160700 METAR MRLB NIL=
201109160800 METAR MRLB NIL=
201109160900 METAR MRLB NIL=
201109161000 METAR MRLB NIL=
201109161100 METAR MRLB NIL=
201109161200 METAR MRLB 161200Z 13003KT CAVOK 22/21 A2984 RMK FEW100 SCT250=
201109161300 METAR MRLB 161300Z 00000KT 9999 FEW010 SCT250 24/22 A2985 RMK LOW ST ARND=
201109161400 METAR MRLB 161400Z 24003KT CAVOK 25/22 A2988 RMK SCT250=
201109161500 METAR MRLB 161500Z 17004KT CAVOK 27/23 A2989 RMK BKN250=
201109161600 METAR MRLB 161600Z 29004KT 9999 FEW020 SCT250 28/23 A2990=
201109161700 METAR MRLB NIL=
201109161800 METAR MRLB 161800Z 25004KT 9999 SCT020 BKN250 30/23 A2989=
201109161900 METAR MRLB 161900Z 24003KT 9999 SCT025TCU BKN280 31/23 A2984=
201109162000 METAR MRLB 162000Z 24006KT 9999 SCT020TCU BKN240 31/23 A2981 RMK RA DST N E S=
201109162100 METAR MRLB 162100Z 20008KT 9999 -RA SCT020CB BKN140 25/22 A2979=
201109162200 METAR MRLB 162200Z 04010KT 4000 -TSRA SCT015CB BKN040 24/23 A2981=
201109162300 METAR MRLB 162300Z 08003KT 9999 SCT020 BKN140 24/22 A2980 RETSRA=
201109162358 METAR MRLB 170000Z 15004KT 9999 SCT020 BKN150 24/22 A2983=
201109170000 METAR MRLB 170000Z 15004KT 9999 SCT020 BKN150 24/22 A2983=
201109170100 METAR MRLB 170100Z 12004KT 9999 FEW020 BKN180 24/23 A2986=
201109170200 METAR MRLB 170200Z 12005KT 9999 FEW020 BKN180 24/23 A2988=
201109170300 METAR MRLB NIL=
201109170400 METAR MRLB NIL=
201109170500 METAR MRLB NIL=
201109170600 METAR MRLB NIL=
201109170700 METAR MRLB NIL=
201109170800 METAR MRLB NIL=
201109170900 METAR MRLB NIL=
201109171000 METAR MRLB NIL=
201109171100 METAR MRLB NIL=
201109171200 METAR MRLB 171200Z 00000KT CAVOK 23/22 A2985 RMK FEW100 BKN250=
201109171300 METAR MRLB 171300Z 00000KT CAVOK 26/22 A2986 RMK SCT250=
201109171400 METAR MRLB 171400Z 13003KT CAVOK 27/22 A2988 RMK SCT250=
201109171500 METAR MRLB 171500Z 12003KT 9999 FEW015 SCT250 27/22 A2989=
201109171600 METAR MRLB 171600Z 18003KT 9999 FEW015 BKN150 27/22 A2989=
201109171700 METAR MRLB 171700Z 20005KT 9999 FEW015 BKN150 27/23 A2989=
201109171800 METAR MRLB 171800Z 20005KT 9999 SCT015 BKN180 29/23 A2987=
201109171900 METAR MRLB 171900Z 28005KT 9999 SCT015TCU BKN150 29/23 A2984 RMK TCU RA DST E=
201109172000 METAR MRLB 172000Z 28006KT 9999 SCT015CB BKN150 28/23 A2982 RMK CB RN DST E/SE=
201109172100 METAR MRLB 172100Z 07008KT 3000 TSRA SCT015CB BKN080 24/22 A2981 RMK VIS UNL NW=
201109172200 METAR MRLB 172200Z 172200Z12004KT 9999 -RA SCT018CB BKN100 23/22 A2980 RETS=
201109172300 METAR MRLB 172300Z 01003KT 9999 DZ SCT020 BKN100 24/22 A2980=
201109180000 METAR MRLB 180000Z 00000KT 9999 FEW025 BKN140 24722 A2983 RMK ST LOW SW=
201109180100 METAR MRLB 180100Z 00000KT 9999 FEW020 BKN150 24/23 A2985 RMK ST BAJOS SW=
201109180200 METAR MRLB 180200Z 00000KT 9999 FEW020 BKN180 23/23 A2987=
201109180300 METAR MRLB NIL=
201109180400 METAR MRLB NIL=
201109180500 METAR MRLB NIL=
201109180600 METAR MRLB NIL=
201109180700 METAR MRLB NIL=
201109180800 METAR MRLB NIL=
201109180900 METAR MRLB NIL=
201109181000 METAR MRLB NIL=
201109181100 METAR MRLB NIL=
201109181200 METAR MRLB 181200Z 00000KT 0400 FG VV/// 22/21 A2985=
201109181300 METAR MRLB 181300Z 03003KT 9999 SCT025 SCT250 23/22 A2988 RMK SCT LOW SW=
201109181400 METAR MRLB 181400Z 00000KT 9999 FEW035 SCT250 24/23 A2991=
201109181500 METAR MRLB 181500Z 00000KT 9999 FEW035 SCT250 27/24 A2991=
201109181600 METAR MRLB 181600Z 21003KT 9999 SCT035 SCT250 29/24 A2992=
201109181700 METAR MRLB 181700Z 15003KT 9999 SCT035 BKN250 29/24 A2991=
201109181800 METAR MRLB 181800Z 30003KT 9999 SCT035 BKN250 31/23 A2988 RMK RA DST S SW=
201109181900 METAR MRLB 181900Z 23010KT 9999 SCT030 BKN250 28/24 A2986 RMK RA DST S=
201109182000 METAR MRLB 182000Z 22008KT 9999 FEW020TCU SCT030 BKN140 27/24 A2983=
201109182100 METAR MRLB 182100Z 13003KT 9999 VCSH SCT020 BKN130 26/23 A2983=
201109182200 METAR MRLB 182200Z 03005KT 9999 SCT020 BKN120 25/22 A2983 RMK RN DST N=
201109182300 METAR MRLB 182300Z 35005KT 9999 DZ SCT025 BKN100 24/22 A2981=
201109190000 METAR MRLB 190000Z 03004KT 9999 FEW030 BKN100 23/22 A2983 REDZ=
201109190100 METAR MRLB 190100Z 00000KT 9999 -DZ SCT035 BKN100 24/23 A2986=
201109190200 METAR MRLB 190200Z 12003KT 9999 FEW035 BKN110 24/23 A2988=
201109190300 METAR MRLB NIL=
201109190400 METAR MRLB NIL=
201109190500 METAR MRLB NIL=
201109190600 METAR MRLB NIL=
201109190700 METAR MRLB NIL=
201109190800 METAR MRLB NIL=
201109190900 METAR MRLB NIL=
201109191000 METAR MRLB NIL=
201109191100 METAR MRLB NIL=
201109191200 METAR MRLB 191200Z 00000KT 9999 FEW005 BKN130 23/22 A2989=
201109191300 METAR MRLB NIL=
201109191400 METAR MRLB 191400Z 19002KT 9999 BKN010 SCT130 25/23 A2992=
201109191500 METAR MRLB 191500Z 27002KT 9999 SCT030 BKN130 27/25 A2994=
201109191600 METAR MRLB 191600Z 02003KT 9999 SCT030 BKN130 29/25 A2993=
201109191700 METAR MRLB 191700Z 34003KT 9999 SCT030 SCT130 30/24 A2991=
201109191800 METAR MRLB 191800Z 34004KT 9999 BKN035 SCT130 30/23 A2988=
201109191900 METAR MRLB NIL=
201109192000 METAR MRLB 192000Z 28010KT 9999 FEW020 SCT130 BKN250 30/25 A2983 RMK RN DST TS SE=
201109192100 METAR MRLB 192100Z 27009KT 9999 FEW020 BKN130 29/24 A2980 RMK RN DST S=
201109192200 METAR MRLB 192200Z 27010KT 9999 FEW020 BKN130 28/24 A2979 RMK RN DST N NE=
201109192300 METAR MRLB 192300Z 03007KT 9999 -RA BKN020 SCT120 26/22 A2981=
201109200000 METAR MRLB 200000Z 12007KT 9999 FEW020 BKN120 24/22 A2982=
201109200100 METAR MRLB 200100Z 17004KT 9999 FEW020 BKN120 23/22 A2984=
201109200200 METAR MRLB 200200Z 16003KT 9999 -RA FEW020 BKN120 23/22 A2987=
201109200300 METAR MRLB NIL=
201109200400 METAR MRLB NIL=
201109200500 METAR MRLB NIL=
201109200600 METAR MRLB NIL=
201109200700 METAR MRLB NIL=
201109200800 METAR MRLB NIL=
201109200900 METAR MRLB NIL=
201109201000 METAR MRLB NIL=
201109201100 METAR MRLB NIL=
201109201200 METAR MRLB 201200Z 00000KT 0100 FG VV/// 22/22 A2984=
201109201300 METAR MRLB 201300Z 00000KT 5000 2000SW BR FEW001 SCT012 23/22 A2986=
201109201400 METAR MRLB 201400Z 00000KT 9999 FEW010 SCT018 26/23 A2989=
201109201500 METAR MRLB 201500Z 35004KT 9999 SCT020 BKN250 27/23 A2992=
201109201600 METAR MRLB 201600Z 13004KT 9999 FEW020 SCT250 29/23 A2991=
201109201700 METAR MRLB 201700Z 15003KT 9999 FEW020 BKN250 30/23 A2990=
201109201800 METAR MRLB 201800Z 30004KT 9999 FEW020 BKN250 30/22 A2988=
201109201900 METAR MRLB 201900Z 14004KT 9999 -RA SCT015TCU BKN150 28/23 A2984=
201109202000 METAR MRLB 202000Z 25010KT 8000 -RA SCT015TCU BKN120 25/22 A2979=
201109202100 METAR MRLB 202100Z 26005KT 9999 SCT020 BKN180 29/23 A2976=
201109202200 METAR MRLB 202200Z 28006KT 9999 FEW020 BKN250 29/23 A2978 RMK TCU DST S=
201109202300 METAR MRLB 202300Z 16004KT 9999 -RA SCT020TCU BKN120 28/23 A2980 RMK VIS E 5000=
201109210000 METAR MRLB 210000Z 00000KT 9999 SCT018TCU BKN100 24/22 A2981 RMK TCU RA DST N S W=
201109210100 METAR MRLB NIL=
201109210200 METAR MRLB NIL=
201109210300 METAR MRLB NIL=
201109210400 METAR MRLB NIL=
201109210500 METAR MRLB NIL=
201109210600 METAR MRLB NIL=
201109210700 METAR MRLB NIL=
201109210800 METAR MRLB NIL=
201109210900 METAR MRLB NIL=
201109211000 METAR MRLB NIL=
201109211100 METAR MRLB NIL=
201109211200 METAR MRLB 211200Z 00000KT 9999 SCT025 BKN140 23/22 A2985=
201109211300 METAR MRLB 211300Z 00000KT 9999 FEW035 BKN250 24/22 A2987=
201109211400 METAR MRLB 211400Z 32003KT 9999 FEW035 BKN250 27/24 A2988=
201109211500 METAR MRLB 211500Z 32007KT 9999 SCT035 BKN250 28/24 A2988=
201109211600 METAR MRLB 211600Z 35006KT 9999 SCT035 SCT250 29/23 A2986=
201109211700 METAR MRLB 211700Z 21007KT 9999 FEW035 BKN250 30/24 A2985=
201109211800 METAR MRLB 211800Z 34004KT 9999 FEW035 SCT250 31/22 A2983=
201109211900 METAR MRLB 211900Z 35004KT 9999 SCT035 BKN250 30/22 A2982=
201109212000 METAR MRLB NIL=
201109212100 METAR MRLB 212100Z 09006KT 9999 SCT035 BKN250 33/21 A2978=
201109212200 METAR MRLB 212200Z 27005KT 9999 SCT030 BKN250 30/23 A2979=
201109212300 METAR MRLB 212300Z 23004KT 9999 SCT030 BKN250 29/24 A2979=
201109212355 METAR MRLB 220000Z 10004KT 9999 SCT035 BKN240 28/23 A2982=
201109220000 METAR MRLB 220000Z 10004KT 9999 SCT035 BKN240 28/23 A2982=
201109220100 METAR MRLB 220100Z 13004KT 9999 SCT035 BKN240 27/23 A2983=
201109220200 METAR MRLB 220200Z 15003KT 9999 SCT030 BKN230 26/23 A2985=
201109220300 METAR MRLB NIL=
201109220400 METAR MRLB NIL=
201109220500 METAR MRLB NIL=
201109220600 METAR MRLB NIL=
201109220700 METAR MRLB NIL=
201109220800 METAR MRLB NIL=
201109220900 METAR MRLB NIL=
201109221000 METAR MRLB NIL=
201109221100 METAR MRLB NIL=
201109221200 METAR MRLB 221200Z 01003KT CAVOK 22/21 A2987 RMK FEW130 FEW250=
201109221300 METAR MRLB 221300Z 00000KT CAVOK 25/23 A2989 RMK FEW130 FEW250=
201109221400 METAR MRLB 221400Z 17004KT CAVOK 27/24 A2990 RMK FEW130=
201109221500 METAR MRLB 221500Z 18004KT 9999 NSC 28/24 A2992=
201109221600 METAR MRLB 221600Z 12002KT 9999 NSC 30/24 A2990=
201109221700 METAR MRLB 221700Z 33004KT 9999 FEW035 SCT250 31/23 A2987=
201109221800 METAR MRLB 221800Z 25003KT 9999 FEW035 32/24 A2984 RMK FEW250=
201109221900 METAR MRLB 221900Z 09008KT 9999 FEW035 33/22 A2981 RMK FEW250=
201109222000 METAR MRLB 222000Z 08009KT 9999 SCT035 33/22 A2979=
201109222100 METAR MRLB 222100Z 09005KT 9999 SCT035 33/22 A2977=
201109222200 METAR MRLB 222200Z 04006KT 9999 SCT035 SCT250 33/21 A2978=
201109222300 METAR MRLB 222300Z 30004KT 9999 BKN035 SCT250 29/23 A2980=
201109230000 METAR MRLB 230000Z 08002KT 9999 FEW030 BKN250 29/23 A2981=
201109230100 METAR MRLB 230100Z 10003KT 9999 FEW030 BKN250 28/23 A2981 RMK LTNG DST S=
201109230200 METAR MRLB 230200Z 10003KT 9999 FEW030 BKN250 28/23 A2981=
201109230300 METAR MRLB NIL=
201109230400 METAR MRLB NIL=
201109230500 METAR MRLB NIL=
201109230600 METAR MRLB NIL=
201109230700 METAR MRLB NIL=
201109230800 METAR MRLB NIL=
201109230900 METAR MRLB NIL=
201109231000 METAR MRLB NIL=
201109231100 METAR MRLB NIL=
201109231200 METAR MRLB 231200Z 12003KT CAVOK 24/22 A2987 RMK SCT250=
201109231300 METAR MRLB 231300Z 12003KT CAVOK 27/22 A2987 RMK SCT250=
201109231400 METAR MRLB 231400Z 09004KT CAVOK 29/22 A2990 RMK SCT250=
201109231500 METAR MRLB 231500Z 10007KT CAVOK 30/22 A2991 RMK BKN250=
201109231600 METAR MRLB 231600Z 07005KT CAVOK 31/21 A2991 RMK BKN250=
201109231700 METAR MRLB 231700Z 07004KT 9999 FEW025 SCT250 32/21 A2990=
201109231800 METAR MRLB 231800Z 10005KT 9999 SCT025 BKN250 32/21 A2985=
201109231900 METAR MRLB 231900Z 06010KT 9999 SCT025TCU BKN150 32/22 A2983 RMK TCU RA DST N E=
201109232000 METAR MRLB 232000Z 02006KT 9999 SCT025TCU BKN150 29/22 A2981 RMK RA ARND=
201109232100 METAR MRLB 232100Z 25003KT 9999 SCT030 BKN150 28/22 A2979 RMK TCU DST S=
201109232200 METAR MRLB 232200Z 15006KT 9999 FEW040 SCT120 28/22 A2977=
201109232300 METAR MRLB 232300Z 17003KT CAVOK 27/22 A2977 RMK FEW080 SCT250=
201109240000 METAR MRLB 240000Z 30005KT CAVOK 26/21 A2978 RMK FEW070 SCT250=
201109240100 METAR MRLB 240100Z 00000KT CAVOK 25/21 A2983 RMK FEW070 SCT150=
201109240200 METAR MRLB 240200Z 00000KT CAVOK 25/21 A2985 RMK FEW070 SCT180=
201109240300 METAR MRLB NIL=
201109240400 METAR MRLB NIL=
201109240500 METAR MRLB NIL=
201109240600 METAR MRLB NIL=
201109240700 METAR MRLB NIL=
201109240800 METAR MRLB NIL=
201109240900 METAR MRLB NIL=
201109241000 METAR MRLB NIL=
201109241100 METAR MRLB NIL=
201109241200 METAR MRLB 241200Z 35004KT 9999 FEW035 BKN250 22/21 A2981=
201109241300 METAR MRLB NIL=
201109241400 METAR MRLB 241400Z 17005KT 9999 SCT035 SCT250 27/24 A2986=
201109241500 METAR MRLB 241500Z 15004KT 9999 FEW035 SCT250 29/24 A2987=
201109241600 METAR MRLB NIL=
201109241700 METAR MRLB 241700Z 33004KT 9999 SCT035 BKN250 30/23 A2985=
201109241800 METAR MRLB 241800Z 09005KT 9999 SCT035 BKN250 32/23 A2983=
201109241900 METAR MRLB 241900Z 16005KT 9999 SCT035 BKN250 32/23 A2979=
201109242000 METAR MRLB 242000Z 24005KT 9999 VCSH FEW020TCU SCT030 BKN140 30/24 A2974=
201109242100 METAR MRLB 242100Z 29003KT 9999 4000S -TSRA FEW015CB SCT030 BKN140 26/22 A2974=
201109242200 METAR MRLB 242200Z 16004KT 9999 SCT030 BKN130 25/23 A2973=
201109242300 METAR MRLB 242300Z 25004KT 9999 SCT025 BKN130 24/23 A2977=
201109250000 METAR MRLB 250000Z 08003KT 9999 SCT030 BKN120 25/23 A2978=
201109250100 METAR MRLB 250100Z 27003KT 9999 SCT030 BKN130 25/23 A2980=
201109250200 METAR MRLB 250200Z 26003KT 9999 SCT035 BKN120 24/23 A2983=
201109250300 METAR MRLB NIL=
201109250400 METAR MRLB NIL=
201109250500 METAR MRLB NIL=
201109250600 METAR MRLB NIL=
201109250700 METAR MRLB NIL=
201109250800 METAR MRLB NIL=
201109250900 METAR MRLB NIL=
201109251000 METAR MRLB NIL=
201109251100 METAR MRLB NIL=
201109251200 METAR MRLB 251200Z 14005KT 9999 FEW010 BKN250 22/22 A2981=
201109251300 METAR MRLB 251300Z 15004KT 2000 BR SCT005 BKN050 24/23 A2983 RMK UNL QUAD W=
201109251400 METAR MRLB 251400Z 13003KT 9999 FEW010 BKN250 26/24 A2986=
201109251500 METAR MRLB 251500Z 34002KT 9999 SCT020 BKN250 28/25 A2989=
201109251600 METAR MRLB 251600Z 33002KT 9999 FEW025 SCT120 BKN250 29/25 A2989=
201109251700 METAR MRLB 251700Z 34002KT 9999 SCT030 SCT250 30/25 A2987=
201109251800 METAR MRLB 251800Z 26004KT 9999 BKN030 SCT250 30/25 A2985 RMK RA DST NE/E=
201109251900 METAR MRLB 251900Z 29008KT 2000E TSRA FEW010CB BKN020 29/29 A2981=
201109252000 METAR MRLB 252000Z 25007KT 9999 VCSH SCT010 BKN120 24/23 A2977 RETS RMK TS DST SW=
201109252100 METAR MRLB 252100Z 13003KT 9999 SCT020 BKN120 25/23 A2976 RMK RA DST S=
201109252200 METAR MRLB 252200Z 24002KT 9999 SCT020 BKN120 25/24 A2976 RMK RA DST S=
201109252300 METAR MRLB 252300Z 00000KT 9999 FEW020 BKN120 25/24 A2977=
201109260000 METAR MRLB NIL=
201109260100 METAR MRLB NIL=
201109260200 METAR MRLB NIL=
201109260300 METAR MRLB NIL=
201109260400 METAR MRLB NIL=
201109260500 METAR MRLB NIL=
201109260600 METAR MRLB NIL=
201109260700 METAR MRLB NIL=
201109260800 METAR MRLB NIL=
201109260900 METAR MRLB NIL=
201109261000 METAR MRLB NIL=
201109261100 METAR MRLB NIL=
201109261200 METAR MRLB 261200Z 00000KT 9999 VCFG FEW010 SCT100 BKN150 22/22 A2985=
201109261300 METAR MRLB 261300Z 00000KT CAVOK 23/22 A2986 RMK LOW ST ARND SCT100 BKN250=
201109261400 METAR MRLB 261400Z 00000KT CAVOK 25/22 A2988 RMK FEW100 SCT250=
201109261500 METAR MRLB 261500Z 18003KT CAVOK 26/23 A2990 RMK FEW100 BKN250=
201109261600 METAR MRLB 261600Z 17003KT 9999 FEW025 BKN250 28/22 A2982=
201109261700 METAR MRLB 261700Z 27003KT 9999 SCT020 BKN150 31/22 A2991=
201109261800 METAR MRLB 261800Z 26003KT 9999 SCT020 BKN150 30/22 A2988=
201109261900 METAR MRLB 261900Z 13005KT 9999 SCT018TCU BKN140 30/22 A2985=
201109262000 METAR MRLB 262000Z 28007KT 9999 SCT018TCU BKN140 29/23 A2983 RMK DST SW=
201109262100 METAR MRLB 262100Z 24007KT 7000 RA SCT015CB BKN100 25/23 A2980=
201109262200 METAR MRLB 262200Z 19005KT 9999 -RA SCT012CB BKN100 23/22 A2981=
201109262300 METAR MRLB NIL=
201109262354 METAR MRLB 270000Z 07005KT 9999 -RA SCT015 BKN080 23/22 A2985=
201109270000 METAR MRLB 270000Z 07005KT 9999 -RA SCT015 BKN080 23/22 A2985=
201109270100 METAR MRLB 270100Z 02004KT 9000 -RA SCT012 OVC100 23/22 A2987=
201109270200 METAR MRLB 270200Z 00000KT 9999 -RA SCT012 OVC100 23/22 A2989=
201109270300 METAR MRLB NIL=
201109270400 METAR MRLB NIL=
201109270500 METAR MRLB NIL=
201109270600 METAR MRLB NIL=
201109270700 METAR MRLB NIL=
201109270800 METAR MRLB NIL=
201109270900 METAR MRLB NIL=
201109271000 METAR MRLB NIL=
201109271100 METAR MRLB NIL=
201109271200 METAR MRLB 271200Z 00000KT 1000 BR SCT002 SCT010 23/22 A2987=
201109271300 METAR MRLB 271300Z 18003KT 4000 BR SCT003 SCT130 23/23 A2989=
201109271400 METAR MRLB 271400Z 08003KT 9999 SCTO25 BKN240 25/24 A2991=
201109271500 METAR MRLB 271500Z 24003KT 9999 SCTO35 BKN250 27/24 A2992=
201109271600 METAR MRLB 271600Z 20003KT 9999 SCTO35 BKN250 29/25 A2993=
201109271700 METAR MRLB 271700Z 19003KT 9999 FEW035 BKN250 29/24 A2992=
201109271800 METAR MRLB 271800Z 18003KT 9999 SCTO35 BKN240 29/24 A2992=
201109271900 METAR MRLB 271900Z 26007KT 9999 FEWO20TCU SCTO30 BKN240 31/24 A2986=
201109272000 METAR MRLB 272000Z 26009KT 9999 SCT035 BKN240 30/24 A2984 RMK RA DIST E=
201109272100 METAR MRLB 272100Z 28011KT 9999 VCSH SCTO30 BKN240 30/24 A2983=
201109272200 METAR MRLB 272200Z 28009KT 9999 VCSH SCTO30 BKN140 28/23 A2982=
201109272300 METAR MRLB 272300Z 28008KT 9999 SCTO35 BKN140 28/24 A2982 RMK RA DIST E S=
201109280000 METAR MRLB 280000Z 27005KT 9999 SCTO35 BKN140 27/24 A2983=
201109280055 METAR MRLB 280100 25003KT 9999 FEWO35 BKN130 26/24 A2984=
201109280100 METAR MRLB 280100Z 25003KT 9999 FEWO35 BKN130 26/24 A2984=
201109280200 METAR MRLB 280200Z 24003KT 9999 SCTO30 BKN130 26/24 A2986=
201109280300 METAR MRLB NIL=
201109280400 METAR MRLB NIL=
201109280500 METAR MRLB NIL=
201109280600 METAR MRLB NIL=
201109280700 METAR MRLB NIL=
201109280800 METAR MRLB NIL=
201109280900 METAR MRLB NIL=
201109281000 METAR MRLB NIL=
201109281100 METAR MRLB NIL=
201109281200 METAR MRLB 281200Z 17003KT 9999 FEW005 BKN100 25/24 A2984 RMK VIS 1000 S DUE FG=
201109281300 METAR MRLB 281300Z 21003KT 9999 SCT005 BKN100 25/25 A2987=
201109281400 METAR MRLB NIL=
201109281500 METAR MRLB 281500Z 26003KT 9999 SCT030 BKN250 29/25 A2989=
201109281600 METAR MRLB 281600Z 23005KT 9999 BKN030 SCT250 29/58 A2990=
201109281655 METAR MRLB 281655Z 31003KT 9999 FEW035 BKN250 31/25 A2988=
201109281700 METAR MRLB 31003KT 9999 FEW035 BKN250 31/25 A2988=
201109281800 METAR MRLB 281800Z 27008KT 9999 SCT035 BKN250 31/25 A2985=
201109281900 METAR MRLB 281900Z 27008KT 9999 SCT030 BKN250 31/25 A2982 RMK RA DST E=
201109282000 METAR MRLB 282000Z 28010KT 9999 FEW020 SCT120 BKN250 30/25 A2980 RMK RA DST N/NE/E TS DST N=
201109282100 METAR MRLB 282100Z 31006KT 9999 -RA FEW020 BKN120 27/24 A2977 RERA=
201109282200 METAR MRLB 282200Z 30003KT 9999 FEW020 BKN120 28/25 A2975 RA DST E S=
201109282300 METAR MRLB 282300Z 06002KT 9999 FEW020 BKN120 26/24 A2977=
201109282355 METAR MRLB 2900Z 09002KT 9999 SCT020 BKN120 26/24 A2978=
201109290000 METAR MRLB 290000Z 09002KT 9999 SCT020 BKN120 26/24 A2978=
201109290008 METAR MRLB 2900Z 09002KT 9999 SCT020 BKN120 26/24 A2978=
201109290057 METAR MRLB 290100 00000KT 9999 FEW020 BKN120 25/24 A2981=
201109290100 METAR MRLB 290100Z 00000KT 9999 FEW020 BKN120 25/24 A2981=
201109290200 METAR MRLB 290200Z 00000KT 9999 FEW020 BKN120 26/24 A2983=
201109290300 METAR MRLB NIL=
201109290400 METAR MRLB NIL=
201109290500 METAR MRLB NIL=
201109290600 METAR MRLB NIL=
201109290700 METAR MRLB NIL=
201109290800 METAR MRLB NIL=
201109291000 METAR MRLB NIL=
201109291100 METAR MRLB NIL=
201109291200 METAR MRLB 291200Z 00000KT 9999 FEW010 BKN100 25/22 A2981=
201109291300 METAR MRLB NIL=
201109291400 METAR MRLB 291400Z 00000KT 9000 VCFG SCTO10 BKNO50 26/23 A2983 RMK ST BAJOS ARND=
201109291500 METAR MRLB 291500Z 15003KT 9999 FEW006 SCT015 BKN100 27/24 A2985=
201109291555 METAR MRLB 291555Z 240O3KT 9999 SCTO15 BKN120 29/24 A2987=
201109291700 METAR MRLB 291700Z 270O8KT 9999 SCTO20 BKN150 29/24 A2986=
201109291800 METAR MRLB 291800Z 240O6KT 9999 SCTO20 BKN240 30/24 A2983=
201109291900 METAR MRLB 291900Z 270O6KT 9999 SCTO15TCU BKN150 31/24 A2979 CB RN DST N E=
201109292000 METAR MRLB 292000Z 28008KT 9999 -TS VCSH SCTO15CB BKN150 29/24 A2976 CB RN NE SE S=
201109292100 METAR MRLB 292100Z 270O6KT 9999 FEWO25 BKN250 29/24 A2972 RMK RETS CB RN DST S=
201109292152 METAR MRLB 2922OOZ 30006KT CAVOK 29/24 A2972 FEW100 SCT250=
201109292200 METAR MRLB 2922OOZ 30006KT CAVOK 29/24 A2972 FEW100 SCT250=
201109292300 METAR MRLB 292300Z 26006KT CAVOK 28/24 A2972 RMK SCT250=
201109292355 METAR MRLB 2900Z 09002KT 9999 SCT020 BKN120 26/24 A2978=
201109300000 METAR MRLB 300000Z 27004KT CAVOK 27/24 A2973 RMK FEW100 SCT250 LTNG DST NE=
201109300100 METAR MRLB 300100Z 00000KT CAVOK 26/23 A2975 RMK FEW100 LTNG DST NE=
201109300200 METAR MRLB 300200Z 00000KT CAVOK 26/23 A2977 RMK FEW120=
201109300300 METAR MRLB NIL=
201109300400 METAR MRLB NIL=
201109300500 METAR MRLB NIL=
201109300600 METAR MRLB NIL=
201109300700 METAR MRLB NIL=
201109300800 METAR MRLB NIL=
201109300900 METAR MRLB NIL=
201109301000 METAR MRLB NIL=
201109301100 METAR MRLB NIL=
201109301200 METAR MRLB 301200Z 00000KT 0300 FG VV/// 23/23 A2980=
201109301300 METAR MRLB 301300Z 35003KT 9999 SCTO20 BKN110 24/24 A2981=
201109301400 METAR MRLB 301400Z 25003KT 9999 SCT025 BKN120 26/25 A2984=
201109301500 METAR MRLB 301500Z 26005KT 9999 SCTO25 BKN120 27/25 A2986=
201109301600 METAR MRLB 301600Z 25004KT 9999 SCTO20 BKN120 27/23 A2986=
201109301700 METAR MRLB 301700Z 26005KT 9999 SCTO30 BKN130 28/25 A2985=
201109301800 METAR MRLB 301800Z 26006KT 9999 SCTO35 BKN140 29/25 A2981=
201109301900 METAR MRLB 301900Z 27006KT 9999 SCTO35 BKN240 30/25 A2978 RMK RA DIST E=
201109302000 METAR MRLB 302000Z 13003KT 9999 FEWO35 BKN140 28/24 A2975=
201109302100 METAR MRLB 302100Z 12003KT 9999 FEWO35 BKN140 28/24 A2972=
201109302200 METAR MRLB 302200Z 10007KT 9999 FEWO35 BKN140 28/23 A2973=
201109302300 METAR MRLB 302300Z 12006KT 9999 FEWO35 BKN140 27/23 A2975=
201109302354 METAR MRLB 010000Z 13004KT 9999 FEWO30 BKN140 26/22 A2977=
201110010000 METAR MRLB 010000Z 13004KT 9999 FEWO30 BKN140 26/22 A2977=
201110010100 METAR MRLB 010100Z 10005KT 9999 SCTO30 BKN130 25/22 A2979=
201110010200 METAR MRLB 010200Z 10006KT 9999 SCTO30 BKN130 24/22 A2981=
201110010300 METAR MRLB NIL=
201110010400 METAR MRLB NIL=
201110010500 METAR MRLB NIL=
201110010600 METAR MRLB NIL=
201110010700 METAR MRLB NIL=
201110010800 METAR MRLB NIL=
201110010900 METAR MRLB NIL=
201110011000 METAR MRLB NIL=
201110011100 METAR MRLB NIL=
201110011156 METAR MRLB 021200Z 14002KT 9999 4000 BR FEW020 BKN250 23/23 A2981=
201110011200 METAR MRLB 011200Z 14002KT 9999 4000 BR FEW020 BKN250 23/23 A2981=
201110011300 METAR MRLB 011300Z 15005KT 9999 SCT005 BKN250 25/24 A2984 RMK BCFG ARND=
201110011400 METAR MRLB 011400Z 14005KT 9999 SCT010 BKN250 25/24 A2987=
201110011500 METAR MRLB 011500Z 07002KT 9999 FEW020 SCT120 BKN250 28/25 A2987=
201110011600 METAR MRLB 011600Z 35003KT 9999 FEW030 BKN250 29/24 A2988=
201110011700 METAR MRLB 011700Z 12002KT 9999 SCT035 BKN250 31/24 A2987=
201110011800 METAR MRLB 011800Z 07003KT 9999 SCT030 SCT250 32/23 A2983 RMK RA DST N NE=
201110011900 METAR MRLB 011900Z 27006KT 9999 VCSH BKN025 FEW120 30/24 A2981 RMK TS DST E=
201110012000 METAR MRLB 012000Z 34006KT 9999 -RA SCT015 BKN100 23/21 A2977 RETSRA RMK TS DST W=
201110012100 METAR MRLB 012100Z 25006KT 9999 SCT020 BKN100 24/23 A2979 RMK RA DST SW=
201110012200 METAR MRLB 012200Z 00000KT 9999 SCT020 BKN100 25/23 A2979=
201110012300 METAR MRLB 012300Z 03003KT 9999 FEW025 BKN120 25/23 A2979=
201110012355 METAR MRLB 020000Z 02003KT 9999 FEW025 BKN120 24/23 A2981=
201110020000 METAR MRLB 020000Z 02003KT 9999 FEW025 BKN120 24/23 A2981=
201110020100 METAR MRLB 020100Z 08004KT 9999 -RA FEW025 BKN120 25/23 A2984=
201110020200 METAR MRLB 020200Z 09007KT 9999 FEW025 BKN120 24/23 A2986=
201110020300 METAR MRLB NIL=
201110020400 METAR MRLB NIL=
201110020500 METAR MRLB NIL=
201110020600 METAR MRLB NIL=
201110020700 METAR MRLB NIL=
201110020800 METAR MRLB NIL=
201110020900 METAR MRLB NIL=
201110021000 METAR MRLB NIL=
201110021100 METAR MRLB NIL=
201110021200 METAR MRLB NIL=
201110021300 METAR MRLB NIL=
201110021400 METAR MRLB NIL=
201110021500 METAR MRLB NIL=
201110021600 METAR MRLB 021600Z 17005KT 9999 SCT015 BKN220 30/23 A2990=
201110021700 METAR MRLB NIL=
201110021800 METAR MRLB 021800Z 00000KT 9999 SCT015 BKN180 31/23 A2985=
201110021900 METAR MRLB 021900Z 27008KT 9999 SCT015 BKN200 31/23 A2981=
201110022000 METAR MRLB 022000Z 27009KT 9999 SCT015TCU BKN150 28/23 A2978 RMK RA DST ARND=
201110022100 METAR MRLB 022100Z 35006KT 4000 TSRA SCT012CB BKN080 25/22 A2978=
201110022200 METAR MRLB O22200Z 00000KT 9999 RA SCT020 BKN100 24/22 A2979=
201110022300 METAR MRLB 022300Z 35004KT 9999 -RA SCT025 BKN100 24/22 A2980=
201110022353 METAR MRLB 030000Z 02005KT 9999 SCT030 BKN120 24/22 A2983 RERA LTNG DST NE=
201110030000 METAR MRLB 030000Z 02005KT 9999 SCT030 BKN120 24/22 A2983 RERA LTNG DST NE=
201110030100 METAR MRLB 030100Z 01003KT 9999 SCT025 BKN100 24/22 A2985 RMK LTNG DST E S=
201110030200 METAR MRLB 030200Z 00000KT 9999 SCT020 BKN100 24/22 A2987 RMK LTNG DST S=
201110030300 METAR MRLB NIL=
201110030400 METAR MRLB NIL=
201110030500 METAR MRLB NIL=
201110030600 METAR MRLB NIL=
201110030700 METAR MRLB NIL=
201110030800 METAR MRLB NIL=
201110030900 METAR MRLB NIL=
201110031000 METAR MRLB NIL=
201110031100 METAR MRLB NIL=
201110031200 METAR MRLB 031200Z 00000KT 0400 FG SCTOO2 SCTO10 23/22 A2985=
201110031300 METAR MRLB 031300Z 00000KT O400 FG VV/// 23/23 A2987=
201110031400 METAR MRLB 031400Z 10003KT 9999 SCTO30 BKN250 25/24 A2989=
201110031500 METAR MRLB 031500Z 13003KT 9999 SCT030 BKN250 27/24 A2991=
201110031600 METAR MRLB 031600Z 00000KT 9999 SCT030 BKN230 28/25 A2991=
201110031700 METAR MRLB 031700Z 20003KT 9999 SCT030 BKN140 28/25 A2990=
201110031800 METAR MRLB 031800Z 12004KT 9999 SCT035 BKN140 29/24 A2986=
201110031900 METAR MRLB 031900Z 09003KT 9999 SCT035 BKN140 30/24 A2983=
201110032000 METAR MRLB 032000Z 34003KT 9999 FEW035 BKN140 30/24 A2980=
201110032100 METAR MRLB 032100Z 26003KT 9999 FEW035 BKN230 30/25 A2977=
201110032200 METAR MRLB 032200Z 23003KT 9999 FEW035 BKN230 30/25 A2977=
201110032300 METAR MRLB 032300Z 24004KT 9999 FEW035 BKN230 28/25 A2979=
201110032352 METAR MRLB 040000Z 00000KT 9999 SCT035 BKN140 27/24 A2981=
201110040000 METAR MRLB 040000Z 00000KT 9999 SCT035 BKN140 27/24 A2981=
201110040100 METAR MRLB 040100Z 13003KT 9999 FEW035 BKN140 26/23 A2985=
201110040200 METAR MRLB 040200Z 14003KT 9999 SCT035 BKN130 25/23 A2987=
201110040300 METAR MRLB NIL=
201110040400 METAR MRLB NIL=
201110040500 METAR MRLB NIL=
201110040600 METAR MRLB NIL=
201110040700 METAR MRLB NIL=
201110040800 METAR MRLB NIL=
201110040900 METAR MRLB NIL=
201110041000 METAR MRLB NIL=
201110041100 METAR MRLB NIL=
201110041200 METAR MRLB 041200Z 03003KT 9999 FEW005 BKN140 23/22 A2987=
201110041300 METAR MRLB 041300Z 00000KT 9999 FEW005 SCT140 BKN250 25/24 A2988=
201110041400 METAR MRLB 041400Z 11002KT 9999 FEW010 BKN140 25/23 A2991=
201110041500 METAR MRLB 041500Z 19003KT 9999 BKN015 SCT250 27/ 25 A2992=
201110041600 METAR MRLB 041600Z 10003KT 9999 SCT025 SCT250 28/24 A2993=
201110041700 METAR MRLB 041700Z 17004KT 9999 SCT025 BKN250 29/25 A2990=
201110041800 METAR MRLB 041800Z 15004KT 9999 SCT025 SCT250 30/25 A2986=
201110041900 METAR MRLB 041900Z 11002KT 9999 SCT030 SCT250 31/25 A2982=
201110042000 METAR MRLB 042000Z 10004KT 9999 SCT025 SCT120 31/24 A2979=
201110042100 METAR MRLB 042100Z 15004KT 9999 SCT020 BKN130 29/24 A2977=
201110042200 METAR MRLB 042200Z 28007KT 9999 SCT020 BKN130 29/24 A2977=
201110042300 METAR MRLB 042300Z 09003KT 9999 -RA SCT020 BKN120 26/23 A2978=
201110042352 METAR MRLB 050000Z 06006KT 9999 SCT020 BKN120 26/23 A2981=
201110050000 METAR MRLB 050000Z 06006KT 9999 SCT020 BKN120 26/23 A2981=
201110050100 METAR MRLB 050100Z 08005KT 9999 FEW020 BKN120 25/23 A2983=
201110050200 METAR MRLB 050200Z 07003KT 9999 -RA SCT020 BKN120 25/ 23 A2984=
201110050300 METAR MRLB NIL=
201110050400 METAR MRLB NIL=
201110050500 METAR MRLB NIL=
201110050600 METAR MRLB NIL=
201110050700 METAR MRLB NIL=
201110050800 METAR MRLB NIL=
201110050900 METAR MRLB NIL=
201110051000 METAR MRLB NIL=
201110051100 METAR MRLB NIL=
201110051200 METAR MRLB NIL=
201110051300 METAR MRLB NIL=
201110051400 METAR MRLB 051400Z 00000KT 9999 FEW012 SCT240 28/23 A2990=
201110051500 METAR MRLB 051500Z 27003KT 9999 SCT012 BKN240 28/23 A2992=
201110051600 METAR MRLB 051600Z 27007KT 9999 SCT015 BKN250 29/24 A2991=
201110051700 METAR MRLB 051700Z 28007KT 9999 SCT015TCU BKN240 29/24 A2988=
201110051800 METAR MRLB 051800Z 28009KT 9999 VCSH SCT015TCU BKN240 29/24 A2985=
201110051900 METAR MRLB 051900Z 35005KT 9999 RA SCT020TCU BKN120 26/23 A2982=
201110052000 METAR MRLB 052000Z 30003KT 9999 RA SCT015 BKN120 27/24 A2978=
201110052100 METAR MRLB 052100Z 00000KT 9999 FEW020 BKN140 27/24 A2977 RERA=
201110052200 METAR MRLB 052200Z 21004KT 9999 FEW012 SCT100 BKN250 27/24 A2977=
201110052300 METAR MRLB 052300Z 14008KT 9999 DZ FEW020 BKN100 26/23 A2979=
201110052353 METAR MRLB 060000Z 16004KT 9999 SCT020 BKN100 24/22 A2980=
201110060000 METAR MRLB 060000Z 16004KT 9999 SCT020 BKN100 24/22 A2980=
201110060100 METAR MRLB 060100Z 00000KT 9999 FEW020 SCT120 24/22 A2983=
201110060200 METAR MRLB 060200Z 00000KT 9999 FEW020 SCT150 24/22 A2984=
201110060300 METAR MRLB NIL=
201110060400 METAR MRLB NIL=
201110060500 METAR MRLB NIL=
201110060600 METAR MRLB NIL=
201110060700 METAR MRLB NIL=
201110060800 METAR MRLB NIL=
201110060900 METAR MRLB NIL=
201110061000 METAR MRLB NIL=
201110061100 METAR MRLB NIL=
201110061200 METAR MRLB 061200Z 00000KT 9999 -DZ SCT020 BKN120 23/22 A2981=
201110061300 METAR MRLB 061300Z 18003KT 9999 3000S -RA FEW005 SCT010 BKN100 23/23 A2985=
201110061400 METAR MRLB 061400Z 27003KT 9999 SCT030 BKN250 27/24 A2985=
201110061500 METAR MRLB 061500Z 35003KT 9999 SCT030 BKN250 28/24 A2988=
201110061553 METAR MRLB 091600Z 15006KT 9999 FEW035 BKN140 28/24 A2986=
201110061600 METAR MRLB 061600Z 28003KT 9999 SCT035 SCT250 30/25 A2987=
201110061700 METAR MRLB 061700Z 04005KT 9999 SCT035 SCT250 31/24 A2985=
201110061800 METAR MRLB 061800Z 10007KT 9999 SCT035 BKN250 32/23 A2981=
201110061900 METAR MRLB 061900Z 07007KT 9999 SCT035 SCT250 32/23 A2978=
201110062000 METAR MRLB 062000Z 10005KT 9999 SCT035 BKN250 31/22 A2976=
201110062100 METAR MRLB 062100Z 08006KT 9999 SCT035 BKN250 32/23 A2974=
201110062200 METAR MRLB NIL=
201110062300 METAR MRLB NIL=
201110062353 METAR MRLB 070000Z 14005KT 9999 SCT035 BKN230 26/22 A2976=
201110070000 METAR MRLB 070000Z 14005KT 9999 SCT035 BKN230 26/22 A2976=
201110070100 METAR MRLB 070100Z 14006KT 9999 FEW035 BKN140 26/22 A2978=
201110070200 METAR MRLB 070200Z 23005KT 9999 SCT030 BKN140 25/22 A2980=
201110070300 METAR MRLB NIL=
201110070400 METAR MRLB NIL=
201110070500 METAR MRLB NIL=
201110070600 METAR MRLB NIL=
201110070700 METAR MRLB NIL=
201110070800 METAR MRLB NIL=
201110070900 METAR MRLB NIL=
201110071000 METAR MRLB NIL=
201110071100 METAR MRLB NIL=
201110071200 METAR MRLB 071200Z 10002KT 9999 FEW005 BKN250 22/22 A2981=
201110071300 METAR MRLB 071300Z 9999 FEW010 BKN250 26/24 A2982=
201110071333 METAR MRLB 041300Z 21002KT 9999 FEW010 BKN250 26/24 A2982=
201110071400 METAR MRLB 071400Z 00000KT 9999 SCT015 SCT250 28/24 A2985=
201110071500 METAR MRLB 071500Z 07003KT CAVOK 27/23 A2984=
201110071600 METAR MRLB 071600Z 23003KT 9999 FEW030 BKN250 29/24 A2984=
201110071700 METAR MRLB 071700Z 23003KT 9999 FEW035 SCT120 BKN250 31/251 A2982=
201110071800 METAR MRLB 071800Z 17004KT 9999 SCT035 SCT250 32/24 A2980=
201110071900 METAR MRLB 071900Z 10004KT 9999 BKN030 SCT250 31/23 A2977=
201110072000 METAR MRLB 072000Z 26008KT 9999 -RA BKN025 SCT250 31/25 A2975=
201110072100 METAR MRLB 072100Z 26006KT 9999 SCT025 SCT250 28/24 A2973=
201110072200 METAR MRLB 072200Z 27008KT 9999 -RA SCT025 SCT120 30/24 A2973=
201110072300 METAR MRLB 072300Z 33004KT 9999 VCSH SCT020 BKN120 30/24 A2975=
201110072353 METAR MRLB 080000Z 35005KT 9999 BKN020 SCT120 27/24 A2976=
201110080000 METAR MRLB 080000Z 35005KT 9999 BKN020 SCT120 27/24 A2976=
201110080100 METAR MRLB 080100Z 35004KT 9999 SCT020 BKN120 26/24 A2978=
201110080200 METAR MRLB 080200Z 17007KT 9999 -RA SCT010 BKN120 25/23 A2980=
201110080300 METAR MRLB NIL=
201110080400 METAR MRLB NIL=
201110080500 METAR MRLB NIL=
201110080600 METAR MRLB NIL=
201110080700 METAR MRLB NIL=
201110080800 METAR MRLB NIL=
201110080900 METAR MRLB NIL=
201110081000 METAR MRLB NIL=
201110081100 METAR MRLB NIL=
201110081200 METAR MRLB 081200Z 00000KT 9999 FEW005 SCT100 BKN250 23/22 A2979=
201110081300 METAR MRLB 081300Z 17004KT 0100 FG VV/// 23/22 A2981=
201110081400 METAR MRLB 081400Z 22004KT 5000 VCFG FEW005 SCT015 25/23 A2982=
201110081500 METAR MRLB 081500Z 15003KT 9999 FEW015 SCT250 28/23 A2984=
201110081600 METAR MRLB 081600Z 26003KT 9999 FEW015 SCT250 30/23 A2984=
201110081700 METAR MRLB 081700Z 30005KT 9999 FEW025 SCT250 30/23 A2982=
201110081800 METAR MRLB 081800Z 27004KT 9999 FEW020 SCT250 31/23 A2979=
201110081900 METAR MRLB 081900Z 24006KT 9999 FEW018 SCT250 31/23 A2976=
201110082000 METAR MRLB 082000Z 25008KT 9999 FEW015 SCT250 31/23 A2973=
201110082100 METAR MRLB 082100Z 27008KT 9999 FEW015 SCT250 30/23 A2971=
201110082200 METAR MRLB 082200Z 27008KT 9999 SCT015TCU BKN250 29/23 A2971 RN E SE=
201110082300 METAR MRLB 082300Z 25008KT 9999 RA SCT015CB BKN120 28/23 A2973=
201110082353 METAR MRLB 090000Z 24004KT 9000 -RA SCT015CB BKN090 24/22 A2975=
201110090000 METAR MRLB 090000Z 24004KT 9000 -RA SCT015CB BKN090 24/22 A2975=
201110090100 METAR MRLB 090100Z 14004KT 8000 RA SCT015CB OVC080 24/22 A2978=
201110090200 METAR MRLB 090200Z 15005KT 9000 DZ SCT020 OVC100 23/23 A2980=
201110090300 METAR MRLB NIL=
201110090400 METAR MRLB NIL=
201110090500 METAR MRLB NIL=
201110090600 METAR MRLB NIL=
201110090700 METAR MRLB NIL=
201110090800 METAR MRLB NIL=
201110090900 METAR MRLB NIL=
201110091000 METAR MRLB NIL=
201110091100 METAR MRLB NIL=
201110091200 METAR MRLB 091200Z 00000KT 9999 SCT025 BKN120 24/23 A2980=
201110091300 METAR MRLB 091300Z 14003KT 9999 SCT025 BKN120 25/24 A2982=
201110091400 METAR MRLB 091400Z 09004KT 9999 FEW030 BKN130 26/24 A2982=
201110091500 METAR MRLB 091500Z 13004KT 9999 FEW035 BKN140 27/25 A2985=
201110091600 METAR MRLB 091600Z 15006KT 9999 FEW035 BKN140 28/24 A2986=
201110091700 METAR MRLB 091700Z 16005KT 9999 SCT035 BKN140 29/25 A2985=
201110091800 METAR MRLB 091800Z 16005KT 9999 SCT035 BKN140 30/25 A2982=
201110091900 METAR MRLB 091900Z 19005KT 9999 SCT030 BKN120 29/24 A2979=
201110092000 METAR MRLB 092000Z 27006KT 9999 VCSH FEW020TC SCT030 BKN120 27/24 A2975=
201110092100 METAR MRLB 092100Z 18006KT 9999 2000E RA SCT008 BKN025 24/22 A2975=
201110092200 METAR MRLB 092200Z 00000KT 9999 -RA SCT012 BKN100 24/23 A2975=
201110092300 METAR MRLB 092300Z 09003KT 9999 SCT030 BKN110 24/23 A2975=
201110092352 METAR MRLB 100000Z 00000KT 9999 SCT025 BKN110 24/23 A2976=
201110100000 METAR MRLB 100000Z 00000KT 9999 SCT025 BKN110 24/23 A2976=
201110100100 METAR MRLB 100100Z 18003KT 9999 SCT030 BKN120 24/23 A2979=
201110100200 METAR MRLB 100200Z 00000KT 9999 SCT030 BKN120 24/23 A2982=
201110100300 METAR MRLB NIL=
201110100400 METAR MRLB NIL=
201110100500 METAR MRLB NIL=
201110100600 METAR MRLB NIL=
201110100700 METAR MRLB NIL=
201110100800 METAR MRLB NIL=
201110100900 METAR MRLB NIL=
201110101000 METAR MRLB NIL=
201110101100 METAR MRLB NIL=
201110101200 METAR MRLB 101200Z 00000KT 9999 FEW020 SCT130 BKN250 23/23 A2981=
201110101300 METAR MRLB 101300Z 20002KT 9999 OVC020 25/24 A2988=
201110101400 METAR MRLB 101400Z 20002KT 9999 OVC020 25/24 A2988=
201110101500 METAR MRLB 101500Z 16003KT 9999 -RA FEW010 BKN020 25/24 A2989=
201110101600 METAR MRLB 101600Z 08002KT 9999 -RA SCT010 BKN020 27/25 A2990=
201110101700 METAR MRLB 101700Z 27005KT 9999 -RA SCT010 BKN100 25/24 A2988=
201110101800 METAR MRLB 101800Z 25012KT 9999 -RA SCT010 BKN020 26/24 A2986=
201110101900 METAR MRLB 101900Z 25007KT 8000 3000E RA SCT010 BKN070 25/24 A2982=
201110102000 METAR MRLB 102000Z 20007KT 4000 RA SCT008 SCT060 24/23 A2979=
201110102100 METAR MRLB 102100Z 23009KT 2000 RA SCT008 BKN050 24/23 A2979=
201110102200 METAR MRLB 102200Z 16002KT 4000 RA SCT010 BKN080 24/23 A2979=
201110102300 METAR MRLB 102300Z 18003KT 8000 RA SCT010 BKN080 24/23 A2980=
201110102353 METAR MRLB 110000Z 14002KT 8000 RA SCT010BKN080 24/23 A2981=
201110110000 METAR MRLB 110000Z 14002KT 8000 RA SCT010BKN080 24/23 A2981=
201110110100 METAR MRLB 110100Z 11003KT 8000 RA SCT010 BKN080 23/23 A2984=
201110110200 METAR MRLB 110200Z 13003KT 9999 -RA SCT015 BKN090 23/23 A2986 RERA=
201110110300 METAR MRLB NIL=
201110110400 METAR MRLB NIL=
201110110500 METAR MRLB NIL=
201110110600 METAR MRLB NIL=
201110110700 METAR MRLB NIL=
201110110800 METAR MRLB NIL=
201110110900 METAR MRLB NIL=
201110111000 METAR MRLB NIL=
201110111100 METAR MRLB NIL=
201110111200 METAR MRLB 111200Z 09004KT 8000 -RA SCT010 BKN035 23/22 A2985=
201110111300 METAR MRLB 111300Z 09003KT 9000 SCT012 BKN100 23/22 A2987 RERA=
201110111400 METAR MRLB 111400Z 14005KT 9999 SCT012 BKN100 25/23 A2989=
201110111500 METAR MRLB 111500Z 16003KT 9000 -RA SCT010 BKN050 24/22 A2991=
201110111600 METAR MRLB 111600Z 19005KT 9000 -RA SCT010 BKN060 25/23 A2991=
201110111700 METAR MRLB 111700Z 24008KT 8000 -RA SCT010 BKN040 26/23 A2990=
201110111800 METAR MRLB 111800Z 23010KT 8000 -RA SCT010 BKN040 24/23 A2988=
201110111900 METAR MRLB 111900Z 22010KT 9000 -RA SCT012 BKN070 26/23 A2986=
201110112000 METAR MRLB 112000Z 23010KT 9999 SCT015 BKN090 27/23 A2984=
201110112100 METAR MRLB 112100Z 22006KT 9999 SCT015 BKN100 26/22 A2983=
201110112200 METAR MRLB 112200Z 24010KT 9999 SCT012 BKN100 26/22 A2983 RN ARND=
201110112300 METAR MRLB 112300Z 22005KT 9999 SCT015 BKN100 25/22 A2983=
201110120000 METAR MRLB NIL=
201110120100 METAR MRLB 120100Z 23005KT 9999 SCT020 BKN100 24/22 A2987=
201110120200 METAR MRLB 120200Z 23008KT 8000 -RA SCT015 OVC100 24/22 A2990=
201110120300 METAR MRLB NIL=
201110120400 METAR MRLB NIL=
201110120500 METAR MRLB NIL=
201110120600 METAR MRLB NIL=
201110120700 METAR MRLB NIL=
201110120800 METAR MRLB NIL=
201110120900 METAR MRLB NIL=
201110121000 METAR MRLB NIL=
201110121100 METAR MRLB NIL=
201110121200 METAR MRLB 121200Z 00000KT 9999 FEW008 BKN020 23/23 A2989=
201110121300 METAR MRLB 121300Z 00000KT 9999 DZ SCT008 BKN020 24/23 A2991=
201110121400 METAR MRLB 121400Z 24008KT 9999 2500SW -RA SCT007 BKN020 24/23 A2992=
201110121500 METAR MRLB 121500Z 23004KT 9999 VCSH SCT010 BKN025 25/24 A2993=
201110121600 METAR MRLB 121600Z 26008KT 3000 RA SCT008 BKN018 25/23 A2993=
201110121700 METAR MRLB 121700Z 26007KT 4000 RA SCT007 BKN020 24/23 A2990=
201110121800 METAR MRLB 121800Z 26014KT 9999 VCSH SCT015 BKN120 27/24 A2988=
201110121900 METAR MRLB 121900Z 26014KT 9999 SCT025 BKN130 27/23 A2987=
201110122000 METAR MRLB 122000Z 25011KT 9999 VCSH SCT025 BKN130 27/22 A2986=
201110122100 METAR MRLB 122100Z 26010KT 9999 VCSH SCT030 BKN130 27/22 A2985=
201110122200 METAR MRLB 122200Z 25010KT 9999 SCT025 BKN120 26/21 A2984=
201110122300 METAR MRLB 122300Z 25008KT 9999 SCT020 BKN120 25/21 A2984=
201110122353 METAR MRLB 130000Z 25006KT 9999 SCT025 BKN130 25/21 A2985=
201110130000 METAR MRLB 130000Z 25006KT 9999 SCT025 BKN130 25/21 A2985=
201110130100 METAR MRLB 130100Z 26006KT 9999 SCT030 BKN130 25/21 A2988=
201110130200 METAR MRLB 130200Z 24007KT 9999 SCT020 BKN110 24/22 A2991=
201110130300 METAR MRLB NIL=
201110130400 METAR MRLB NIL=
201110130500 METAR MRLB NIL=
201110130600 METAR MRLB NIL=
201110130700 METAR MRLB NIL=
201110130800 METAR MRLB NIL=
201110130900 METAR MRLB NIL=
201110131000 METAR MRLB NIL=
201110131100 METAR MRLB NIL=
201110131200 METAR MRLB 131200Z 20002KT 9999 3000E RA OVC010 23/22 A2986=
201110131300 METAR MRLB 131300Z 21005KT 9999 RA BKN010 SCT100 23/22 A2986=
201110131400 METAR MRLB 131400Z 23006KT 9999 -RA BKN010 SCT100 24/23 A2988 RERA=
201110131500 METAR MRLB 131500Z 25008KT 9999 -RA BKN010 SCT100 25/23 A2989 RERA=
201110131600 METAR MRLB 131600Z 26010KT 9999 -RA BKN010 SCT100 26/23 A2988=
201110131700 METAR MRLB 131700Z 27011KT 9999 -RA OVC015 27/23 A2986=
201110131800 METAR MRLB 131800Z 26011KT 9999 -RA SCT015 BKN100 27/23 A2984=
201110131900 METAR MRLB 131900Z 25011KT 9999 -RA SCT010 SCT100 27/23 A2982=
201110132000 METAR MRLB 132000Z 26011KT 8000 RA OVC010 25/23 A2980=
201110132100 METAR MRLB 132100Z 26013KT 9000 RA BKN010 SCT100 24/23 A2978=
201110132200 METAR MRLB 132200Z 26008KT 3000 RA OVC010 25/23 A2977=
201110132300 METAR MRLB 132300Z 24005KT 9999 -RA SCT010 SCT100 25/23 A2977 RERA=
201110132353 METAR MRLB 140000Z 23006KT 9999 -RA OVC010 24/23 A2978=
201110140000 METAR MRLB 140000Z 23006KT 9999 -RA OVC010 24/23 A2978=
201110140100 METAR MRLB 140100Z 23005KT 9999 -RA BKN010 SCT100 24/23 A2981=
201110140200 METAR MRLB 140200Z 22004KT 9999 BKN010 SCT100 24/23 A2983=
201110140300 METAR MRLB NIL=
201110140400 METAR MRLB NIL=
201110140500 METAR MRLB NIL=
201110140600 METAR MRLB NIL=
201110140700 METAR MRLB NIL=
201110140800 METAR MRLB NIL=
201110140900 METAR MRLB NIL=
201110141000 METAR MRLB NIL=
201110141100 METAR MRLB NIL=
201110141200 METAR MRLB 141200Z 17004KT 9000 -RA SCT010 BKN080 23/22 A2982=
201110141300 METAR MRLB 141300Z 19008KT 9000 -RA SCT010 BKN070 23/22 A2983=
201110141400 METAR MRLB 141400Z 17006KT 9000 VCSH SCT012 BKN090 25/22 A2984=
201110141500 METAR MRLB 141500Z 19008KT 8000 -RA SCT012 BKN080 25/23 A2988=
201110141600 METAR MRLB 141600Z 19008KT 9000 -RA SCT012 BKN070 25/23 A2988=
201110141700 METAR MRLB 141700Z 23008KT 9000 VCSH SCT012 BKN080 27/23 A2986=
201110141800 METAR MRLB 141800Z 24010KT 9000 VCSH SCT015 BKN090 26/23 A2984=
201110141900 METAR MRLB NIL=
201110142000 METAR MRLB NIL=
201110142100 METAR MRLB NIL=
201110142200 METAR MRLB 142200Z 21004KT 8000 -RA SCT012 BKN050 24/23 A2977=
201110142300 METAR MRLB 142300Z 22009KT 6000 RA SCT010 BKN050 23/22 A2979=
201110142351 METAR MRLB 150000Z 16005KT 9000 VCSH SCT012 BKN060 23/22 A2980=
201110150000 METAR MRLB 150000Z 16005KT 9000 VCSH SCT012 BKN060 23/22 A2980=
201110150100 METAR MRLB 150100Z 18004KT 9000 VCSH SCT012 BKN080 23/22 A2983=
201110150200 METAR MRLB 150200Z 18004KT 8000 VCSH SCT012 OVC080 23/22 A2985=
201110150300 METAR MRLB NIL=
201110150400 METAR MRLB NIL=
201110150500 METAR MRLB NIL=
201110150600 METAR MRLB NIL=
201110150700 METAR MRLB NIL=
201110150800 METAR MRLB NIL=
201110150900 METAR MRLB NIL=
201110151000 METAR MRLB NIL=
201110151100 METAR MRLB NIL=
201110151200 METAR MRLB 151200Z 24003KT 4000 RA SCT008 BKN020 23/22 A2985=
201110151300 METAR MRLB 151300Z 15004KT 6000 -RA SCT010 BKN025 23/23 A2987=
201110151400 METAR MRLB 151400Z 16005KT 9999 VCSH SCT012 BKN100 24/24 A2988=
201110151500 METAR MRLB 151500Z 18003KT 9999 3000S RA SCT010 BKN100 25/23 A2989=
201110151600 METAR MRLB 151600Z 23007KT 9999 SCT015 BKN120 27/24 A2989=
201110151700 METAR MRLB 151700Z 24011KT 9999 SCT020 BKN140 28/23 A2988=
201110151800 METAR MRLB 151800Z 25013KT 9999 VCSH SCT015 BKN130 28/23 A2986=
201110151900 METAR MRLB 151900Z 25012KT 9999 SCT025 BKN130 28/23 A2985=
201110152000 METAR MRLB 152000Z 24011KT 9999 SCT020 BKN130 27/22 A2985=
201110152100 METAR MRLB 152100Z 22009KT 9999 -RA SCT020 BKN120 26/22 A2981=
201110152200 METAR MRLB 152200Z 25010KT 9999 VCSH SCT025 BKN120 26/22 A2982=
201110152300 METAR MRLB 152300Z 20005KT 9999 VCSH SCT025 BKN120 25/22 A2983=
201110152352 METAR MRLB 160000Z 21003KT 9999 SCT030 BKN130 24/22 A2984=
201110160000 METAR MRLB 160000Z 21003KT 9999 SCT030 BKN130 24/22 A2984=
201110160100 METAR MRLB 160100Z 14003KT 9999 SCT030 BKN130 23/22 A2986=
201110160200 METAR MRLB 160200Z 13003KT 9999 SCT035 BKN140 23/22 A2990=
201110160300 METAR MRLB NIL=
201110160400 METAR MRLB NIL=
201110160500 METAR MRLB NIL=
201110160600 METAR MRLB NIL=
201110160700 METAR MRLB NIL=
201110160800 METAR MRLB NIL=
201110160900 METAR MRLB NIL=
201110161000 METAR MRLB NIL=
201110161100 METAR MRLB NIL=
201110161200 METAR MRLB 161200Z 18005KT 5000 RA SCT015 BKN080 26/22 A2988=
201110161300 METAR MRLB 161300Z 19004KT 4000 RA SCT010 BKN080 22/22 A2991=
201110161400 METAR MRLB 161400Z 23004KT 1500 RABR SCT010 SCT080 22/22 A2993=
201110161500 METAR MRLB 161500Z 22005KT 2000 RA SCT010 BKN080 22/22 A2994=
201110161600 METAR MRLB 161600Z 22006KT 2500 RA SCT008 BKN080 22/22 A2995=
201110161700 METAR MRLB 161700Z 21007KT 2000 RA SCT008 BKN080 22/22 A2994=
201110161800 METAR MRLB 161800Z 19005KT 3000 RA SCT005 BKN080 22/22 A2991=
201110161900 METAR MRLB 161900Z 18005KT 9999 -RA SCT006 BKN080 23/23 A2989 RERA=
201110162000 METAR MRLB 162000Z 1705KT 8000 -RA SCT008 BKN080 23/23 A2987=
201110162100 METAR MRLB 162100Z 09003KT 9999 -RA SCT008 BKN080 23/23 A2985=
201110162200 METAR MRLB 162200Z 08002KT 8000 -RA SCT008 BKN080 23/23 A2985=
201110162300 METAR MRLB 162300Z 31002KT 9999 3000E RA BKN004 23/22 A2987=
201110170000 METAR MRLB 170000Z 12002KT 9999 -RA OVC008 22/22 A2989=
201110170100 METAR MRLB 170100Z 15005KT 9999 BKN010 SCT080 22/22 A2991=
201110170200 METAR MRLB 170200Z 13003KT 9999 BKN010 SCT080 22/22 A2994=
201110170300 METAR MRLB NIL=
201110170400 METAR MRLB NIL=
201110170500 METAR MRLB NIL=
201110170600 METAR MRLB NIL=
201110170700 METAR MRLB NIL=
201110170800 METAR MRLB NIL=
201110170900 METAR MRLB NIL=
201110171000 METAR MRLB NIL=
201110171100 METAR MRLB NIL=
201110171200 METAR MRLB 171200Z 13003KT 2000 -RA SCT008 BKN030 22/22 2990=
201110171300 METAR MRLB 171300Z 13004KT 6000 SCT010 BKN060 23/22 A2991=
201110171400 METAR MRLB 171400Z 14005KT 5000 -RA SCT008 BKN040 23/22 A2993=
201110171500 METAR MRLB 171500Z 14004KT 3000 -RA SCT006 BKN030 23/22 A2994=
201110171600 METAR MRLB 171600Z 17004KT 3000 RA BR SCT006 BKN025 23/22 A2994=
201110171700 METAR MRLB 171700Z 19007KT 4000 -RA SCT008 BKN050 23/22 A2993 VIS 9999 N=
201110171800 METAR MRLB 171800Z 16005KT 9000 -RA SCT010 BKN070 24/22 A2990=
201110171819 METAR MRLB PRUEBA=
201110171900 METAR MRLB 171900Z 20007KT 5000 -RA SCT010 BKN060 24/22 A2987=
201110172000 METAR MRLB 172000Z 21006KT 1500 RA BR SCT005 BKN020 22/22 A2986=
201110172100 METAR MRLB 172100Z 14004KT 3000 -RA SCT006 BKN030 22/21 A2985 VIS 9999 N=
201110172200 METAR MRLB 172200Z 13004KT 3000 -RA SCT006 BKN025 22/22 A2986=
201110172300 METAR MRLB 172300Z 12003KT 8000 -RA SCT010 BKN050 22/22 A2987=
201110172351 METAR MRLB 180000Z 13003KT 8000 -RA SCT010 BKN080 22/22 A2988=
201110180000 METAR MRLB 180000Z 13003KT 8000 -RA SCT010 BKN080 22/22 A2988=
201110180100 METAR MRLB 180100Z 18003KT 7000 -RA SCT010 OVC080 22/22 A2989=
201110180200 METAR MRLB 180200Z 13003KT 5000 -RA SCT010 OVC070 22/22 A2990=
201110180300 METAR MRLB NIL=
201110180400 METAR MRLB NIL=
201110180500 METAR MRLB NIL=
201110180600 METAR MRLB NIL=
201110180700 METAR MRLB NIL=
201110180800 METAR MRLB NIL=
201110180900 METAR MRLB NIL=
201110181000 METAR MRLB NIL=
201110181100 METAR MRLB NIL=
201110181200 METAR MRLB 181200Z 15003KT 4000 -RA SCT007 BKN020 22/22 A2990=
201110181300 METAR MRLB 181300Z 14005KT 9999 FEW008 BKN030 23/22 A2991=
201110181400 METAR MRLB 181400Z 15006KT 9999 SCT015 BKN100 24/23 A2993=
201110181500 METAR MRLB 181500Z 15006KT 9999 VCSH SCT012 BKN100 25/23 A2995 RMK RA DIST N/NW=
201110181600 METAR MRLB 181600Z 17007KT 9999 SCT020 SCT130 26/24 A2996=
201110181700 METAR MRLB 181700Z 20009KT 9999 VCSH SCT020 BKN120 27/24 A2993=
201110181800 METAR MRLB 181800Z 20010KT 9999 SCT025 BKN130 27/24 A2990=
201110181900 METAR MRLB 181900Z 22010KT 9999 -RA SCT020 BKN120 27/23 A2988=
201110182000 METAR MRLB 182000Z 23009KT 9999 SCT025 BKN120 27/22 A2986=
201110182100 METAR MRLB 182100Z 22010KT 9999 VCSH SCT020 BKN110 27/22 A2986=
201110182200 METAR MRLB 182200Z 2505KT 9999 VCSH SCT015 BKN110 25/22 A2987=
201110182300 METAR MRLB 182300Z 24003KT 6000 RA FEW010 BKN025 23/22 A2988=
201110182351 METAR MRLB 190000Z 18003KT 7000 -RA SCT015 BKN100 23/22 A2991=
201110190000 METAR MRLB 190000Z 18003KT 7000 -RA SCT015 BKN100 23/22 A2991=
201110190100 METAR MRLB 190100Z 17003KT 9999 SCT012 BKN100 23/22 A2992=
201110190200 METAR MRLB 190200Z 19003KT 8000 -RA SCT010 BKN100 23/22 A2994=
201110190300 METAR MRLB NIL=
201110190400 METAR MRLB NIL=
201110190500 METAR MRLB NIL=
201110190600 METAR MRLB NIL=
201110190700 METAR MRLB NIL=
201110190800 METAR MRLB NIL=
201110190900 METAR MRLB NIL=
201110191000 METAR MRLB NIL=
201110191100 METAR MRLB NIL=
201110191200 METAR MRLB 191200Z 14002KT 9999 SCT020 BKN100 22/22 A2994=
201110191300 METAR MRLB 191300Z 09004KT 9999 BKN020 SCT100 23/22 A2997=
201110191400 METAR MRLB 191400Z 10004KT 9999 SCT010 BKN100 23/22 A2999=
201110191500 METAR MRLB 191500Z 11004KT 9999 -RA SCT010 BKN100 24/23 A3001=
201110191600 METAR MRLB 191600Z 18004KT 9999 FEW010 BKN100 25/23 A3001=
201110191700 METAR MRLB 191700Z 22006KT 9000 -RA OVC020 24/22 A3000=
201110191800 METAR MRLB 191800Z 17002KT 9999 -RA BKN010 SCT100 26/24 A2996=
201110191900 METAR MRLB 191900Z 05005KT 9999 -RA BKN010 SCT100 24/23 A2995=
201110192000 METAR MRLB NIL=
201110192100 METAR MRLB NIL=
201110192200 METAR MRLB NIL=
201110192300 METAR MRLB 192300Z 12003KT 9999 FEW015 BKN100 24/23 A2994=
201110192347 METAR MRLB 200000Z 16002KT 9999 -RA FEW010 BKN100 23/23 A2995=
201110200000 METAR MRLB 200000Z 16002KT 9999 -RA FEW010 BKN100 23/23 A2995=
201110200100 METAR MRLB 200100Z 13002KT 9999 FEW010 BKN100 23/22 A2998=
201110200200 METAR MRLB 200200Z 10003KT 9999 FEW010 BKN100 23/22 A3000=
201110200300 METAR MRLB NIL=
201110200400 METAR MRLB NIL=
201110200500 METAR MRLB NIL=
201110200600 METAR MRLB NIL=
201110200700 METAR MRLB NIL=
201110200800 METAR MRLB NIL=
201110200900 METAR MRLB NIL=
201110201000 METAR MRLB NIL=
201110201100 METAR MRLB NIL=
201110201200 METAR MRLB 201200Z 00000KT 1000 -RA SCT006 BKN025 22/22 A2998=
201110201300 METAR MRLB 201300Z 00000KT 9999 FEW006 SCTO25 BKN100 23/22 A3000=
201110201400 METAR MRLB 201400Z 10003KT 9999 SCT010 BKN100 24/22 A3002=
201110201500 METAR MRLB 201500Z 17005KT 9999 VCSH SCT006 BKN070 24/23 A3002=
201110201600 METAR MRLB 201600Z 16005KT 9999 VCSH SCT008 BKN070 24/22 A3002=
201110201700 METAR MRLB 201700Z 10003KT 2000 RA SCT006 BKN030 23/22 A3000=
201110201800 METAR MRLB 201800Z 00000KT 2000 RA SCT005 BKNO25 22/21 A2998=
201110201900 METAR MRLB 201900Z 16003KT 7000 -RA SCT007 BKN035 23/22 A2995 RERA=
201110202000 METAR MRLB 202000Z 26004KT 5000 -RA SCT006 BKN035 23/22 A2993 RERA=
201110202100 METAR MRLB 202100Z 22003KT 8000 -RA SCT010 BKN060 23/22 A2992=
201110202200 METAR MRLB 202200Z 25003KT 8000 -RA SCT006 BKN100 23/22 A2993=
201110202300 METAR MRLB 202300Z 18002KT 9999 SCT010 BKN120 23/22 A2993=
201110210000 METAR MRLB NIL=
201110210050 METAR MRLB 220100Z 00000KT 9999 SCT010 BKN100 23/22 A2996=
201110210100 METAR MRLB NIL=
201110210200 METAR MRLB 210200Z 13003KT 9000 SCT010 OVC100 23/22 A2998=
201110210300 METAR MRLB NIL=
201110210400 METAR MRLB NIL=
201110210500 METAR MRLB NIL=
201110210600 METAR MRLB NIL=
201110210700 METAR MRLB NIL=
201110210800 METAR MRLB NIL=
201110210900 METAR MRLB NIL=
201110211000 METAR MRLB NIL=
201110211100 METAR MRLB NIL=
201110211200 METAR MRLB 211200Z 00000KT 0800 FG VV/// 22/22 A2994=
201110211300 METAR MRLB 211300Z 00000KT 9999 SCT010 BKN100 23/22 A2996=
201110211400 METAR MRLB 211400Z 00000KT 9999 SCT015 BKN100 24/23 A2996=
201110211500 METAR MRLB 211500Z 00000KT 9999 SCT010 BKN020 24/23 A2999=
201110211600 METAR MRLB 211600Z 00000KT 9999 FEW010 SCT020 BKN100 26/24 A2998=
201110211700 METAR MRLB 211700Z 15003KT 9999 SCT020 BKN100 26/24 A2997=
201110211800 METAR MRLB 211800Z 35003KT 9999 FEW010 SCT020 BKN100 27/23 A2994=
201110211900 METAR MRLB 211900Z 28010KT 6000 -RA SCT010 BKN020 25/23 A2991=
201110212000 METAR MRLB 212000Z 24005KT 9999 -RA SCT010 BKN100 23/22 A2987=
201110212054 METAR MRLB 252100Z 26010KT 9999 SCT030 28/23 A2979=
201110212100 METAR MRLB 212100Z 25005KT 9999 -RA SCT010 BKN100 23/22 A2987=
201110212200 METAR MRLB 212200Z 23004KT 9999 SCT015 BKN100 23/22 A2988=
201110212300 METAR MRLB 212300Z 25003KT 9999 SCT020 BKN100 23/22 A2989=
201110212350 METAR MRLB 220000Z 00000KT 9999 SCT020 BKN100 23/22 A2989=
201110220000 METAR MRLB 220000Z 00000KT 9999 SCT020 BKN100 23/22 A2989=
201110220100 METAR MRLB 220100Z 23003KT 9999 -DZ SCT015 BKN100 23/22 A2992=
201110220200 METAR MRLB 220200Z 00000KT 9999 SCT020 BKN100 23/22 A2993=
201110220300 METAR MRLB NIL=
201110220400 METAR MRLB NIL=
201110220500 METAR MRLB NIL=
201110220600 METAR MRLB NIL=
201110220700 METAR MRLB NIL=
201110220800 METAR MRLB NIL=
201110220900 METAR MRLB NIL=
201110221000 METAR MRLB NIL=
201110221100 METAR MRLB NIL=
201110221200 METAR MRLB 221200Z 18003KT 2000 BR FEW003 BKN080 22/22 A2987=
201110221300 METAR MRLB 221300Z 16003KT 5000 BR FEW004 BKN080 22/22 A2989=
201110221400 METAR MRLB 221400Z 13003KT 9999 FEW010 BKN100 23/22 A2990=
201110221500 METAR MRLB 221500Z 00000KT 9999 SCT015 BKN100 25/23 A2991=
201110221600 METAR MRLB 221600Z 16002KT 9999 VCSH BKN020 SCT100 27/24 A2991=
201110221630 METAR MRLB 221630Z 30008KT 9999 RA BKN020 SCT100 23/22 A2990=
201110221700 METAR MRLB 221700Z 36008KT 9999 -RA SCT020 BKN100 23/21 A2989 RERA=
201110221800 METAR MRLB 221800Z 28008KT 9999 SCT020 BKN100 25/23 A2985=
201110221900 METAR MRLB 221900Z 26005KT 9999 SCT020 BKN100 26/23 A2983=
201110222000 METAR MRLB 222000Z 28007KT 9999 SCT025 BKN120 27/23 A2983=
201110222100 METAR MRLB 222100Z 26007KT 9999 SCT025 BKN120 26/22 A2981=
201110222200 METAR MRLB 222200Z 27006KT 9999 SCT025 BKN120 26/22 A2980=
201110222300 METAR MRLB 222300Z 28005KT 9999 SCT020 BKN120 25/22 A2983=
201110222354 METAR MRLB 230000Z 26007KT 9999 OVC 24/22 A2984=
201110230000 METAR MRLB 230000Z 26007KT 9999 OVC 24/22 A2984=
201110230100 METAR MRLB 230100Z 21002KT 9999 -RA OVC020 23/21 A2985=
201110230200 METAR MRLB 230200Z 13003KT 9999 -RA OVC020 23/21 A2987=
201110230300 METAR MRLB NIL=
201110230400 METAR MRLB NIL=
201110230500 METAR MRLB NIL=
201110230600 METAR MRLB NIL=
201110230700 METAR MRLB NIL=
201110230800 METAR MRLB NIL=
201110230900 METAR MRLB NIL=
201110231000 METAR MRLB NIL=
201110231100 METAR MRLB NIL=
201110231200 METAR MRLB 231200Z 13003KT 9999 FEW015 SCT100 BKN250 22/21 A2987=
201110231300 METAR MRLB 231300Z 12003KT 9999 FEW010 SCT150 24/22 A2989=
201110231400 METAR MRLB 231400Z 13003KT 9999 SCT010 BKN180 24/22 A2991=
201110231500 METAR MRLB 231500Z 11003KT 9999 SCT015 BKN140 25/22 A2992=
201110231600 METAR MRLB 231600Z 16003KT 9999 SCT015 BKN140 26/22 A2992=
201110231700 METAR MRLB 231700Z 18006KT 9999 SCT018 BKN120 27/23 A2990=
201110231800 METAR MRLB 231800Z 19003KT 9999 SCT018 BKN180 28/23 A2987=
201110231900 METAR MRLB 231900Z 27007KT 9999 SCT018TCU BKN180 27/23 A2985=
201110232000 METAR MRLB 232000Z 28006KT 9999 SCT018TCU BKN180 27/23 A2983=
201110232100 METAR MRLB 232100Z 24007KT 9999 VCSH SCT015TCU BKN120 26/23 A2981=
201110232200 METAR MRLB 232200Z 19007KT 9999 VCSH SCT015TCU BKN120 26/23 A2983=
201110232300 METAR MRLB 232300Z 16003KT 9999 SCT015TCU BKN100 24/22 A2984=
201110232352 METAR MRLB 240000Z 00000KT 9999 SCT015 BKN100 24/23 A2986=
201110240000 METAR MRLB 240000Z 00000KT 9999 SCT015 BKN100 24/23 A2986=
201110240100 METAR MRLB 240100Z 00000KT 9999 SCT015 BKN100 24/22 A2989=
201110240200 METAR MRLB 240200Z 17003KT 9000 SCT015 OVC090 23/22 A2991=
201110240300 METAR MRLB NIL=
201110240400 METAR MRLB NIL=
201110240500 METAR MRLB NIL=
201110240600 METAR MRLB NIL=
201110240700 METAR MRLB NIL=
201110240800 METAR MRLB NIL=
201110240900 METAR MRLB NIL=
201110241000 METAR MRLB NIL=
201110241100 METAR MRLB NIL=
201110241200 METAR MRLB 241200Z 00000KT 0500 FG VV/// 22/21 A2992=
201110241300 METAR MRLB 241300Z 34003KT 4000 BR SCT004 BKN110 23/22 A2993=
201110241400 METAR MRLB 241400Z 00000KT 9999 SCT020 BKN120 26/23 A2995=
201110241500 METAR MRLB 241500Z 00000KT 9999 SCT025 BKN250 26/23 A2995=
201110241600 METAR MRLB 241600Z 19003KT 9999 SCT035 SCT250 28/23 A2996=
201110241800 METAR MRLB 241800Z 29007KT 9999 SCT030 BKN240 29/23 A2990=
201110241900 METAR MRLB 241900Z 28010KT 9999 VCSH FEW015 SCT025 BKN240 29/22 2988=
201110242000 METAR MRLB 242000Z 32004KT 9999 RA SCT015 BKN100 24/22 A2985=
201110242100 METAR MRLB 242100Z 32006KT 9999 SCT030 BKN130 25/23 A2982 RERA=
201110242200 METAR MRLB 242200Z 28004KT 9999 SCT025 BKN130 25/23 A2984=
201110242300 METAR MRLB 242300Z 00000KT 9999 SCT030 BKN130 24/23 A2986=
201110242350 METAR MRLB 250000Z 07004KT 9999 SCT035 BKN130 24/22 A2987=
201110250000 METAR MRLB 250000Z 07004KT 9999 SCT035 BKN130 24/22 A2987=
201110250100 METAR MRLB 250100Z 00000KT 9999 FEW035 BKN140 24/23 A2988=
201110250200 METAR MRLB 250200Z 00000KT 9999 SCT035 BKN140 24/23 A2990=
201110250300 METAR MRLB NIL=
201110250400 METAR MRLB NIL=
201110250500 METAR MRLB NIL=
201110250600 METAR MRLB NIL=
201110250700 METAR MRLB NIL=
201110250800 METAR MRLB NIL=
201110250900 METAR MRLB NIL=
201110251000 METAR MRLB NIL=
201110251100 METAR MRLB NIL=
201110251200 METAR MRLB 251200Z 00000KT 1000 BR OVC250 22/21 A2987=
201110251300 METAR MRLB 251300Z 01002KT 9999 FEW005 SCT250 24/23 A2988=
201110251400 METAR MRLB 251400Z 00000KT 9999 SCT010 26/24 A2992=
201110251500 METAR MRLB 251500Z 24004KT 9999 SCT020 28/24 A2993=
201110251600 METAR MRLB 251600Z 26005KT 9999 BKN030 29/24 A2992=
201110251700 METAR MRLB 251700Z 26006KT 9999 BKN030 29/24 A2990=
201110251800 METAR MRLB 251800Z 28008KT 9999 BKN030 29/24 A2986=
201110251900 METAR MRLB 251900Z 27008KT 9999 VCSH BKN025 28/23 A2984=
201110252000 METAR MRLB 252000Z 27008KT 9999 BKN030 28/23 A2981 RERA=
201110252100 METAR MRLB 252100Z 26010KT 9999 SCT030 28/23 A2979=
201110252200 METAR MRLB 252200Z 27009KT 9999 FEW030 BKN250 28/23 A2979=
201110252300 METAR MRLB 252300Z 26007KT 9999 FEW025 SCT120 BKN250 27/23 A2979=
201110252350 METAR MRLB 260000Z 24002KT 9999 BKN030 SCT120 26/23 A2979=
201110260000 METAR MRLB 260000Z 24002KT 9999 BKN030 SCT120 26/23 A2979=
201110260100 METAR MRLB 260100Z 19003KT 9999 SCT030 BKN120 25/23 A2980=
201110260200 METAR MRLB 260200Z 15003KT 9999 FEW030 BKN250 25/23 A2983=
201110260300 METAR MRLB NIL=
201110260400 METAR MRLB NIL=
201110260500 METAR MRLB NIL=
201110260600 METAR MRLB NIL=
201110260700 METAR MRLB NIL=
201110260800 METAR MRLB NIL=
201110260900 METAR MRLB NIL=
201110261000 METAR MRLB NIL=
201110261100 METAR MRLB NIL=
201110261200 METAR MRLB 261200Z 00000KT 0100 FG VV/// 23/22 A2979=
201110261300 METAR MRLB 261300Z 00000KT 0200 FG VV/// 23/22 A2982=
201110261400 METAR MRLB 261400Z 00000KT 9999 FEW010 SCT100 25/23 A2983=
201110261500 METAR MRLB 261500Z 27003KT 9999 FEW020 SCT250 28/22 A2985=
201110261600 METAR MRLB 261600Z 14004KT 9999 FEW020 SCT250 30/22 A2983=
201110261700 METAR MRLB 261700Z 15005KT 9999 SCT020 BKN250 31/22 A2982=
201110261800 METAR MRLB 261800Z 08006KT 9999 SCT020 BKN250 32/22 A2978=
201110261900 METAR MRLB 261900Z 27008KT 9999 SCT020 BKN250 31/22 A2975=
201110262000 METAR MRLB 262000Z 25010KT 9999 SCT020 BKN250 31/23 A2972=
201110262100 METAR MRLB 262100Z 25008KT 9999 SCT020 BKN250 30/23 A2970=
201110262200 METAR MRLB 262200Z 25006KT 9999 SCT020 BKN250 28/23 A2969=
201110262300 METAR MRLB 262300Z 21003KT 9999 SCT025 BKN250 28/23 A2970=
201110262355 METAR MRLB 270000Z 14003KT 9999 FEW025 SCT200 26/23 A2971=
201110270000 METAR MRLB 270000Z 14003KT 9999 FEW025 SCT200 26/23 A2971=
201110270100 METAR MRLB 270100Z 12004KT 9999 FEW030 25/23 A2974=
201110270200 METAR MRLB 270200Z 13003KT 9999 FEW040 25/23 A2976=
201110270300 METAR MRLB NIL=
201110270400 METAR MRLB NIL=
201110270500 METAR MRLB NIL=
201110270600 METAR MRLB NIL=
201110270700 METAR MRLB NIL=
201110270800 METAR MRLB NIL=
201110270900 METAR MRLB NIL=
201110271000 METAR MRLB NIL=
201110271100 METAR MRLB NIL=
201110271200 METAR MRLB 271200Z 04003KT 0800 FG SCT002 SCT010 23/22 A2975=
201110271300 METAR MRLB 271300Z 09003KT 9999 SCT020 SCT120 26/24 A2976=
201110271400 METAR MRLB 271400Z 19003KT 9999 FEW030 BKN130 26/24 A2977=
201110271500 METAR MRLB 271500Z 17003KT 9999 FEW035 BKN130 27/23 A2979=
201110271600 METAR MRLB 271600Z 19004KT 9999 FEW035 BKN130 28/24 A2979=
201110271700 METAR MRLB 271700Z 26005KT 9999 FEW035 BKN140 29/23 A2978=
201110271800 METAR MRLB 271800Z 17004KT 9999 SCT035 SCT140 30/23 A2975=
201110271900 METAR MRLB 271900Z 25004KT 9999 FEW020TCU SCT035 BKN140 30/23 A2972=
201110272000 METAR MRLB 272000Z 08004KT 8000 -RA SCT020 BKN100 24/22 2970=
201110272100 METAR MRLB 272100Z 28004KT 9999 DZ SCT025 BKN100 25/23 A2969=
201110272200 METAR MRLB 272200Z 00000KT 9999 FEW030 BKN130 25/24 A2969 REDZ=
201110272300 METAR MRLB 272300Z 00000KT 9999 FEW035 BKN130 25/24 A2971=
201110272350 METAR MRLB 280000Z 14003KT 9999 FEW035 BKN130 24/23 A2973=
201110280000 METAR MRLB 280000Z 14003KT 9999 FEW035 BKN130 24/23 A2973=
201110280100 METAR MRLB 280100Z 16003KT 9999 SCT030 BKN120 25/24 A2977=
201110280200 METAR MRLB 280200Z 18004KT 9999 SCT025 BKN110 24/23 A2980=
201110280300 METAR MRLB NIL=
201110280400 METAR MRLB NIL=
201110280500 METAR MRLB NIL=
201110280600 METAR MRLB NIL=
201110280700 METAR MRLB NIL=
201110280800 METAR MRLB NIL=
201110280900 METAR MRLB NIL=
201110281000 METAR MRLB NIL=
201110281100 METAR MRLB NIL=
201110281200 METAR MRLB 281200Z 33004KT 9999 -RA BKN010 SCT080 23/23 A2980=
201110281300 METAR MRLB 281300Z 21003KT 9999 -RA FEW005 BKN080 24/23 A2981=
201110281400 METAR MRLB 281400Z 00000KT 9999 FEW010 BKN080 25/24 A2983=
201110281500 METAR MRLB 281500Z 11002KT 9999 SCT020 SCT100 26/24 A2985=
201110281554 METAR MRLB 2811600Z 12002KT 9999 FEW025 BKN100 28/24 A2984=
201110281600 METAR MRLB 281600Z 12002KT 9999 FEW025 BKN100 28/24 A2984=
201110281700 METAR MRLB 281700Z 20003KT 9999 SCT030 BKN120 29/24 A2983=
201110281800 METAR MRLB 281800Z 26008KT 9999 BKN030 SCT250 30/25 A2979=
201110281900 METAR MRLB 281900Z 26007KT 9999 SCT030 BKN250 30/24 A2977=
201110282000 METAR MRLB 282000Z 26007KT 9999 SCT025 SCT120 28/24 A2974=
201110282100 METAR MRLB 282100Z 25008KT 9999 FEW025 BKN120 29/24 A2972=
201110282200 METAR MRLB 282200Z 23007KT 9999 SCT030 BKN120 27/24 A2973=
201110282300 METAR MRLB 282300Z 24005KT 9999 FEW025 BKN120 27/24 A2974=
201110282351 METAR MRLB 290000Z 22003KT 9999 FEW025 BKN120 26/24 A2975=
201110290000 METAR MRLB 290000Z 22003KT 9999 FEW025 BKN120 26/24 A2975=
201110290100 METAR MRLB 290100Z 15003KT 9999 FEW025 BKN120 25/24 A2977=
201110290200 METAR MRLB 290200Z 20002KT 9999 FEW025 BKN120 25/24 A2981=
201110290300 METAR MRLB NIL=
201110290400 METAR MRLB NIL=
201110290500 METAR MRLB NIL=
201110290600 METAR MRLB NIL=
201110290700 METAR MRLB NIL=
201110290800 METAR MRLB NIL=
201110290900 METAR MRLB NIL=
201110291000 METAR MRLB NIL=
201110291100 METAR MRLB NIL=
201110291200 METAR MRLB 291200Z 11003KT 9999 FEW020 SCT100 23/22 A2981=
201110291300 METAR MRLB 291300Z 00000KT 9999 SCT020 BKN100 24/22 A2983=
201110291400 METAR MRLB 291400Z 00000KT 9999 FEW010 SCT100 BKN200 25/22 A2985=
201110291500 METAR MRLB 291500Z 00000KT 9999 SCT015 BKN100 26/22 A2987=
201110291600 METAR MRLB 291600Z 09003KT 9999 SCT015 BKN100 27/22 A2987=
201110291700 METAR MRLB 291700Z 28003KT 9999 SCT015 BKN120 27/23 A2985=
201110291800 METAR MRLB 291800Z 00000KT 9999 SCT015 BKN100 28/23 A2982=
201110291900 METAR MRLB 291900Z 35003KT 9999 SCT015 BKN120 28/22 A2981=
201110292000 METAR MRLB 292000Z 24003KT 9999 SCT015TCU BKN140 28/22 A2978=
201110292100 METAR MRLB 292100Z 20004KT 9999 SCT020 BKN150 28/22 A2975=
201110292200 METAR MRLB 292200Z 20005KT 9999 SCT030 BKN170 27/23 A2975=
201110292300 METAR MRLB 292300Z 00000KT 9999 SCTO25 BKN120 26/23 A2976=
201110292354 METAR MRLB 300000Z 00000KT 9999 SCT025 BKN140 25/23 A2977=
201110300000 METAR MRLB 300000Z 00000KT 9999 SCT025 BKN140 25/23 A2977=
201110300100 METAR MRLB 300100Z 00000KT 9999 FEW020 BKN150 25/23 A2979=
201110300200 METAR MRLB 300200Z 00000KT 9999 FEW025 BKN140 25/22 A2982=
201110300300 METAR MRLB NIL=
201110300400 METAR MRLB NIL=
201110300500 METAR MRLB NIL=
201110300600 METAR MRLB NIL=
201110300700 METAR MRLB NIL=
201110300800 METAR MRLB NIL=
201110300900 METAR MRLB NIL=
201110301000 METAR MRLB NIL=
201110301100 METAR MRLB NIL=
201110301200 METAR MRLB 301200Z 00000KT 9999 SCT020 BKN120 23/22 A2982=
201110301300 METAR MRLB 301300Z 00000KT 9999 SCT015 BKN130 24/23 A2983=
201110301400 METAR MRLB 301400Z 00000KT 9999 SCT030 BKN130 26/24 A2986=
201110301500 METAR MRLB 301500Z 26003KT 9999 SCT035 BKN140 27/24 A2987=
201110301600 METAR MRLB 301600Z 19004KT 9999 FEW035 BKN140 27/24 A2988=
201110301700 METAR MRLB 301700Z 19005KT 9999 FEW035 BKN140 28/23 A2985=
201110301800 METAR MRLB 301800Z 25005KT 9999 FEW035 BKN140 29/23 A2981=
201110301900 METAR MRLB 301900Z 30008KT 9999 SCT035 BKN140 30/23 A2980 RMK RA DIST E=
201110302000 METAR MRLB 302000Z 13007KT 9999 SCT030 BKN140 27/22 A2978=
201110302100 METAR MRLB 302100Z 14006KT 9999 FEW030 BKN130 26/21 A2975=
201110302200 METAR MRLB 302200Z 12003KT 9999 SCT035 BKN130 26/22 A2975=
201110302300 METAR MRLB 302300Z 24003KT 9999 FEW035 BKN130 25/22 A2976=
201110302355 METAR MRLB 310000Z 18004KT 9999 SCT035 BKN130 24/22 A2979=
201110310000 METAR MRLB 310000Z 18004KT 9999 SCT035 BKN130 24/22 A2979=
201110310100 METAR MRLB 310100Z 20003KT 9999 FEW035 BKN130 24/22 A2980=
201110310200 METAR MRLB 310200Z 16003KT 9999 SCT030 BKN130 24/22 A2982=
201110310300 METAR MRLB NIL=
201110310400 METAR MRLB NIL=
201110310500 METAR MRLB NIL=
201110310600 METAR MRLB NIL=
201110310700 METAR MRLB NIL=
201110310800 METAR MRLB NIL=
201110310900 METAR MRLB NIL=
201110311000 METAR MRLB NIL=
201110311100 METAR MRLB NIL=
201110311200 METAR MRLB 311200Z 00000KT CAVOK 23/22 A2980=
201110311300 METAR MRLB 311300Z 34002KT CAVOK 24/22 A2982=
201110311400 METAR MRLB 311400Z 18004KT CAVOK 25/22 A2983=
201110311500 METAR MRLB 311500Z 14004KT CAVOK 25/22 A2985=
201110311600 METAR MRLB 311600Z 17005KT CAVOK 26/23 A2986=
201110311700 METAR MRLB 311700Z 17006KT 9999 FEW025 BKN130 27/23 A2984=
201110311715 METAR MRLB 311715Z 17006KT 9999 FEW025 BKN130 27/23 A2984=
201110311800 METAR MRLB 311800Z 18004KT 9999 SCT025 BKN120 28/23 A2982=
201110311900 METAR MRLB 311900Z 24002KT 9999 SCT020 SCT120 28/23 A2980=
201110312000 METAR MRLB 312000Z 31004KT 9999 SCT020 BKN120 26/23 A2977=
201110312100 METAR MRLB 312100Z 14003KT 9999 SCT020 BKN120 27/23 A2975=
201110312200 METAR MRLB 312200Z 24003KT 9999 SCT020 BKN120 27/23 A2976=
201110312300 METAR MRLB 312300Z 21004KT 9999 -RA OVC020 26/23 A2977=
201110312350 METAR MRLB 010000Z 05007KT 4000 RA SCT008 BKN020 22/21 A2980=
201111010000 METAR MRLB 010000Z 05007KT 4000 RA SCT008 BKN020 22/21 A2980=
201111010100 METAR MRLB 010100Z 06003KT 9999 -RA SCT010 BKN020 22/21 A2982 RERA=
201111010200 METAR MRLB NIL=
201111010300 METAR MRLB NIL=
201111010400 METAR MRLB NIL=
201111010500 METAR MRLB NIL=
201111010600 METAR MRLB NIL=
201111010700 METAR MRLB NIL=
201111010800 METAR MRLB NIL=
201111010900 METAR MRLB NIL=
201111011000 METAR MRLB NIL=
201111011100 METAR MRLB NIL=
201111011200 METAR MRLB 011200Z 01003KT 9000 SCT012 BKN050 22/22 A2983=
201111011300 METAR MRLB 011300Z 03003KT 7000 SCT008 BKN050 22/22 A2985=
201111011400 METAR MRLB 011400Z 09003KT 9999 SCT008 BKN090 24/22 A2987=
201111011500 METAR MRLB 011500Z 10003KT 9999 SCT012 BKN100 25/22 A2988=
201111011600 METAR MRLB 011600Z 01004KT 9999 SCT012 BKN100 25/22 A2988=
201111011700 METAR MRLB 011700Z 24003KT 9999 VCSH SCT010 BKN090 26/22 2986=
201111011800 METAR MRLB 011800Z 19005KT 9999 -RA SCT015 BKN100 25/23 A2983=
201111011900 METAR MRLB 011900Z 00000KT 9999 SCT015 BKN100 26/23 A2980=
201111012000 METAR MRLB 012000Z 24003KT 9999 VCSH SCT020 BKN120 27/24 A2978=
201111012100 METAR MRLB 012100Z 14003KT 9999 VCSH SCT015 BKN100 26/24 A2977=
201111012200 METAR MRLB 012200Z 09003KT 9999 -RA SCT020 BKN100 25/23 A2977=
201111012300 METAR MRLB 012300Z 19003KT 9999 SCT020 BKN100 24/23 A2981=
201111012350 METAR MRLB 020000Z 18003KT 9999 SCT025 BKN110 23/22 A2982=
201111020000 METAR MRLB 020000Z 18003KT 9999 SCT025 BKN110 23/22 A2982=
201111020100 METAR MRLB 020100Z 00000KT 9999 SCT030 BKN120 23/22 A2984=
201111020200 METAR MRLB 020200Z 00000KT 9999 SCT025 BKN120 23/22 A2987=
201111020300 METAR MRLB NIL=
201111020400 METAR MRLB NIL=
201111020500 METAR MRLB NIL=
201111020600 METAR MRLB NIL=
201111020700 METAR MRLB NIL=
201111020800 METAR MRLB NIL=
201111020900 METAR MRLB NIL=
201111021000 METAR MRLB NIL=
201111021100 METAR MRLB NIL=
201111021200 METAR MRLB 021200Z 00000KT 9999 4000S BR FEW003 SCT015 BKN120 22/22 A2985=
201111021300 METAR MRLB 021300Z 14003KT 9999 SCT025 BKN120 23/23 A2987=
201111021400 METAR MRLB 021400Z 17004KT 9999 SCT015 BKN120 24/23 A2989=
201111021500 METAR MRLB 021500Z 30003KT 9999 SCT025 BKN120 26/24 A2990=
201111021600 METAR MRLB 021600Z 35003KT 9999 SCT030 BKN250 28/24 A2991=
201111021700 METAR MRLB 021700Z 27004KT 9999 SCT025 BKN240 28/24 A2988=
201111021800 METAR MRLB 021800Z 28004KT 9999 SCT025 BKN240 29/24 A2985=
201111021900 METAR MRLB 021900Z 27007KT 9999 FEW020TCU SCT030 BKN240 29/24 A2982=
201111022000 METAR MRLB 022000Z 27009KT 9999 SCT025 BKN230 28/24 A2980=
201111022100 METAR MRLB 022100Z 23007KT 9999 SCT020 SCT120 27/23 A2978=
201111022152 METAR MRLB 02220Z 27004KT 9999 FEW030 BKN250 26/24 A2978=
201111022200 METAR MRLB 022200Z 27004KT 9999 FEW030 BKN250 26/24 A2978=
201111022300 METAR MRLB 022300Z 27004KT 9999 SCT030 BKN250 26/24 A2980=
201111022351 METAR MRLB 030000Z 33002KT 9999 OVC020 26/23 A2981=
201111030000 METAR MRLB 030000Z 33002KT 9999 OVC020 26/23 A2981=
201111030100 METAR MRLB 030100Z 00000KT 9999 SCT020 SCT030 25/24 A2985=
201111030200 METAR MRLB 030200Z 17003KT 9999 SCT030 BKN120 25/23 A2986=
201111030300 METAR MRLB NIL=
201111030400 METAR MRLB NIL=
201111030500 METAR MRLB NIL=
201111030600 METAR MRLB NIL=
201111030700 METAR MRLB NIL=
201111030800 METAR MRLB NIL=
201111030900 METAR MRLB NIL=
201111031000 METAR MRLB NIL=
201111031100 METAR MRLB NIL=
201111031200 METAR MRLB 031200Z 15004KT 9999 FEW035 BKN250 22/21 A2984=
201111031300 METAR MRLB 031300Z 20003KT 9999 FEW035 BKN250 24/23 A2986=
201111031400 METAR MRLB 031400Z 25004KT 9999 SCT035 SCT250 27/24 A2988=
201111031500 METAR MRLB 031500Z 24006KT 9999 FEW030 SCT100 28/24 A2990=
201111031600 METAR MRLB 031600Z 35002KT 9999 BKN030 29/24 A2990=
201111031700 METAR MRLB 031700Z 29003KT 9999 BKN030 30/24 A2987=
201111031800 METAR MRLB 031800Z 26006KT 9999 BKN030 30/23 A2984=
201111031900 METAR MRLB 031900Z 27006KT 9999 BKN030 30/23 A2981=
201111032000 METAR MRLB 032000Z 24005KT 9999 SCT020 BKN100 31/22 A2979=
201111032100 METAR MRLB 032100Z 08005KT 9999 SCT020 BKN120 30/22 A2977=
201111032200 METAR MRLB 032200Z 08008KT 9999 SCT020 BKN120 28/22 A2977=
201111032300 METAR MRLB 032300Z 05010KT 9999 FEW030 SCT100 28/21 A2978=
201111032350 METAR MRLB 040000Z 06008KT CAVOK 26/21 A2980=
201111040000 METAR MRLB 040000Z 06008KT CAVOK 26/21 A2980=
201111040100 METAR MRLB 040100Z 10006KT CAVOK 26/21 A2982=
201111040200 METAR MRLB 040200Z 08006KT CAVOK 26/21 A2995=
201111040300 METAR MRLB NIL=
201111040400 METAR MRLB NIL=
201111040500 METAR MRLB NIL=
201111040600 METAR MRLB NIL=
201111040700 METAR MRLB NIL=
201111040800 METAR MRLB NIL=
201111040900 METAR MRLB NIL=
201111041000 METAR MRLB NIL=
201111041100 METAR MRLB NIL=
201111041200 METAR MRLB 041200Z 07003KT CAVOK 21/20 A2982=
201111041300 METAR MRLB 041300Z 17003KT CAVOK 25/22 A2983=
201111041400 METAR MRLB 041400Z 00000KT CAVOK 26/22 A2985=
201111041500 METAR MRLB 041500Z 00000KT CAVOK 28/22 A2986=
201111041600 METAR MRLB 041600Z 01005KT CAVOK 29/22 A2988=
201111041700 METAR MRLB 041700Z 14006KT 9999 FEW025 31/22 A2986=
201111041800 METAR MRLB 041800Z 30006KT 9999 FEW025 31/21 A2983=
201111041900 METAR MRLB 041900Z 30006KT 9999 FEW025 31/21 A2981=
201111042000 METAR MRLB 042000Z 28006KT 9999 SCT035 31/21 A2977=
201111042100 METAR MRLB 042100Z 25003KT 9999 FEW035 SCT250 31/21 A2976=
201111042200 METAR MRLB 042200Z 26007KT 9999 FEW035 SCT250 30/21 A2976=
201111042300 METAR MRLB 042300Z 24005KT CAVOK 29/22 A2976=
201111042350 METAR MRLB 050000Z 20003KT CAVOK 27/22 A2976=
201111050000 METAR MRLB 050000Z 20003KT CAVOK 27/22 A2976=
201111050100 METAR MRLB 050100Z 28003KT CAVOK 26/22 A2979=
201111050200 METAR MRLB 050200Z 13003KT CAVOK 25/21 A2982=
201111050300 METAR MRLB NIL=
201111050400 METAR MRLB NIL=
201111050500 METAR MRLB NIL=
201111050600 METAR MRLB NIL=
201111050700 METAR MRLB NIL=
201111050800 METAR MRLB NIL=
201111050900 METAR MRLB NIL=
201111051000 METAR MRLB NIL=
201111051100 METAR MRLB NIL=
201111051200 METAR MRLB 051200Z 00000KT CAVOK 21/20 A2982=
201111051300 METAR MRLB 051300Z 06003KT CAVOK 24/21 A2983=
201111051400 METAR MRLB 051400Z 23003KT CAVOK 26/23 A2984=
201111051500 METAR MRLB 051500Z 30003KT CAVOK 28/23 A2986=
201111051600 METAR MRLB 051600Z 04003KT CAVOK 29/22 A2985=
201111051700 METAR MRLB 051700Z 09010KT 9999 FEW035 31/21 A2982=
201111051800 METAR MRLB 051800Z 08011 9999 FEW035 32/19 A2981=
201111051900 METAR MRLB 051900Z 09010KT 9999 FEW035 32/20 A2978=
201111052000 METAR MRLB 052000Z 08009KT 9999 FEW035 32/20 A2975=
201111052100 METAR MRLB 052100Z 07008KT 9999 FEW040 32/20 A2973=
201111052200 METAR MRLB 052200Z 11005KT 9999 FEW040 32/20 A2973=
201111052300 METAR MRLB 052300Z 05007KT 9999 FEW040 30/21 A2974=
201111052348 METAR MRLB 060000Z 05004KT 9999 FEW040 29/21 A2976=
201111060000 METAR MRLB 060000Z 05004KT 9999 FEW040 29/21 A2976=
201111060100 METAR MRLB 060100Z 04003KT 9999 FEW040 27/20 A2978=
201111060200 METAR MRLB 060200Z 25004KT 9999 NSC 25/21 A2980=
201111060300 METAR MRLB NIL=
201111060400 METAR MRLB NIL=
201111060500 METAR MRLB NIL=
201111060600 METAR MRLB NIL=
201111060700 METAR MRLB NIL=
201111060800 METAR MRLB NIL=
201111060900 METAR MRLB NIL=
201111061000 METAR MRLB NIL=
201111061100 METAR MRLB NIL=
201111061200 METAR MRLB 061200Z 00000KT CAVOK 21/20 A2982=
201111061300 METAR MRLB 061300Z 35005KT CAVOK 23/20 A2984=
201111061400 METAR MRLB 061400Z 13003KT CAVOK 26/21 A2987=
201111061500 METAR MRLB 061500Z 21005KT CAVOK 28/22 A2989=
201111061600 METAR MRLB 061600Z 23003KT CAVOK 29/23 A2989=
201111061700 METAR MRLB 061700Z 09012KT 9999 FEW020 SCT120 30/22 A2987=
201111061800 METAR MRLB 061800Z 09012KT 9999 FEW020 SCT150 31/21 A2984=
201111061900 METAR MRLB 061900Z 10008KT 9999 FEWO20 SCT140 31/21 A2982=
201111062000 METAR MRLB 062000Z 10008KT 9999 FEW020 SCT100 31/21 A2980=
201111062100 METAR MRLB 062100Z 10008KT 9999 FEW025 SCT100 31/21 A2979=
201111062200 METAR MRLB 062200Z 11006KT 9999 FEW040 31/21 A2979=
201111062300 METAR MRLB 062300Z 12006KT CAVOK 29/21 A2979=
201111062349 METAR MRLB 070000Z 16004KT CAVOK 27/22 A2979=
201111070000 METAR MRLB 070000Z 16004KT CAVOK 27/22 A2979=
201111070100 METAR MRLB 070100Z 00000KT 9999 NSC 26/22 A2981=
201111070200 METAR MRLB 070200Z 00000KT 9999 NSC 25/22 A2984=
201111070300 METAR MRLB NIL=
201111070400 METAR MRLB NIL=
201111070500 METAR MRLB NIL=
201111070600 METAR MRLB NIL=
201111070700 METAR MRLB NIL=
201111070800 METAR MRLB NIL=
201111070900 METAR MRLB NIL=
201111071000 METAR MRLB NIL=
201111071100 METAR MRLB NIL=
201111071200 METAR MRLB 071200Z 06003KT CAVOK 21/20 A2982=
201111071300 METAR MRLB 071300Z 00000KT CAVOK 25/21 A2983=
201111071400 METAR MRLB 071400Z 00000KT CAVOK 27/22 A2987=
201111071500 METAR MRLB 071500Z 27006KT CAVOK 28/22 A2988=
201111071600 METAR MRLB NIL=
201111071700 METAR MRLB 071700Z 30007KT 9999 FEW020 30/22 A2985=
201111071800 METAR MRLB 071800Z 28006KT 9999 FEW020 SCT250 31/22 A2983=
201111071852 METAR MRLB 071852Z 05010KT 9999 SCT030 32/21 A2980=
201111071900 METAR MRLB 05010KT 9999 SCT030 32/21 A2980=
201111072000 METAR MRLB 072000Z 09008KT 9999 SCT035 32/21 A2977=
201111072100 METAR MRLB 072100Z 19013KT 9999 SCT035 31/19 A2971=
201111072200 METAR MRLB 072200Z 08006KT 9999 SCT035 31/21 A2976=
201111072300 METAR MRLB 072300Z 07008KT 9999 SCT035 29/21 A2977=
201111072350 METAR MRLB 080000Z 08006KT 9999 SCT030 SCT130 27/21 A2979=
201111080000 METAR MRLB 080000Z 08006KT 9999 SCT030 SCT130 27/21 A2979=
201111080100 METAR MRLB 080100Z 09008KT 9999 FEW030 SCT130 26/21 A2981=
201111080200 METAR MRLB 080200Z 12006KT 9999 SCT030 SCT130 25/21 A2983=
201111080300 METAR MRLB NIL=
201111080400 METAR MRLB NIL=
201111080500 METAR MRLB NIL=
201111080600 METAR MRLB NIL=
201111080700 METAR MRLB NIL=
201111080800 METAR MRLB NIL=
201111080900 METAR MRLB NIL=
201111081000 METAR MRLB NIL=
201111081100 METAR MRLB NIL=
201111081200 METAR MRLB 081200Z 17003KT CAVOK 22/20 A2982=
201111081300 METAR MRLB 081300Z 00000KT CAVOK 24/21 A2983=
201111081400 METAR MRLB 081400Z 00000KT CAVOK 26/22 A2986=
201111081500 METAR MRLB 081500Z 00000KT CAVOK 28/22 A2988=
201111081600 METAR MRLB 081600Z 31004KT CAVOK 29/21 A2988=
201111081700 METAR MRLB 081700Z 28005KT CAVOK 30/21 A2986=
201111081800 METAR MRLB 081800Z 25004KT CAVOK 31/20 A2983=
201111081900 METAR MRLB 081900Z 30003KT 9999 FEW035 31/20 A2981=
201111082000 METAR MRLB 082000Z 28005KT 9999 FEW035 32/20 A2977=
201111082100 METAR MRLB 082100Z 34009KT 9999 FEW035 BKN110 30/21 A2982=
201111082200 METAR MRLB 082200Z 27003KT 9999 NSC 32/19 A2976=
201111082300 METAR MRLB 082300Z 20003KT 9999 NSC 30/19 A2978=
201111082346 METAR MRLB 090000Z 21003KT 9999 SKC 27/20 A2978=
201111090000 METAR MRLB 090000Z 21003KT 9999 SKC 27/20 A2978=
201111090100 METAR MRLB 090100Z 00000KT 9999 SKC 26/19 A2980=
201111090200 METAR MRLB 090200Z 20004KT 9999 SKC 24/19 A2983=
201111090300 METAR MRLB NIL=
201111090400 METAR MRLB NIL=
201111090500 METAR MRLB NIL=
201111090600 METAR MRLB NIL=
201111090700 METAR MRLB NIL=
201111090800 METAR MRLB NIL=
201111090900 METAR MRLB NIL=
201111091000 METAR MRLB NIL=
201111091100 METAR MRLB NIL=
201111091200 METAR MRLB 091200Z 02002KT CAVOK 20/19 A2984=
201111091300 METAR MRLB 091300Z 09003KT CAVOK 23/21 A2985=
201111091400 METAR MRLB 091400Z 19002KT CAVOK 26/22 A2987=
201111091500 METAR MRLB 091500Z 29003KT CAVOK 27/22 A2989=
201111091600 METAR MRLB 091600Z 29004KT CAVOK 29/22 A2989=
201111091700 METAR MRLB 091700Z 27005KT CAVOK 30/21 A2988=
201111091800 METAR MRLB 091800Z 23003KT 9999 FEW035 32/21 A2984=
201111091900 METAR MRLB 091900Z 28003KT 9999 FEW035 32/20 A2980=
201111092000 METAR MRLB 092000Z 29007KT 9999 SCT035 32/21 A2977=
201111092100 METAR MRLB 092100Z 27008KT 9999 FEW030 SCT250 31/22 A2976=
201111092200 METAR MRLB 092200Z 28005KT CAVOK 30/22 A2975=
201111092300 METAR MRLB 092300Z 26005KT CAVOK 28/22 A2975=
201111092351 METAR MRLB 100000Z 18006KT CAVOK 26/22 A2976=
201111100000 METAR MRLB 100000Z 18006KT CAVOK 26/22 A2976=
201111100100 METAR MRLB 100100Z 19004KT CAVOK 26/22 A2978=
201111100200 METAR MRLB NIL=
201111100300 METAR MRLB NIL=
201111100400 METAR MRLB NIL=
201111100500 METAR MRLB NIL=
201111100600 METAR MRLB NIL=
201111100700 METAR MRLB NIL=
201111100800 METAR MRLB NIL=
201111100900 METAR MRLB NIL=
201111101000 METAR MRLB NIL=
201111101100 METAR MRLB NIL=
201111101200 METAR MRLB 101200Z 00000KT 9999 FEW020 SCT100 22/21 A2983=
201111101300 METAR MRLB 101300Z 21004KT 9999 FEW025 SCT100 22/21 A2986=
201111101500 METAR MRLB 101500Z 22005KT CAVOK 26/21 A2987=
201111101600 METAR MRLB 101600Z 23006KT CAVOK 28/21 A2987=
201111101700 METAR MRLB 101700Z 24006KT CAVOK 28/21 A2985=
201111101800 METAR MRLB 101800Z 26006KT CAVOK 28/21 A2982=
201111101900 METAR MRLB 101900Z 28006KT CAVOK 29/21 A2981=
201111102000 METAR MRLB 102000Z 30003KT CAVOK 29/20 A2979=
201111102100 METAR MRLB 102100Z 25004KT 9999 FEW035 BKN130 29/21 A2977=
201111102200 METAR MRLB 102200Z 28004KT CAVOK 28/21 A2977=
201111102300 METAR MRLB 102300Z 18004KT CAVOK 27/23 A2976=
201111102350 METAR MRLB 110000Z 30003KT 9999 FEW035 BKN130 26/22 A2978=
201111110000 METAR MRLB 110000Z 30003KT 9999 FEW035 BKN130 26/22 A2978=
201111110100 METAR MRLB 110100Z 10006KT 9999 FEW035 BKN140 25/20 A2981=
201111110200 METAR MRLB 110200Z 10007KT 9999 FEW030 BKN130 25/20 A2985=
201111110300 METAR MRLB NIL=
201111110400 METAR MRLB NIL=
201111110500 METAR MRLB NIL=
201111110600 METAR MRLB NIL=
201111110700 METAR MRLB NIL=
201111110800 METAR MRLB NIL=
201111110900 METAR MRLB NIL=
201111111000 METAR MRLB NIL=
201111111100 METAR MRLB NIL=
201111111200 METAR MRLB 111200Z 15003KT 9999 FEW030 BKN130 21/20 A2983=
201111111300 METAR MRLB 111300Z 18006KT 9999 FEW035 BKN130 22/20 A2985=
201111111400 METAR MRLB 111400Z 27003KT 9999 FEW035 BKN130 26/20 A2987=
201111111500 METAR MRLB 111500Z 24004KT CAVOK 29/18 A2990=
201111111600 METAR MRLB 111600Z 10003KT CAVOK 30/17 A2989=
201111111700 METAR MRLB 111700Z 29005KT CAVOK 31/18 A2988=
201111111800 METAR MRLB 111800Z 10010KT CAVOK 31/18 A2985=
201111111900 METAR MRLB 111900Z 08015KT CAVOK 31/18 A2982=
201111112000 METAR MRLB 112000Z 06011KT CAVOK 32/19 A2980=
201111112100 METAR MRLB 112100Z 05006KT 9999 NSC 32/18 A2980=
201111112200 METAR MRLB 112200Z 34007KT 9999 FEW040 SCT250 31/19 A2982=
201111112300 METAR MRLB 112300Z 08011KT CAVOK 28/18 A2983=
201111112354 METAR MRLB 120000Z 09008KT CAVOK 27/19 A2983=
201111120000 METAR MRLB 120000Z 09008KT CAVOK 27/19 A2983=
201111120100 METAR MRLB 120100Z 02008KT CAVOK 26/19 A2986=
201111120200 METAR MRLB 120200Z 07013KT CAVOK 27/19 A2986=
201111120300 METAR MRLB NIL=
201111120400 METAR MRLB NIL=
201111120500 METAR MRLB NIL=
201111120600 METAR MRLB NIL=
201111120700 METAR MRLB NIL=
201111120800 METAR MRLB NIL=
201111120900 METAR MRLB NIL=
201111121000 METAR MRLB NIL=
201111121100 METAR MRLB NIL=
201111121200 METAR MRLB 121200Z 34006KT CAVOK 20/19 A2988=
201111121300 METAR MRLB 121300Z 13002KT CAVOK 24/21 A2989=
201111121400 METAR MRLB 121400Z 21004KT CAVOK 23/21 A2990=
201111121500 METAR MRLB 121500Z 32006KT CAVOK 25/21 A2992=
201111121600 METAR MRLB 121600Z 07008KT CAVOK 29/18 A2994=
201111121700 METAR MRLB 121700Z 06014KT CAVOK 30/18 A2992=
201111121800 METAR MRLB 121800Z 07017KT CAVOK 31/19 A2989=
201111121900 METAR MRLB 121900Z 06014KT CAVOK 30/18 A2987=
201111122000 METAR MRLB 122000Z 07012KT 9999 FEW040 BKN100 29/19 A2984=
201111122100 METAR MRLB 122100Z 02007KT 9999 FEW040 BKN100 29/19 A2983=
201111122200 METAR MRLB 122200Z 08009KT 9999 FEW040 BKN100 28/20 A2984=
201111122300 METAR MRLB 122300Z 10004KT 9999 FEW04 BKN100 27/21 A2984=
201111122346 METAR MRLB 130000Z 0707KT 9999 SCT040 BKN100 27/20 A2985=
201111130000 METAR MRLB 130000Z 0707KT 9999 SCT040 BKN100 27/20 A2985=
201111130100 METAR MRLB 130100Z 06002KT 9999 FEW040 BKN100 26/21 A2985=
201111130200 METAR MRLB 130200Z 14004KT 9999 FEW040 BKN120 25/21 A2986=
201111130300 METAR MRLB NIL=
201111130400 METAR MRLB NIL=
201111130500 METAR MRLB NIL=
201111130600 METAR MRLB NIL=
201111130700 METAR MRLB NIL=
201111130800 METAR MRLB NIL=
201111130900 METAR MRLB NIL=
201111131000 METAR MRLB NIL=
201111131100 METAR MRLB NIL=
201111131200 METAR MRLB 131200Z 04003KT 9999 FEW035 SCT100 23/20 A2988=
201111131300 METAR MRLB 131300Z 00000KT 9999 SCT025 BKN100 23/21 A2989=
201111131400 METAR MRLB 131400Z 13003KT 9999 -RA SCT020 BKN100 22/21 A2990=
201111131500 METAR MRLB 131500Z 16005KT 9999 FEW040 BKN140 24/22 A2989=
201111131600 METAR MRLB 131600Z 16003KT 9999 FEW035 BKN120 26/22 A2989=
201111131700 METAR MRLB 131700Z 25006KT 9999 FEW035 BKN120 26/22 A2989=
201111131800 METAR MRLB 131800Z 00000KT 9999 -RA FEW020 BKN100 26/22 A2988=
201111131900 METAR MRLB 131900Z 31003KT 9999 -RA FEW020 BKN100 26/22 A2984=
201111132000 METAR MRLB 132000Z 00000KT 9999 FEW020 BKN120 26/21 A2979=
201111132100 METAR MRLB 132100Z 17005KT 9999 FEW025 BKN100 26/21 A2977=
201111132200 METAR MRLB 132200Z 00000KT 9999 FEW025 BKN100 26/22 A2977=
201111132300 METAR MRLB 132300Z 24003KT 9999 FEW035 BKN120 25/22 A2978=
201111132349 METAR MRLB 140000Z 24005KT CAVOK 24/22 A2979=
201111140000 METAR MRLB 140000Z 24005KT CAVOK 24/22 A2979=
201111140100 METAR MRLB NIL=
201111140200 METAR MRLB 140200Z 00000KT CAVOK 23/21 A2982 BKN100=
201111140300 METAR MRLB NIL=
201111140400 METAR MRLB NIL=
201111140500 METAR MRLB NIL=
201111140600 METAR MRLB NIL=
201111140700 METAR MRLB NIL=
201111140800 METAR MRLB NIL=
201111140900 METAR MRLB NIL=
201111141000 METAR MRLB NIL=
201111141100 METAR MRLB NIL=
201111141200 METAR MRLB 141200Z 18003KT 9999 SCT030 BKN130 22/21 A2984=
201111141300 METAR MRLB 141300Z 24003KT 9999 FEW035 BKN130 24/21 A2986=
201111141400 METAR MRLB 141400Z 23003KT 9999 SCT035 BKN130 27/22 A2989=
201111141500 METAR MRLB 141500Z 27003KT 9999 VCSH SCT025 BKN120 27/22 A2991=
201111141600 METAR MRLB 141600Z 35004KT 9999 SCT030 BKN120 26/23 A2989=
201111141700 METAR MRLB 141700Z 06005KT 9999 SCT035 BKN120 26/23 A2988=
201111141800 METAR MRLB 141800Z 07004KT 9999 -DZ FEW035 BKN120 26/22 A2984=
201111141900 METAR MRLB 141900Z 28006KT 9999 SCT030 BKN120 27/23 A2982=
201111142000 METAR MRLB 142000Z 26005KT 9999 FEW030 BKN120 27/22 A2978=
201111142100 METAR MRLB 142100Z 18003KT 9999 SCT030 BKN120 27/23 A2977=
201111142200 METAR MRLB 142200Z 14002KT 9999 FEW030 BKN120 26/23 A2976=
201111142300 METAR MRLB 142300Z 10004KT 9999 FEW030 BKN120 25/22 A2976=
201111142348 METAR MRLB 150000Z 10003KT 9999 FEW030 BKN120 24/22 A2978=
201111150000 METAR MRLB 150000Z 10003KT 9999 FEW030 BKN120 24/22 A2978=
201111150100 METAR MRLB 150100Z 15003KT 9999 -RA FEW030 BKN120 23/22 A2980=
201111150200 METAR MRLB 150200Z 22002KT 9999 FEW030 BKN120 23/22 A2981=
201111150300 METAR MRLB NIL=
201111150400 METAR MRLB NIL=
201111150500 METAR MRLB NIL=
201111150600 METAR MRLB NIL=
201111150700 METAR MRLB NIL=
201111150800 METAR MRLB NIL=
201111150900 METAR MRLB NIL=
201111151000 METAR MRLB NIL=
201111151100 METAR MRLB NIL=
201111151200 METAR MRLB 151200Z 23002KT 9999 FEW035 BKN250 22/21 A2983=
201111151300 METAR MRLB 151300Z 00000KT 9999 FEW035 SCT120 BKN250 23/22 A2985=
201111151400 METAR MRLB 151400Z 22002KT 9999 SCT020 BKN120 25/23 A2986=
201111151500 METAR MRLB 151500Z 16004KT 9999 SCT025 BKN250 27/23 A2989=
201111151600 METAR MRLB 151600Z 15005KT 9999 SCT030 BKN250 29/22 A2988=
201111151700 METAR MRLB 151700Z 12005KT 9999 VCSH FEW020TCU SCT030 BKN250 29/22 A2986=
201111151800 METAR MRLB 151800Z 16008KT 9999 VCSH SCT030 BKN120 31/22 A2984=
201111151900 METAR MRLB 151900Z 28007KT 9999 BKN030 SCT120 29/23 A2980=
201111152000 METAR MRLB 152000Z 28008KT 9999 VCSH SCT015TCU BKN100 28/23 A2977=
201111152100 METAR MRLB 152100Z 34008KT 9999 VCSH SCT020 BKN100 24/23 A2975 RERA=
201111152200 METAR MRLB 152200Z 28006KT 8000 RA SCT010 BKN070 24/23 A2977=
201111152300 METAR MRLB 152300Z 20004KT 6000 -RA SCT010 BKN040 23/23 A2979=
201111152348 METAR MRLB 160000Z 00000KT 6000 RA SCT012 OVC100 23/22 A2982=
201111160000 METAR MRLB 160000Z 00000KT 6000 RA SCT012 OVC100 23/22 A2982=
201111160100 METAR MRLB 160100Z 00000KT 8000 -RA SCTO15 OVC100 23/22 A2983=
201111160200 METAR MRLB 160200Z 00000KT 9000 -RA SCTO15 OVC 100 23/22 A2985=
201111160300 METAR MRLB NIL=
201111160400 METAR MRLB NIL=
201111160500 METAR MRLB NIL=
201111160600 METAR MRLB NIL=
201111160700 METAR MRLB NIL=
201111160800 METAR MRLB NIL=
201111160900 METAR MRLB NIL=
201111161000 METAR MRLB NIL=
201111161100 METAR MRLB NIL=
201111161200 METAR MRLB 161200Z 00000KT 9999 FEW035 BKN120 23/22 A2982=
201111161300 METAR MRLB 161300Z 00000KT 9999 FEW010 SCT030 BKN140 24/22 A2983=
201111161400 METAR MRLB 161400Z 00000KT 9999 SCT010 BKN100 25/23 A2986=
201111161500 METAR MRLB 161500Z 00000KT 9999 VCSH SCT010 BKN100 25/23 A2987=
201111161600 METAR MRLB 161600Z 25004KT 9999 SCT010 BKN100 27/23 A2988=
201111161700 METAR MRLB 161700Z 26005KT 9999 SCT015 BKN140 29/23 A2986=
201111161800 METAR MRLB 161800Z 27008KT 9999 -RA SCT015TCU BKN100 28/23 A2984=
201111161900 METAR MRLB 161900Z 25007KT 8000 RA SCT010 BKN070 25/24 A2980=
201111162000 METAR MRLB 162000Z 26007KT 9999 -RA FEW010 SCT020 BKN120 25/24 A2978=
201111162100 METAR MRLB 162100Z 24006KT 9999 -DZ FEW010 SCT020 BKN110 24/23 A2978=
201111162200 METAR MRLB 162200Z 26005KT 9999 SCT030 BKN120 24/23 A2976=
201111162300 METAR MRLB 162300Z 29004KT 9999 SCT030 BKN140 25/23 A2979=
201111162351 METAR MRLB 170000Z 28005KT 9999 SCT035 BKN140 24/23 A2981=
201111170000 METAR MRLB 170000Z 28005KT 9999 SCT035 BKN140 24/23 A2981=
201111170100 METAR MRLB 170100Z 24004KT 9999 SCT030 BKN140 24/23 A2983=
201111170200 METAR MRLB 170200Z 29004KT 9999 SCT025 BKN130 24/23 A2985=
201111170300 METAR MRLB NIL=
201111170400 METAR MRLB NIL=
201111170500 METAR MRLB NIL=
201111170600 METAR MRLB NIL=
201111170700 METAR MRLB NIL=
201111170800 METAR MRLB NIL=
201111170900 METAR MRLB NIL=
201111171000 METAR MRLB NIL=
201111171100 METAR MRLB NIL=
201111171200 METAR MRLB 171200Z 00000KT 0400 FG VV/// 23/23 A2984=
201111171300 METAR MRLB 171300Z 00000KT 1000 BR SCT002 SCT010 24/23 A2986=
201111171400 METAR MRLB 171400Z 00000KT 9999 SCT015 BKN250 26/24 A2987=
201111171500 METAR MRLB 171500Z 24003KT 9999 FEW035 BKN250 27/24 A2989=
201111171600 METAR MRLB 171600Z 28003KT 9999 FEW035 BKN250 29/23 A2988=
201111171700 METAR MRLB 171700Z 25006KT 9999 SCT035 BKN250 30/23 A2985=
201111171800 METAR MRLB 171800Z 26007KT 9999 SCT035 BKN250 31/24 A2981=
201111171900 METAR MRLB 171900Z 25005KT 9999 FEW020TCU SCT030 BKN250 31/23 A2978=
201111172000 METAR MRLB 172000Z 04011KT 9999 FEW025TCU SCT120 BKN250 30/22 A2977=
201111172100 METAR MRLB 172100Z 08011KT 9999 SCT030 BKN250 31/21 A2975=
201111172200 METAR MRLB 172200Z 06010KT 9999 SCT030 BKN120 30/21 A2975=
201111172300 METAR MRLB 172300Z 08011KT 9999 FEW035 SCT120 28/20 A2976=
201111172345 METAR MRLB 180000Z 10012KT 9999 FEW035 BKN120 27/20 A2977=
201111180000 METAR MRLB 180000Z 10012KT 9999 FEW035 BKN120 27/20 A2977=
201111180100 METAR MRLB 180100Z 09007KT 9999 FEW035 BKN120 26/21 A2980=
201111180200 METAR MRLB 180200Z 11006KT 9999 FEW035 SCT120 25/21 A2982=
201111180300 METAR MRLB NIL=
201111180400 METAR MRLB NIL=
201111180500 METAR MRLB NIL=
201111180600 METAR MRLB NIL=
201111180700 METAR MRLB NIL=
201111180800 METAR MRLB NIL=
201111180900 METAR MRLB NIL=
201111181000 METAR MRLB NIL=
201111181100 METAR MRLB NIL=
201111181200 METAR MRLB 181200Z 17006KT CAVOK 22/21 A2983=
201111181300 METAR MRLB 181300Z 19006KT CAVOK 24/21 A2985=
201111181400 METAR MRLB 181400Z 17002KT CAVOK 27/21 A2987=
201111181500 METAR MRLB 181500Z 18002KT CAVOK 29/21 A2990=
201111181600 METAR MRLB 181600Z 09012KT 9999 FEW035 BKN250 30/21 A2988=
201111181700 METAR MRLB 181700Z 09010KT 9999 SCT035 SCT250 30/21 A2987=
201111181800 METAR MRLB 181800Z 07011KT 9999 SCT035 31/20 A2985=
201111181900 METAR MRLB 181900Z 09009KT 9999 SCT035 31/21 A2982=
201111182000 METAR MRLB 182000Z 07006KT 9999 SCT025TCU BKN150 32/20 A2980=
201111182100 METAR MRLB 182100Z 03008KT 9999 SCT025TCU BKN140 30/21 A2979=
201111182149 METAR MRLB 192200Z 08005KT 9999 VCSH SCT025TCU BKN140 29/20 A2980=
201111182200 METAR MRLB NIL=
201111182300 METAR MRLB 182300Z 09006KT 9999 FEW025 SCT100 26/21 A2980=
201111182349 METAR MRLB 190000Z 14005KT 9999 FEW025 SCT100 25/21 A2981=
201111190000 METAR MRLB 190000Z 14005KT 9999 FEW025 SCT100 25/21 A2981=
201111190100 METAR MRLB 190100Z 13006KT 9999 FEW035 25/20 A2982=
201111190200 METAR MRLB 190200Z 12005KT 9999 FEW045 25/20 A2984=
201111190300 METAR MRLB NIL=
201111190400 METAR MRLB NIL=
201111190500 METAR MRLB NIL=
201111190600 METAR MRLB NIL=
201111190700 METAR MRLB NIL=
201111190800 METAR MRLB NIL=
201111190900 METAR MRLB NIL=
201111191000 METAR MRLB NIL=
201111191100 METAR MRLB NIL=
201111191200 METAR MRLB 191200Z 00000KT 9999 SCT030 SCT250 21/20 A2986=
201111191300 METAR MRLB 191300Z 00000KT 9999 SCT035 SCT250 23/21 A2987=
201111191400 METAR MRLB 191400Z 00000KT 9999 SCT035 27/22 A2990=
201111191500 METAR MRLB 191500Z 08004KT 9999 SCT035 29/22 A2992=
201111191600 METAR MRLB 191600Z 07010KT 9999 SCT035 29/21 A2992=
201111191700 METAR MRLB 191700Z 08007KT 9999 SCT035 30/21 A2992=
201111191800 METAR MRLB 191800Z 09005KT 9999 SCT035 BKN250 31/21 A2988=
201111191900 METAR MRLB 191900Z 35006KT 9999 -RA FEW020TCU SCT030 BKN250 29/22 A2985=
201111192000 METAR MRLB 192000Z 34005KT 9999 SCT035 BKN250 31/22 A2982=
201111192100 METAR MRLB 192100Z 04007KT 9999 VCSH SCT030 BKN130 31/21 A2980=
201111192200 METAR MRLB 192200Z 14003KT 9999 SCT030 BKN130 28/22 A2981=
201111192300 METAR MRLB 192300Z 18004KT 9999 SCT030 BKN120 26/23 A2983=
201111192350 METAR MRLB 200000Z 16003KT 9999 SCT030 BKN140 24/22 A2984=
201111200000 METAR MRLB 200000Z 16003KT 9999 SCT030 BKN140 24/22 A2984=
201111200100 METAR MRLB 200100Z 32003KT 9999 SCT035 SCT250 24/22 A2986=
201111200200 METAR MRLB 200200Z 00000KT 9999 SCT030 SCT240 24/22 A2988=
201111200300 METAR MRLB NIL=
201111200400 METAR MRLB NIL=
201111200500 METAR MRLB NIL=
201111200600 METAR MRLB NIL=
201111200700 METAR MRLB NIL=
201111200800 METAR MRLB NIL=
201111200900 METAR MRLB NIL=
201111201000 METAR MRLB NIL=
201111201100 METAR MRLB NIL=
201111201200 METAR MRLB 201200Z 00000KT 9999 SCT035 SCT130 22/21 A2987=
201111201300 METAR MRLB 201300Z 18003KT 9999 SCT035 SCT130 24/22 A2988=
201111201400 METAR MRLB 201400Z 28003KT 9999 SCT035 27/23 A2990=
201111201500 METAR MRLB 201500Z 19003KT 9999 FEW035 BKN130 27/22 A2992=
201111201600 METAR MRLB 201600Z 22003KT 9999 SCT035 BKN120 27/22 A2991=
201111201700 METAR MRLB 201700Z 24003KT 9999 SCT035 BKN120 28/23 A2990=
201111201800 METAR MRLB 201800Z 06008KT 9999 SCT030 BKN120 29/22 A2987=
201111201900 METAR MRLB 201900Z 05010KT 9999 SCT030 BKN120 29/21 A2983=
201111202000 METAR MRLB 202000Z 07007KT 9999 SCT030 BKN130 30/21 A2981=
201111202100 METAR MRLB 202100Z 02007KT 9999 FEW030 BKN130 30/21 A2980=
201111202200 METAR MRLB 202200Z 36006KT 9999 BKN030 SCT130 29/22 A2981=
201111202300 METAR MRLB 202300Z 08006KT 9999 -RA FEW020 BKN120 28/23 A2981=
201111202351 METAR MRLB 210000Z 05004KT 9999 -RA FEW020 BKN120 25/23 A2982=
201111210000 METAR MRLB 210000Z 05004KT 9999 -RA FEW020 BKN120 25/23 A2982=
201111210100 METAR MRLB 210100Z 17002KT 9999 FEW025 SCT120 25/23 A2985=
201111210200 METAR MRLB 210200Z 15004KT 9999 FEW025 24/23 A2987=
201111210300 METAR MRLB NIL=
201111210400 METAR MRLB NIL=
201111210500 METAR MRLB NIL=
201111210600 METAR MRLB NIL=
201111210700 METAR MRLB NIL=
201111210800 METAR MRLB NIL=
201111210900 METAR MRLB NIL=
201111211000 METAR MRLB NIL=
201111211100 METAR MRLB NIL=
201111211200 METAR MRLB 211200Z 00000KT 9999 BKN025 23/21 A2985=
201111211300 METAR MRLB 211300Z 23003KT 9999 OVC030 23/22 A2988=
201111211400 METAR MRLB 211400Z 14003KT 9999 BKN030 SCT250 27/23 A2990=
201111211500 METAR MRLB 211500Z 27004KT 9999 -RA SCT020 SCT100 28/23 A2993=
201111211600 METAR MRLB 211600Z 07010KT 9999 OVC020 28/21 A2993=
201111211700 METAR MRLB 211700Z 06014KT 9999 -RA FEW025 BKN100 28/22 A2991=
201111211800 METAR MRLB 211800Z 06013KT 9999 SCT025 BKN100 28/21 A2989=
201111211900 METAR MRLB 211900Z 06016KT 9999 FEW025 BKN100 29/21 A2985=
201111212000 METAR MRLB 212000Z 07013KT 9999 FEW025 BKN100 28/21 A2981=
201111212100 METAR MRLB 212100Z 05011KT 9999 SCT020 BKN100 28/21 A2981=
201111212200 METAR MRLB 212200Z 06012KT 9999 FEW020 BKN100 27/20 A2980=
201111212300 METAR MRLB 212300Z 07008KT 9999 FEW020 BKN100 26/21 A2979=
201111212348 METAR MRLB 220000Z 07010KT 9999 FEW020 BKN100 26/21 A2981=
201111220000 METAR MRLB 220000Z 07010KT 9999 FEW020 BKN100 26/21 A2981=
201111220200 METAR MRLB 220200Z 07012KT 9999 FEW030 BKN100 26/20 A2985=
201111220300 METAR MRLB NIL=
201111220400 METAR MRLB NIL=
201111220500 METAR MRLB NIL=
201111220600 METAR MRLB NIL=
201111220700 METAR MRLB NIL=
201111220800 METAR MRLB NIL=
201111220900 METAR MRLB NIL=
201111221000 METAR MRLB NIL=
201111221100 METAR MRLB NIL=
201111221200 METAR MRLB 221200Z 10003KT 9999 FEW020 SCT100 23/20 A2987=
201111221300 METAR MRLB 221300Z 00000KT 9999 FEW040 SCT250 26/21 A2988=
201111221400 METAR MRLB 221400Z 00000KT 9999 FEW025 SCT100 26/21 A2992=
201111221500 METAR MRLB 221500Z 05012KT 9999 FEW025 SCT100 28/21 A2992=
201111221600 METAR MRLB 221600Z 08010KT 9999 FEW020 BKN140 27/21 A2993=
201111221700 METAR MRLB 221700Z 05017KT 9999 FEW020 BKN120 29/20 A2991=
201111221800 METAR MRLB 221800Z 06012KT 9999 FEW020 BKN120 29/20 A2988=
201111221900 METAR MRLB 221900Z 04014KT 9999 FEW020 SCT120 30/21 A2985=
201111222000 METAR MRLB 222000Z 05014KT 9999 FEW020 SCT120 28/20 A2983=
201111222100 METAR MRLB 222100Z 07011KT 9999 FEW035 BKN120 28/20 A2981=
201111222200 METAR MRLB 222200Z 09008KT 9999 FEW035 SCT130 27/20 A2982=
201111222300 METAR MRLB 222300Z 06007KT 9999 FEW035 BKN130 27/20 A2982=
201111222350 METAR MRLB 230000Z 06008KT 9999 FEW035 BKN130 25/20 A2984=
201111230000 METAR MRLB 230000Z 06008KT 9999 FEW035 BKN130 25/20 A2984=
201111230100 METAR MRLB 230100Z 04005KT 9999 SCT030 BKN130 24/20 A2986=
201111230200 METAR MRLB 230200Z 08005KT 9999 FEW030 BKN130 24/20 A2989=
201111230300 METAR MRLB NIL=
201111230400 METAR MRLB NIL=
201111230500 METAR MRLB NIL=
201111230600 METAR MRLB NIL=
201111230700 METAR MRLB NIL=
201111230800 METAR MRLB NIL=
201111230900 METAR MRLB NIL=
201111231000 METAR MRLB NIL=
201111231100 METAR MRLB NIL=
201111231200 METAR MRLB 231200Z 00000KT 9999 SCT030 SCT250 21/20 A2989=
201111231300 METAR MRLB 231300Z 18003KT 9999 SCT030 SCT250 23/21 A2991=
201111231400 METAR MRLB 231400Z 19004KT 9999 SCT030 SCT130 26/21 A2994=
201111231500 METAR MRLB 231500Z 24004KT 9999 SCT030 BKN250 27/22 A2995=
201111231600 METAR MRLB 231600Z 28004KT 9999 SCT035 SCT130 29/22 A2997=
201111231700 METAR MRLB 231700Z 03003KT 9999 SCT035 SCT130 29/21 A2995=
201111231800 METAR MRLB 231800Z 08012KT 9999 SCT035 BKN130 30/20 A2991=
201111231900 METAR MRLB 231900Z 07011KT 9999 SCT035 BKN130 31/21 A2988=
201111232000 METAR MRLB 232000Z 35005KT 9999 FEW020TCU SCT035 BKN130 29/21 A2986=
201111232100 METAR MRLB 232100Z 03006KT 9999 FEW035 BKN120 29/21 A2984=
201111232200 METAR MRLB 232200Z 36005KT 9999 FEW035 BKN100 29/21 A2984=
201111232300 METAR MRLB 232300Z 35002KT 9999 FEW035 BKN100 27/21 A2985=
201111232345 METAR MRLB 240000Z 09005KT 9999 SCT035 BKN100 27/20 A2987=
201111240000 METAR MRLB 240000Z 09005KT 9999 SCT035 BKN100 27/20 A2987=
201111240100 METAR MRLB 240100Z 04004KT 9999 SCT035 BKN100 26/20 A2988=
201111240200 METAR MRLB 240200Z 24002KT 9999 FEW035 BKN100 25/21 A2989=
201111240300 METAR MRLB NIL=
201111240400 METAR MRLB NIL=
201111240500 METAR MRLB NIL=
201111240600 METAR MRLB NIL=
201111240700 METAR MRLB NIL=
201111240800 METAR MRLB NIL=
201111240900 METAR MRLB NIL=
201111241000 METAR MRLB NIL=
201111241100 METAR MRLB NIL=
201111241200 METAR MRLB 241200Z 00000KT CAVOK 21/20 A2987=
201111241300 METAR MRLB 241300Z 01003KT CAVOK 24/21 A2990=
201111241400 METAR MRLB 241400Z 29004KT CAVOK 27/21 A2994=
201111241500 METAR MRLB 241500Z 22004KT 9999 FEW040 SCT130 28/20 A2995=
201111241600 METAR MRLB 241600Z 20005KT 9999 FEW040 SCT130 29/20 A2995=
201111241700 METAR MRLB 241700Z 24004KT 9999 FEW040 SCT130 30/20 A2993=
201111241800 METAR MRLB 241800Z 32004KT 9999 SCT040 31/19 A2990=
201111241900 METAR MRLB 241900Z 07009KT 9999 FEW040 SCT130 31/19 A2987=
201111242000 METAR MRLB 242000Z 35006KT 9999 FEW040 SCT120 30/19 A2986=
201111242100 METAR MRLB 242100Z 06012KT CAVOK 30/19 A2985=
201111242200 METAR MRLB 242200Z 07009KT CAVOK 29/19 A2985=
201111242300 METAR MRLB 242300Z 35005KT CAVOK 27/20 A2985=
201111242352 METAR MRLB 250000Z 33003KT CAVOK 26/20 A2986=
201111250000 METAR MRLB 250000Z 33003KT CAVOK 26/20 A2986=
201111250052 METAR MRLB 250100 18003KT 9999 FEW030 BKN120 25/21 A2987=
201111250100 METAR MRLB 250100Z 18003KT 9999 FEW030 BKN120 25/21 A2987=
201111250200 METAR MRLB 250200Z 21006KT 9999 FEW030 BKN120 24/21 A2989=
201111250300 METAR MRLB NIL=
201111250400 METAR MRLB NIL=
201111250500 METAR MRLB NIL=
201111250600 METAR MRLB NIL=
201111250700 METAR MRLB NIL=
201111250800 METAR MRLB NIL=
201111250900 METAR MRLB NIL=
201111251000 METAR MRLB NIL=
201111251100 METAR MRLB NIL=
201111251200 METAR MRLB 251200Z 16006KT CAVOK 22/19 A2983=
201111251300 METAR MRLB 251300Z 22004KT CAVOK 24/20 A2986=
201111251354 METAR MRLB 251354Z 21008KT 9999 NSC 26/20 A2988=
201111251400 METAR MRLB 21008KT 9999 NSC 26/20 A2988=
201111251500 METAR MRLB 251500Z 22007KT CAVOK 28/20 A2989=
201111251600 METAR MRLB 251600Z 29004KT CAVOK 30/21 A2990=
201111251700 METAR MRLB 251700Z 28005KT 9999 FEW030 31/20 A2987=
201111251800 METAR MRLB 251800Z 28007KT 9999 SCT030 32/20 A2984=
201111251900 METAR MRLB 251900Z 20004KT 9999 SCT040 30/20 A2982=
201111252000 METAR MRLB 252000Z 27011KT 9999 SCT035 31/24 A2979=
201111252100 METAR MRLB 252100Z 35007KT 9999 SCT035 30/21 A2979=
201111252200 METAR MRLB 252200Z 18005KT 9999 SCT035 30/21 A2979=
201111252300 METAR MRLB 252300Z 29008KT 9999 SCT035 28/21 2977=
201111252354 METAR MRLB 260000Z 32003KT 9999 SCT035 SCT130 27/21 A2979=
201111260000 METAR MRLB 260000Z 32003KT 9999 SCT035 SCT130 27/21 A2979=
201111260100 METAR MRLB 260100Z 24005KT 9999 SCT035 BKN130 26/22 A2982=
201111260200 METAR MRLB 260200Z 23005KT 9999 SCT035 SCT130 25/22 A2985=
201111260300 METAR MRLB NIL=
201111260400 METAR MRLB NIL=
201111260500 METAR MRLB NIL=
201111260600 METAR MRLB NIL=
201111260700 METAR MRLB NIL=
201111260800 METAR MRLB NIL=
201111260900 METAR MRLB NIL=
201111261000 METAR MRLB NIL=
201111261100 METAR MRLB NIL=
201111261200 METAR MRLB 261200Z 16004KT CAVOK 22/20 A2982=
201111261300 METAR MRLB 261300Z 22005KT CAVOK 24/21 A2984=
201111261400 METAR MRLB 261400Z 26005KT CAVOK 26/22 A2987=
201111261500 METAR MRLB 261500Z 29003KT CAVOK 28/21 A2989=
201111261600 METAR MRLB 261600Z 29006KT 9999 FEW035 29/21 A2988=
201111261700 METAR MRLB 261700Z 30004KT 9999 FEW035 30/20 A2986=
201111261800 METAR MRLB 261800Z 05004KT 9999 SCT035 31/21 A2983=
201111261900 METAR MRLB 261900Z 08009KT 9999 SCT035 31/20 A2980=
201111262000 METAR MRLB 262000Z 08011KT 9999 SCT035 31/20 A2977=
201111262100 METAR MRLB 262100Z 05011KT 9999 SCT035 30/22 A2976=
201111262200 METAR MRLB 262200Z 07003KT 9999 FEW040 SCT100 31/21 A2975=
201111262300 METAR MRLB 262300Z 03007KT 9999 BKN040 29/20 A2976=
201111262352 METAR MRLB 270000Z 33004KT 9999 BKN040 27/21 A2977=
201111270000 METAR MRLB 270000Z 33004KT 9999 BKN040 27/21 A2977=
201111270100 METAR MRLB 270100Z 00000KT 9999 SCT040 SCT100 26/21 A2979=
201111270200 METAR MRLB 270200Z 15002KT 9999 SCT040 BKN100 26/22 A2981=
201111270300 METAR MRLB NIL=
201111270400 METAR MRLB NIL=
201111270500 METAR MRLB NIL=
201111270600 METAR MRLB NIL=
201111270700 METAR MRLB NIL=
201111270800 METAR MRLB NIL=
201111270900 METAR MRLB NIL=
201111271000 METAR MRLB NIL=
201111271100 METAR MRLB NIL=
201111271200 METAR MRLB 271200Z 00000KT 9999 FEW035 23/21 A2978=
201111271300 METAR MRLB 271300Z 18003KT 9999 FEW040 26/22 A2979=
201111271400 METAR MRLB 271400Z 16003KT 9999 FEW040 28/22 A2983=
201111271500 METAR MRLB 271500Z 18006KT 9999 SCT020 29/22 A2985=
201111271600 METAR MRLB 271600Z 15004KT 9999 SCT020 30/22 A2984=
201111271700 METAR MRLB 271700Z 28005KT 9999 SCT020 BKN150 31/22 A2982=
201111271800 METAR MRLB 271800Z 00000KT 9999 SCT020 BKN100 30/22 A2979=
201111271900 METAR MRLB 271900Z 06014KT 9999 SCT020 BKN100 31/22 A2976=
201111272000 METAR MRLB 272000Z 02006KT 9999 SCT020 BKN100 30/22 A2974=
201111272100 METAR MRLB 272100Z 05006KT 9999 SCT020 BKN100 29/21 A2974 RN ARND=
201111272200 METAR MRLB 272200Z 01005KT 9999 FEW020 SCT120 27/23 A2973=
201111272300 METAR MRLB 272300Z 32003KT 9999 -RA SCT020 BKN100 26/23 A2974=
201111272352 METAR MRLB 280000Z 07004KT 9999 FEW020 SCT100 25/23 A2974=
201111280000 METAR MRLB 280000Z 07004KT 9999 FEW020 SCT100 25/23 A2974=
201111280100 METAR MRLB 280100Z 06003KT 9999 FEW030 25/22 A2977=
201111280200 METAR MRLB 280200Z 08006KT 9999 FEW035 25/21 A2978=
201111280300 METAR MRLB NIL=
201111280400 METAR MRLB NIL=
201111280500 METAR MRLB NIL=
201111280600 METAR MRLB NIL=
201111280700 METAR MRLB NIL=
201111280800 METAR MRLB NIL=
201111280900 METAR MRLB NIL=
201111281000 METAR MRLB NIL=
201111281100 METAR MRLB NIL=
201111281200 METAR MRLB 281200Z 19005KT 9999 NSC 22/21 A2977=
201111281300 METAR MRLB 281300Z 27004KT 9999 NSC 25/21 A2979=
201111281400 METAR MRLB 281400Z 20005KT 9999 NSC 28/21 A2983=
201111281500 METAR MRLB 281500Z 01004KT 9999 NSC 29/21 A2984=
201111281600 METAR MRLB 281600Z 29007KT 9999 NSC 30/21 A2985=
201111281700 METAR MRLB 281700Z 28006KT 9999 FEW035 30/21 A2983=
201111281800 METAR MRLB 281800Z 07013KT 9999 FEW035 32/19 A2981=
201111281900 METAR MRLB 281900Z 06014KT 9999 FEW035 32/19 A2978=
201111282000 METAR MRLB 282000Z 07011KT 9999 FEW 035 32/18 A2977=
201111282100 METAR MRLB 282100Z 07010KT 9999 FEW035 32/18 A2976=
201111282200 METAR MRLB 282200Z 04009KT 9999 FEW035 31/17 A2976=
201111282300 METAR MRLB 282300Z 05010KT CAVOK 29/18 A2977=
201111282352 METAR MRLB 290000Z 06003KT CAVOK 27/19 A2977=
201111290000 METAR MRLB 290000Z 06003KT CAVOK 27/19 A2977=
201111290100 METAR MRLB 290100Z 35003KT CAVOK 26/19 A2979=
201111290200 METAR MRLB 290200Z 07003KT CAVOK 26/20 A2982=
201111290300 METAR MRLB NIL=
201111290400 METAR MRLB NIL=
201111290500 METAR MRLB NIL=
201111290600 METAR MRLB NIL=
201111290700 METAR MRLB NIL=
201111290800 METAR MRLB NIL=
201111290900 METAR MRLB NIL=
201111291000 METAR MRLB NIL=
201111291100 METAR MRLB NIL=
201111291200 METAR MRLB 291200Z 23003KT CAVOK 22/18 A2983=
201111291300 METAR MRLB 291300Z 26004KT CAVOK 24/19 A2985=
201111291400 METAR MRLB 291400Z 22004KT CAVOK 26/19 A2988=
201111291500 METAR MRLB 291500Z 31006KT CAVOK 28/19 A2987=
201111291600 METAR MRLB 291600Z 25006KT CAVOK 29/18 A2989=
201111291700 METAR MRLB 291700Z 08013KT CAVOK 31/17 A2987=
201111291800 METAR MRLB 291800Z 06013KT CAVOK 32/18 A2984=
201111291900 METAR MRLB 291900Z 08014KT CAVOK 31/18 A2982=
201111292000 METAR MRLB 292000Z 08015KT CAVOK 31/18 A2980=
201111292100 METAR MRLB 292100Z 08013KT 9999 NSC 31/18 A2979=
201111292200 METAR MRLB 292200Z 09013KT 9999 NSC 29/18 A2978=
201111292300 METAR MRLB 292300Z 07016KT 9999 SKC 28/18 A2980=
201111292350 METAR MRLB 300000Z 08013KT 9999 SKC 26/18 A2980=
201111300000 METAR MRLB 300000Z 08013KT 9999 SKC 26/18 A2980=
201111300100 METAR MRLB 300100Z 08015KT 9999 SKC 26/18 A2983=
201111300200 METAR MRLB 300200Z 08015KT 9999 SKC 26/18 A2984=
201111300300 METAR MRLB NIL=
201111300400 METAR MRLB NIL=
201111300500 METAR MRLB NIL=
201111300600 METAR MRLB NIL=
201111300700 METAR MRLB NIL=
201111300800 METAR MRLB NIL=
201111300900 METAR MRLB NIL=
201111301000 METAR MRLB NIL=
201111301100 METAR MRLB NIL=
201111301200 METAR MRLB 301200Z 07005KT 9999 FEW040 23/17 A2985=
201111301300 METAR MRLB 301300Z 01003KT 9999 FEW040 25/18 A2986=
201111301400 METAR MRLB 301400Z 05005KT 9999 FEW040 27/17 A2990=
201111301500 METAR MRLB 301500Z 07015KT 9999 FEW040 28/17 A2990=
201111301600 METAR MRLB 301600Z 07019KT 9999 FEW040 28/17 A2989=
201111301700 METAR MRLB 301700Z 06018KT 9999 NSC 29/17 A2988=
201111301800 METAR MRLB 301800Z 07017KT 9999 NSC 30/17 A2985=
201111301900 METAR MRLB 301900Z 07018KT 9999 NSC 30/18 A2983=
201111302000 METAR MRLB 302000Z 07014KT 9999 NSC 29/18 A2981=
201111302100 METAR MRLB 302100Z 07013KT 9999 NSC 29/18 A2981=
201111302200 METAR MRLB 302200Z 07014KT 9999 NSC 28/18 A2981=
201111302300 METAR MRLB 302300Z 08008KT 9999 NSC 27/18 A2982=
201111302350 METAR MRLB 010000 08012KT CAVOK 25/18 A2983=
201112010000 METAR MRLB 010000Z 08012KT CAVOK 25/18 A2983=
201112010048 METAR MRLB 010100 08014KT CAVOK 25/18 A2984=
201112010100 METAR MRLB 010100Z 08014KT CAVOK 25/18 A2984=
201112010200 METAR MRLB 010200Z 07014KT CAVOK 26/18 A2988=
201112010300 METAR MRLB NIL=
201112010400 METAR MRLB NIL=
201112010500 METAR MRLB NIL=
201112010600 METAR MRLB NIL=
201112010700 METAR MRLB NIL=
201112010800 METAR MRLB NIL=
201112010900 METAR MRLB NIL=
201112011000 METAR MRLB NIL=
201112011100 METAR MRLB NIL=
201112011200 METAR MRLB 011200Z 22006KT 9999 NSC 19/18 A2987=
201112011300 METAR MRLB 011300Z 17004KT CAVOK 22/18 A2988=
201112011400 METAR MRLB 011400Z 23006KT CAVOK 25/18 A2991=
201112011500 METAR MRLB 011500Z 22003KT 9999 NSC 27/17 A2993=
201112011600 METAR MRLB 011600Z 23009KT NSC 29/17 A2993=
201112011700 METAR MRLB 011700Z 28008KT 9999 FEW035 30/17 A2991=
201112011800 METAR MRLB 011800Z 22005KT CAVOK 30/17 A2989=
201112011900 METAR MRLB 011900Z 14007KT CAVOK 30/18 A2985=
201112012000 METAR MRLB 012000Z 28007KT 9999 FEW035 30/18 A2984=
201112012100 METAR MRLB 012100Z 08010KT 9999 FEW035 30/18 2982=
201112012200 METAR MRLB 012200Z 08006KT 9999 FEW035 29/18 A2982=
201112012300 METAR MRLB 012300Z 08007KT 9999 FEW035 27/18 A2982=
201112012352 METAR MRLB 020000Z 17005KT 9999 FEW035 25/19 A2984=
201112020000 METAR MRLB 020000Z 17005KT 9999 FEW035 25/19 A2984=
201112020100 METAR MRLB 020100Z 19004KT 9999 SCT035 25/19 A2986=
201112020200 METAR MRLB 020200Z 18004KT 9999 SCT035 24/20 A2989=
201112020300 METAR MRLB NIL=
201112020400 METAR MRLB NIL=
201112020500 METAR MRLB NIL=
201112020600 METAR MRLB NIL=
201112020700 METAR MRLB NIL=
201112020800 METAR MRLB NIL=
201112020900 METAR MRLB NIL=
201112021000 METAR MRLB NIL=
201112021100 METAR MRLB NIL=
201112021200 METAR MRLB 021200Z 00000KT 9999 FEW035 20/17 A2987=
201112021300 METAR MRLB 021300Z 00000KT CAVOK 24/18 A2988=
201112021400 METAR MRLB 021400Z 32003KT CAVOK 26/18 A2991=
201112021500 METAR MRLB 021500Z 26005KT CAVOK 28/18 A2994=
201112021600 METAR MRLB 021600Z 23004KT CAVOK 29/18 A2993=
201112021700 METAR MRLB 021700Z 26005KT CAVOK 30/18 A2991=
201112021800 METAR MRLB 021800Z 24003KT CAVOK 31/18 A2988=
201112021900 METAR MRLB 021900Z 20003KT CAVOK 31/19 A2986=
201112022000 METAR MRLB 022000Z 06008KT CAVOK 32/17 A2983=
201112022100 METAR MRLB 022100Z 07011KT 9999 NSC 31/17 A2982=
201112022200 METAR MRLB 022200Z 07011KT 9999 NSC 30/17 A2982=
201112022300 METAR MRLB 022300Z 08008KT 9999 SKC 28/17 A2983=
201112022352 METAR MRLB 030000Z 10003KT 9999 SKC 26/18 A2984=
201112030000 METAR MRLB 030000Z 10003KT 9999 SKC 26/18 A2984=
201112030100 METAR MRLB 030100Z 18002KT 9999 SKC 24/18 A2986=
201112030200 METAR MRLB 030200Z 09005KT 9999 SKC 25/17 A2987=
201112030300 METAR MRLB NIL=
201112030400 METAR MRLB NIL=
201112030500 METAR MRLB NIL=
201112030600 METAR MRLB NIL=
201112030700 METAR MRLB NIL=
201112030800 METAR MRLB NIL=
201112030900 METAR MRLB NIL=
201112031000 METAR MRLB NIL=
201112031100 METAR MRLB NIL=
201112031200 METAR MRLB 031200Z 34004KT 9999 SKC 18/17 A2988=
201112031300 METAR MRLB 031300Z 05003KT 9999 SKC 21/18 A2989=
201112031400 METAR MRLB 031400Z 28004KT 9999 SKC 24/19 A2990=
201112031500 METAR MRLB 031500Z 25005KT 9999 SKC 27/18 A2992=
201112031600 METAR MRLB 031600Z 32004KT 9999 NSC 29/18 A2991=
201112031700 METAR MRLB 031700Z 30006KT 9999 NSC 30/18 A2989=
201112031800 METAR MRLB 031800Z 31005KT 9999 NSC 31/18 A2986=
201112031900 METAR MRLB 031900Z 08013KT 9999 FEW040 31/18 A2983=
201112032000 METAR MRLB 032000Z 08014KT 9999 FEW040 30/18 A2980=
201112032100 METAR MRLB 032100Z 09011KT 9999 FEW040 30/19 A2979=
201112032200 METAR MRLB 032200Z 09010KT 9999 NSC 29/19 A2979=
201112032300 METAR MRLB 032300Z 08009KT 9999 FEW040 27/19 A2979=
201112032350 METAR MRLB 040000Z 08011KT 9999 NSC 26/19 A2980=
201112040000 METAR MRLB 040000Z 08011KT 9999 NSC 26/19 A2980=
201112040100 METAR MRLB 040100Z 07009KT 9999 NSC 25/19 A2982=
201112040200 METAR MRLB 040200Z 06007KT 9999 SKC 25/19 A2984=
201112040300 METAR MRLB NIL=
201112040400 METAR MRLB NIL=
201112040500 METAR MRLB NIL=
201112040600 METAR MRLB NIL=
201112040700 METAR MRLB NIL=
201112040800 METAR MRLB NIL=
201112040900 METAR MRLB NIL=
201112041000 METAR MRLB NIL=
201112041100 METAR MRLB NIL=
201112041200 METAR MRLB 041200Z 16005KT 9999 FEW040 21/19 A2983=
201112041300 METAR MRLB 041300Z 33002KT 9999 NSC 23/20 A2984=
201112041400 METAR MRLB 041400Z 24003KT 9999 NSC 28/20 A2987=
201112041500 METAR MRLB 041500Z 21003KT 9999 NSC 29/20 A2988=
201112041600 METAR MRLB 041600Z 07013KT 9999 FEW040 30/19 A2987=
201112041700 METAR MRLB 041700Z 08011KT 9999 SCT035 30/19 A2985=
201112041800 METAR MRLB 041800Z 06013KT 9999 BKN035 30/20 A2982=
201112041900 METAR MRLB 041900Z 09011KT 9999 SCT035 SCT120 29/20 A2980=
201112042000 METAR MRLB 042000Z 08009KT 9999 SCT035 31/20 A2977=
201112042100 METAR MRLB 042100Z 06010KT 9999 BKN035 29/21 A2975=
201112042200 METAR MRLB 042200Z 04012KT 9999 SCT035 29/20 A2975=
201112042300 METAR MRLB 042300Z 07008KT 9999 SCT035 28/20 A2975=
201112042354 METAR MRLB 050000Z 03004KT 9999 SCT035 26/21 A2976=
201112050000 METAR MRLB 050000Z 03004KT 9999 SCT035 26/21 A2976=
201112050100 METAR MRLB 050100Z 07004KT 9999 SCT035 SCT130 26/20 A2978=
201112050200 METAR MRLB 050200Z 15003KT 9999 SCT035 SCT130 24/21 A2980=
201112050300 METAR MRLB NIL=
201112050400 METAR MRLB NIL=
201112050500 METAR MRLB NIL=
201112050600 METAR MRLB NIL=
201112050700 METAR MRLB NIL=
201112050800 METAR MRLB NIL=
201112050900 METAR MRLB NIL=
201112051000 METAR MRLB NIL=
201112051100 METAR MRLB NIL=
201112051200 METAR MRLB 051200Z 05011KT 9999 SCT035 21/20 A2980=
201112051300 METAR MRLB 051300Z 08003KT 9999 SCT035 23/21 A2982=
201112051400 METAR MRLB 051400Z 27003KT 9999 SCT035 25/21 A2984=
201112051500 METAR MRLB 051500Z 26003KT 9999 BKN035 27/21 A2985=
201112051600 METAR MRLB 051600Z 28003KT 9999 BKN035 30/21 A2985=
201112051700 METAR MRLB 051700Z 07011KT 9999 SCT035 30/20 A2983=
201112051800 METAR MRLB 051800Z 07010KT 9999 SCT035 31/20 A2981=
201112051900 METAR MRLB 051900Z 06012KT 9999 SCT035 31/20 A2977=
201112052000 METAR MRLB 052000Z 07013KT 9999 SCT035 31/20 A2975=
201112052100 METAR MRLB 052100Z 10008KT 9999 FEW035 SCT130 31/20 A2973=
201112052200 METAR MRLB 052200Z 08011KT 9999 FEW035 SCT130 29/20 A2974=
201112052201 METAR MRLB 052201Z 08011KT 9999 FEW035 SCT130 29/20 A2974=
201112052300 METAR MRLB 052300Z 10007KT 9999 SCT035 27/21 A2975=
201112052348 METAR MRLB 060000Z 05010KT 9999 SCT040 27/20 A2976=
201112060000 METAR MRLB 060000Z 05010KT 9999 SCT040 27/20 A2976=
201112060100 METAR MRLB 060100Z 09005KT 9999 FEW040 26/20 A2978=
201112060200 METAR MRLB 060200Z 04004KT 9999 FEW040 26/20 A2980=
201112060300 METAR MRLB NIL=
201112060400 METAR MRLB NIL=
201112060500 METAR MRLB NIL=
201112060600 METAR MRLB NIL=
201112060700 METAR MRLB NIL=
201112060800 METAR MRLB NIL=
201112060900 METAR MRLB NIL=
201112061000 METAR MRLB NIL=
201112061100 METAR MRLB NIL=
201112061200 METAR MRLB 061200Z 31003KT 9999 FEW035 BKN130 22/20 A2981=
201112061300 METAR MRLB 061300Z 13004KT 9999 FEW035 BKN130 23/20 A2982=
201112061400 METAR MRLB 061400Z 09006KT 9999 FEW035 SCT130 27/20 A2984=
201112061500 METAR MRLB 061500Z 35012KT 9999 SCT040 28/20 A2987=
201112061600 METAR MRLB 061600Z 07009KT 9999 SCT040 SCT120 27/19 2986=
201112061700 METAR MRLB 061700Z 06010KT 9999 FEW040 SCT120 30/18 A2984=
201112061800 METAR MRLB 061800Z 07016KT 9999 FEW040 SCT120 30/17 A2982=
201112061900 METAR MRLB 061900Z 08015KT 9999 FEW040 SCT250 30/18 A2979=
201112062000 METAR MRLB 062000Z 06013KT 9999 FEW040 BKN250 31/17 A2977=
201112062100 METAR MRLB 062100Z 08016KT 9999 FEW040 29/19 A2975=
201112062200 METAR MRLB 062200Z 04013KT 9999 FEW040 29/18 A2976=
201112062300 METAR MRLB 062300Z 07009KT 9999 FEW040 SCT120 27/18 A2977=
201112062352 METAR MRLB 070000Z 06005KT 9999 SCT040 BKN100 26/17 A2978=
201112070000 METAR MRLB 070000Z 06005KT 9999 SCT040 BKN100 26/17 A2978=
201112070100 METAR MRLB 070100Z 12006KT 9999 FEW040 SCT120 25/17 A2980=
201112070200 METAR MRLB 070200Z 14004KT CAVOK 24/18 A2983Z=
201112070300 METAR MRLB NIL=
201112070400 METAR MRLB NIL=
201112070500 METAR MRLB NIL=
201112070600 METAR MRLB NIL=
201112070700 METAR MRLB NIL=
201112070800 METAR MRLB NIL=
201112070900 METAR MRLB NIL=
201112071000 METAR MRLB NIL=
201112071100 METAR MRLB NIL=
201112071200 METAR MRLB 071200Z 04002KT 9999 NSC 18/16 A2984=
201112071300 METAR MRLB 071300Z 00000KT 9999 NSC 23/18 A2986=
201112071400 METAR MRLB 071400Z 00000KT 9999 NSC 25/18 A2989=
201112071500 METAR MRLB 071500Z 24003KT 9999 NSC 27/18 A2990=
201112071600 METAR MRLB 071600Z 27002KT 9999 NSC 29/17 A2990=
201112071700 METAR MRLB 071700Z 30005KT 9999 NSC 30/17 A2988=
201112071754 METAR MRLB 081800Z 10013KT CAVOK 32/16 A2985=
201112071800 METAR MRLB 071800Z 23005KT CAVOK 32/16 A2985=
201112071900 METAR MRLB 071900Z 27005KT CAVOK 33/15 A2982=
201112072000 METAR MRLB 072000Z 23003KT CAVOK 33/16 A2979=
201112072100 METAR MRLB 072100Z 09006KT 9999 FEW035 SCT140 32/17 A2977=
201112072200 METAR MRLB 072200Z 08008KT 9999 FEW035 SCT140 30/17 A2977=
201112072300 METAR MRLB 072300Z 09010KT 9999 SCT035 28/18 A2978=
201112072352 METAR MRLB 080000Z 08011KT 9999 SCT035 26/19 A2979=
201112080000 METAR MRLB 080000Z 08011KT 9999 SCT035 26/19 A2979=
201112080100 METAR MRLB 080100Z 08010KT 9999 SCT035 26/18 A2982=
201112080200 METAR MRLB 080200Z 07011KT 9999 SCT035 SCT140 26/18 A2984=
201112080300 METAR MRLB NIL=
201112080400 METAR MRLB NIL=
201112080500 METAR MRLB NIL=
201112080600 METAR MRLB NIL=
201112080700 METAR MRLB NIL=
201112080800 METAR MRLB NIL=
201112080900 METAR MRLB NIL=
201112081000 METAR MRLB NIL=
201112081100 METAR MRLB NIL=
201112081200 METAR MRLB 081200Z 26003KT CAVOK 20/18 A2983=
201112081300 METAR MRLB 081300Z 17004KT CAVOK 23/19 A2985=
201112081400 METAR MRLB 081400Z 18006KT CAVOK 26/18 A2988=
201112081500 METAR MRLB 081500Z 08013KT 9999 SCT035 31/18 A2979=
201112081600 METAR MRLB 081600Z 24007KT CAVOK 29/17 A2992=
201112081700 METAR MRLB 081700Z 28004KT CAVOK 31/17 A2989=
201112081800 METAR MRLB 081800Z 10013KT CAVOK 32/16 A2985=
201112081900 METAR MRLB 081900Z 09011KT 9999 FEW035 SCT250 31/18 A2984=
201112082000 METAR MRLB 082000Z 09013KT 9999 FEW035 SCT250 31/18 A2981=
201112082100 METAR MRLB 082100Z 08013KT 9999 FEW035 31/18 A2979=
201112082200 METAR MRLB 082200Z 10011KT 9999 FEW040 29/19 A2980=
201112082300 METAR MRLB 082300Z 07014KT 9999 SCT040 28/18 A2981=
201112082348 METAR MRLB 090000Z 07005KT 9999 SCT040 SCT120 27/18 A2981=
201112090000 METAR MRLB 090000Z 07005KT 9999 SCT040 SCT120 27/18 A2981=
201112090100 METAR MRLB 090100Z 09010KT 9999 FEW040 26/19 A2981=
201112090200 METAR MRLB 090200Z 00000KT 9999 FEW040 25/19 A2984=
201112090300 METAR MRLB NIL=
201112090400 METAR MRLB NIL=
201112090500 METAR MRLB NIL=
201112090600 METAR MRLB NIL=
201112090700 METAR MRLB NIL=
201112090800 METAR MRLB NIL=
201112090900 METAR MRLB NIL=
201112091000 METAR MRLB NIL=
201112091100 METAR MRLB NIL=
201112091200 METAR MRLB 091200Z 00000KT 9999 NSC 19/18 A2982=
201112091300 METAR MRLB 091300Z 03002KT 9999 NSC 23/19 A2984=
201112091400 METAR MRLB 091400Z 22004KT 9999 NSC 26/19 A2987=
201112091500 METAR MRLB 091500Z 22004KT 9999 SKC 28/19 A2989=
201112091600 METAR MRLB 091600Z 28004KT 9999 SKC 30/18 A2989=
201112091700 METAR MRLB 091700Z 24003KT 9999 FEW040 31/18 A2987=
201112091800 METAR MRLB 091800Z 08013KT 9999 FEW040 32/17 A2984=
201112091900 METAR MRLB 091900Z 09011KT 9999 FEW040 32/18 A2982=
201112092000 METAR MRLB 092000Z 09014KT 9999 SCT040 31/18 A2980=
201112092100 METAR MRLB 092100Z 07011KT 9999 FEW040 31/19 A2979=
201112092200 METAR MRLB 092200Z 08012KT 9999 NSC 30/18 A2978=
201112092300 METAR MRLB 092300Z 07011KT 9999 NSC 28/18 A2979=
201112092350 METAR MRLB 100000Z 09009KT 9999 NSC 27/19 A2978=
201112100000 METAR MRLB 100000Z 09009KT 9999 NSC 27/19 A2978=
201112100100 METAR MRLB 100100Z 04004KT 9999 SKC 27/18 A2982=
201112100200 METAR MRLB 100200Z 08006KT 9999 SKC 26/18 A2983=
201112100300 METAR MRLB NIL=
201112100400 METAR MRLB NIL=
201112100500 METAR MRLB NIL=
201112100600 METAR MRLB NIL=
201112100700 METAR MRLB NIL=
201112100800 METAR MRLB NIL=
201112100900 METAR MRLB NIL=
201112101000 METAR MRLB NIL=
201112101100 METAR MRLB NIL=
201112101200 METAR MRLB 101200Z 03003KT 9999 NSC 19/18 A2984=
201112101300 METAR MRLB 101300Z 00000KT 9999 NSC 23/19 A2985=
201112101400 METAR MRLB 101400Z 20003KT 9999 NSC 25/20 A2988=
201112101500 METAR MRLB 101500Z 25005KT 9999 NSC 27/20 A2990=
201112101600 METAR MRLB 101600Z 29003KT 9999 NSC 30/19 A2990=
201112101700 METAR MRLB 101700Z 28002KT 9999 FEW040 31/19 A2986=
201112101800 METAR MRLB 101800Z 34005KT 9999 SCT040 31/19 A2983=
201112101900 METAR MRLB 101900Z 24007KT 9999 BKN040 30/19 A2981=
201112102000 METAR MRLB 102000Z 22006KT 9999 SCT040 32/20 A2977=
201112102100 METAR MRLB 102100Z 10007KT 9999 SCT035 30/19 A2977=
201112102200 METAR MRLB 102200Z 31005KT 9999 SCT035 31/20 A2976=
201112102300 METAR MRLB 102300Z 32004KT 9999 SCT035 29/20 A2978=
201112102351 METAR MRLB 110000Z 00000KT 9999 SCT035 28/20 A2978=
201112110000 METAR MRLB 110000Z 00000KT 9999 SCT035 28/20 A2978=
201112110100 METAR MRLB 110100Z 23003KT 9999 SCT035 26/20 A2981=
201112110200 METAR MRLB 110200Z 00000KT 9999 SCT035 26/20 A2984=
201112110300 METAR MRLB NIL=
201112110400 METAR MRLB NIL=
201112110500 METAR MRLB NIL=
201112110600 METAR MRLB NIL=
201112110700 METAR MRLB NIL=
201112110800 METAR MRLB NIL=
201112110900 METAR MRLB NIL=
201112111000 METAR MRLB NIL=
201112111100 METAR MRLB NIL=
201112111200 METAR MRLB 111200Z 00000KT 9999 FEW035 21/20 A2980=
201112111300 METAR MRLB 111300Z 03004KT 9999 FEW035 23/20 A2981=
201112111400 METAR MRLB 111400Z 18003KT 9999 FEW035 27/21 A2985=
201112111500 METAR MRLB 111500Z 19008KT 9999 FEW035 28/21 A2986=
201112111600 METAR MRLB 111600Z 12003KT 9999 FEW035 31/20 A2987=
201112111700 METAR MRLB 111700Z 34004KT 9999 SCT035 31/20 A2985=
201112111800 METAR MRLB 111800Z 09012KT 9999 SCT035 32/19 A2982=
201112111900 METAR MRLB 111900Z 08012KT 9999 SCT035 32/20 A2980=
201112112000 METAR MRLB 112000Z 35004KT 9999 SCT035 31/20 A2978=
201112112100 METAR MRLB 112100Z 08009KT 9999 FEW040 32/20 A2975=
201112112200 METAR MRLB 112200Z 05011KT 9999 BKN040 30/20 A2975=
201112112300 METAR MRLB 112300Z 05006KT 9999 FEW040 30/20 A2977=
201112112349 METAR MRLB 120000Z 12003KT 9999 BKN035 28/20 A2977=
201112120000 METAR MRLB 120000Z 12003KT 9999 BKN035 28/20 A2977=
201112120100 METAR MRLB 120100Z 02004KT 9999 BKN035 27/20 A2980=
201112120200 METAR MRLB 120200Z 07007KT 9999 SCT035 26/21 A2982=
201112120300 METAR MRLB NIL=
201112120400 METAR MRLB NIL=
201112120500 METAR MRLB NIL=
201112120600 METAR MRLB NIL=
201112120700 METAR MRLB NIL=
201112120800 METAR MRLB NIL=
201112120900 METAR MRLB NIL=
201112121000 METAR MRLB NIL=
201112121100 METAR MRLB NIL=
201112121200 METAR MRLB 121200Z 24005KT 9999 FEW035 BKN130 23/20 A2982=
201112121300 METAR MRLB 121300Z 25003KT 9999 FEW035 BKN130 26/20 A2984=
201112121400 METAR MRLB 121400Z 30005KT 9999 FEW035 BKN130 28/20 A2988=
201112121500 METAR MRLB 121500Z 33004KT 9999 FEW035 SCT130 BKN250 29/19 A2989=
201112121600 METAR MRLB 121600Z 03009KT 9999 FEW035 SCT130 BKN250 30/19 A2989=
201112121700 METAR MRLB 121700Z 05016KT 9999 FEW040 BKN250 32/18 A2988=
201112121800 METAR MRLB 121800Z 05013KT 9999 FEW040 BKN250 32/16 A2985=
201112121900 METAR MRLB 121900Z 07017KT 9999 FEW040 SCT140 BKN250 30/18 A2983=
201112122000 METAR MRLB 122000Z 08016KT 9999 FEW040 SCT140 BKN250 31/17 A2979=
201112122100 METAR MRLB 122100Z 24005KT CAVOK 31/18 A2978=
201112122200 METAR MRLB 122200Z 20006KT CAVOK 31/18 A2977=
201112122300 METAR MRLB 122300Z 28006KT 9999 FEW040 BKN140 29/19 A2978=
201112122350 METAR MRLB 130000Z 28004KT 9999 FEW040 BKN140 28/19 A2980=
201112130000 METAR MRLB 130000Z 28004KT 9999 FEW040 BKN140 28/19 A2980=
201112130100 METAR MRLB 130100Z 15004KT 9999 FEW040 BKN140 26/19 A2983=
201112130200 METAR MRLB 130200Z 10004KT 9999 FEW040 BKN140 26/19 A2985=
201112130300 METAR MRLB NIL=
201112130400 METAR MRLB NIL=
201112130500 METAR MRLB NIL=
201112130600 METAR MRLB NIL=
201112130700 METAR MRLB NIL=
201112130800 METAR MRLB NIL=
201112130900 METAR MRLB NIL=
201112131000 METAR MRLB NIL=
201112131100 METAR MRLB NIL=
201112131200 METAR MRLB 131200Z 26003KT 9999 FEW025 SCT100 23/20 A2983=
201112131300 METAR MRLB 131300Z 05004KT 9999 FEW030 SCT150 25/20 A2984=
201112131400 METAR MRLB 131400Z 21004KT 9999 FEW025 SCT150 26/20 A2986=
201112131500 METAR MRLB 131500Z 25005KT 9999 FEW025 SCT120 27/21 A2988=
201112131600 METAR MRLB 131600Z 22006KT 9999 FEW025 SCT140 28/20 A2988=
201112131700 METAR MRLB 131700Z 28007KT 9999 FEW025 BKN120 29/20 A2988=
201112131800 METAR MRLB 131800Z 17004KT 9999 FEW025 BKN100 29/20 A2986=
201112131900 METAR MRLB 131900Z 36010KT 9999 FEW020 BKN120 28/20 A2984=
201112132000 METAR MRLB 132000Z 34008KT 9999 FEW020 BKN100 27/20 A2981=
201112132100 METAR MRLB 132100Z 03009KT 9999 SCT030 BKN120 27/20 A2979=
201112132200 METAR MRLB 132200Z 07005KT 9999 SCT030 BKN110 27/20 A2979=
201112132300 METAR MRLB 132300Z 03003KT 9999 SCT035 BKN120 26/21 A2979=
201112132350 METAR MRLB 140000Z 04003KT 9999 SCT035 BKN130 26/20 A2980=
201112140000 METAR MRLB 140000Z 04003KT 9999 SCT035 BKN130 26/20 A2980=
201112140100 METAR MRLB 140100Z 06011KT 9999 SCT030 BKN130 26/20 A2983=
201112140200 METAR MRLB 140200Z 07011KT 9999 SCT035 BKN130 25/20 A2986=
201112140300 METAR MRLB NIL=
201112140400 METAR MRLB NIL=
201112140500 METAR MRLB NIL=
201112140600 METAR MRLB NIL=
201112140700 METAR MRLB NIL=
201112140800 METAR MRLB NIL=
201112140900 METAR MRLB NIL=
201112141000 METAR MRLB NIL=
201112141100 METAR MRLB NIL=
201112141200 METAR MRLB 141200Z 32003KT 9999 SCT025 BKN110 23/21 A2982=
201112141300 METAR MRLB 141300Z 26003KT 9999 SCT030 BKN120 23/22 A2984=
201112141400 METAR MRLB 141400Z 20003KT 9999 -RA SCT025 BKN120 24/22 A2986=
201112141500 METAR MRLB 141500Z 23003KT 9999 DZ SCT030 BKN120 25/23 A2988=
201112141600 METAR MRLB 141600Z 24004KT 9999 FEW030 BKN100 25/22 A2987 REDZ=
201112141700 METAR MRLB 141700Z 24005KT 9999 SCT030 BKN100 25/22 A2986=
201112141800 METAR MRLB 141800Z 00000KT 9999 SCT025 BKN100 27/23 A2984=
201112141900 METAR MRLB 141900Z 05008KT 9999 SCT030 BKN100 27/21 A2982=
201112142000 METAR MRLB 142000Z 06010KT 7000 RA SCT015 BKN100 24/22 A2981=
201112142100 METAR MRLB 142100Z 36003KT -RA FEW020 BKN100 24/22 A2979=
201112142101 METAR MRLB 142101Z 36003KT 9999 -RA FEW020 BKN100 24/22 A2979=
201112142200 METAR MRLB 142200Z 11002KT 9999 -RA FEW020 BKN100 24/22 A2980=
201112142300 METAR MRLB 142300Z 05002KT 9999 FEW040 BKN100 24/21 A2981=
201112142350 METAR MRLB 150000Z 16003KT 9999 -RA FEW020 BKN100 23/22 A2981=
201112150000 METAR MRLB 150000Z 16003KT 9999 -RA FEW020 BKN100 23/22 A2981=
201112150100 METAR MRLB 150100Z 00000KT 9999 -RA FEW020 BKN100 23/21 A2983=
201112150200 METAR MRLB 150200Z 17004KT 9999 FEW020 BKN100 22/21 A2986=
201112150300 METAR MRLB NIL=
201112150400 METAR MRLB NIL=
201112150500 METAR MRLB NIL=
201112150600 METAR MRLB NIL=
201112150700 METAR MRLB NIL=
201112150800 METAR MRLB NIL=
201112150900 METAR MRLB NIL=
201112151000 METAR MRLB NIL=
201112151100 METAR MRLB NIL=
201112151200 METAR MRLB 151200Z 17002KT 9999 FEW035 BKN120 21/20 A2982=
201112151300 METAR MRLB 151300Z 19003KT 9999 FEW035 BKN120 21/20 A2984=
201112151400 METAR MRLB 151400Z 32002KT 9999 FEW040 BKN120 24/21 A2987=
201112151500 METAR MRLB 151500Z 26002KT 9999 FEW040 BKN120 26/22 A2988=
201112151600 METAR MRLB 151600Z 26003KT 9999 FEW040 BKN120 27/22 A2987=
201112151700 METAR MRLB 151700Z 34003KT 9999 FEW040 BKN120 28/22 A2987=
201112151800 METAR MRLB 151800Z 28003KT 9999 FEW040 BKN120 29/21 A2984=
201112151900 METAR MRLB 151900Z 29005KT 9999 FEW040 BKN120 29/21 A2982=
201112152000 METAR MRLB 152000Z 27007KT 9999 FEW030 BKN120 28/22 A2979=
201112152100 METAR MRLB 152100Z 11006KT 9999 FEW030 BKN140 28/20 A2978=
201112152200 METAR MRLB 152200Z 09008KT 9999 FEW030 BKN140 27/20 A2976=
201112152300 METAR MRLB 152300Z 04006KT 9999 FEW030 BKN120 27/21 A2977=
201112152348 METAR MRLB 160000Z 11006KT 9999 FEW035 BKN120 25/20 A2979=
201112160000 METAR MRLB 160000Z 11006KT 9999 FEW035 BKN120 25/20 A2979=
201112160100 METAR MRLB 160100Z 09006KT 9999 FEW035 BKN120 25/19 A2980=
201112160200 METAR MRLB 160200Z 09003KT 9999 FEW030 BKN120 25/20 A2982=
201112160300 METAR MRLB NIL=
201112160400 METAR MRLB NIL=
201112160500 METAR MRLB NIL=
201112160600 METAR MRLB NIL=
201112160700 METAR MRLB NIL=
201112160800 METAR MRLB NIL=
201112160900 METAR MRLB NIL=
201112161000 METAR MRLB NIL=
201112161100 METAR MRLB NIL=
201112161200 METAR MRLB 161200Z 13005KT 9999 FEW030 BKN100 21/20 A2984=
201112161300 METAR MRLB 161300Z 24003KT 9999 FEW040 SCT120 22/20 A2985=
201112161400 METAR MRLB 161400Z 00000KT 9999 FEW040 SCT100 22/20 A2988=
201112161500 METAR MRLB 161500Z 00000KT 9999 FEW035 SCT100 BKN200 25/21 A2989=
201112161600 METAR MRLB 161600Z 24003KT CAVOK 26/21 A2988=
201112161700 METAR MRLB 161700Z 29007KT CAVOK 29/21 A2988=
201112161800 METAR MRLB 161800Z 07014KT CAVOK 31/19 A2986=
201112161900 METAR MRLB 161900Z 09012KT CAVOK 31/18 A2985=
201112162000 METAR MRLB 162000Z 08011KT 9999 FEW035 BKN140 30/18 A2982=
201112162100 METAR MRLB 162100Z 08010KT 9999 FEW035 BKN140 29/19 A2980=
201112162200 METAR MRLB 162200Z 06008KT 9999 FEW035 BKN130 28/19 A2980=
201112162300 METAR MRLB 162300Z 05009KT 9999 SCT035 BKN140 28/19 A2981=
201112162350 METAR MRLB 170000Z 06009KT 9999 FEW035 BKN140 26/19 A2982=
201112170000 METAR MRLB 170000Z 06009KT 9999 FEW035 BKN140 26/19 A2982=
201112170100 METAR MRLB 170100Z 08008KT 9999 FEW035 BKN140 26/20 A2984=
201112170200 METAR MRLB 170200Z 08007KT 9999 FEW035 BKN140 25/20 A2987=
201112170300 METAR MRLB NIL=
201112170400 METAR MRLB NIL=
201112170500 METAR MRLB NIL=
201112170600 METAR MRLB NIL=
201112170700 METAR MRLB NIL=
201112170800 METAR MRLB NIL=
201112170900 METAR MRLB NIL=
201112171000 METAR MRLB NIL=
201112171100 METAR MRLB NIL=
201112171200 METAR MRLB 171200Z 00000KT 9999 SCT035 BKN120 24/19 A2984=
201112171300 METAR MRLB 171300Z 06007KT 9999 SCT035 SCT130 25/20 A2986=
201112171400 METAR MRLB 171400Z 25005KT 9999 SCT030 SCT130 26/20 A2989=
201112171500 METAR MRLB 171500Z 23005KT 9999 SCT030 BKN130 26/21 A2991=
201112171600 METAR MRLB 171600Z 29004KT 9999 FEW035 BKN120 28/21 A2991=
201112171700 METAR MRLB 171700Z 20005KT 9999 SCT035 BKN120 28/20 A2991=
201112171800 METAR MRLB 171800Z 32009KT 9999 SCT030 BKN120 28/20 A2988=
201112171900 METAR MRLB 171900Z 05011KT 9999 SCT030 BKN130 30/20 A2985=
201112172000 METAR MRLB 172000Z 08012KT 9999 SCT025 BKN120 29/19 A2984=
201112172100 METAR MRLB 172100Z 36006KT 9999 SCT030 BKN120 28/20 A2983=
201112172200 METAR MRLB 172200Z 06006KT 9999 FEW030 BKN120 27/19 A2982=
201112172300 METAR MRLB 172300Z 25006KT 9999 FEW030 BKN120 26/20 A2981=
201112172348 METAR MRLB 180000Z 19003KT 9999 FEW040 BKN120 25/20 A2981=
201112180000 METAR MRLB 180000Z 19003KT 9999 FEW040 BKN120 25/20 A2981=
201112180100 METAR MRLB 180100Z 07014KT 9999 FEW040 BKN120 26/18 A2982=
201112180200 METAR MRLB 180200Z 05003KT 9999 FEW040 BKN120 26/19 A2984=
201112180300 METAR MRLB NIL=
201112180400 METAR MRLB NIL=
201112180500 METAR MRLB NIL=
201112180600 METAR MRLB NIL=
201112180700 METAR MRLB NIL=
201112180800 METAR MRLB NIL=
201112180900 METAR MRLB NIL=
201112181000 METAR MRLB NIL=
201112181100 METAR MRLB NIL=
201112181200 METAR MRLB 181200Z 30003KT 9999 SCT020 BKN100 24/19 A2985=
201112181300 METAR MRLB 181300Z 06006KT 9999 SCT020 BKN100 25/19 A2987=
201112181400 METAR MRLB 181400Z 06020KT 9999 SCT025 BKN140 26/18 A2990=
201112181500 METAR MRLB 181500Z 08014KT 9999 FEW025 BKN150 26/19 A2992=
201112181600 METAR MRLB 181600Z 07016KT 9999 FEW025 BKN150 28/18 A2991=
201112181700 METAR MRLB 181700Z 07022KT 9999 FEW025 BKN150 30/18 A2990=
201112181800 METAR MRLB 181800Z 06020KT 9999 FEW025 SCT200 30/18 A2987=
201112181900 METAR MRLB 181900Z 06020KT 9999 FEW025 SCT200 31/18 A2986=
201112182000 METAR MRLB 182000Z 06018KT 9999 FEW025 SCT220 30/19 A2982=
201112182100 METAR MRLB NIL=
201112182107 METAR MRLB 182107Z 06018KT 9999 FEW020 SCT200 29/19 A2981=
201112182200 METAR MRLB 182200Z 07014KT 9999 FEW020 SCT200 29/19 A2981=
201112182300 METAR MRLB 182300Z 06015KT 9999 FEW020 SCT170 28/19 A2982=
201112182352 METAR MRLB 190000Z 08013KT 9999 FEW020 SCT100 26/18 A2983=
201112190000 METAR MRLB 190000Z 08013KT 9999 FEW020 SCT100 26/18 A2983=
201112190100 METAR MRLB 190100Z 07016KT 9999 FEW030 SCT120 26/18 A2984=
201112190200 METAR MRLB 190200Z 08016KT 9999 FEW030 SCT150 26/18 A2987=
201112190300 METAR MRLB NIL=
201112190400 METAR MRLB NIL=
201112190500 METAR MRLB NIL=
201112190600 METAR MRLB NIL=
201112190700 METAR MRLB NIL=
201112190800 METAR MRLB NIL=
201112190900 METAR MRLB NIL=
201112191000 METAR MRLB NIL=
201112191100 METAR MRLB NIL=
201112191200 METAR MRLB 191200Z 22005KT 9999 FEW025 SCT100 21/19 A2985=
201112191300 METAR MRLB 191300Z 00000KT 9999 FEW030 SCT140 23/19 A2987=
201112191400 METAR MRLB 191400Z 03006KT 9999 FEW030 SCT170 25/20 A2990=
201112191500 METAR MRLB 191500Z 06004KT 9999 FEW025 SCT150 28/20 A2993=
201112191600 METAR MRLB 191600Z 10010KT 9999 FEW030 SCT150 28/19 A2993=
201112191700 METAR MRLB 191700Z 07012KT 9999 FEW025 SCT180 31/18 A2991=
201112191800 METAR MRLB 191800Z 06010KT 9999 FEW030 SCT220 31/18 A2988=
201112191900 METAR MRLB 191900Z 05010KT 9999 FEW025 SCT200 31/17 A2984=
201112192000 METAR MRLB NIL=
201112192100 METAR MRLB 192100Z 06011KT 9999 FEW030 SCT250 31/18 A2979=
201112192200 METAR MRLB 192200Z 07011KT 9999 FEW035 SCT250 29/19 A2979=
201112192300 METAR MRLB 192300Z 08009KT 9999 FEW035 BKN250 28/19 A2980=
201112192350 METAR MRLB 200000Z 10006KT 9999 FEW035 BKN250 25/19 A2981=
201112200000 METAR MRLB 200000Z 10006KT 9999 FEW035 BKN250 25/19 A2981=
201112200100 METAR MRLB 200100Z 13004KT 9999 SCT035 SCT250 24/18 A2982=
201112200200 METAR MRLB 200200Z 10005KT 9999 FEW035 SCT250 23/17 A2984=
201112200300 METAR MRLB NIL=
201112200400 METAR MRLB NIL=
201112200500 METAR MRLB NIL=
201112200600 METAR MRLB NIL=
201112200700 METAR MRLB NIL=
201112200800 METAR MRLB NIL=
201112200900 METAR MRLB NIL=
201112201000 METAR MRLB NIL=
201112201100 METAR MRLB NIL=
201112201200 METAR MRLB 201200Z 22003KT 9999 FEW035 BKN130 20/18 A2983=
201112201300 METAR MRLB 201300Z 20003KT CAVOK 23/19 A2984=
201112201400 METAR MRLB 201400Z 08010KT CAVOK 28/19 A2985=
201112201500 METAR MRLB 201500Z 06015KT 9999 FEW035 SCT130 30/19 A2987=
201112201600 METAR MRLB 201600Z 06019KT 9999 FEW035 SCT250 30/19 A2988=
201112201700 METAR MRLB 201700Z 06013KT 9999 FEW035 SCT250 30/19 A2986=
201112201800 METAR MRLB 201800Z 05016KT 9999 FEW035 SCT250 30/19 A2982=
201112201900 METAR MRLB 201900Z 06015KT 9999 SCT035 31/19 A2979=
201112202000 METAR MRLB 202000Z 05014KT 9999 SCT035 SCT250 31/18 A2976=
201112202100 METAR MRLB 202100Z 08013KT 9999 SCT040 30/18 A2974=
201112202200 METAR MRLB 202200Z 05013KT 9999 FEW040 30/19 A2974=
201112202300 METAR MRLB 202300Z 05011KT 9999 SCT040 29/19 A2974=
201112202349 METAR MRLB 210000Z 06006KT 9999 FEW040 26/20 A2974=
201112210000 METAR MRLB 210000Z 06006KT 9999 FEW040 26/20 A2974=
201112210100 METAR MRLB 210100Z 06007KT 9999 NSC 25/20 A2975=
201112210200 METAR MRLB NIL=
201112210300 METAR MRLB NIL=
201112210400 METAR MRLB NIL=
201112210500 METAR MRLB NIL=
201112210600 METAR MRLB NIL=
201112210700 METAR MRLB NIL=
201112210800 METAR MRLB NIL=
201112210900 METAR MRLB NIL=
201112211000 METAR MRLB NIL=
201112211100 METAR MRLB NIL=
201112211200 METAR MRLB 211200Z 10007KT 9999 NSC 24/19 A2976=
201112211300 METAR MRLB 211300Z 09007KT 9999 FEW040 25/20 A2979=
201112211400 METAR MRLB 211400Z 09008KT 9999 FEW040 28/20 A2983=
201112211500 METAR MRLB 211500Z 08007KT 9999 FEW040 30/19 A2985=
201112211600 METAR MRLB 211600Z 05010KT 9999 FEW040 30/19 A2984=
201112211700 METAR MRLB NIL=
201112211800 METAR MRLB NIL=
201112211900 METAR MRLB NIL=
201112212000 METAR MRLB NIL=
201112212100 METAR MRLB 212100Z 03012KT 9999 FEW015 SCT045 31/20 A2972=
201112212200 METAR MRLB 212200Z 06012KT 9999 FEW020 SCT070 29/20 A2973=
201112212300 METAR MRLB 212300Z 06013KT 9999 FEW020 SCT070 28/20 A2974=
201112212350 METAR MRLB 220000Z 06008KT 9999 SCT040 26/20 A2974=
201112220000 METAR MRLB 220000Z 06008KT 9999 SCT040 26/20 A2974=
201112220100 METAR MRLB 220100Z 08015KT CAVOK 26/20 A2974=
201112220200 METAR MRLB 220200Z 08012KT CAVOK 26/20 A2976=
201112220300 METAR MRLB NIL=
201112220400 METAR MRLB NIL=
201112220500 METAR MRLB NIL=
201112220600 METAR MRLB NIL=
201112220700 METAR MRLB NIL=
201112220800 METAR MRLB NIL=
201112220900 METAR MRLB NIL=
201112221000 METAR MRLB NIL=
201112221100 METAR MRLB NIL=
201112221200 METAR MRLB 221200Z 00000KT 9999 FEW020 SCT100 22/20 A2976=
201112221300 METAR MRLB 221300Z 01003KT 9999 FEW020 SCT100 23/21 A2979=
201112221400 METAR MRLB 221400Z 00000KT 9999 FEW030 SCT150 28/21 A2981=
201112221500 METAR MRLB 221500Z 04006KT 9999 FEW030 SCT170 30/21 A2984=
201112221600 METAR MRLB 221600Z 08012KT 9999 FEW030 SCT250 31/20 A2984=
201112221700 METAR MRLB 221700Z 06013KT 9999 FEW025 SCT150 32/20 A2983=
201112221800 METAR MRLB 221800Z 07013KT 9999 FEW030 SCT250 31/20 A2980=
201112221900 METAR MRLB 221900Z 08010KT 9999 SCT035 BKN200 31/20 A2978=
201112222000 METAR MRLB NIL=
201112222100 METAR MRLB 222100Z 10011KT 9999 SCT035 BKN250 31/20 A2974=
201112222200 METAR MRLB 222200Z 08007KT 9999 FEW035 BKN250 30/20 A2974=
201112222300 METAR MRLB 222300Z 07008KT 9999 FEW035 BKN250 29/20 A2975=
201112222353 METAR MRLB 230000Z 07010KT 9999 SCT035 SCT250 28/20 A2976=
201112230000 METAR MRLB 230000Z 07010KT 9999 SCT035 SCT250 28/20 A2976=
201112230100 METAR MRLB 230100Z 32003KT 9999 FEW035 SCT250 26/23 A2978=
201112230200 METAR MRLB 230200Z 00000KT 9999 FEW035 BKN250 25/23 A2981=
201112230300 METAR MRLB NIL=
201112230400 METAR MRLB NIL=
201112230500 METAR MRLB NIL=
201112230600 METAR MRLB NIL=
201112230700 METAR MRLB NIL=
201112230800 METAR MRLB NIL=
201112230900 METAR MRLB NIL=
201112231000 METAR MRLB NIL=
201112231100 METAR MRLB NIL=
201112231200 METAR MRLB 231200Z 00000KT 9999 SCT030 BKN250 23/21 A2980=
201112231300 METAR MRLB 231300Z 26003KT 9999 SCT035 SCT250 24/21 A2983=
201112231400 METAR MRLB 231400Z 20003KT 9999 SCT035 SCT250 27/22 A2986=
201112231500 METAR MRLB 231500Z 32003KT 9999 SCT035 SCT250 30/22 A2988=
201112231600 METAR MRLB 231600Z 06016KT 9999 SCT035 BKN250 31/21 A2986=
201112231700 METAR MRLB 231700Z 05015KT 9999 FEW035 SCT250 32/20 A2983=
201112231800 METAR MRLB 231800Z 05018KT 9999 SCT035 SCT250 32/20 A2981=
201112231900 METAR MRLB 231900Z 05016KT 9999 SCT035 SCT250 33/21 A2978=
201112232000 METAR MRLB 232000Z 07017KT 9999 SCT035 BKN250 31/21 A2976=
201112232100 METAR MRLB 232100Z 07017KT 9999 SCT035 BKN250 31/21 A2975=
201112232200 METAR MRLB 232200Z 06019KT 9999 SCT035 BKN250 30/21 A2975=
201112232300 METAR MRLB 232300Z 07013KT 9999 BKN030 SCT250 28/21 A2977=
201112232352 METAR MRLB 240000Z 04009KT 9999 SCT035 BKN250 27/21 A2977=
201112240000 METAR MRLB 240000Z 04009KT 9999 SCT035 BKN250 27/21 A2977=
201112240100 METAR MRLB 240100Z 06008KT 9999 SCT035 BKN250 27/21 A2978=
201112240200 METAR MRLB 240200Z 07011KT 9999 FEW035 BKN250 27/21 A2981=
201112240300 METAR MRLB NIL=
201112240400 METAR MRLB NIL=
201112240500 METAR MRLB NIL=
201112240600 METAR MRLB NIL=
201112240700 METAR MRLB NIL=
201112240800 METAR MRLB NIL=
201112240900 METAR MRLB NIL=
201112241000 METAR MRLB NIL=
201112241100 METAR MRLB NIL=
201112241200 METAR MRLB 241200Z 05010KT 9999 FEW030 BKN140 26/20 A2981=
201112241300 METAR MRLB 241300Z 06008KT 9999 FEW030 BKN140 26/20 A2983=
201112241400 METAR MRLB 241400Z 07011KT 9999 FEW035 SCT140 BKN250 28/20 A2988=
201112241500 METAR MRLB 241500Z 05015KT 9999 FEW040 BKN250 29/20 A2987=
201112241600 METAR MRLB 241600Z 06012KT 9999 FEW040 BKN250 30/19 A2988=
201112241700 METAR MRLB 241700Z 05017KT 9999 FEW040 BKN250 31/19 A2985=
201112241800 METAR MRLB 241800Z 05018KT 9999 FEW040 BKN250 33/19 A2983=
201112241900 METAR MRLB 241900Z 06015KT 9999 FEW040 BKN250 32/20 A2980=
201112242000 METAR MRLB 242000Z 06011KT 9999 FEW040 BKN250 32/19 A2978=
201112242100 METAR MRLB 242100Z 05013KT 9999 FEW040 BKN250 31/19 A2976=
201112242200 METAR MRLB 242200Z 06011KT 9999 FEW040 BKN250 31/19 A2976=
201112242300 METAR MRLB 242300Z 07010KT 9999 FEW045 SCT250 29/19 A2976=
201112242351 METAR MRLB 250000Z 07012KT 9999 FEW045 28/19 A2977=
201112250000 METAR MRLB 250000Z 07012KT 9999 FEW045 28/19 A2977=
201112250100 METAR MRLB 250100Z 09007KT 9999 NSC 27/20 A2978=
201112250200 METAR MRLB 250200Z 10004KT 9999 NSC 26/20 A2980=
201112250300 METAR MRLB NIL=
201112250400 METAR MRLB NIL=
201112250500 METAR MRLB NIL=
201112250600 METAR MRLB NIL=
201112250700 METAR MRLB NIL=
201112250800 METAR MRLB NIL=
201112250900 METAR MRLB NIL=
201112251000 METAR MRLB NIL=
201112251100 METAR MRLB NIL=
201112251200 METAR MRLB 251200Z 08020KT CAVOK 26/19 A2979=
201112251300 METAR MRLB 251300Z 09020KT CAVOK 27/19 A2980=
201112251400 METAR MRLB 251400Z 07020KT CAVOK 28/19 A2984=
201112251500 METAR MRLB 251500Z 08020KT 9999 FEW025 29/19 A2986=
201112251600 METAR MRLB 251600Z 06020KT 9999 FEW020 31/18 A2987=
201112251700 METAR MRLB 251700Z 07020KT 9999 FEW020 32/18 A2987=
201112251800 METAR MRLB 251800Z 05020KT 9999 FEW020 32/18 A2984=
201112251900 METAR MRLB 251900Z 06018KT 9999 FEW020 32/19 A2981=
201112252000 METAR MRLB 252000Z 06014KT 9999 SCT035 33/19 2980=
201112252100 METAR MRLB 252100Z 06018KT 9999 BKN035 29/20 A2980=
201112252200 METAR MRLB 252200Z 07007KT 9999 SCT035 30/20 A2978=
201112252300 METAR MRLB 252300Z 08010KT 9999 SCT035 29/19 A2980=
201112252355 METAR MRLB 260000Z 08008KT 9999 SCT035 SCT130 27/20 A2981=
201112260000 METAR MRLB 260000Z 08008KT 9999 SCT035 SCT130 27/20 A2981=
201112260100 METAR MRLB 260100Z 07008KT 9999 SCT035 SCT130 26/20 A2982=
201112260200 METAR MRLB 260200Z 06009KT 9999 SCT030 SCT140 26/20 A2983=
201112260300 METAR MRLB NIL=
201112260400 METAR MRLB NIL=
201112260500 METAR MRLB NIL=
201112260600 METAR MRLB NIL=
201112260700 METAR MRLB NIL=
201112260800 METAR MRLB NIL=
201112260900 METAR MRLB NIL=
201112261000 METAR MRLB NIL=
201112261100 METAR MRLB NIL=
201112261200 METAR MRLB 261200Z 06004KT 9999 FEW035 SCT250 24/17 A2981=
201112261300 METAR MRLB 261300Z 07020KT 9999 FEW035 SCT250 26/18 A2984=
201112261400 METAR MRLB 261400Z 07021KT CAVOK 28/17 A2985=
201112261500 METAR MRLB 261500Z 07022KT CAVOK 29/17 A2986=
201112261600 METAR MRLB 261600Z 07022KT CAVOK 30/17 A2985=
201112261700 METAR MRLB 261700Z 06023KT CAVOK 31/15 A2983=
201112261800 METAR MRLB 261800Z 08020KT CAVOK 32/15 A2980=
201112261900 METAR MRLB 261900Z 07019KT CAVOK 32/15 A2980=
201112262000 METAR MRLB 262000Z 06021KT CAVOK 32/15 A2977=
201112262100 METAR MRLB 262100Z 07019KT 9999 SKC 32/15 A2977=
201112262200 METAR MRLB 262200Z 07018KT 9999 SKC 31/17 A2977=
201112262300 METAR MRLB 262300Z 07017KT 9999 SKC 29/18 A2978=
201112270000 METAR MRLB 270000Z 08014KT 9999 SKC 28/18 A2978=
201112270100 METAR MRLB 270100Z 08012KT 9999 SKC 27/17 A2981=
201112270200 METAR MRLB 270200Z 08015KT 9999 SKC 27/19 A2983=
201112270300 METAR MRLB NIL=
201112270400 METAR MRLB NIL=
201112270500 METAR MRLB NIL=
201112270600 METAR MRLB NIL=
201112270700 METAR MRLB NIL=
201112270800 METAR MRLB NIL=
201112270900 METAR MRLB NIL=
201112271000 METAR MRLB NIL=
201112271100 METAR MRLB NIL=
201112271200 METAR MRLB 271200Z 09015KT CAVOK 26/18 A2983=
201112271300 METAR MRLB 271300Z 12005KT CAVOK 26/18 A2986=
201112271400 METAR MRLB 271400Z 07016KT CAVOK 28/17 A2987=
201112271500 METAR MRLB 271500Z 06018KT CAVOK 30/17 A2990=
201112271600 METAR MRLB 271600Z 06018KT CAVOK 31/17 A2990=
201112271700 METAR MRLB 271700Z 07014KT CAVOK 32/17 A2989=
201112271800 METAR MRLB 271800Z 06018KT CAVOK 32/17 A2986=
201112271900 METAR MRLB 271900Z 06016KT CAVOK 33/17 A2983=
201112272000 METAR MRLB 272000Z 05018KT CAVOK 33/17 A2981=
201112272100 METAR MRLB 272100Z 07015KT CAVOK 32/18 A2979=
201112272200 METAR MRLB NIL=
201112272300 METAR MRLB 272300Z 07015KT CAVOK 29/19 A2981=
201112272351 METAR MRLB 280000Z 08016KT CAVOK 28/19 A2980=
201112280000 METAR MRLB 280000Z 08016KT CAVOK 28/19 A2980=
201112280100 METAR MRLB 280100Z 06013KT 9999 SKC 27/19 A2985=
201112280200 METAR MRLB 280200Z 08020KT 9999 SKC 27/19 A2985=
201112280300 METAR MRLB NIL=
201112280400 METAR MRLB NIL=
201112280500 METAR MRLB NIL=
201112280600 METAR MRLB NIL=
201112280700 METAR MRLB NIL=
201112280800 METAR MRLB NIL=
201112280900 METAR MRLB NIL=
201112281000 METAR MRLB NIL=
201112281100 METAR MRLB NIL=
201112281200 METAR MRLB 281200Z 21005KT 9999 FEW025 23/19 A2987=
201112281300 METAR MRLB 281300Z 25005KT 9999 FEW025 23/19 A2989=
201112281400 METAR MRLB 281400Z 24009KT 9999 FEW025 27/20 A2990=
201112281500 METAR MRLB 281500Z 04015KT 9999 FEW025 29/19 A2993=
201112281600 METAR MRLB 281600Z 08020KT 9999 FEW025 29/19 A2992=
201112281700 METAR MRLB 281700Z 07020KT 9999 FEW020 31/19 A2989=
201112281800 METAR MRLB NIL=
201112281900 METAR MRLB 281900Z 08019KT 9999 SCT025 31/19 A2985=
201112282000 METAR MRLB NIL=
201112282100 METAR MRLB 282100Z 07020KT 9999 SCT035 29/18 A2982=
201112282200 METAR MRLB 282200Z 08017KT 9999 SCT035 29/18 A2981=
201112282300 METAR MRLB 282300Z 08015KT 9999 FEW035 28/18 A2982=
201112282350 METAR MRLB 290000Z 07019KT 9999 FEW035 SCT250 26/19 A2983=
201112290000 METAR MRLB 290000Z 07019KT 9999 FEW035 SCT250 26/19 A2983=
201112290100 METAR MRLB 290100Z 08019KT 9999 FEW035 SCT250 26/17 A2984=
201112290200 METAR MRLB 290200Z 10016KT 9999 SCT035 SCT250 26/16 A2986=
201112290300 METAR MRLB NIL=
201112290400 METAR MRLB NIL=
201112290500 METAR MRLB NIL=
201112290600 METAR MRLB NIL=
201112290700 METAR MRLB NIL=
201112290800 METAR MRLB NIL=
201112290900 METAR MRLB NIL=
201112291000 METAR MRLB NIL=
201112291100 METAR MRLB NIL=
201112291200 METAR MRLB 291200Z 32004KT CAVOK 21/18 A2984=
201112291300 METAR MRLB 291300Z 05005KT CAVOK 22/18 A2987=
201112291400 METAR MRLB 291400Z 24004KT CAVOK 27/20 A2990=
201112291500 METAR MRLB 291500Z 24007KT CAVOK 29/19 A2992=
201112291600 METAR MRLB 291600Z 07017KT 9999 FEW035 SCT250 30/18 A2992=
201112291700 METAR MRLB 291700Z 07016KT 9999 FEW035 SCT250 31/18 A2990=
201112291800 METAR MRLB 291800Z 07013KT 9999 FEW035 SCT250 32/18 A2987=
201112291900 METAR MRLB 291900Z 05017KT 9999 FEW035 SCT250 32/18 A2983=
201112292000 METAR MRLB 292000Z 09014KT 9999 FEW035 SCT250 31/19 A2982=
201112292100 METAR MRLB 292100Z 9999 FEW040 SCT250 31/19 A2980=
201112292200 METAR MRLB 292200Z 08015KT 9999 FEW040 SCT250 A2981=
201112292300 METAR MRLB NIL=
201112300000 METAR MRLB NIL=
201112300100 METAR MRLB 300100Z 08014KT CAVOK 28/18 A2982=
201112300200 METAR MRLB 300200Z 07014KT CAVOK 27/17 A2984=
201112300300 METAR MRLB NIL=
201112300400 METAR MRLB NIL=
201112300500 METAR MRLB NIL=
201112300600 METAR MRLB NIL=
201112300700 METAR MRLB NIL=
201112300800 METAR MRLB NIL=
201112300900 METAR MRLB NIL=
201112301000 METAR MRLB NIL=
201112301100 METAR MRLB NIL=
201112301200 METAR MRLB 301200Z 20002KT 9999 NSC 20/19 A2984=
201112301300 METAR MRLB 301300Z 14002KT 9999 NSC 24/20 A2986=
201112301400 METAR MRLB 301400Z 03005KT 9999 NSC 27/20 A2988=
201112301500 METAR MRLB 301500Z 06013KT 9999 FEW040 30/20 A2989=
201112301600 METAR MRLB 301600Z 06018KT 9999 FEW040 31/20 A2988=
201112301700 METAR MRLB 301700Z 06021KT 9999 FEW040 32/19 A2986=
201112301800 METAR MRLB 301800Z 06018KT 9999 FEW040 SCT250 31/19 A2984=
201112301900 METAR MRLB 301900Z 06017KT 9999 FEW040 33/19 A2980=
201112302000 METAR MRLB 302000Z 07014KT 9999 FEW040 33/19 A2977=
201112302100 METAR MRLB 302100Z 06015KT 9999 FEW040 33/20 A2977=
201112302200 METAR MRLB 302200Z 06015KT 9999 FEW040 32/20 A2977=
201112302300 METAR MRLB 302300Z 07013KT 9999 FEW040 30/20 A2979=
201112302346 METAR MRLB 310000Z 08010KT CAVOK 28/20 A2980=
201112310000 METAR MRLB 310000Z 08010KT CAVOK 28/20 A2980=
201112310100 METAR MRLB 310100Z 09007KT CAVOK 27/20 A2982=
201112310200 METAR MRLB 310200Z 08008KT CAVOK 27/20 A2982=
201112310300 METAR MRLB NIL=
201112310400 METAR MRLB NIL=
201112310500 METAR MRLB NIL=
201112310600 METAR MRLB NIL=
201112310700 METAR MRLB NIL=
201112310800 METAR MRLB NIL=
201112310900 METAR MRLB NIL=
201112311000 METAR MRLB NIL=
201112311100 METAR MRLB NIL=
201112311200 METAR MRLB 311200Z 06019KT 9999 FEW020 26/19 A2980=
201112311300 METAR MRLB 311300Z 07022KT CAVOK 28/19 A2983=
201112311400 METAR MRLB 311400Z 07020KT CAVOK 29/19 A2986=
201112311500 METAR MRLB 311500Z 06020G30KT CAVOK 30/19 A2986=
201112311600 METAR MRLB 311600Z 06015KT 9999 FEW025 32/18 A2986=
201112311700 METAR MRLB 311700Z 07016KT 9999 FEW025 32/18 A2984=
201112311800 METAR MRLB 311800Z 05022G32KT 9999 FEW020 32/19 A2981=
201112311900 METAR MRLB 311900Z 06018KT CAVOK 33/18 A2978=
201112312000 METAR MRLB 312000Z 06018KT 9999 SCT035 33/18 A2975=
201112312100 METAR MRLB 312100Z 06016KT 9999 FEW035 SCT250 33/18 A2975=
201112312200 METAR MRLB 312200Z 05014KT 9999 FEW035 SCT140 31/19 A2977=
201112312300 METAR MRLB 312300Z 06015KT 9999 FEW035 SCT140 29/18 A2977=
201112312350 METAR MRLB 010000Z 06017KT 9999 FEW035 SCT140 28/19 A2978=
