201201010000 METAR MRLB 010000Z 06017KT 9999 FEW035 SCT140 28/19 A2978=
201201010048 METAR MRLB 020100Z 07018KT 9999 FEW040 SCT250 28/20 A2981=
201201010100 METAR MRLB 010100Z 07017KT 9999 FEW035 BKN140 27/19 A2979=
201201010200 METAR MRLB 010200Z 07020KT 9999 FEW035 SCT140 27/19 A2981=
201201010300 METAR MRLB NIL=
201201010400 METAR MRLB NIL=
201201010500 METAR MRLB NIL=
201201010600 METAR MRLB NIL=
201201010700 METAR MRLB NIL=
201201010800 METAR MRLB NIL=
201201010900 METAR MRLB NIL=
201201011000 METAR MRLB NIL=
201201011100 METAR MRLB NIL=
201201011200 METAR MRLB 011200Z 05006KT 9999 SCT035 BKN250 24/19 A2981=
201201011300 METAR MRLB 011300Z 08017G27KT 9999 FEW035 BKN250 27/18 A2983=
201201011400 METAR MRLB 011400Z 04014KT 9999 SCT035 BKN250 28/19 A2986=
201201011500 METAR MRLB 011500Z 07021KT 9999 FEW035 BKN250 28/19 A2987=
201201011600 METAR MRLB 011600Z 07020KT 9999 FEW035 BKN250 30/18 A2987=
201201011700 METAR MRLB 011700Z 06020KT 9999 FEW035 BKN250 31/18 A2986=
201201011800 METAR MRLB 011800Z 05020KT 9999 FEW035 SCT250 32/19 A2983=
201201011900 METAR MRLB 011900Z 06019KT 9999 FEW035 SCT250 32/19 A2980=
201201012000 METAR MRLB 012000Z 06018KT 9999 FEW035 SCT250 32/19 A2977=
201201012100 METAR MRLB 012100Z 06018KT 9999 FEW040 32/19 A2976=
201201012200 METAR MRLB 012200Z 06017KT 9999 FEW040 31/20 A2976=
201201012300 METAR MRLB 012300Z 06016KT 9999 FEW040 SCT250 29/22 A2978=
201201012349 METAR MRLB 020000Z 07019KT 9999 FEW040 SCT250 28/20 A2979=
201201020000 METAR MRLB 020000Z 07019KT 9999 FEW040 SCT250 28/20 A2979=
201201020100 METAR MRLB 020100Z 07018KT 9999 FEW040 SCT250 28/20 A2981=
201201020200 METAR MRLB 020200Z 08017KT 9999 FEW040 27/20 A2982=
201201020300 METAR MRLB NIL=
201201020400 METAR MRLB NIL=
201201020500 METAR MRLB NIL=
201201020600 METAR MRLB NIL=
201201020700 METAR MRLB NIL=
201201020800 METAR MRLB NIL=
201201020900 METAR MRLB NIL=
201201021000 METAR MRLB NIL=
201201021100 METAR MRLB NIL=
201201021200 METAR MRLB 021200Z 09015KT 9999 FEW040 26/19 A2982=
201201021300 METAR MRLB 021300Z 08015KT 9999 FEW040 27/19 A2986=
201201021400 METAR MRLB 021400Z 07017KT 9999 FEW040 28/19 A2990=
201201021500 METAR MRLB 021500Z 07018KT 9999 FEW040 30/19 A2990=
201201021600 METAR MRLB 021600Z 06020KT 9999 FEW040 31/18 A2990=
201201021700 METAR MRLB 021700Z 07017KT 9999 FEW040 31/19 A2989=
201201021800 METAR MRLB 021800Z 07021KT 9999 FEW040 32/17 A2987=
201201021900 METAR MRLB 021900Z 07018KT 9999 FEW040 33/16 A2985=
201201022000 METAR MRLB 022000Z 07020G30KT 9999 FEW025 32/17 A2982=
201201022100 METAR MRLB 022100Z 06020KT 9999 FEW025 32/18 A2982=
201201022200 METAR MRLB 022200Z 06018KT 9999 FEW025 31/19 A2983=
201201022300 METAR MRLB 022300Z 06015KT 9999 FEW025 29/18 A2984=
201201022351 METAR MRLB 030000Z 06014KT CAVOK 27/18 A2986=
201201030000 METAR MRLB 030000Z 06014KT CAVOK 27/18 A2986=
201201030100 METAR MRLB 030100Z 06014KT CAVOK 27/19 A2989=
201201030200 METAR MRLB 030200Z 06018KT CAVOK 27/19 A2991=
201201030300 METAR MRLB NIL=
201201030400 METAR MRLB NIL=
201201030500 METAR MRLB NIL=
201201030600 METAR MRLB NIL=
201201030700 METAR MRLB NIL=
201201030800 METAR MRLB NIL=
201201030900 METAR MRLB NIL=
201201031000 METAR MRLB NIL=
201201031100 METAR MRLB NIL=
201201031200 METAR MRLB 031200Z 06020KT 9999 SCT025 25/19 A2991=
201201031300 METAR MRLB 031300Z 05018KT 9999 FEW030 SCT250 26/19 A2994=
201201031400 METAR MRLB 031400Z 08005KT 9999 FEW030 SCT250 29/19 A2998=
201201031500 METAR MRLB 031500Z 08012KT 9999 SCT020 BKN250 27/19 A2998=
201201031600 METAR MRLB 031600Z 07020KT 9999 SCT020 BKN250 28/18 A2998=
201201031700 METAR MRLB 031700Z 05020KT 9999 SCT020 BKN250 29/19 A2997=
201201031800 METAR MRLB 031800Z 07018KT 9999 SCT020 BKN250 28/19 A2994=
201201031900 METAR MRLB NIL=
201201032000 METAR MRLB 032000Z 08014KT 9999 BKN030 26/19 A2990=
201201032100 METAR MRLB 032100Z 06022KT 9999 SCT030 BKN250 27/18 A2990=
201201032200 METAR MRLB 032200Z 06016KT 9999 SCT035 BKN240 27/18 A2990=
201201032300 METAR MRLB 032300Z 07015KT 9999 SCT035 BKN240 26/18 A2990=
201201032350 METAR MRLB 040000Z 07014KT 9999 SCT035 BKN230 25/18 A2992=
201201040000 METAR MRLB 040000Z 07014KT 9999 SCT035 BKN230 25/18 A2992=
201201040100 METAR MRLB 040100Z 06017KT 9999 SCT035 BKN230 25/18 A2994=
201201040200 METAR MRLB 040200Z 06021KT 9999 SCT030 BKN230 26/18 A2996=
201201040300 METAR MRLB NIL=
201201040400 METAR MRLB NIL=
201201040500 METAR MRLB NIL=
201201040600 METAR MRLB NIL=
201201040700 METAR MRLB NIL=
201201040800 METAR MRLB NIL=
201201040900 METAR MRLB NIL=
201201041000 METAR MRLB NIL=
201201041100 METAR MRLB NIL=
201201041200 METAR MRLB 041200Z 19003KT 9999 BKN030 22/17 A2995=
201201041300 METAR MRLB 041300Z 20004KT 9999 SCT035 24/18 A2998=
201201041400 METAR MRLB 041400Z 24006KT 9999 SCT035 26/16 A2999=
201201041500 METAR MRLB 041500Z 22007KT 9999 SCT035 26/16 A2999=
201201041600 METAR MRLB 041600Z 24012KT 9999 SCT035 28/16 A2998=
201201041700 METAR MRLB 041700Z 06009KT 9999 SCT035 30/15 A2996=
201201041800 METAR MRLB 041800Z 28010KT 9999 FEW035 30/15 A2994=
201201041900 METAR MRLB 041900Z 09011KT 9999 FEW035 SCT250 30/16 A2990=
201201042000 METAR MRLB 042000Z 06010KT 9999 FEW035 SCT250 31/16 A2990=
201201042100 METAR MRLB 042100Z 02009KT 9999 FEW040 SCT250 29/15 A2988=
201201042200 METAR MRLB 042200Z 10014KT 9999 FEW040 SCT250 28/16 A2987=
201201042300 METAR MRLB 042300Z 36003KT 9999 FEW040 SCT250 28/16 A2990=
201201042353 METAR MRLB 050000Z 23004KT 9999 FEW040 26/16 A2989=
201201050000 METAR MRLB 050000Z 23004KT 9999 FEW040 26/16 A2989=
201201050100 METAR MRLB 050100Z 32002KT 9999 NSC 24/17 A2991=
201201050200 METAR MRLB 050200Z 20007KT 9999 NSC 22/17 A2992=
201201050300 METAR MRLB NIL=
201201050400 METAR MRLB NIL=
201201050500 METAR MRLB NIL=
201201050600 METAR MRLB NIL=
201201050700 METAR MRLB NIL=
201201050800 METAR MRLB NIL=
201201050900 METAR MRLB NIL=
201201051000 METAR MRLB NIL=
201201051100 METAR MRLB NIL=
201201051200 METAR MRLB 051200Z 24004KT CAVOK 18/16 A2994=
201201051300 METAR MRLB 051300Z 22006KT CAVOK 21/16 A2995=
201201051400 METAR MRLB 051400Z 22007KT CAVOK 24/16 A2997=
201201051500 METAR MRLB 051500Z 24005KT CAVOK 26/15 A2998=
201201051600 METAR MRLB 051600Z 23007KT CAVOK 27/15 A2998=
201201051700 METAR MRLB 051700Z 22006KT CAVOK 29/15 A2996=
201201051800 METAR MRLB 051800Z 29006KT CAVOK 31/15 A2993=
201201051900 METAR MRLB 051900Z 10010KT CAVOK 31/15 A2990=
201201052000 METAR MRLB 052000Z 09015KT CAVOK 31/15 A2987=
201201052100 METAR MRLB 052100Z 08012KT CAVOK 30/15 A2985=
201201052200 METAR MRLB 052200Z 07013KT CAVOK 29/16 A2985=
201201052300 METAR MRLB 052300Z 06010KT CAVOK 28/16 A2986=
201201052350 METAR MRLB 060000Z 09008KT CAVOK 26/16 A2986=
201201060000 METAR MRLB 060000Z 09008KT CAVOK 26/16 A2986=
201201060100 METAR MRLB 060100Z 21005KT CAVOK 24/16 A2988=
201201060200 METAR MRLB 060200Z 22005KT CAVOK 23/17 A2989=
201201060300 METAR MRLB NIL=
201201060400 METAR MRLB NIL=
201201060500 METAR MRLB NIL=
201201060600 METAR MRLB NIL=
201201060700 METAR MRLB NIL=
201201060800 METAR MRLB NIL=
201201060900 METAR MRLB NIL=
201201061000 METAR MRLB NIL=
201201061100 METAR MRLB NIL=
201201061200 METAR MRLB 061200Z 19006KT 9999 FEW025 SCT100 21/16 A2986=
201201061300 METAR MRLB 061300Z 21005KT 9999 FEW030 SCT120 23/16 A2988=
201201061400 METAR MRLB 061400Z 18005KT 9999 FEW030 SCT120 23/17 A2991=
201201061500 METAR MRLB 061500Z 19006KT 9999 FEW025 SCT140 25/17 A2993=
201201061600 METAR MRLB 061600Z 22010KT 9999 FEW030 SCT150 27/16 A2992=
201201061700 METAR MRLB 061700Z 27010KT 9999 FEW030 SCT180 29/16 A2991=
201201061800 METAR MRLB 061800Z 22005KT 9999 FEW030 SCT200 30/16 A2989=
201201061900 METAR MRLB 061900Z 24006KT 9999 FEW030 SCT140 30/17 A2986=
201201062000 METAR MRLB 062000Z 26007KT 9999 SCT035 SCT140 30/17 A2983=
201201062100 METAR MRLB 062100Z 05010KT 9999 SCT035 SCT130 29/18 A2982=
201201062200 METAR MRLB 062200Z 09013KT 9999 SCT035 BKN130 28/18 A2981=
201201062300 METAR MRLB 062300Z 08011KT 9999 FEW035 BKN140 27/18 A2983=
201201062350 METAR MRLB 070000Z 08010KT 9999 SCT035 BKN230 26/19 A2984=
201201070000 METAR MRLB 070000Z 08010KT 9999 SCT035 BKN230 26/19 A2984=
201201070100 METAR MRLB 070100Z 27003KT 9999 FEW035 BKN230 24/19 A2985=
201201070200 METAR MRLB 070200Z 08015KT 9999 SCT035 BKN230 25/19 A2986=
201201070300 METAR MRLB NIL=
201201070400 METAR MRLB NIL=
201201070500 METAR MRLB NIL=
201201070600 METAR MRLB NIL=
201201070700 METAR MRLB NIL=
201201070800 METAR MRLB NIL=
201201070900 METAR MRLB NIL=
201201071000 METAR MRLB NIL=
201201071100 METAR MRLB NIL=
201201071200 METAR MRLB 071200Z 26003KT 9999 SCT025 BKN120 22/20 A2987=
201201071300 METAR MRLB 071300Z 20005KT 9999 SCT030 BKN130 23/20 A2989=
201201071400 METAR MRLB 071400Z 32005KT 9999 FEW030 BKN130 25/20 A2991=
201201071500 METAR MRLB 071500Z 07009KT 9999 SCT035 BKN120 28/19 A2993=
201201071600 METAR MRLB 071600Z 06016KT 9999 FEW035 BKN130 29/19 A2993=
201201071700 METAR MRLB 071700Z 07015KT 9999 SCT035 SCT130 29/19 A2991=
201201071800 METAR MRLB 071800Z 08016KT 9999 FEW035 SCT130 31/18 A2988=
201201071900 METAR MRLB 071900Z 07017KT 9999 SCT035 BKN130 30/19 A2986=
201201072000 METAR MRLB 072000Z 08017KT 9999 FEW035 BKN130 29/19 A2984=
201201072100 METAR MRLB 072100Z 07014KT 9999 FEW040 BKN120 29/19 A2983=
201201072200 METAR MRLB 072200Z 06015KT 9999 FEW040 SCT120 29/19 A2983=
201201072300 METAR MRLB 072300Z 06013KT 9999 FEW040 SCT120 28/19 A2984=
201201072353 METAR MRLB 080000Z 06013KT 9999 SCT040 27/19 A2984=
201201080000 METAR MRLB 080000Z 06013KT 9999 SCT040 27/19 A2984=
201201080100 METAR MRLB 080100Z 05014KT 9999 SCT040 26/20 A2986=
201201080200 METAR MRLB 080200Z 06010KT 9999 SCT040 26/20 A2988=
201201080300 METAR MRLB NIL=
201201080400 METAR MRLB NIL=
201201080500 METAR MRLB NIL=
201201080600 METAR MRLB NIL=
201201080700 METAR MRLB NIL=
201201080800 METAR MRLB NIL=
201201080900 METAR MRLB NIL=
201201081000 METAR MRLB NIL=
201201081100 METAR MRLB NIL=
201201081200 METAR MRLB 081200Z 11005KT 9999 FEW040 23/20 A2987=
201201081300 METAR MRLB 081300Z 10006KT 9999 FEW040 25/20 A2988=
201201081400 METAR MRLB 081400Z 09008KT 9999 NSC 28/20 A2991=
201201081500 METAR MRLB 081500Z 07015KT 9999 FEW035 29/19 A2992=
201201081600 METAR MRLB 081600Z 06017KT 9999 FEW035 31/18 A2992=
201201081700 METAR MRLB 081700Z 06015KT 9999 FEW035 31/18 A2991=
201201081800 METAR MRLB 081800Z 06011KT 9999 FEW040 32/18 A2988=
201201081900 METAR MRLB 081900Z 06015KT 9999 FEW040 33/17 A2985=
201201082000 METAR MRLB 082000Z 06013KT 9999 FEW040 33/16 A2981=
201201082100 METAR MRLB 082100Z 07014KT 9999 FEW040 33/16 A2980=
201201082200 METAR MRLB 082200Z 09016KT 9999 NSC 32/14 A2981=
201201082300 METAR MRLB 082300Z 05011KT 9999 NSC 31/17 A2981=
201201082349 METAR MRLB 090000Z 06008KT 9999 SKC 28/17 A2982=
201201090000 METAR MRLB 090000Z 06008KT 9999 SKC 28/17 A2982=
201201090100 METAR MRLB 090100Z 06007KT 9999 SKC 26/18 A2983=
201201090200 METAR MRLB 090200Z 06007KT 9999 SKC 26/18 A2983=
201201090300 METAR MRLB NIL=
201201090400 METAR MRLB NIL=
201201090500 METAR MRLB NIL=
201201090600 METAR MRLB NIL=
201201090700 METAR MRLB NIL=
201201090800 METAR MRLB NIL=
201201090900 METAR MRLB NIL=
201201091000 METAR MRLB NIL=
201201091100 METAR MRLB NIL=
201201091200 METAR MRLB 091200Z 10006KT CAVOK 22/18 A2985=
201201091300 METAR MRLB 091300Z 12004KT 9999 NSC 24/18 A2987=
201201091400 METAR MRLB 091400Z 10008KT 9999 NSC 27/19 A2989=
201201091500 METAR MRLB 091500Z 09012KT 9999 NSC 30/18 A2991=
201201091600 METAR MRLB 091600Z 08014KT CAVOK 31/17 A2991=
201201091700 METAR MRLB 091700Z 09012KT CAVOK 31/17 A2990=
201201091800 METAR MRLB 091800Z 09012KT 9999 FEW030 32/17 A2988=
201201091900 METAR MRLB 091900Z 10012KT 9999 SCT030 33/16 A2985=
201201092000 METAR MRLB NIL=
201201092100 METAR MRLB 092100Z 06010KT 9999 SCT035 31/18 A2981=
201201092200 METAR MRLB 092200Z 08008KT 9999 SCT035 SCT250 32/18 A2981=
201201092300 METAR MRLB 092300Z 05011KT 9999 SCT035 SCT250 30/19 A2982=
201201092350 METAR MRLB 100000Z 05012KT 9999 SCT035 BKN250 28/19 A2983=
201201100000 METAR MRLB 100000Z 05012KT 9999 SCT035 BKN250 28/19 A2983=
201201100100 METAR MRLB 100100Z 06009KT 9999 FEW035 BKN250 26/18 A2984=
201201100200 METAR MRLB 100200Z 06010KT 9999 FEW035 BKN250 25/18 A2986=
201201100300 METAR MRLB NIL=
201201100400 METAR MRLB NIL=
201201100500 METAR MRLB NIL=
201201100600 METAR MRLB NIL=
201201100700 METAR MRLB NIL=
201201100800 METAR MRLB NIL=
201201100900 METAR MRLB NIL=
201201101000 METAR MRLB NIL=
201201101100 METAR MRLB NIL=
201201101200 METAR MRLB 101200Z 10006KT CAVOK 23/18 A2984=
201201101300 METAR MRLB 101300Z 12008KT CAVOK 25/18 A2985=
201201101400 METAR MRLB 101400Z 10010KT CAVOK 27/18 A2988=
201201101500 METAR MRLB 101500Z 10009KT CAVOK 29/18 A2991=
201201101600 METAR MRLB 101600Z 09008KT CAVOK 30/17 A2991=
201201101700 METAR MRLB 101700Z 09009KT CAVOK 32/17 A2990=
201201101800 METAR MRLB 101800Z 06009KT 9999 FEW035 SCT250 32/17 A2986=
201201101900 METAR MRLB 101900Z 06012KT 9999 FEW035 SCT250 33/18 A2983=
201201102000 METAR MRLB 102000Z 05012KT 9999 FEW035 SCT250 32/17 A2980=
201201102100 METAR MRLB 102100Z 06013KT 9999 FEW040 SCT250 32/18 A2977=
201201102200 METAR MRLB 102200Z 08013KT 9999 FEW040 SCT250 32/18 A2976=
201201102300 METAR MRLB 102300Z 07016KT CAVOK 30/17 A2976=
201201102348 METAR MRLB 110000Z 07015KT 9999 SKC 28/18 A2976=
201201102352 METAR MRLB 110000Z 07015KT 9999 SKC 28/18 A2976=
201201110000 METAR MRLB 110000Z 07015KT 9999 SKC 28/18 A2976=
201201110100 METAR MRLB 110100Z 06014KT 9999 SKC 27/17 A2977=
201201110200 METAR MRLB 110200Z 08012KT 9999 SKC 27/18 A2978=
201201110300 METAR MRLB NIL=
201201110400 METAR MRLB NIL=
201201110500 METAR MRLB NIL=
201201110600 METAR MRLB NIL=
201201110700 METAR MRLB NIL=
201201110800 METAR MRLB NIL=
201201110900 METAR MRLB NIL=
201201111000 METAR MRLB NIL=
201201111100 METAR MRLB NIL=
201201111200 METAR MRLB 111200Z 00000KT 9999 NSC 18/17 A2981=
201201111300 METAR MRLB 111300Z 00000KT 9999 NSC 20/17 A2982=
201201111400 METAR MRLB 111400Z 00000KT 9999 NSC 26/16 A2984=
201201111500 METAR MRLB NIL=
201201111600 METAR MRLB 111600Z 25004KT CAVOK 31/17 A2987=
201201111700 METAR MRLB 111700Z 09006KT CAVOK 32/17 A2985=
201201111800 METAR MRLB NIL=
201201111900 METAR MRLB 111900Z 08010KT 9999 FEW030 33/16 A2979=
201201112000 METAR MRLB 112000Z 07012KT 9999 SCT025 33/16 A2975=
201201112100 METAR MRLB 112100Z 08012KT 9999 SCT025 33/16 A2973=
201201112200 METAR MRLB 112200Z 08013KT 9999 FEW035 32/17 A2973=
201201112300 METAR MRLB 112300Z 06012KT CAVOK 30/18 A2975=
201201112355 METAR MRLB 120000Z 09010KT 9999 NSC 28/18 A2974=
201201120000 METAR MRLB 120000Z 09010KT 9999 NSC 28/18 A2974=
201201120100 METAR MRLB 120100Z 08008KT 9999 NSC 27/19 A2975=
201201120200 METAR MRLB 120200Z 06010KT 9999 SKC 27/18 A2977=
201201120300 METAR MRLB NIL=
201201120400 METAR MRLB NIL=
201201120500 METAR MRLB NIL=
201201120600 METAR MRLB NIL=
201201120700 METAR MRLB NIL=
201201120800 METAR MRLB NIL=
201201120900 METAR MRLB NIL=
201201121000 METAR MRLB NIL=
201201121100 METAR MRLB NIL=
201201121200 METAR MRLB 121200Z 00000KT CAVOK 20/18 A2980=
201201121300 METAR MRLB 121300Z 00000KT CAVOK 23/19 A2981=
201201121400 METAR MRLB 121400Z 00000KT CAVOK 29/19 A2984=
201201121500 METAR MRLB 121500Z 03006KT CAVOK 29/19 A2985=
201201121600 METAR MRLB 121600Z 06010KT 9999 FEW030 31/18 A2984=
201201121700 METAR MRLB 121700Z 09010KT 9999 FEW030 32/18 A2982=
201201121800 METAR MRLB 121800Z 10011KT 9999 FEW030 33/18 A2980=
201201121900 METAR MRLB 121900Z 08010KT 9999 FEW030 33/18 A2976=
201201122000 METAR MRLB 122000Z 08008KT 9999 SCT035 34/17 A2973=
201201122100 METAR MRLB 122100Z 06010KT 9999 FEW035 33/17 A2973=
201201122200 METAR MRLB 122200Z 05012KT 9999 FEW035 33/17 A2973=
201201122300 METAR MRLB 122300Z 05010KT 9999 FEW035 31/18 A2974=
201201122355 METAR MRLB 130000Z 07008KT CAVOK 28/19 A2976=
201201130000 METAR MRLB 130000Z 07008KT CAVOK 28/19 A2976=
201201130100 METAR MRLB 130100Z 06008KT CAVOK 27/19 A2978=
201201130200 METAR MRLB 130200Z 06009KT CAVOK 26/19 A2980=
201201130300 METAR MRLB NIL=
201201130400 METAR MRLB NIL=
201201130500 METAR MRLB NIL=
201201130600 METAR MRLB NIL=
201201130700 METAR MRLB NIL=
201201130800 METAR MRLB NIL=
201201130900 METAR MRLB NIL=
201201131000 METAR MRLB NIL=
201201131100 METAR MRLB NIL=
201201131200 METAR MRLB 131200Z 09007KT CAVOK 23/19 A2984=
201201131300 METAR MRLB 131300Z 03006KT CAVOK 24/19 A2985=
201201131400 METAR MRLB 131400Z 06014KT CAVOK 28/18 A2988=
201201131500 METAR MRLB 131500Z 07015KT CAVOK 30/18 A2989=
201201131600 METAR MRLB 131600Z 07015KT CAVOK 30/18 A2989=
201201131700 METAR MRLB 131700Z 07015KT CAVOK 32/17 A2986=
201201131800 METAR MRLB 131800Z 07018KT 9999 SCT035 31/20 A2983=
201201131900 METAR MRLB 131900Z 06017KT 9999 SCT035 32/19 A2981=
201201132000 METAR MRLB 132000Z 06019KT 9999 SCT035 31/17 A2978=
201201132100 METAR MRLB 132100Z 07020KT 9999 FEW040 SCT130 31/18 A2977=
201201132200 METAR MRLB 132200Z 06022KT 9999 FEW040 30/18 A2976=
201201132300 METAR MRLB 132300Z 07017KT 9999 NSC 29/19 A2978=
201201132348 METAR MRLB 140000Z 08018KT 9999 NSC 27/19 A2977=
201201140000 METAR MRLB 140000Z 08018KT 9999 NSC 27/19 A2977=
201201140100 METAR MRLB 140100Z 07019KT 9999 NSC 27/18 A2979=
201201140200 METAR MRLB 140200Z 07019KT 9999 NSC 27/19 A2981=
201201140300 METAR MRLB NIL=
201201140400 METAR MRLB NIL=
201201140500 METAR MRLB NIL=
201201140600 METAR MRLB NIL=
201201140700 METAR MRLB NIL=
201201140800 METAR MRLB NIL=
201201140900 METAR MRLB NIL=
201201141000 METAR MRLB NIL=
201201141100 METAR MRLB NIL=
201201141200 METAR MRLB 141200Z 05008KT 9999 SKC 24/18 A2985=
201201141300 METAR MRLB 141300Z 02004KT 9999 SKC 23/18 A2987=
201201141400 METAR MRLB 141400Z 01004KT 9999 SKC 28/18 A2991=
201201141500 METAR MRLB 141500Z 08015KT 9999 SKC 30/18 A2992=
201201141600 METAR MRLB 141600Z 05010KT 9999 NSC 31/18 A2993=
201201141700 METAR MRLB 141700Z 08016KT 9999 FEW040 31/19 A2990=
201201141800 METAR MRLB 141800Z 07019KT 9999 FEW040 31/18 A2988=
201201141900 METAR MRLB 141900Z 07016KT 9999 FEW040 31/17 A2985=
201201142000 METAR MRLB 142000Z 08014KT 9999 FEW040 31/18 A2982=
201201142100 METAR MRLB 142100Z 08014KT 9999 FEW040 32/18 A2982=
201201142200 METAR MRLB 142200Z 09017KT 9999 FEW040 SCT250 30/18 A2981=
201201142300 METAR MRLB 142300Z 07014KT 9999 FEW040 BKN250 29/17 A2985=
201201142350 METAR MRLB 150000Z 09016KT CAVOK 27/18A2983=
201201150000 METAR MRLB 150000Z 09016KT CAVOK 27/18A2983=
201201150100 METAR MRLB 150100Z 09016KT 9999 NSC 27/18 A2984=
201201150200 METAR MRLB 150200Z 08018KT 9999 NSC 27/19 A2987=
201201150300 METAR MRLB NIL=
201201150400 METAR MRLB NIL=
201201150500 METAR MRLB NIL=
201201150600 METAR MRLB NIL=
201201150700 METAR MRLB NIL=
201201150800 METAR MRLB NIL=
201201150900 METAR MRLB NIL=
201201151000 METAR MRLB NIL=
201201151100 METAR MRLB NIL=
201201151200 METAR MRLB 151200Z 28005KT 9999 FEW035 SCT250 23/19 A2990=
201201151300 METAR MRLB 151300Z 18003KT 9999 SCT035 SCT250 25/20 A2991=
201201151400 METAR MRLB 151400Z 08013KT 9999 FEW035 SCT250 29/20 A2993=
201201151500 METAR MRLB 151500Z 06024KT 9999 SCT035 SCT130 29/20 A2993=
201201151600 METAR MRLB 151600Z 07023G33KT 9999 FEW035 BKN130 29/20 A2984=
201201151700 METAR MRLB 151700Z 06020G30KT 9999 SCT035 SCT130 30/20 A2996=
201201151800 METAR MRLB 151800Z 05023KT 9999 SCT035 BKN130 30/20 A2994=
201201151900 METAR MRLB 151900Z 06017KT 9999 SCT035 BKN130 31/19 A2991=
201201152000 METAR MRLB 152000Z 07016KT 9999 SCT035 BKN120 30/19 A2989=
201201152100 METAR MRLB 152100Z 06019KT 9999 SCT035 BKN120 29/19 A2988=
201201152200 METAR MRLB 152200Z 06015KT 9999 FEW035 BKN120 28/19 A2988=
201201152300 METAR MRLB 152300Z 06012KT 9999 FEW035 SCT120 28/19 A2987=
201201152350 METAR MRLB 160000Z 07012KT 9999 FEW035 SCT120 27/19 A2988=
201201160000 METAR MRLB 160000Z 07012KT 9999 FEW035 SCT120 27/19 A2988=
201201160100 METAR MRLB 160100Z 07008KT 9999 SCT035 SCT130 26/19 A2989=
201201160200 METAR MRLB 160200Z 07009KT 9999 SCT035 SCT130 25/19 A2992=
201201160300 METAR MRLB NIL=
201201160400 METAR MRLB NIL=
201201160500 METAR MRLB NIL=
201201160600 METAR MRLB NIL=
201201160700 METAR MRLB NIL=
201201160800 METAR MRLB NIL=
201201160900 METAR MRLB NIL=
201201161000 METAR MRLB NIL=
201201161100 METAR MRLB NIL=
201201161200 METAR MRLB 161200Z 09003KT 9999 SCT030 BKN250 24/21 A2991=
201201161300 METAR MRLB 161300Z 07007KT 9999 SCT035 SCT250 26/20 A2992=
201201161400 METAR MRLB 161400Z 05015KT 9999 SCT035 28/20 A2993=
201201161500 METAR MRLB 161500Z 08010KT 9999 SCT035 30/19 A2996=
201201161600 METAR MRLB 161600Z 07017KT 9999 SCT035 30/19 A2996=
201201161700 METAR MRLB 161700Z 07023G33KT 9999 SCT035 31/16 A2993=
201201161800 METAR MRLB 161800Z 07020KT 9999 SCT035 31/17 A2991=
201201161900 METAR MRLB 161900Z 08021G34KT 9999 SCT035 32/16 A2988=
201201162000 METAR MRLB 162000Z 07019KT 9999 SCT035 33/16 A2986=
201201162100 METAR MRLB 162100Z 05017KT 9999 SCT040 31/17 A2984=
201201162200 METAR MRLB 162200Z 05016KT 9999 FEW040 31/17 A2983=
201201162300 METAR MRLB 162300Z 06014KT 9999 NSC 29/18 A2985=
201201162349 METAR MRLB 170000Z 06015KT 9999 FEW040 28/18 A2986=
201201170000 METAR MRLB 170000Z 06015KT 9999 FEW040 28/18 A2986=
201201170100 METAR MRLB 170100Z 06012KT 9999 FEW040 27/19 A2987=
201201170200 METAR MRLB 170200Z 06012KT 9999 FEW040 26/19 A2988=
201201170300 METAR MRLB NIL=
201201170400 METAR MRLB NIL=
201201170500 METAR MRLB NIL=
201201170600 METAR MRLB NIL=
201201170700 METAR MRLB NIL=
201201170800 METAR MRLB NIL=
201201170900 METAR MRLB NIL=
201201171000 METAR MRLB NIL=
201201171100 METAR MRLB NIL=
201201171200 METAR MRLB 171200Z 07008KT 9999 BKN035 25/18 A2988=
201201171300 METAR MRLB 171300Z 06014KT 9999 BKN035 25/19 A2990=
201201171400 METAR MRLB 171400Z 06016KT 9999 SCT035 SCT250 27/19 A2992=
201201171500 METAR MRLB 171500Z 07018KT 9999 OVC035 27/19 A2994=
201201171600 METAR MRLB 171600Z 08009KT 9999 BKN035 27/19 A2995=
201201171700 METAR MRLB 171700Z 06016KT 9999 BKN035 28/18 A2994=
201201171800 METAR MRLB 171800Z 07015KT 9999 BKN035 30/18 A2991=
201201171900 METAR MRLB 171900Z 08019KT 9999 BKN035 29/18 A2989=
201201172000 METAR MRLB 172000Z 07017KT 9999 SCT035 32/17 A2986=
201201172100 METAR MRLB 172100Z 06015KT 9999 SCT040 31/17 A2985=
201201172200 METAR MRLB 172200Z 05012KT 9999 NSC 30/18 A2984=
201201172300 METAR MRLB 172300Z 05012KT 9999 NSC 30/19 A2985=
201201172348 METAR MRLB 180000Z 03014KT 9999 FEW040 27/19 A2985=
201201180000 METAR MRLB 180000Z 03014KT 9999 FEW040 27/19 A2985=
201201180100 METAR MRLB 180100Z 05016KT 9999 FEW040 26/19 A2986=
201201180200 METAR MRLB 180200Z 05020KT 9999 FEW040 26/19 A2988=
201201180300 METAR MRLB NIL=
201201180400 METAR MRLB NIL=
201201180500 METAR MRLB NIL=
201201180600 METAR MRLB NIL=
201201180700 METAR MRLB NIL=
201201180800 METAR MRLB NIL=
201201180900 METAR MRLB NIL=
201201181000 METAR MRLB NIL=
201201181100 METAR MRLB NIL=
201201181200 METAR MRLB 181200Z 05011KT 9999 NSC 25/19 A2984=
201201181300 METAR MRLB 181300Z 05007KT 9999 NSC 26/18 A2987=
201201181400 METAR MRLB 181400Z 06014KT 9999 FEW035 28/19 A2989=
201201181500 METAR MRLB 181500Z 06014KT 9999 FEW035 29/18 A2990=
201201181600 METAR MRLB 181600Z 05016KT 9999 FEW040 31/18 A2991=
201201181700 METAR MRLB 181700Z 06019KT CAVOK 32/16 A2990=
201201181800 METAR MRLB 181800Z 06020KT CAVOK 32/16 A2987=
201201181900 METAR MRLB 181900Z 05021KT CAVOK 32/16 A2984=
201201182000 METAR MRLB 182000Z 07018KT CAVOK 32/16 A2982=
201201182100 METAR MRLB 182100Z 06018KT 9999 FEW035 32/15 A2980=
201201182200 METAR MRLB 182200Z 06019KT 9999 SCT040 31/16 A2980=
201201182300 METAR MRLB 182300Z 05016KT 9999 SCT040 29/18 A2981=
201201182352 METAR MRLB 190000Z 05014KT 9999 FEW040 27/18 A2982=
201201190000 METAR MRLB 190000Z 05014KT 9999 FEW040 27/18 A2982=
201201190100 METAR MRLB 190100Z 04012KT CAVOK 26/18 A2983=
201201190200 METAR MRLB 190200Z 04014KT CAVOK 26/18 A2986=
201201190300 METAR MRLB NIL=
201201190400 METAR MRLB NIL=
201201190500 METAR MRLB NIL=
201201190600 METAR MRLB NIL=
201201190700 METAR MRLB NIL=
201201190800 METAR MRLB NIL=
201201190900 METAR MRLB NIL=
201201191000 METAR MRLB NIL=
201201191100 METAR MRLB NIL=
201201191200 METAR MRLB 191200Z 07007KT 9999 FEW035 24/17 A2985=
201201191300 METAR MRLB 191300Z 05008KT 9999 FEW035 25/17 A2987=
201201191400 METAR MRLB 191400Z 05015KT 9999 FEW035 27/17 A2990=
201201191500 METAR MRLB 191500Z 05022KT 9999 FEW035 29/16 A2990=
201201191600 METAR MRLB 191600Z 06022KT 9999 FEW035 30/16 A2991=
201201191700 METAR MRLB 191700Z 05023KT 9999 FEW035 30/16 A2989=
201201191800 METAR MRLB 191800Z 04023KT 9999 FEW035 32/14 A2985=
201201191900 METAR MRLB 191900Z 06023KT 9999 FEW035 32/14 A2983=
201201192000 METAR MRLB 192000Z 05018KT 9999 FEW035 32/15 A2980=
201201192100 METAR MRLB 192100Z 05020KT 9999 FEW040 32/14 A2979=
201201192200 METAR MRLB 192200Z 06015KT 9999 FEW040 31/16 A2979=
201201192300 METAR MRLB 192300Z 05015KT 9999 FEW040 29/16 A2979=
201201192348 METAR MRLB 200000Z 05014KT 9999 FEW040 27/17 A2980=
201201200000 METAR MRLB 200000Z 05014KT 9999 FEW040 27/17 A2980=
201201200100 METAR MRLB 200100Z 06013KT 9999 FEW040 26/18 A2981=
201201200200 METAR MRLB 200200Z 05015KT 9999 FEW040 26/18 A2983=
201201200300 METAR MRLB NIL=
201201200400 METAR MRLB NIL=
201201200500 METAR MRLB NIL=
201201200600 METAR MRLB NIL=
201201200700 METAR MRLB NIL=
201201200800 METAR MRLB NIL=
201201200900 METAR MRLB NIL=
201201201000 METAR MRLB NIL=
201201201100 METAR MRLB NIL=
201201201200 METAR MRLB 201200Z 07008KT 9999 FEW040 24/18 A2980=
201201201300 METAR MRLB 201300Z 13004KT 9999 FEW040 24/18 A2983=
201201201400 METAR MRLB 201400Z 09006KT 9999 FEW040 27/18 A2986=
201201201500 METAR MRLB 201500Z 06009KT 9999 FEW040 29/18 A2988=
201201201600 METAR MRLB 201600Z 05012KT 9999 FEW040 30/17 A2988=
201201201700 METAR MRLB 201700Z 05011KT 9999 SCT040 31/17 A2988=
201201201800 METAR MRLB 201800Z 08013KT 9999 SCT040 32/17 A2985=
201201201900 METAR MRLB 201900Z 05014KT 9999 SCT040 30/18 A2983=
201201202000 METAR MRLB 202000Z 06015KT 9999 SCT040 32/18 A2980=
201201202100 METAR MRLB 202100Z 05018KT 9999 FEW040 30/18 A2979=
201201202200 METAR MRLB 202200Z 06014KT 9999 FEW040 30/18 A2979=
201201202251 METAR MRLB 202251Z 05015KT 9999 FEW040 28/18 A2980=
201201202300 METAR MRLB 202300Z 05015KT 9999 FEW040 28/18 A2980=
201201202350 METAR MRLB 210000Z 06011KT 9999 SCT040 27/19 A2981=
201201210000 METAR MRLB 210000Z 06011KT 9999 SCT040 27/19 A2981=
201201210100 METAR MRLB 210100Z 06011KT CAVOK 26/18 A2982=
201201210200 METAR MRLB 210200Z 06013KT CAVOK 26/19 A2982=
201201210300 METAR MRLB NIL=
201201210400 METAR MRLB NIL=
201201210500 METAR MRLB NIL=
201201210600 METAR MRLB NIL=
201201210700 METAR MRLB NIL=
201201210800 METAR MRLB NIL=
201201210900 METAR MRLB NIL=
201201211000 METAR MRLB NIL=
201201211100 METAR MRLB NIL=
201201211200 METAR MRLB 211200Z 11006KT 9999 NSC 23/17 A2982=
201201211300 METAR MRLB 211300Z 07008KT 9999 NSC 24/17 A2984=
201201211400 METAR MRLB 211400Z 07012KT 9999 NSC 26/17 A2986=
201201211500 METAR MRLB 211500Z 07011KT 9999 NSC 29/15 A2989=
201201211600 METAR MRLB 211600Z 09011KT 9999 NSC 31/14 A 2989=
201201211700 METAR MRLB 211700Z 10012KT 9999 NSC 32/12 A2987=
201201211800 METAR MRLB 211800Z 06012KT 9999 SKC 33/14 A2984=
201201211852 METAR MRLB 241900Z 07014KT 9999 FEW040 BKN250 32/17 A2984=
201201211900 METAR MRLB 211900Z 07015KT 9999 NSC 32/14 A2981=
201201212000 METAR MRLB 212000Z 07013KT 9999 NSC 34/14 A2980=
201201212100 METAR MRLB 212100Z 08012KT 9999 FEW035 33/14 A2978=
201201212200 METAR MRLB 212200Z 05013KT 9999 FEW035 32/16 A2977=
201201212300 METAR MRLB 212300Z 04015KT 9999 FEW035 30/16 A2977=
201201212351 METAR MRLB 220000Z 05013KT CAVOK 28/16 A2978=
201201220000 METAR MRLB 220000Z 05013KT CAVOK 28/16 A2978=
201201220100 METAR MRLB 220100Z 06013KT CAVOK 27/16 A2979=
201201220200 METAR MRLB 220200Z 05013KT CAVOK 26/17 A2981=
201201220300 METAR MRLB NIL=
201201220400 METAR MRLB NIL=
201201220500 METAR MRLB NIL=
201201220600 METAR MRLB NIL=
201201220700 METAR MRLB NIL=
201201220800 METAR MRLB NIL=
201201220900 METAR MRLB NIL=
201201221000 METAR MRLB NIL=
201201221100 METAR MRLB NIL=
201201221200 METAR MRLB 221200Z 14003KT CAVOK 18/16 A2983=
201201221300 METAR MRLB 221300Z 05004KT CAVOK 20/17 A2985=
201201221400 METAR MRLB 221400Z 04006KT CAVOK 27/18 A2986=
201201221500 METAR MRLB 221500Z 04012KT CAVOK 28/17 A2989=
201201221600 METAR MRLB NIL=
201201221700 METAR MRLB 221700Z 05017KT CAVOK 32/16 A2987=
201201221800 METAR MRLB 221800Z 05013KT CAVOK 32/16 A2984=
201201221900 METAR MRLB 221900Z 08013KT CAVOK 33/16 A2981=
201201222000 METAR MRLB 222000Z 07011KT CAVOK 33/16 A2978=
201201222100 METAR MRLB 222100Z 06012KT 9999 FEW040 33/17 A2977=
201201222200 METAR MRLB 222200Z 05014KT 9999 FEW040 32/17 A2976=
201201222300 METAR MRLB 222300Z 06013KT 9999 NSC 30/18 A2976=
201201222348 METAR MRLB 230000Z 06010KT 9999 SKC 28/18 A2977=
201201230000 METAR MRLB 230000Z 06010KT 9999 SKC 28/18 A2977=
201201230100 METAR MRLB 230100Z 06011KT 9999 SKC 27/18 A3979=
201201230200 METAR MRLB 230200Z 07019KT 9999 SKC 27/19 A2981=
201201230300 METAR MRLB NIL=
201201230400 METAR MRLB NIL=
201201230500 METAR MRLB NIL=
201201230600 METAR MRLB NIL=
201201230700 METAR MRLB NIL=
201201230800 METAR MRLB NIL=
201201230900 METAR MRLB NIL=
201201231000 METAR MRLB NIL=
201201231100 METAR MRLB NIL=
201201231200 METAR MRLB 231200Z 07005KT 9999 NSC 23/18 A2982=
201201231300 METAR MRLB 231300Z 02003KT 9999 BKN035 23/18 A2984=
201201231400 METAR MRLB 231400Z 07012KT 9999 FEW040 27/18 A2986=
201201231500 METAR MRLB 231500Z 08011KT 9999 FEW040 28/17 A2988=
201201231600 METAR MRLB 231600Z 07009KT 9999 FEW040 30/17 A2988=
201201231700 METAR MRLB 231700Z 07010KT 9999 SCT040 30/17 A2987=
201201231800 METAR MRLB 231800Z 05012KT 9999 SCT040 31/17 A2985=
201201231900 METAR MRLB 231900Z 08011KT 9999 SCT040 33/15 A2982=
201201232000 METAR MRLB 232000Z 07012KT 9999 SCT040 33/16 A2978=
201201232100 METAR MRLB NIL=
201201232200 METAR MRLB 232200Z 04012KT 9999 FEW040 32/15 A2978=
201201232300 METAR MRLB 232300Z 03012KT CAVOK 31/17 A2978=
201201232351 METAR MRLB 240000Z 04012KT 9999 FEW040 SCT250 28/18 A2980=
201201240000 METAR MRLB 240000Z 04012KT 9999 FEW040 SCT250 28/18 A2980=
201201240051 METAR MRLB 240051Z 05013KT CAVOK 27/18 A2981=
201201240100 METAR MRLB 240051 05013KT CAVOK 27/18 A2981=
201201240200 METAR MRLB 240200Z 05013KT CAVOK 27/18 A2983=
201201240300 METAR MRLB NIL=
201201240400 METAR MRLB NIL=
201201240500 METAR MRLB NIL=
201201240600 METAR MRLB NIL=
201201240700 METAR MRLB NIL=
201201240800 METAR MRLB NIL=
201201240900 METAR MRLB NIL=
201201241000 METAR MRLB NIL=
201201241100 METAR MRLB NIL=
201201241200 METAR MRLB 241200Z 09008KT CAVOK 25/18 A2984=
201201241300 METAR MRLB 241300Z 07012KT CAVOK 26/18 A2986=
201201241400 METAR MRLB 241400Z 07012KT CAVOK 28/18 A2989=
201201241500 METAR MRLB 241500Z 08015KT CAVOK 30/17 A2990=
201201241600 METAR MRLB 241600Z 08015KT CAVOK 31/17 A2990=
201201241700 METAR MRLB 241700Z 07016KT 9999 FEW040 BKN250 32/17 A2990=
201201241800 METAR MRLB 241800Z 06017KT 9999 FEW040 BKN250 32/17 A2987=
201201241900 METAR MRLB 241900Z 07014KT 9999 FEW040 BKN250 32/17 A2984=
201201242000 METAR MRLB 242000Z 07010KT 9999 FEW040 BKN250 32/17 A2981=
201201242100 METAR MRLB 242100Z 08011KT 9999 FEW040 BKN250 32/18 A2980=
201201242200 METAR MRLB 242200Z 06012KT 9999 SCT040 BKN250 31/18 A2979=
201201242300 METAR MRLB 242300Z 07012KT 9999 FEW035 BKN250 30/17 A2981=
201201242356 METAR MRLB 250000Z 07011KT 9999 FEW035 BKN250 28/18 A2982=
201201250000 METAR MRLB 250000Z 07011KT 9999 FEW035 BKN250 28/18 A2982=
201201250100 METAR MRLB 250100Z 09006KT 9999 FEW035 SCT250 26/18 A2983=
201201250200 METAR MRLB 250200Z 09012KT 9999 FEW035 BKN250 26/19 A2985=
201201250300 METAR MRLB NIL=
201201250400 METAR MRLB NIL=
201201250500 METAR MRLB NIL=
201201250600 METAR MRLB NIL=
201201250700 METAR MRLB NIL=
201201250800 METAR MRLB NIL=
201201250900 METAR MRLB NIL=
201201251000 METAR MRLB NIL=
201201251100 METAR MRLB NIL=
201201251200 METAR MRLB 251200Z 20003KT CAVOK 20/18 A2987=
201201251300 METAR MRLB 251300Z 19003KT CAVOK 22/19 A2988=
201201251400 METAR MRLB 251400Z 19005KT CAVOK 26/20 A2990=
201201251500 METAR MRLB 251500Z 15003KT CAVOK 29/19 A2992=
201201251600 METAR MRLB 251600Z 09009KT CAVOK 31/17 A2992=
201201251700 METAR MRLB 251700Z 06013KT 9999 FEW035 31/16 A2990=
201201251800 METAR MRLB 251800Z 06010KT 9999 SCT035 32/17 A2987=
201201251900 METAR MRLB 251900Z 04013KT 9999 SCT035 SCT130 31/17 A2985=
201201252000 METAR MRLB 252000Z 05014KT 9999 SCT035 BKN130 29/18 A2983=
201201252100 METAR MRLB 252100Z 04009KT 9999 FEW035 BKN130 29/18 A2980=
201201252200 METAR MRLB 252200Z 05011KT 9999 FEW035 SCT130 30/18 A2979=
201201252300 METAR MRLB 252300Z 04014KT 9999 FEW035 SCT130 29/19 A2979=
201201252348 METAR MRLB 260000Z 06007KT 9999 FEW035 BKN120 28/19 A2980=
201201260000 METAR MRLB 260000Z 06007KT 9999 FEW035 BKN120 28/19 A2980=
201201260100 METAR MRLB 260100Z 03003KT 9999 FEW035 BKN120 26/18 A2981=
201201260200 METAR MRLB 260200Z 08002KT 9999 FEW035 BKN120 26/17 A2982=
201201260300 METAR MRLB NIL=
201201260400 METAR MRLB NIL=
201201260500 METAR MRLB NIL=
201201260600 METAR MRLB NIL=
201201260700 METAR MRLB NIL=
201201260800 METAR MRLB NIL=
201201260900 METAR MRLB NIL=
201201261000 METAR MRLB NIL=
201201261100 METAR MRLB NIL=
201201261200 METAR MRLB 261200Z 10002KT 9999 SKC 21/18 A2983=
201201261300 METAR MRLB 261300Z 16002KT 9999 SKC 24/19A2984=
201201261400 METAR MRLB 261400Z 08008KT 9999 SKC 27/19 A2986=
201201261500 METAR MRLB 261500Z 07010KT 9999 NSC 29/18 A2988=
201201261600 METAR MRLB 261600Z 07007KT 9999 FEW040 31/18 A2989=
201201261700 METAR MRLB NIL=
201201261755 METAR MRLB 261755Z 07014KT 9999 SCT040 32/16 A2985=
201201261800 MRLB 261800Z MRLB 07014KT 9999 SCT040 32/16 A2985=
201201261900 METAR MRLB 261900Z 08013KT 9999 SCT040 32/16 A2981=
201201262000 METAR MRLB NIL=
201201262100 METAR MRLB 05012KT 9999 SCT040 33/18 A2976=
201201262134 METAR MRLB 262134Z 05012KT 9999 SCT040 33/18 A2976=
201201262200 METAR MRLB 262200Z 07010KT 9999 SCT040 33/17 A2976=
201201262300 METAR MRLB 262300Z 07009KT 9999 FEW040 31/18 A2978=
201201262349 METAR MRLB 270000Z 06010KT FEW040 SCT250 29/17 A2979=
201201270000 METAR MRLB 270000Z 06010KT FEW040 SCT250 29/17 A2979=
201201270050 METAR MRLB 270100 08010KT CAVOK 27/18 A2980=
201201270100 METAR MRLB 270100Z 08010KT CAVOK 27/18 A2980=
201201270200 METAR MRLB 270200Z 08013KT CAVOK 27/18 A2981=
201201270300 METAR MRLB NIL=
201201270400 METAR MRLB NIL=
201201270500 METAR MRLB NIL=
201201270600 METAR MRLB NIL=
201201270700 METAR MRLB NIL=
201201270800 METAR MRLB NIL=
201201270900 METAR MRLB NIL=
201201271000 METAR MRLB NIL=
201201271100 METAR MRLB NIL=
201201271200 METAR MRLB 271200Z 06004KT CAVOK 20/18 A2984=
201201271300 METAR MRLB 271300Z 21002KT CAVOK 21/18 A2985=
201201271400 METAR MRLB 271400Z 23003KT CAVOK 26/19 A2987=
201201271500 METAR MRLB 271500Z 02004KT CAVOK 29/18 A2989=
201201271600 METAR MRLB 271600Z 02005KT CAVOK 31/17 A2988=
201201271700 METAR MRLB 271700Z 08014KT CAVOK 32/14 A2985=
201201271800 METAR MRLB 271800Z 07015KT CAVOK 33/15 A2983=
201201271900 METAR MRLB 271900Z 08017KT CAVOK 32/15 A2980=
201201272000 METAR MRLB 272000Z 07017KT 9999 FEW040 32/15 A2978=
201201272100 METAR MRLB 272100Z 08019KT 9999 FEW035 32/15 A2976=
201201272200 METAR MRLB 272200Z 08018KT 9999 FEW035 31/17 A2976=
201201272300 METAR MRLB 272300Z 07017KT 9999 FEW035 29/18 A2978=
201201272350 METAR MRLB 280000Z 06017KT CAVOK 27/17 A2979=
201201280000 METAR MRLB 280000Z 06017KT CAVOK 27/17 A2979=
201201280100 METAR MRLB 280100Z 06015KT CAVOK 26/17 A2980=
201201280200 METAR MRLB 280200Z 07016KT CAVOK 26/18 A2982=
201201280300 METAR MRLB NIL=
201201280400 METAR MRLB NIL=
201201280500 METAR MRLB NIL=
201201280600 METAR MRLB NIL=
201201280700 METAR MRLB NIL=
201201280800 METAR MRLB NIL=
201201280900 METAR MRLB NIL=
201201281000 METAR MRLB NIL=
201201281100 METAR MRLB NIL=
201201281200 METAR MRLB 281200Z 09013KT CAVOK 25/17 A2983=
201201281300 METAR MRLB 281300Z 08011KT CAVOK 26/17 A2984=
201201281400 METAR MRLB 281400Z 06018KT CAVOK 28/15 A2986=
201201281500 METAR MRLB 281500Z 06017KT CAVOK 29/15 A2989=
201201281600 METAR MRLB 281600Z 05016KT CAVOK 30/14 A2989=
201201281700 METAR MRLB 281700Z 07015KT CAVOK 32/14 A2988=
201201281800 METAR MRLB 281800Z 07014KT CAVOK 32/14 A2986=
201201281900 METAR MRLB 281900Z 07014KT CAVOK 32/15 A2983=
201201282000 METAR MRLB 282000Z 06015KT CAVOK 33/15 A2981=
201201282100 METAR MRLB 282100Z 06017KT 9999 FEW040 33/15 A2978=
201201282200 METAR MRLB 282200Z 06017KT 9999 NSC 32/16 A2977=
201201282300 METAR MRLB 282300Z 06017KT 9999 NSC 30/15 A2979=
201201282354 METAR MRLB 290000Z 06012KT 9999 NSC 28/16 A2980=
201201290000 METAR MRLB 290000Z 06012KT 9999 NSC 28/16 A2980=
201201290100 METAR MRLB 290100Z 08014KT 9999 NSC 27/17 A2980=
201201290200 METAR MRLB 290200Z 08017KT 9999 NSC 27/17 A2982=
201201290300 METAR MRLB NIL=
201201290400 METAR MRLB NIL=
201201290500 METAR MRLB NIL=
201201290600 METAR MRLB NIL=
201201290700 METAR MRLB NIL=
201201290800 METAR MRLB NIL=
201201290900 METAR MRLB NIL=
201201291000 METAR MRLB NIL=
201201291100 METAR MRLB NIL=
201201291200 METAR MRLB NIL=
201201291300 METAR MRLB NIL=
201201291400 METAR MRLB NIL=
201201291500 METAR MRLB NIL=
201201291600 METAR MRLB NIL=
201201291700 METAR MRLB 291700Z 07023KT 9999 FEW040 30/17 A2988=
201201291800 METAR MRLB 291800Z 07022KT 9999 FEW040 SCT250 30/18 A2987=
201201291900 METAR MRLB 291900Z 07022KT 9999 FEW040 BKN250 31/17 A2984=
201201292000 METAR MRLB 292000Z 08019KT 9999 FEW040 BKN250 30/18 A2981=
201201292100 METAR MRLB 292100Z 08018KT 9999 FEW040 BKN250 30/18 A2980=
201201292200 METAR MRLB 292200Z 07020KT FEW045 OVC250 29/19 A2980=
201201292300 METAR MRLB 292300Z 07017KT 9999 FEW040 BKN250 27/19 A2981=
201201292352 METAR MRLB 300000Z 07016KT 9999 FEW040 BKN250 26/19 A2981=
201201300000 METAR MRLB 300000Z 07016KT 9999 FEW040 BKN250 26/19 A2981=
201201300100 METAR MRLB 300100Z 06018KT CAVOK 26/19 A2984=
201201300200 METAR MRLB 300200Z 07015KT CAVOK 26/19 A2985=
201201300300 METAR MRLB NIL=
201201300400 METAR MRLB NIL=
201201300500 METAR MRLB NIL=
201201300600 METAR MRLB NIL=
201201300700 METAR MRLB NIL=
201201300800 METAR MRLB NIL=
201201300900 METAR MRLB NIL=
201201301000 METAR MRLB NIL=
201201301100 METAR MRLB NIL=
201201301200 METAR MRLB 301200Z 07020G31KT CAVOK 25/18 A2982=
201201301300 METAR MRLB 301300Z 08021KT 9999 FEW040 BKN250 26/18 A2984=
201201301400 METAR MRLB 301400Z 08018KT 9999 FEW040 SCT250 27/18 A2986=
201201301500 METAR MRLB 301500Z 07022KT FEW040 SCT250 29/18 A2988=
201201301600 METAR MRLB 301600Z 07020KT 9999 FEW035 BKN250 30/16 A2988=
201201301700 METAR MRLB 301700Z 07024KT 9999 FEW035 BKN250 31/16 A2987=
201201301800 METAR MRLB 301800Z 07018KT CAVOK 30/16 A2984=
201201301900 METAR MRLB 301900Z 07022KT 9999 FEW040 BKN250 31/16 A2981=
201201302000 METAR MRLB 302000Z 08020KT 9999 FEW040 BKN250 32/16 A2978=
201201302100 METAR MRLB 302100Z 07017KT 9999 FEW035 BKN250 32/17 A2977=
201201302200 METAR MRLB 302200Z 07017KT 9999 FEW040 SCT250 31/17 A2978=
201201302300 METAR MRLB 302300Z 07014KT 9999 FEW040 BKN240 29/18 A2978=
201201302350 METAR MRLB 310000Z 06013KT 9999 FEW040 BKN230 27/18 A2980=
201201310000 METAR MRLB 310000Z 06013KT 9999 FEW040 BKN230 27/18 A2980=
201201310100 METAR MRLB 310100Z 08014KT 9999 FEW035 BKN230 26/17 A2981=
201201310200 METAR MRLB 310200Z 08017KT 9999 FEW035 BKN230 26/17 A2981=
201201310300 METAR MRLB NIL=
201201310400 METAR MRLB NIL=
201201310500 METAR MRLB NIL=
201201310600 METAR MRLB NIL=
201201310700 METAR MRLB NIL=
201201310800 METAR MRLB NIL=
201201310900 METAR MRLB NIL=
201201311000 METAR MRLB NIL=
201201311100 METAR MRLB NIL=
201201311200 METAR MRLB 311200Z 08019KT 9999 FEW035 BKN250 25/17 A2980=
201201311300 METAR MRLB 311300Z 08017KT 9999 FEW035 SCT250 26/17 A2982=
201201311400 METAR MRLB 311400Z 07017KT 9999 FEW035 SCT250 28/17 A2983=
201201311500 METAR MRLB 311500Z 08019KT 9999 FEW035 SCT250 29/16 A2985=
201201311600 METAR MRLB 311600Z 06022KT CAVOK 30/16 A2987=
201201311700 METAR MRLB 311700Z 06017KT CAVOK 32/16 A2985=
201201311800 METAR MRLB 311800Z 05020KT 9999 FEW035 SCT250 32/16 A2983=
201201311900 METAR MRLB 311900Z 06020KT 9999 FEW035 BKN250 31/17 A2980=
201201312000 METAR MRLB 312000Z 07018KT 9999 FEW035 BKN250 32/18 A2979=
201201312100 METAR MRLB 312100Z 05021KT 9999 FEW040 BKN250 31/17 A2977=
201201312200 METAR MRLB 312200Z 07014KT 9999 FEW040 SCT250 30/16 A2977=
201201312300 METAR MRLB 312300Z 06015KT 9999 FEW040 30/17 A2979=
201201312346 METAR MRLB 010000Z 06011KT 9999 NSC 27/18 A2979=
201202010000 METAR MRLB 010000Z 06011KT 9999 NSC 27/18 A2979=
201202010100 METAR MRLB 010100Z 07008KT 9999 NSC 26/18 A2981=
201202010200 METAR MRLB 010200Z 08007KT 9999 NSC 26/18 A2982=
201202010300 METAR MRLB NIL=
201202010400 METAR MRLB NIL=
201202010500 METAR MRLB NIL=
201202010600 METAR MRLB NIL=
201202010700 METAR MRLB NIL=
201202010800 METAR MRLB NIL=
201202010900 METAR MRLB NIL=
201202011000 METAR MRLB NIL=
201202011100 METAR MRLB NIL=
201202011200 METAR MRLB 011200Z 08017KT CAVOK 25/17 A2978=
201202011300 METAR MRLB 011300Z 08012KT 9999 NSC 26/18 A2979=
201202011400 METAR MRLB 011400Z 36002KT 9999 NSC 28/17 A2982=
201202011500 METAR MRLB 011500Z 07018KT 9999 FEW040 29/17 A2982=
201202011600 METAR MRLB 011600Z 08019KT 9999 FEW040 30/17 A2982=
201202011700 METAR MRLB 011700Z 08022KT 9999 FEW040 31/18 A2980=
201202011800 METAR MRLB 011800Z 06025KT 9999 FEW040 31/18 A2978=
201202011900 METAR MRLB 011900Z 06024KT 9999 FEW040 32/18 A2977=
201202012000 METAR MRLB 012000Z 06022KT 9999 FEW040 32/15 A2975=
201202012100 METAR MRLB 012100Z 06020KT 9999 FEW040 32/16 A2973=
201202012200 METAR MRLB 012200Z 06016KT CAVOK 31/16 A2974=
201202012300 METAR MRLB 012300Z 06018KT CAVOK 29/17 A2974=
201202012352 METAR MRLB 020000Z 07015KT CAVOK 27/17 A2975=
201202020000 METAR MRLB 020000Z 07015KT CAVOK 27/17 A2975=
201202020100 METAR MRLB 020100Z 07015KT CAVOK 27/17 A2976=
201202020200 METAR MRLB 020200Z 07014KT CAVOK 26/17 A2978=
201202020300 METAR MRLB NIL=
201202020400 METAR MRLB NIL=
201202020500 METAR MRLB NIL=
201202020600 METAR MRLB NIL=
201202020700 METAR MRLB NIL=
201202020800 METAR MRLB NIL=
201202020900 METAR MRLB NIL=
201202021000 METAR MRLB NIL=
201202021100 METAR MRLB NIL=
201202021200 METAR MRLB 021200Z 25002KT CAVOK 22/18 A2977=
201202021300 METAR MRLB 021300Z 21004KT CAVOK 24/18 A2978=
201202021400 METAR MRLB 021400Z 32002KT CAVOK 27/17 A2980=
201202021500 METAR MRLB 021500Z 04009KT CAVOK 28/18 A2982=
201202021600 METAR MRLB 021600Z 07017KT CAVOK 29/17 A2982=
201202021700 METAR MRLB 021700Z 06020KT CAVOK 30/15 A2980=
201202021800 METAR MRLB 021800Z 06017KT CAVOK 30/16 A2977=
201202021900 METAR MRLB 021900Z 07019KT CAVOK 31/17 A2975=
201202022000 METAR MRLB 022000Z 07018G29KT CAVOK 28/18 A2970=
201202022100 METAR MRLB 022100Z 06016KT 9999 FEW035 BKN140 29/15 A2969=
201202022200 METAR MRLB 022200Z 07012KT 9999 FEW035 BKN130 28/16 A2968=
201202022300 METAR MRLB 022300Z 07014KT 9999 FEW035 BKN130 28/16 A2968=
201202022353 METAR MRLB 030000Z 09013KT 9999 FEW035 BKN130 27/17 A2970=
201202030000 METAR MRLB 030000Z 09013KT 9999 FEW035 BKN130 27/17 A2970=
201202030100 METAR MRLB 030100Z 08015KT 9999 SCT035 BKN120 27/18 A2972=
201202030200 METAR MRLB 030200Z 07015KT 9999 FEW035 BKN120 26/18 A2974=
201202030300 METAR MRLB NIL=
201202030400 METAR MRLB NIL=
201202030500 METAR MRLB NIL=
201202030600 METAR MRLB NIL=
201202030700 METAR MRLB NIL=
201202030800 METAR MRLB NIL=
201202030900 METAR MRLB NIL=
201202031000 METAR MRLB NIL=
201202031100 METAR MRLB NIL=
201202031200 METAR MRLB 031200Z 14006KT 9999 FEW035 BKN140 24/18 A2972=
201202031300 METAR MRLB 031300Z 10007KT 9999 FEW035 BKN140 25/17 A2975=
201202031400 METAR MRLB 031400Z 09008KT 9999 FEW035 SCT140 27/16 A2978=
201202031500 METAR MRLB 031500Z 07010KT 9999 FEW035 SCT140 30/16 A2979=
201202031600 METAR MRLB 031600Z 07010KT 9999 FEW035 BKN140 32/15 A2979=
201202031700 METAR MRLB 031700Z 05011KT 9999 FEW035 SCT140 32/15 A2978=
201202031800 METAR MRLB 031800Z 08013KT 9999 FEW035 SCT250 34/15 A2975=
201202031900 METAR MRLB 031900Z 07020KT 9999 FEW035 SCT240 34/15 A2973=
201202032000 METAR MRLB 032000Z 09016KT 9999 FEW035 SCT240 34/15 A2971=
201202032100 METAR MRLB 032100Z 05012KT 9999 FEW040 BKN130 33/16 A2970=
201202032200 METAR MRLB 032200Z 05013KT 9999 SCT040 SCT130 32/18 A2969=
201202032300 METAR MRLB 032300Z 04014KT 9999 FEW040 SCT130 31/18 A2970=
201202032346 METAR MRLB 040000Z 05015KT 9999 FEW040 SCT130 28/18 A2971=
201202040000 METAR MRLB 040000Z 05015KT 9999 FEW040 SCT130 28/18 A2971=
201202040100 METAR MRLB 040100Z 06009KT 9999 FEW040 SCT130 27/18 A2973=
201202040200 METAR MRLB NIL=
201202040300 METAR MRLB NIL=
201202040400 METAR MRLB NIL=
201202040500 METAR MRLB NIL=
201202040600 METAR MRLB NIL=
201202040700 METAR MRLB NIL=
201202040800 METAR MRLB NIL=
201202040900 METAR MRLB NIL=
201202041000 METAR MRLB NIL=
201202041100 METAR MRLB NIL=
201202041200 METAR MRLB 041200Z 23004KT 9999 FEW035 BKN100 23/18 A2972=
201202041300 METAR MRLB 041300Z 26004KT 9999 FEW040 BKN120 23/19 A2973=
201202041400 METAR MRLB 041400Z 17004KT CAVOK 29/18 A2975=
201202041500 METAR MRLB 041500Z 05011KT CAVOK 29/18 A2978=
201202041600 METAR MRLB 041600Z 05004KT CAVOK 29/18 A2979=
201202041700 METAR MRLB 041700Z 08016KT CAVOK 31/17 A2979=
201202041800 METAR MRLB 041800Z 09015KT CAVOK 32/17 A2977=
201202041900 METAR MRLB 041900Z 08012KT 9999 FEW040 SCT130 33/18 A2975=
201202042000 METAR MRLB 042000Z 11011KT 9999 FEW040 34/18 A2973=
201202042100 METAR MRLB 042100Z 07012KT 9999 FEW040 33/17 A2971=
201202042200 METAR MRLB 042200Z 06011KT CAVOK 32/17 A2970=
201202042300 METAR MRLB 042300Z 08010KT CAVOK 31/18 A2970 RMK=
201202042350 METAR MRLB 050000Z 09013KT CAVOK 29/18 2970=
201202050000 METAR MRLB 050000Z 09013KT CAVOK 29/18 2970=
201202050100 METAR MRLB 050100Z 08013KT CAVOK 28/18 A2973=
201202050200 METAR MRLB 050200Z 07006KT CAVOK 27/17 A2975=
201202050300 METAR MRLB NIL=
201202050400 METAR MRLB NIL=
201202050500 METAR MRLB NIL=
201202050600 METAR MRLB NIL=
201202050700 METAR MRLB NIL=
201202050800 METAR MRLB NIL=
201202050900 METAR MRLB NIL=
201202051000 METAR MRLB NIL=
201202051100 METAR MRLB NIL=
201202051200 METAR MRLB 051200Z 34002KT CAVOK 21/20 A2980=
201202051300 METAR MRLB 051300Z 04004KT CAVOK 24/20 A2981=
201202051400 METAR MRLB 051400Z 01005KT CAVOK 26/20 A2981=
201202051500 METAR MRLB 051500Z 18002KT CAVOK 27/20 A2983=
201202051600 METAR MRLB 051600Z 21003KT CAVOK 30/20 A2982=
201202051700 METAR MRLB 051700Z 06009KT 9999 FEW040 BKN130 31/18 A2981=
201202051800 METAR MRLB 051800Z 08007KT 9999 FEW040 BKN130 32/18 A2980=
201202051900 METAR MRLB 051900Z 09009KT 9999 FEW040 BKN130 33/18 A2977=
201202052000 METAR MRLB 052000Z 08010KT 9999 FEW040 SCT130 33/18 A2975=
201202052100 METAR MRLB 052100Z 10007KT 9999 SCT040 BKN130 32/18 A2973=
201202052200 METAR MRLB 052200Z 06011KT 9999 SCT040 BKN130 32/19 A2973=
201202052300 METAR MRLB 052300Z 06012KT 9999 FEW035 BKN130 30/19 A2974=
201202052350 METAR MRLB 060000Z 08010KT 9999 FEW040 BKN120 29/19 A2975=
201202060000 METAR MRLB 060000Z 08010KT 9999 FEW040 BKN120 29/19 A2975=
201202060100 METAR MRLB 060100Z 07012KT 9999 FEW035 BKN120 28/20 A2977=
201202060200 METAR MRLB 060200Z 08013KT 9999 FEW035 BKN120 27/20 A2978=
201202060300 METAR MRLB NIL=
201202060400 METAR MRLB NIL=
201202060500 METAR MRLB NIL=
201202060600 METAR MRLB NIL=
201202060700 METAR MRLB NIL=
201202060800 METAR MRLB NIL=
201202060900 METAR MRLB NIL=
201202061000 METAR MRLB NIL=
201202061100 METAR MRLB NIL=
201202061200 METAR MRLB 061200Z 05003KT CAVOK 23/19 A2980=
201202061300 METAR MRLB 061300Z 34004KT CAVOK 24/20 A2982=
201202061400 METAR MRLB 061400Z 03003KT CAVOK 29/20 A2984=
201202061500 METAR MRLB 061500Z 07014KT 9999 FEW035 SCT250 30/19 A2985=
201202061600 METAR MRLB 061600Z 07016KT 9999 SCT035 32/19 A2986=
201202061700 METAR MRLB 061700Z 08018KT 9999 SCT035 32/18 A2984=
201202061800 METAR MRLB 061800Z 09017KT 9999 SCT035 33/18 A2981=
201202061900 METAR MRLB 061900Z 07019KT 9999 SCT035 33/18 A2979=
201202062000 METAR MRLB 062000Z 06021KT 9999 SCT035 33/18 A2975=
201202062100 METAR MRLB 062100Z 07020KT 9999 SCT040 33/18 A2974=
201202062200 METAR MRLB 062200Z 07016KT 9999 FEW040 32/18 A2973=
201202062300 METAR MRLB 062300Z 08016KT 9999 FEW040 30/18 A2973=
201202070000 METAR MRLB 070000Z 08017KT CAVOK 29/19 A2972=
201202070100 METAR MRLB 070100Z 08018KT CAVOK 28/19 A2974=
201202070200 METAR MRLB 070200Z 08017KT CAVOK 27/19 A2978=
201202070300 METAR MRLB NIL=
201202070400 METAR MRLB NIL=
201202070500 METAR MRLB NIL=
201202070600 METAR MRLB NIL=
201202070700 METAR MRLB NIL=
201202070800 METAR MRLB NIL=
201202070900 METAR MRLB NIL=
201202071000 METAR MRLB NIL=
201202071100 METAR MRLB NIL=
201202071200 METAR MRLB 071200Z 05009KT 9999 BKN035 25/20 A2981=
201202071300 METAR MRLB 071300Z 08011KT 9999 BKN035 26/20 A2982=
201202071400 METAR MRLB 071400Z 05011KT 9999 BKN035 28/20 A2983=
201202071500 METAR MRLB 071500Z 07012KT 9999 SCT035 BKN100 29/19 A2986=
201202071530 METAR MRLB 071530Z 07012KT 9999 SCT035 BKN100 29/19 A2986=
201202071600 METAR MRLB 071600Z 06018KT 9999 SCT035 30/20 A2986=
201202071700 METAR MRLB 071700Z 06019KT 9999 BKN035 31/19 A2985=
201202071800 METAR MRLB 071800Z 06016KT 9999 BKN035 31/19 A2982=
201202071900 METAR MRLB 071900Z 06012KT 9999 SCT035 33/19 A2979=
201202072000 METAR MRLB 072000Z 08013KT 9999 SCT035 31/19 A2978=
201202072100 METAR MRLB 072100Z 06012KT 9999 FEW040 SCT120 33/18 A2975=
201202072200 METAR MRLB 072200Z 05013KT 9999 FEW040 BKN120 31/18 A2976=
201202072300 METAR MRLB 072300Z 05018KT 9999 SCT040 BKN120 30/18 A2976=
201202072351 METAR MRLB 080000Z 06011KT 9999 SCT040 BKN120 28/19 A2977=
201202080000 METAR MRLB 080000Z 06011KT 9999 SCT040 BKN120 28/19 A2977=
201202080100 METAR MRLB 080100Z 05006KT 9999 SCT040 BKN120 28/19 A2979=
201202080200 METAR MRLB 080200Z 08005KT 9999 FEW040 BKN130 27/19 2982=
201202080300 METAR MRLB NIL=
201202080400 METAR MRLB NIL=
201202080500 METAR MRLB NIL=
201202080600 METAR MRLB NIL=
201202080700 METAR MRLB NIL=
201202080800 METAR MRLB NIL=
201202080900 METAR MRLB NIL=
201202081000 METAR MRLB NIL=
201202081100 METAR MRLB NIL=
201202081200 METAR MRLB 081200Z 28003KT 9999 FEW040 25/20 A2983=
201202081300 METAR MRLB 081300Z 30003KT 9999 FEW035 26/20 A2984=
201202081400 METAR MRLB 081400Z 03006KT 9999 FEW035 29/19 A2987=
201202081500 METAR MRLB 081500Z 07020KT 9999 FEW035 30/19 A2988=
201202081600 METAR MRLB 081600Z 06023KT 9999 FEW035 31/19 A2988=
201202081700 METAR MRLB 081700Z 06021KT 9999 FEW035 32/18 A2986=
201202081800 METAR MRLB 081800Z 06022KT 9999 FEW035 32/18 A2983=
201202081900 METAR MRLB 081900Z 05024KT 9999 SCT035 32/19 A29/81=
201202082000 METAR MRLB 082000Z 07021KT 9999 SCT035 32/18 A2979=
201202082100 METAR MRLB 082100Z 05022KT 9999 SCT035 32/19 A2976=
201202082200 METAR MRLB 082200Z 08021KT 9999 SCT035 31/18 A2974=
201202082300 METAR MRLB 082300Z 07020KT 9999 SCT035 SCT130 29/18 A2976=
201202082352 METAR MRLB 090000Z 08020KT 9999 FEW035 SCT130 28/18 A2975=
201202090000 METAR MRLB 090000Z 08020KT 9999 FEW035 SCT130 28/18 A2975=
201202090100 METAR MRLB 090100Z 08021KT 9999 SCT035 SCT130 27/17 A2977=
201202090200 METAR MRLB 090200Z 08024KT 9999 SCT035 SCT120 27/18 A2978=
201202090300 METAR MRLB NIL=
201202090400 METAR MRLB NIL=
201202090500 METAR MRLB NIL=
201202090600 METAR MRLB NIL=
201202090700 METAR MRLB NIL=
201202090800 METAR MRLB NIL=
201202090900 METAR MRLB NIL=
201202091000 METAR MRLB NIL=
201202091100 METAR MRLB NIL=
201202091200 METAR MRLB 091200Z 06009KT 9999 FEW035 BKN130 26/18 A2979=
201202091300 METAR MRLB 091300Z 04010KT 9999 FEW035 BKN140 25/18 A2981=
201202091400 METAR MRLB 091400Z 07021KT 9999 FEW035 BKN140 27/18 A2983=
201202091500 METAR MRLB 091500Z 07022G32KT 9999 FEW035 BKN140 29/17 A2986=
201202091600 METAR MRLB 091600Z 06023KT 9999 FEW035 SCT140 30/16 A2987=
201202091700 METAR MRLB 091700Z 06023G33KT 9999 FEW035 SCT140 31/17 A2985=
201202091800 METAR MRLB 091800Z 06020KT 9999 FEW035 BKN250 32/17 A2985=
201202091900 METAR MRLB 091900Z 05021KT 9999 FEW035 SCT250 33/16 A2981=
201202092000 METAR MRLB 092000Z 06020KT 9999 FEW035 BKN250 32/17 A2978=
201202092100 METAR MRLB 092100Z 06021KT CAVOK 32/17 A2976=
201202092200 METAR MRLB 092200Z 07020KT CAVOK 31/17 A2977=
201202092300 METAR MRLB 092300Z 07015KT CAVOK 29/18 A2979=
201202092347 METAR MRLB 100000Z 08015KT CAVOK 28/18 A2980=
201202100000 METAR MRLB 100000Z 08015KT CAVOK 28/18 A2980=
201202100100 METAR MRLB 100100Z 09009KT CAVOK 27/18 A2983=
201202100200 METAR MRLB 100200Z 08009KT CAVOK 26/18 A2985=
201202100300 METAR MRLB NIL=
201202100400 METAR MRLB NIL=
201202100500 METAR MRLB NIL=
201202100600 METAR MRLB NIL=
201202100700 METAR MRLB NIL=
201202100800 METAR MRLB NIL=
201202100900 METAR MRLB NIL=
201202101000 METAR MRLB NIL=
201202101100 METAR MRLB NIL=
201202101200 METAR MRLB 101200Z 06014KT 9999 FEW035 25/18 A2985=
201202101300 METAR MRLB 101300Z 06014KT 9999 FEW035 26/18 A2986=
201202101400 METAR MRLB 101400Z 06017KT 9999 FEW035 28/18 A2988=
201202101500 METAR MRLB 101500Z 06016KT 9999 FEW035 30/18 A2991=
201202101600 METAR MRLB 101600Z 05015KT 9999 FEW035 31/18 A2992=
201202101700 METAR MRLB 101700Z 06016KT 9999 FEW035 SCT250 31/18 A2991=
201202101800 METAR MRLB 101800Z 06014KT 9999 FEW040 SCT250 31/17 A2987=
201202101900 METAR MRLB 101900Z 06016KT 9999 FEW040 SCT250 33/17 A2984=
201202102000 METAR MRLB 102000Z 06014KT 9999 FEW040 SCT250 33/17 2981=
201202102100 METAR MRLB 102100Z 05015KT 9999 FEW040 SCT250 34/17 A2979=
201202102200 METAR MRLB 102200Z 05015KT CAVOK 33/16 A2979=
201202102300 METAR MRLB 102300Z 06011KT CAVOK 31/16 A2980=
201202102351 METAR MRLB 110000Z 07009KT CAVOK 29/17 A2981=
201202110000 METAR MRLB 110000Z 07009KT CAVOK 29/17 A2981=
201202110100 METAR MRLB 110100Z 08009KT CAVOK 28/17 A2982=
201202110200 METAR MRLB 110200Z 08009KT CAVOK 27/17 A2984=
201202110300 METAR MRLB NIL=
201202110400 METAR MRLB NIL=
201202110500 METAR MRLB NIL=
201202110600 METAR MRLB NIL=
201202110700 METAR MRLB NIL=
201202110800 METAR MRLB NIL=
201202110900 METAR MRLB NIL=
201202111000 METAR MRLB NIL=
201202111100 METAR MRLB NIL=
201202111200 METAR MRLB 111200Z 05005KT CAVOK 19/17 A2987=
201202111300 METAR MRLB 111300Z 16003KT CAVOK 21/18 A2989=
201202111400 METAR MRLB 111400Z 30002KT CAVOK 24/18 A2991=
201202111500 METAR MRLB 111500Z 00000KT CAVOK 29/18 A2994=
201202111600 METAR MRLB 111600Z 01007KT CAVOK 31/16 A2993=
201202111700 METAR MRLB 111700Z 07016KT CAVOK 32/15 A2991=
201202111800 METAR MRLB 111800Z 07017KT CAVOK 33/14 A2988=
201202111900 METAR MRLB 111900Z 07015KT 9999 FEW040 34/15 A2984=
201202112000 METAR MRLB 112000Z 08013KT 9999 FEW040 34/15 A2981=
201202112100 METAR MRLB 112100Z 07016KT 9999 FEW040 34/15 A2979=
201202112200 METAR MRLB 112200Z 06017KT 9999 FEW040 32/16 A2979=
201202112300 METAR MRLB 112300Z 06015KT CAVOK 31/17 A2980=
201202112350 METAR MRLB 120000Z 07015KT CAVOK 29/18 A2980=
201202120000 METAR MRLB 120000Z 07015KT CAVOK 29/18 A2980=
201202120100 METAR MRLB 120100Z 08014KT CAVOK 28/18 A2981=
201202120200 METAR MRLB 120200Z 08016KT CAVOK 27/19 A2983=
201202120300 METAR MRLB NIL=
201202120400 METAR MRLB NIL=
201202120500 METAR MRLB NIL=
201202120600 METAR MRLB NIL=
201202120700 METAR MRLB NIL=
201202120800 METAR MRLB NIL=
201202120900 METAR MRLB NIL=
201202121000 METAR MRLB NIL=
201202121100 METAR MRLB NIL=
201202121200 METAR MRLB 121200Z 10004KT CAVOK 21/18 A2987=
201202121300 METAR MRLB 121300Z 22005KT CAVOK 26/19 A2988=
201202121400 METAR MRLB 121400Z 29003KT CAVOK 27/19 A2990=
201202121500 METAR MRLB 121500Z 04006KT 9999 FEW035 29/18 A2994=
201202121600 METAR MRLB 121600Z 06017KT 9999 FEW035 31/17 A2993=
201202121700 METAR MRLB 121700Z 06020KT 9999 FEW035 31/17 A2991=
201202121800 METAR MRLB 121800Z 06022KT 9999 FEW035 32/17 A2988=
201202121900 METAR MRLB 121900Z 05021KT 9999 FEW035 33/17 A2984=
201202122000 METAR MRLB 122000Z 06020KT 9999 FEW035 32/17 A2981=
201202122100 METAR MRLB 122100Z 05020KT 9999 FEW040 31/18 A2981=
201202122200 METAR MRLB 122200Z 06017KT 9999 FEW040 32/17 A2979=
201202122300 METAR MRLB 122300Z 05018KT 9999 FEW040 30/18 A2981=
201202122348 METAR MRLB 130000Z 05016KT 9999 FEW040 SCT250 28/18 A2983=
201202130000 METAR MRLB 130000Z 05016KT 9999 FEW040 SCT250 28/18 A2983=
201202130100 METAR MRLB 130100Z 05016KT 9999 FEW040 SCT250 27/19 A2983=
201202130200 METAR MRLB 130200Z 04018KT CAVOK 27/19 A2984=
201202130300 METAR MRLB NIL=
201202130400 METAR MRLB NIL=
201202130500 METAR MRLB NIL=
201202130600 METAR MRLB NIL=
201202130700 METAR MRLB NIL=
201202130800 METAR MRLB NIL=
201202130900 METAR MRLB NIL=
201202131000 METAR MRLB NIL=
201202131100 METAR MRLB NIL=
201202131200 METAR MRLB 131200Z 11005KT 9999 SCT035 23/18 A2986=
201202131300 METAR MRLB 131300Z 10004KT 9999 FEW035 25/19 A2988=
201202131400 METAR MRLB 131400Z 08008KT 9999 FEW040 28/19 A2990=
201202131500 METAR MRLB 131500Z 05016KT 9999 FEW040 29/18 A2991=
201202131600 METAR MRLB 131600Z 06016KT 9999 FEW040 30/17 A2991=
201202131700 METAR MRLB 131700Z 05018KT 9999 FEW040 32/17 A2990=
201202131800 METAR MRLB 131800Z 05016KT 9999 FEW040 33/17 A2986=
201202131900 METAR MRLB 131900Z 05014KT 9999 FEW040 34/17 A2983=
201202132000 METAR MRLB 132000Z 04015KT 9999 FEW040 34/17 A2980=
201202132100 METAR MRLB 132100Z 04014KT 9999 FEW040 34/17 A2977=
201202132200 METAR MRLB 132200Z 06011KT 9999 FEW040 33/17 A2976=
201202132300 METAR MRLB 132300Z 06014KT 9999 FEW040 31/18 A2977=
201202132351 METAR MRLB 140000Z 06013KT 9999 FEW040 29/18 A2979=
201202140000 METAR MRLB 140000Z 06013KT 9999 FEW040 29/18 A2979=
201202140100 METAR MRLB 140100Z 07011KT CAVOK 28/18 A2981=
201202140200 METAR MRLB 140200Z 06013KT CAVOK 27/18 A2983=
201202140300 METAR MRLB NIL=
201202140400 METAR MRLB NIL=
201202140500 METAR MRLB NIL=
201202140600 METAR MRLB NIL=
201202140700 METAR MRLB NIL=
201202140800 METAR MRLB NIL=
201202140900 METAR MRLB NIL=
201202141000 METAR MRLB NIL=
201202141100 METAR MRLB NIL=
201202141200 METAR MRLB 141200Z 00000KT 9999 FEW045 24/19 A2986=
201202141300 METAR MRLB 141300Z 09007KT 9999 FEW040 26/19 A2988=
201202141400 METAR MRLB 141400Z 08013KT 9999 FEW040 28/19 A2990=
201202141500 METAR MRLB 141500Z 05013KT 9999 FEW035 30/19 A2993=
201202141600 METAR MRLB 141600Z 06013KT 9999 SCT035 30/18 A2993=
201202141700 METAR MRLB 141700Z 06017KT 9999 SCT035 30/18 A2991=
201202141800 METAR MRLB 141800Z 06013KT 9999 SCT035 32/18 A2988=
201202141900 METAR MRLB 141900Z 07018KT 9999 FEW035 33/16 A2984=
201202142000 METAR MRLB 142000Z 06018KT 9999 FEW035 34/14 A2981=
201202142100 METAR MRLB 142100Z 05015KT 9999 FEW035 33/16 A2979=
201202142200 METAR MRLB 142200Z 04017KT 9999 FEW035 32/17 A2979=
201202142300 METAR MRLB 142300Z 05014 9999 FEW035 31/17 A2981=
201202142350 METAR MRLB 150000Z 05013KT 9999 FEW035 29/18 A2983=
201202150000 METAR MRLB 150000Z 05013KT 9999 FEW035 29/18 A2983=
201202150100 METAR MRLB 150100Z 04010KT 9999 FEW035 27/18 A2984=
201202150137 METAR MRLB 160200Z 06015KT 9999 FEW040 27/18 A2987=
201202150200 METAR MRLB 150200Z 03011KT 9999 FEW035 26/18 A2986=
201202150300 METAR MRLB NIL=
201202150400 METAR MRLB NIL=
201202150500 METAR MRLB NIL=
201202150600 METAR MRLB NIL=
201202150700 METAR MRLB NIL=
201202150800 METAR MRLB NIL=
201202150900 METAR MRLB NIL=
201202151000 METAR MRLB NIL=
201202151100 METAR MRLB NIL=
201202151200 METAR MRLB 151200Z 00000KT CAVOK 23/17 A2988=
201202151300 METAR MRLB 151300Z 12005KT 9999 FEW045 26/17 A2990=
201202151400 METAR MRLB 151400Z 08010KT 9999 FEW045 29/17 A2993=
201202151500 METAR MRLB 151500Z 08010KT 9999 SCT035 30/17 A2995=
201202151600 METAR MRLB 151600Z 07013KT 9999 SCT030 31/16 A2995=
201202151700 METAR MRLB NIL=
201202151800 METAR MRLB NIL=
201202151900 METAR MRLB 151900Z 07016KT 9999 FEW025 33/16 A2987=
201202151950 METAR MRLB 1520000Z 06018KT 9999 FEW040 34/16 A2982=
201202151955 METAR MRLB 1520000Z 06018KT 9999 FEW040 34/16 A2982=
201202152000 METAR MRLB 152000Z 06018KT 9999 FEW040 34/16 A2982=
201202152100 METAR MRLB 152100Z 06016KT 9999 FEW040 34/ 17 A2981=
201202152200 METAR MRLB 152200Z 04017KT 9999 FEW040 33/17 A2980=
201202152300 METAR MRLB 152300Z 05015KT 9999 FEW040 32/17 A2982=
201202152346 METAR MRLB 160000Z 05017KT 9999 FEW040 29/18 A2983=
201202160000 METAR MRLB 160000Z 05017KT 9999 FEW040 29/18 A2983=
201202160100 METAR MRLB 160100Z 05016KT 9999 FEW040 28/18 A2985=
201202160200 METAR MRLB 160200Z 06015KT 9999 FEW040 27/18 A2987=
201202160300 METAR MRLB NIL=
201202160400 METAR MRLB NIL=
201202160500 METAR MRLB NIL=
201202160600 METAR MRLB NIL=
201202160700 METAR MRLB NIL=
201202160800 METAR MRLB NIL=
201202160900 METAR MRLB NIL=
201202161000 METAR MRLB NIL=
201202161100 METAR MRLB NIL=
201202161200 METAR MRLB 161200Z 09012KT CAVOK 25/18 A2989=
201202161300 METAR MRLB 161300Z 06014KT CAVOK 26/18 A2990=
201202161400 METAR MRLB 161400Z 07015KT CAVOK 28/18 A2993=
201202161500 METAR MRLB 161500Z 07016KT CAVOK 30/16 A2994=
201202161600 METAR MRLB 161600Z 07014KT CAVOK 31/16 A2995=
201202161700 METAR MRLB 161700Z 05018KT 9999 FEW040 SCT250 31/17 A2994=
201202161800 METAR MRLB 161800Z 06019KT 9999 FEW040 32/18 A2991=
201202161900 METAR MRLB 161900Z 05018KT 9999 FEW040 33/17 A2988=
201202162000 METAR MRLB 162000Z 05018KT 9999 FEW040 33/17 A2985=
201202162100 METAR MRLB 162100Z 05014KT 9999 FEW040 33/17 A2984=
201202162200 METAR MRLB 162200Z 06014KT 9999 FEW040 32/17 A2982=
201202162300 METAR MRLB 162300Z 06012KT 9999 FEW040 SCT300 31/18 A2983=
201202162350 METAR MRLB 170000Z 06011KT CAVOK 29/17 A2984=
201202170000 METAR MRLB 170000Z 06011KT CAVOK 29/17 A2984=
201202170054 METAR MRLB 270100Z 07014KT CAVOK 27/17 A2980=
201202170100 METAR MRLB 170100Z 06010KT CAVOK 27/18 A2985=
201202170200 METAR MRLB 170200Z 10004KT CAVOK 26/18 A2986=
201202170300 METAR MRLB NIL=
201202170400 METAR MRLB NIL=
201202170500 METAR MRLB NIL=
201202170600 METAR MRLB NIL=
201202170700 METAR MRLB NIL=
201202170800 METAR MRLB NIL=
201202170900 METAR MRLB NIL=
201202171000 METAR MRLB NIL=
201202171100 METAR MRLB NIL=
201202171200 METAR MRLB 171200Z 08005KT CAVOK 24/18 A2985=
201202171300 METAR MRLB 171300Z 06003KT CAVOK 22/19 A2987=
201202171400 METAR MRLB 171400Z 00000KT CAVOK 25/19 A2989=
201202171500 METAR MRLB 171500Z 00000KT CAVOK 28/19 A2991=
201202171600 METAR MRLB 171600Z 02004KT 9999 FEW040 SCT120 31/18 A2992=
201202171700 METAR MRLB 171700Z 06011KT 9999 FEW040 SCT130 32/17 A2990=
201202171800 METAR MRLB 171800Z 08019KT FEW040 BKN130 32/16 A2987=
201202171900 METAR MRLB 171900Z 07015KT 9999 FEW040 SCT130 32/17 A2985=
201202172000 METAR MRLB 172000Z 07014KT 9999 FEW035 SCT140 33/17 A2982=
201202172100 METAR MRLB 172100Z 07013KT 9999 FEW035 SCT150 32/16 A2979=
201202172200 METAR MRLB 172200Z 05016KT 9999 FEW025 SCT120 32/16 A2978=
201202172300 METAR MRLB 172300Z 06012KT CAVOK 31/17 A2979=
201202172345 METAR MRLB 180000Z 06012KT CAVOK 29/17 A2979=
201202180000 METAR MRLB 180000Z 06012KT CAVOK 29/17 A2979=
201202180100 METAR MRLB 180100Z 06010KT CAVOK 28/15 A2980=
201202180200 METAR MRLB 180200Z 07012KT CAVOK 27/15 A2983=
201202180300 METAR MRLB NIL=
201202180400 METAR MRLB NIL=
201202180500 METAR MRLB NIL=
201202180600 METAR MRLB NIL=
201202180700 METAR MRLB NIL=
201202180800 METAR MRLB NIL=
201202180900 METAR MRLB NIL=
201202181000 METAR MRLB NIL=
201202181100 METAR MRLB NIL=
201202181200 METAR MRLB 181200Z 00000KT CAVOK 18/16 A2984=
201202181300 METAR MRLB 181300Z 00000KT CAVOK 21/17 A2986=
201202181400 METAR MRLB 181400Z 00000KT CAVOK 26/17 A2987=
201202181500 METAR MRLB 181500Z 10012KT CAVOK 30/15 A2989=
201202181600 METAR MRLB 181600Z 10010KT CAVOK 32/14 A2989=
201202181700 METAR MRLB 181700Z 09012KT CAVOK 33/14 A2987=
201202181800 METAR MRLB 181800Z 04010KT CAVOK 34/14 A2984=
201202181900 METAR MRLB 181900Z 07007KT 9999 FEW025 34/14 A2981=
201202182000 METAR MRLB 182000Z 07010KT 9999 FEW025 34/13 A2977=
201202182100 METAR MRLB 182100Z 06008KT 9999 FEW025 34/13 A2975=
201202182200 METAR MRLB 182200Z 27010KT 9999 FEW025 32/17 A2975=
201202182300 METAR MRLB 182300Z 29009KT 9999 FEW030 30/18 A2977=
201202182353 METAR MRLB 190000Z 27005KT 9999 FEW030 28/18 A2978=
201202190000 METAR MRLB 190000Z 27005KT 9999 FEW030 28/18 A2978=
201202190100 METAR MRLB 190100Z 22004KT CAVOK 26/18 A2979=
201202190200 METAR MRLB 190200Z 20004KT CAVOK 25/18 A2982=
201202190300 METAR MRLB NIL=
201202190400 METAR MRLB NIL=
201202190500 METAR MRLB NIL=
201202190600 METAR MRLB NIL=
201202190700 METAR MRLB NIL=
201202190800 METAR MRLB NIL=
201202190900 METAR MRLB NIL=
201202191000 METAR MRLB NIL=
201202191100 METAR MRLB NIL=
201202191200 METAR MRLB 191200Z 13002KT CAVOK 19/16 A2984=
201202191300 METAR MRLB 191300Z 02002KT CAVOK 20/16 A2986=
201202191400 METAR MRLB 191400Z 00000KT CAVOK 25/18 A2987=
201202191500 METAR MRLB 191500Z 32002KT CAVOK 28/18 A2990=
201202191600 METAR MRLB 191600Z 22004KT CAVOK 31/17 A2990=
201202191700 METAR MRLB 191700Z 08009KT 9999 FEW040 32/14 A2988=
201202191800 METAR MRLB 191800Z 07010KT 9999 FEW040 33/14 A2985=
201202191900 METAR MRLB 191900Z 08010KT 9999 FEW040 34/14 A2982=
201202192000 METAR MRLB 192000Z 11008KT 9999 FEW040 34/18 2978=
201202192100 METAR MRLB 192100Z 04006KT 9999 SCT040 34/14 A2976=
201202192200 METAR MRLB 192200Z 07009KT 9999 SCT040 32/15 A2976=
201202192300 METAR MRLB 192300Z 06011KT 9999 FEW040 32/16 A2976=
201202192351 METAR MRLB 200000Z 06010KT 9999 FEW040 SCT250 29/17 A2977=
201202200000 METAR MRLB 200000Z 06010KT 9999 FEW040 SCT250 29/17 A2977=
201202200049 METAR MRLB 2000100Z 07007KT CAVOK 28/17 A2978=
201202200100 METAR MRLB 200100Z 07007KT CAVOK 28/17 A2978=
201202200200 METAR MRLB 200200Z 07009KT CAVOK 27/18 A2980=
201202200300 METAR MRLB NIL=
201202200400 METAR MRLB NIL=
201202200500 METAR MRLB NIL=
201202200600 METAR MRLB NIL=
201202200700 METAR MRLB NIL=
201202200800 METAR MRLB NIL=
201202200900 METAR MRLB NIL=
201202201000 METAR MRLB NIL=
201202201100 METAR MRLB NIL=
201202201200 METAR MRLB 201200Z 03003KT CAVOK 18/16 A2985=
201202201300 METAR MRLB 201300Z 00000KT CAVOK 23/17 A2985=
201202201400 METAR MRLB 201400Z 22004KT CAVOK 25/18 A2988=
201202201500 METAR MRLB 201500Z 06008KT CAVOK 30/17 2991=
201202201600 METAR MRLB 201600Z 02010KT CAVOK 31/17 A2991=
201202201700 METAR MRLB 201700Z 06023KT 9999 FEW040 31/16 A2990=
201202201800 METAR MRLB 201800Z 08017KT 9999 FEW040 32/15 A2988=
201202201900 METAR MRLB 201900Z 08018KT 9999 FEW040 SCT130 32/15 A2985=
201202202000 METAR MRLB 202000Z 05021KT 9999 FEW035 SCT140 32/16 A2984=
201202202100 METAR MRLB 202100Z 06020KT CAVOK 32/16 A2979=
201202202200 METAR MRLB 202200Z 07016KT CAVOK 32/16 A2979=
201202202300 METAR MRLB 202300Z 08018KT CAVOK 30/16 A2979=
201202202348 METAR MRLB 210000Z 08018KT CAVOK 28/17 A2980=
201202210000 METAR MRLB 210000Z 08018KT CAVOK 28/17 A2980=
201202210100 METAR MRLB 210100Z 08015KT CAVOK 27/16 A2981=
201202210200 METAR MRLB 210200Z 07014KT CAVOK 27/16 A2983=
201202210300 METAR MRLB NIL=
201202210400 METAR MRLB NIL=
201202210500 METAR MRLB NIL=
201202210600 METAR MRLB NIL=
201202210700 METAR MRLB NIL=
201202210800 METAR MRLB NIL=
201202210900 METAR MRLB NIL=
201202211000 METAR MRLB NIL=
201202211100 METAR MRLB NIL=
201202211200 METAR MRLB 211200Z 07014KT CAVOK 25/17 A2984=
201202211300 METAR MRLB 211300Z 07008KT CAVOK 26/17 A2987=
201202211400 METAR MRLB 211400Z 07018KT CAVOK 27/16 A2990=
201202211500 METAR MRLB 211500Z 07017KT CAVOK 29/16 A2992=
201202211600 METAR MRLB 211600Z 06019KT 9999 FEW040 31/16 A2992=
201202211700 METAR MRLB 211700Z 05018KT 9999 FEW040 32/14 A2991=
201202211800 METAR MRLB 211800Z 05018KT 9999 FEW040 32/14 A2989=
201202211900 METAR MRLB 211900Z 06014KT 9999 FEW040 33/15 A2986=
201202212000 METAR MRLB 212000Z 05019KT 9999 FEW040 33/16 A2983=
201202212100 METAR MRLB 212100Z 06022KT 9999 FEW040 32/16 A2980=
201202212200 METAR MRLB 212200Z 07020KT 9999 FEW040 31/17 A2979=
201202212300 METAR MRLB 212300Z 07020KT 9999 FEW040 29/18 A2979=
201202212343 METAR MRLB 220000Z 07020KT CAVOK 28/18 A2979=
201202220000 METAR MRLB 220000Z 07020KT CAVOK 28/18 A2979=
201202220100 METAR MRLB 220100Z 08021KT CAVOK 27/18 A2980=
201202220200 METAR MRLB 220200Z 08019KT CAVOK 27/18 A2982=
201202220300 METAR MRLB NIL=
201202220400 METAR MRLB NIL=
201202220500 METAR MRLB NIL=
201202220600 METAR MRLB NIL=
201202220700 METAR MRLB NIL=
201202220800 METAR MRLB NIL=
201202220900 METAR MRLB NIL=
201202221000 METAR MRLB NIL=
201202221100 METAR MRLB NIL=
201202221200 METAR MRLB 221200Z 07018KT CAVOK 25/17 A2983=
201202221300 METAR MRLB 221300Z 08014KT CAVOK 26/16 A2984=
201202221400 METAR MRLB 221400Z 05010KT CAVOK 27/17 A2987=
201202221500 METAR MRLB 221500Z 06019KT CAVOK 29/16 A2988=
201202221600 METAR MRLB 221600Z 06025KT CAVOK 31/15 A2988=
201202221700 METAR MRLB 221700Z 06020KT CAVOK 32/16 A2987=
201202221800 METAR MRLB 221800Z 06017KT CAVOK 33/15 A2984=
201202221900 METAR MRLB 221900Z 06019KT CAVOK 33/15 A2981=
201202222000 METAR MRLB 222000Z 06016KT CAVOK 33/15 A2979=
201202222100 METAR MRLB 222100Z 05018KT CAVOK 34/15 A2976=
201202222200 METAR MRLB 222200Z 05019KT CAVOK 32/15 A2976=
201202222300 METAR MRLB 222300Z 06018KT CAVOK 30/15 A2977=
201202222350 METAR MRLB 230000Z 06016KT CAVOK 28/14 A2977=
201202230000 METAR MRLB 230000Z 06016KT CAVOK 28/14 A2977=
201202230100 METAR MRLB 230100Z 05015KT CAVOK 27/15 A2978=
201202230200 METAR MRLB 230200Z 06013KT CAVOK 26/16 A2980=
201202230300 METAR MRLB NIL=
201202230400 METAR MRLB NIL=
201202230500 METAR MRLB NIL=
201202230600 METAR MRLB NIL=
201202230700 METAR MRLB NIL=
201202230800 METAR MRLB NIL=
201202230900 METAR MRLB NIL=
201202231000 METAR MRLB NIL=
201202231100 METAR MRLB NIL=
201202231200 METAR MRLB 231200Z 10004KT CAVOK 23/17 A2981=
201202231300 METAR MRLB 231300Z 06008KT CAVOK 25/17 A2982=
201202231400 METAR MRLB 231400Z 07012KT CAVOK 28/17 A2984=
201202231500 METAR MRLB 231500Z 06015KT CAVOK 30/16 A2986=
201202231600 METAR MRLB 231600Z 05014KT CAVOK 31/16 A2987=
201202231700 METAR MRLB 231700Z 07018KT 9999 FEW035 32/15 A2985=
201202231800 METAR MRLB 231800Z 06016KT 9999 FEW035 33/15 A2982=
201202231900 METAR MRLB NIL=
201202232000 METAR MRLB NIL=
201202232100 METAR MRLB 232100Z 05018KT 9999 FEW035 33/16 A2973=
201202232200 METAR MRLB 232200Z 05018KT 9999 FEW035 32/16 A2974=
201202232300 METAR MRLB 232300Z 07014KT 9999 FEW040 31/16 A2975=
201202240000 METAR MRLB NIL=
201202240100 METAR MRLB 240100Z 04014KT CAVOK 28/17 A2977=
201202240200 METAR MRLB 240200Z 03012KT CAVOK 27/17 A2978=
201202240300 METAR MRLB NIL=
201202240400 METAR MRLB NIL=
201202240500 METAR MRLB NIL=
201202240600 METAR MRLB NIL=
201202240700 METAR MRLB NIL=
201202240800 METAR MRLB NIL=
201202240900 METAR MRLB NIL=
201202241000 METAR MRLB NIL=
201202241100 METAR MRLB NIL=
201202241200 METAR MRLB 241200Z 01005KT CAVOK 21/16 A2980 FEW120 BKN250=
201202241300 METAR MRLB 241300Z 10008KT CAVOK 25/16 A2982=
201202241400 METAR MRLB 241400Z 10008KT CAVOK 29/16 A2985=
201202241500 METAR MRLB 241500Z 01008KT CAVOK 29/15 A2988=
201202241531 METAR MRLB 241531Z 01008KT CAVOK 29/15 A2988=
201202241600 METAR MRLB 241600Z 07012KT CAVOK 31/15 A2988=
201202241700 METAR MRLB 241700Z 08012KT CAVOK 32/15 A2986=
201202241800 METAR MRLB 241800Z 05012KT CAVOK 33/16 A2984=
201202241900 METAR MRLB 241900Z 03012KT CAVOK 34/16 A2981=
201202242000 METAR MRLB 242000Z 04010KT 9999 FEW040 BKN250 34/16 A2978=
201202242100 METAR MRLB 242100Z 05011KT 9999 FEW040 BKN250 34/15 A2976=
201202242200 METAR MRLB 242200Z 0401KT 9999 FEW040 BKN250 34/16 A2975=
201202242201 METAR MRLB 242201Z 04011KT 9999 FEW040 BKN250 34/16 A2975=
201202242300 METAR MRLB 242300Z 06015KT CAVOK 32/15 A2976=
201202242354 METAR MRLB 250000Z 06011KT CAVOK 30/17 A2977=
201202250000 METAR MRLB 250000Z 06011KT CAVOK 30/17 A2977=
201202250100 METAR MRLB 250100Z 07012KT CAVOK 28/17 A2978=
201202250200 METAR MRLB 250200Z 07011KT CAVOK 27/17 A2979=
201202250300 METAR MRLB NIL=
201202250400 METAR MRLB NIL=
201202250500 METAR MRLB NIL=
201202250600 METAR MRLB NIL=
201202250700 METAR MRLB NIL=
201202250800 METAR MRLB NIL=
201202250900 METAR MRLB NIL=
201202251000 METAR MRLB NIL=
201202251100 METAR MRLB NIL=
201202251200 METAR MRLB 251200Z 10004KT CAVOK 20/17 A2982=
201202251300 METAR MRLB 251300Z 26002KT CAVOK 23/18 A2985=
201202251400 METAR MRLB 251400Z 27002KT CAVOK 27/18 A2986=
201202251500 METAR MRLB 251500Z 02002KT CAVOK 30/18 A2989=
201202251600 METAR MRLB 251600Z 08011KT CAVOK 32/16 A2989=
201202251700 METAR MRLB 251700Z 08013KT CAVOK 33/16 A2987=
201202251800 METAR MRLB 251800Z 06014KT 9999 FEW040 BKN250 33/16 A2984=
201202251900 METAR MRLB 251900Z 08011KT 9999 FEW040 BKN250 34/16 A2981=
201202252000 METAR MRLB 252000Z 07011KT 9999 FEW040 BKN250 35/16 A2978=
201202252100 METAR MRLB 252100Z 05020KT 9999 FEW040 BKN250 33/18 A2975=
201202252200 METAR MRLB 252200Z 06020KT 9999 SCT035 BKN250 32/18 A2975=
201202252300 METAR MRLB 252300Z 06019KT 9999 SCT035 BKN240 29/18 A2978=
201202252355 METAR MRLB 260000Z 07017KT 9999 SCT035 BKN240 28/19 A2979=
201202260000 METAR MRLB 260000Z 07017KT 9999 SCT035 BKN240 28/19 A2979=
201202260100 METAR MRLB 260100Z 06015KT 9999 FEW035 BKN240 27/18 A2981=
201202260200 METAR MRLB 260200Z 07019KT 9999 SCT035 BKN240 27/18 A2982=
201202260300 METAR MRLB NIL=
201202260400 METAR MRLB NIL=
201202260500 METAR MRLB NIL=
201202260600 METAR MRLB NIL=
201202260700 METAR MRLB NIL=
201202260800 METAR MRLB NIL=
201202260900 METAR MRLB NIL=
201202261000 METAR MRLB NIL=
201202261100 METAR MRLB NIL=
201202261200 METAR MRLB 261200Z 05004KT CAVOK 23/16 A2982=
201202261300 METAR MRLB 261300Z 06003KT CAVOK 26/16 A2982=
201202261400 METAR MRLB 261400Z 04014KT CAVOK 28/16 A2985=
201202261500 METAR MRLB 261500Z 07019KT CAVOK 30/15 A2987=
201202261600 METAR MRLB 261600Z 06021KT CAVOK 30/16 A2988=
201202261700 METAR MRLB 261700Z 06023KT CAVOK 32/15 A2987=
201202261800 METAR MRLB 261800Z 06020KT 9999 FEW035 33/16 A2984=
201202261900 METAR MRLB 261900Z 06022KT 9999 FEW035 34/16 A2982=
201202262000 METAR MRLB 262000Z 05018KT 9999 FEW030 34/15 A2980=
201202262100 METAR MRLB 262100Z 04020KT 9999 FEW030 33/15 A2977=
201202262200 METAR MRLB 262200Z 06018KT 9999 FEW030 32/15 A2977=
201202262300 METAR MRLB 262300Z 06017KT CAVOK 30/15 A2978=
201202262356 METAR MRLB 270000Z 05018KT CAVOK 28/16 A2979=
201202270000 METAR MRLB 270000Z 05018KT CAVOK 28/16 A2979=
201202270100 METAR MRLB 270100Z 07014KT CAVOK 27/17 A2980=
201202270200 METAR MRLB 270200Z 06014KT CAVOK 27/17 A2983=
201202270300 METAR MRLB NIL=
201202270400 METAR MRLB NIL=
201202270500 METAR MRLB NIL=
201202270600 METAR MRLB NIL=
201202270700 METAR MRLB NIL=
201202270800 METAR MRLB NIL=
201202270900 METAR MRLB NIL=
201202271000 METAR MRLB NIL=
201202271100 METAR MRLB NIL=
201202271200 METAR MRLB 271200Z 06020KT 9999 FEW025 SCT250 25/18 A2982=
201202271300 METAR MRLB 271300Z 06018KT 9999 FEW025 SCT250 26/17 A2985=
201202271400 METAR MRLB 271400Z 05020KT 9999 FEW025 SCT250 28/17 A2987=
201202271500 METAR MRLB 271500Z 05020KT 9999 FEW025 SCT250 30/16 A2989=
201202271600 METAR MRLB 271600Z 06022KT 9999 FEW025 SCT250 31/15 A2989=
201202271700 METAR MRLB 271700Z 06020G30KT 9999 FEW025 SCT250 32/15 A2987=
201202271800 METAR MRLB 271800Z 05018G28KT 9999 FEW025 SCT250 32/15 A2986=
201202271900 METAR MRLB 271900Z 06020KT 9999 FEW030 SCT250 33/14 A2983=
201202272000 METAR MRLB 272000Z 05018KT 9999 FEW025 SCT250 33/15 A2981=
201202272100 METAR MRLB 272100Z 05018KT 9999 FEW030 SCT250 33/14 A2979=
201202272200 METAR MRLB 272200Z 08018KT CAVOK 32/13 A2978=
201202272300 METAR MRLB 272300Z 08020KT CAVOK 30/13 A2980=
201202272358 METAR MRLB 280000Z 05018KT CAVOK 28/16 A2981=
201202280000 METAR MRLB 280000Z 05018KT CAVOK 28/16 A2981=
201202280100 METAR MRLB 280100Z 04017KT CAVOK 27/17 A2983=
201202280200 METAR MRLB 280200Z 06014KT CAVOK 26/17 A2985=
201202280300 METAR MRLB NIL=
201202280400 METAR MRLB NIL=
201202280500 METAR MRLB NIL=
201202280600 METAR MRLB NIL=
201202280700 METAR MRLB NIL=
201202280800 METAR MRLB NIL=
201202280900 METAR MRLB NIL=
201202281000 METAR MRLB NIL=
201202281100 METAR MRLB NIL=
201202281200 METAR MRLB 281200Z 07005KT 9999 FEW035 BKN250 24/171 A2987=
201202281300 METAR MRLB 281300Z 06003KT 9999 FEW035 BKN250 25/17 A2989=
201202281400 METAR MRLB 281400Z 05008KT 9999 FEW035 BKN250 28/17 A2990=
201202281500 METAR MRLB 281500Z 05015KT 9999 FEW035 BKN250 29/16 A2990=
201202281600 METAR MRLB 281600Z 06020KT 9999 SCT035 SCT100 29/17 A2992=
201202281700 METAR MRLB 281700Z 06019KT 9999 FEW035 SCT250 30/15 A2990=
201202281800 METAR MRLB 281800Z 06020KT 9999 FEW040 32/16 A2986=
201202281900 METAR MRLB 281900Z 07021KT 9999 FEW040 32/16 A2984=
201202282000 METAR MRLB 282000Z 05018KT 9999 SCT040 32/16 A2982=
201202282100 METAR MRLB 282100Z 06019KT 9999 SCT035 32/16 A2979=
201202282200 METAR MRLB 282200Z 04018KT 9999 SCT035 SCT250 29/17 A2982=
201202282300 METAR MRLB 282300Z 06020KT 9999 SCT035 SCT250 28/17 A2981=
201202282355 METAR MRLB 290000Z 06019KT 9999 SCT035 BKN 250 27/16 A2983=
201202290000 METAR MRLB 290000Z 06019KT 9999 SCT035 BKN 250 27/16 A2983=
201202290100 METAR MRLB 290100Z 05019KT 9999 FEW035 BKN250 26/16 A2985=
201202290200 METAR MRLB 290200Z 06020KT 9999 SCT035 SCT250 26/17 A2987=
201202290300 METAR MRLB NIL=
201202290400 METAR MRLB NIL=
201202290500 METAR MRLB NIL=
201202290600 METAR MRLB NIL=
201202290700 METAR MRLB NIL=
201202290800 METAR MRLB NIL=
201202290900 METAR MRLB NIL=
201202291000 METAR MRLB NIL=
201202291100 METAR MRLB NIL=
201202291200 METAR MRLB 291200Z 07021G31KT CAVOK 25/16 A2982=
201202291300 METAR MRLB 291300Z 08016KT CAVOK 27/16 A2984=
201202291400 METAR MRLB 291400Z 07019KT CAVOK 28/16 A2986=
201202291500 METAR MRLB 291500Z 07022KT CAVOK 29/16 A2988=
201202291600 METAR MRLB 291600Z 07023KT CAVOK 31/15 A2988=
201202291700 METAR MRLB 291700Z 06021KT CAVOK 32/15 A2986=
201202291800 METAR MRLB 291800Z 06022KT CAVOK 32/14 A2984=
201202291900 METAR MRLB 291900Z 07023KT CAVOK 33/15 A2981=
201202292000 METAR MRLB 292000Z 05020KT CAVOK 33/15 A2978=
201202292100 METAR MRLB 292100Z 06020G30KT CAVOK 33/15 A2977=
201202292200 METAR MRLB 292200Z 07020KT CAVOK 31/16 A2976=
201202292300 METAR MRLB 292300Z 07022KT CAVOK 29/17 A2976=
201202292358 METAR MRLB 010000Z 07022KT CAVOK 28/16 A2976=
201203010000 METAR MRLB 010000Z 07022KT CAVOK 28/16 A2976=
201203010100 METAR MRLB 010100Z 07018KT CAVOK 27/17 A2977=
201203010200 METAR MRLB 010200Z 07020KT CAVOK 27/17 A2978=
201203010300 METAR MRLB NIL=
201203010400 METAR MRLB NIL=
201203010500 METAR MRLB NIL=
201203010600 METAR MRLB NIL=
201203010700 METAR MRLB NIL=
201203010800 METAR MRLB NIL=
201203010900 METAR MRLB NIL=
201203011000 METAR MRLB NIL=
201203011100 METAR MRLB NIL=
201203011200 METAR MRLB NIL=
201203011300 METAR MRLB NIL=
201203011400 METAR MRLB NIL=
201203011500 METAR MRLB NIL=
201203011600 METAR MRLB NIL=
201203011700 METAR MRLB NIL=
201203011800 METAR MRLB 011800Z 06023KT CAVOK 32/17 A2980=
201203011900 METAR MRLB 011900Z 05020KT CAVOK 34/15 A2977=
201203012000 METAR MRLB 012000Z 06024KT CAVOK 32/16 A2974=
201203012100 METAR MRLB 012100Z 06021KT CAVOK 33/14 A2973=
201203012200 METAR MRLB 012200Z 06021KT CAVOK 31/14 A2972=
201203012300 METAR MRLB 012300Z 0602KT CAVOK 30/14 A2972=
201203012351 METAR MRLB 020000Z 07018KT CAVOK 28/14 A2972=
201203012359 METAR MRLB 02300Z 06022KT CAVOK 30/14 A2972=
201203020000 METAR MRLB 020000Z 07018KT CAVOK 28/14 A2972=
201203020100 METAR MRLB 020100Z 07019KT CAVOK 27/15 A2972=
201203020200 METAR MRLB 020200Z 07020KT CAVOK 27/15 A2973=
201203020300 METAR MRLB NIL=
201203020400 METAR MRLB NIL=
201203020500 METAR MRLB NIL=
201203020600 METAR MRLB NIL=
201203020700 METAR MRLB NIL=
201203020800 METAR MRLB NIL=
201203020900 METAR MRLB NIL=
201203021000 METAR MRLB NIL=
201203021100 METAR MRLB NIL=
201203021200 METAR MRLB 021200Z 07018KT CAVOK 25/16 A2975=
201203021300 METAR MRLB 021300Z 07017KT CAVOK 26/16 A2978=
201203021400 METAR MRLB 021400Z 08014KT CAVOK 28/15 A2981=
201203021500 METAR MRLB 021500Z 07015KT CAVOK 30/13 A2984=
201203021600 METAR MRLB 021600Z 07017KT CAVOK 31/14 A2984=
201203021700 METAR MRLB 021700Z 06014KT CAVOK 32/13 A2982=
201203021800 METAR MRLB 021800Z 06011KT CAVOK 34/14 A2980=
201203021900 METAR MRLB 021900Z 07008KT CAVOK 34/14 A2976=
201203022000 METAR MRLB 022000Z 09008KT CAVOK 35/14 A2973=
201203022100 METAR MRLB 022100Z 06011KT CAVOK 35/15 A2970=
201203022200 METAR MRLB 022200Z 06016KT CAVOK 33/16 A2970=
201203022300 METAR MRLB 022300Z 07014KT CAVOK 32/16 A2972=
201203022352 METAR MRLB 030000Z 07013KT CAVOK 30/17 A2972=
201203030000 METAR MRLB 030000Z 07013KT CAVOK 30/17 A2972=
201203030100 METAR MRLB 030100Z 06010KT CAVOK 28/17 A2974=
201203030200 METAR MRLB 030200Z 07011KT CAVOK 27/17 A2975=
201203030300 METAR MRLB NIL=
201203030400 METAR MRLB NIL=
201203030500 METAR MRLB NIL=
201203030600 METAR MRLB NIL=
201203030700 METAR MRLB NIL=
201203030800 METAR MRLB NIL=
201203030900 METAR MRLB NIL=
201203031000 METAR MRLB NIL=
201203031100 METAR MRLB NIL=
201203031200 METAR MRLB 031200Z 05003KT CAVOK 20/17 A2975=
201203031300 METAR MRLB 031300Z 06004KT CAVOK 24/18 A2977=
201203031400 METAR MRLB 031400Z 25004KT CAVOK 28/18 A2979=
201203031500 METAR MRLB 031500Z 08004KT CAVOK 31/17 A2981=
201203031600 METAR MRLB 031600Z 08015KT CAVOK 32/17 A2981=
201203031700 METAR MRLB 031700Z 09014KT CAVOK 34/16 A2980=
201203031800 METAR MRLB 031800Z 07012KT CAVOK 34/15 A2976=
201203031900 METAR MRLB 031900Z 08013KT CAVOK 35/16 A2974=
201203032000 METAR MRLB 032000Z 06012KT 9999 FEW030 35/17 A2970=
201203032100 METAR MRLB 032100Z 06010KT 9999 FEW030 35/16 A2968=
201203032200 METAR MRLB 032200Z 28010KT 9999 FEW035 33/19 A2967=
201203032300 METAR MRLB 032300Z 30010KT CAVOK 30/20 A2968=
201203032352 METAR MRLB 040000Z 28007KT CAVOK 28/21 A2971=
201203040000 METAR MRLB 040000Z 28007KT CAVOK 28/21 A2971=
201203040100 METAR MRLB 040100Z 25003KT CAVOK 27/21 A2973=
201203040200 METAR MRLB 040200Z 00000KT CAVOK 26/21 A2975=
201203040300 METAR MRLB NIL=
201203040400 METAR MRLB NIL=
201203040500 METAR MRLB NIL=
201203040600 METAR MRLB NIL=
201203040700 METAR MRLB NIL=
201203040800 METAR MRLB NIL=
201203040900 METAR MRLB NIL=
201203041000 METAR MRLB NIL=
201203041100 METAR MRLB NIL=
201203041200 METAR MRLB 041200Z 08004KT CAVOK 22/20 A2980=
201203041300 METAR MRLB 041300Z 00000KT CAVOK 22/20 A2984=
201203041400 METAR MRLB 041400Z 35003KT CAVOK 27/21 A2987=
201203041500 METAR MRLB 041500Z 24004KT CAVOK 29/21 A2989=
201203041600 METAR MRLB 041600Z 00000KT 9999 FEW045 SCT140 32/20 A2989=
201203041700 METAR MRLB 041700Z 27005KT 9999 FEW040 SCT200 33/19 A2986=
201203041800 METAR MRLB 041800Z 22010KT 9999 FEW035 SCT220 34/18 A2982=
201203041900 METAR MRLB NIL=
201203042000 METAR MRLB 042000Z 05014KT 9999 FEW040 35/17 A2973=
201203042100 METAR MRLB 042100Z 09014KT 9999 FEW040 35/18 A2971=
201203042200 METAR MRLB 042200Z 08018KT 9999 FEW040 33/18 A2971=
201203042300 METAR MRLB 042300Z 08020KT 9999 FEW040 32/19 A2972=
201203042352 METAR MRLB 050000Z 06012KT 9999 FEW025 SCT140 30/20 A2973=
201203050000 METAR MRLB 050000Z 06012KT 9999 FEW025 SCT140 30/20 A2973=
201203050100 METAR MRLB 050100Z 07018KT CAVOK 28/20 A2975=
201203050200 METAR MRLB 050200Z 08014KT CAVOK 27/21 A2978=
201203050300 METAR MRLB NIL=
201203050400 METAR MRLB NIL=
201203050500 METAR MRLB NIL=
201203050600 METAR MRLB NIL=
201203050700 METAR MRLB NIL=
201203050800 METAR MRLB NIL=
201203050900 METAR MRLB NIL=
201203051000 METAR MRLB NIL=
201203051100 METAR MRLB NIL=
201203051200 METAR MRLB 051200Z 07012KT 9999 FEW035 BKN130 28/19 A2976=
201203051300 METAR MRLB 051300Z 03008KT 9999 FEW035 SCT130 28/19 A2980=
201203051400 METAR MRLB 051400Z 08017KT 9999 FEW035 SCT130 30/20 A2983=
201203051500 METAR MRLB 051500Z 08018KT 9999 FEW035 31/19 A2985=
201203051600 METAR MRLB 051600Z 07022KT 9999 FEW035 32/19 A2987=
201203051700 METAR MRLB 051700Z 07024KT 9999 FEW035 33/18 A2985=
201203051800 METAR MRLB 051800Z 06026KT 9999 FEW035 33/19 A2982=
201203051900 METAR MRLB 051900Z 06023KT 9999 FEW035 34/18 A2981=
201203052000 METAR MRLB 052000Z 07021KT 9999 FEW035 34/18 A2978=
201203052100 METAR MRLB 052100Z 05026KT 9999 SCT035 34/15 A2975=
201203052200 METAR MRLB 052200Z 06024KT 9999 SCT035 32/17 A2975=
201203052300 METAR MRLB 052300Z 06022KT 9999 FEW035 31/18 A2976=
201203052355 METAR MRLB 060000Z 06024KT 9999 FEW035 SCT250 29/18 A2978=
201203060000 METAR MRLB 060000Z 06024KT 9999 FEW035 SCT250 29/18 A2978=
201203060100 METAR MRLB 060100Z 05021KT 9999 FEW035 BKN250 28/18 A2980=
201203060200 METAR MRLB 060200Z 07019KT 9999 SCT035 SCT250 27/18 A2984=
201203060300 METAR MRLB NIL=
201203060400 METAR MRLB NIL=
201203060500 METAR MRLB NIL=
201203060600 METAR MRLB NIL=
201203060700 METAR MRLB NIL=
201203060800 METAR MRLB NIL=
201203060900 METAR MRLB NIL=
201203061000 METAR MRLB NIL=
201203061100 METAR MRLB NIL=
201203061200 METAR MRLB 061200Z 07020KT 9999 FEW035 SCT250 26/18 A2979=
201203061300 METAR MRLB 061300Z 08017G27KT 9999 FEW035 SCT250 27/17 A2979=
201203061400 METAR MRLB 061400Z 07021KT 9999 FEW035 SCT250 29/16 A2981=
201203061500 METAR MRLB 061500Z 06023KT 9999 FEW035 30/17 A2984=
201203061600 METAR MRLB 061600Z 06027G37KT 9999 FEW035 32/15 A2985=
201203061700 METAR MRLB 061700Z 05028KT 9999 SCT035 31/16 A2984=
201203061800 METAR MRLB 061800Z 06029G39KT 9999 SCT035 32/16 A2981=
201203061900 METAR MRLB 061900Z 07025G35KT 9999 SCT035 SCT250 33/15 A2980=
201203062000 METAR MRLB 062000Z 07020G30KT 9999 FEW040 32/16 A2977=
201203062100 METAR MRLB 062100Z 08022KT 9999 FEW040 32/16 A2975=
201203062200 METAR MRLB 062200Z 07023KT CAVOK 31/16 A2973=
201203062300 METAR MRLB 062300Z 06024KT CAVOK 29/16 A2974=
201203062352 METAR MRLB 070000Z 06022KT CAVOK 28/17 A2975=
201203070000 METAR MRLB 070000Z 06022KT CAVOK 28/17 A2975=
201203070100 METAR MRLB 070100Z 07020KT CAVOK 27/17 A2977=
201203070200 METAR MRLB 070200Z 07018KT CAVOK 27/18 A2978=
201203070300 METAR MRLB NIL=
201203070400 METAR MRLB NIL=
201203070500 METAR MRLB NIL=
201203070600 METAR MRLB NIL=
201203070700 METAR MRLB NIL=
201203070800 METAR MRLB NIL=
201203070900 METAR MRLB NIL=
201203071000 METAR MRLB NIL=
201203071100 METAR MRLB NIL=
201203071200 METAR MRLB 071200Z 08018KT CAVOK 26/17 A2974=
201203071300 METAR MRLB 071300Z 07018KT CAVOK 27/17 A2975=
201203071400 METAR MRLB 071400Z 07021KT CAVOK 28/17 A2977=
201203071500 METAR MRLB 071500Z 07025G35KT CAVOK 29/16 A2979=
201203071600 METAR MRLB 071600Z 07024KT CAVOK 31/17 A2979=
201203071700 METAR MRLB 071700Z 06021G33KT CAVOK 31/17 A2978=
201203071800 METAR MRLB 071800Z 06023KT CAVOK 34/15 A2976=
201203071900 METAR MRLB 071900Z 06023KT CAVOK 34/15 A2973=
201203072000 METAR MRLB 072000Z 06025KT CAVOK 33/16 A2970=
201203072100 METAR MRLB 072100Z 06022KT CAVOK 33/16 A2968=
201203072200 METAR MRLB 072200Z 07021KT CAVOK 31/17 A2968=
201203072300 METAR MRLB 072300Z 07024G34KT CAVOK 30/16 A2969=
201203072353 METAR MRLB 080000Z 07020KT CAVOK 28/18 A2969=
201203080000 METAR MRLB 080000Z 07020KT CAVOK 28/18 A2969=
201203080100 METAR MRLB 080100Z 07022KT CAVOK 27/18 A2970=
201203080200 METAR MRLB 080200Z 07025G37KT CAVOK 26/17 A2972=
201203080300 METAR MRLB NIL=
201203080400 METAR MRLB NIL=
201203080500 METAR MRLB NIL=
201203080600 METAR MRLB NIL=
201203080700 METAR MRLB NIL=
201203080800 METAR MRLB NIL=
201203080900 METAR MRLB NIL=
201203081000 METAR MRLB NIL=
201203081100 METAR MRLB NIL=
201203081200 METAR MRLB 081200Z 01003KT CAVOK 24/17 A2971=
201203081300 METAR MRLB 081300Z 08017KT CAVOK 26/18 A2972=
201203081400 METAR MRLB 081400Z 06025KT CAVOK 27/17 A2976=
201203081500 METAR MRLB 081500Z 06027KT CAVOK 29/16 A2978=
201203081600 METAR MRLB 081600Z 06025KT CAVOK 30/15 A2979=
201203081700 METAR MRLB 081700Z 06023KT CAVOK 31/15 A2978=
201203081800 METAR MRLB 081800Z 06024KT CAVOK 31/16 A2976=
201203081900 METAR MRLB 081900Z 06024KT CAVOK 32/16 A2973=
201203082000 METAR MRLB 082000Z 07023KT CAVOK 32/15 A2971=
201203082100 METAR MRLB 082100Z 07020KT CAVOK 33/15 A2969=
201203082200 METAR MRLB 082200Z 06022KT CAVOK 32/16 A2969=
201203082300 METAR MRLB 082300Z 06021KT CAVOK 30/15 A2971=
201203082352 METAR MRLB 090000Z 06020KT CAVOK 28/16 A2972=
201203090000 METAR MRLB 090000Z 06020KT CAVOK 28/16 A2972=
201203090100 METAR MRLB 090100Z 05021KT CAVOK 27/17 A2973=
201203090200 METAR MRLB 090200Z 07022KT CAVOK 26/14 A2974=
201203090300 METAR MRLB NIL=
201203090400 METAR MRLB NIL=
201203090500 METAR MRLB NIL=
201203090600 METAR MRLB NIL=
201203090700 METAR MRLB NIL=
201203090800 METAR MRLB NIL=
201203090900 METAR MRLB NIL=
201203091000 METAR MRLB NIL=
201203091100 METAR MRLB NIL=
201203091200 METAR MRLB 091200Z 03008KT CAVOK 23/15 A2973=
201203091300 METAR MRLB 091300Z 03009KT CAVOK 25/15 A2975=
201203091400 METAR MRLB 091400Z 06017KT CAVOK 29/14 A2977=
201203091500 METAR MRLB 091500Z 05026KT CAVOK 30/14 A2978=
201203091600 METAR MRLB 091600Z 06022G32KT CAVOK 31/16 A2979=
201203091700 METAR MRLB 091700Z 06023KT CAVOK 32/16 A2978=
201203091800 METAR MRLB 091800Z 06023KT CAVOK 33/17 A2976=
201203091900 METAR MRLB 091900Z 07023KT CAVOK 34/16 A2975=
201203092000 METAR MRLB 092000Z 06022KT CAVOK 33/16 A2973=
201203092100 METAR MRLB 092100Z 06022KT CAVOK 33/17 A2972=
201203092200 METAR MRLB 092200Z 06022KT CAVOK 31/17 A2971=
201203092300 METAR MRLB 092300Z 07022KT CAVOK 29/17 A2973=
201203092355 METAR MRLB 100000Z 06024KT CAVOK 28/17 A2974=
201203100000 METAR MRLB 100000Z 06024KT CAVOK 28/17 A2974=
201203100100 METAR MRLB 100100Z 06023KT CAVOK 27/17 A2975=
201203100200 METAR MRLB 100200Z 07022KT CAVOK 27/17 A2977=
201203100300 METAR MRLB NIL=
201203100400 METAR MRLB NIL=
201203100500 METAR MRLB NIL=
201203100600 METAR MRLB NIL=
201203100700 METAR MRLB NIL=
201203100800 METAR MRLB NIL=
201203100900 METAR MRLB NIL=
201203101000 METAR MRLB NIL=
201203101100 METAR MRLB NIL=
201203101200 METAR MRLB 101200Z 07017G27KT CAVOK 26/17 A2976=
201203101300 METAR MRLB 101300Z 07023KT CAVOK 27/17 A2978=
201203101400 METAR MRLB 101400Z 05020G30KT CAVOK 29/17 A2981=
201203101500 METAR MRLB 101500Z 06025G35KT CAVOK 30/16 A2981=
201203101600 METAR MRLB 101600Z 06022G32KT CAVOK 32/16 A2983=
201203101700 METAR MRLB 101700Z 06027KT CAVOK 32/16 A2982=
201203101800 METAR MRLB 101800Z 06024KT CAVOK 33/17 A2979=
201203101900 METAR MRLB 101900Z 06025G35KT CAVOK 33/16 A2976=
201203102000 METAR MRLB 102000Z 06025G35KT CAVOK 33/17 A2973=
201203102100 METAR MRLB 102100Z 07027KT CAVOK 33/16 A2970=
201203102200 METAR MRLB 102200Z 06026KT CAVOK 31/15 A2969=
201203102300 METAR MRLB 102300Z 06025KT CAVOK 30/17 A2970=
201203102355 METAR MRLB 110000Z 07022KT CAVOK 28/17 A2972=
201203110000 METAR MRLB 110000Z 07022KT CAVOK 28/17 A2972=
201203110100 METAR MRLB 110100Z 07022KT CAVOK 27/17 A2975=
201203110200 METAR MRLB 110200Z 06022KT CAVOK 27/17 A2977=
201203110300 METAR MRLB NIL=
201203110400 METAR MRLB NIL=
201203110500 METAR MRLB NIL=
201203110600 METAR MRLB NIL=
201203110700 METAR MRLB NIL=
201203110800 METAR MRLB NIL=
201203110900 METAR MRLB NIL=
201203111000 METAR MRLB NIL=
201203111100 METAR MRLB NIL=
201203111200 METAR MRLB 111200Z 07020G30KT CAVOK 26/17 A2979=
201203111300 METAR MRLB 111300Z 07018G28KT CAVOK 27/16 A2981=
201203111400 METAR MRLB 111400Z 06020KT CAVOK 29/15 A2982=
201203111500 METAR MRLB 111500Z 07020KT CAVOK 30/15 A2985=
201203111600 METAR MRLB 111600Z 07021KT CAVOK 31/16 A2986=
201203111700 METAR MRLB 111700Z 07024KT 9999 FEW040 32/18 A2983=
201203111800 METAR MRLB 111800Z 07024KT 9999 FEW040 32/18 A2981=
201203111900 METAR MRLB 111900Z 07020KT 9999 FEW040 33/17 A2979=
201203112000 METAR MRLB 112000Z 07024KT 9999 FEW040 32/18 A2976=
201203112100 METAR MRLB 112100Z 06025KT 9999 FEW035 31/18 A2974=
201203112200 METAR MRLB 112200Z 07023KT 9999 FEW035 31/17 A2975=
201203112300 METAR MRLB 112300Z 08019KT 9999 FEW035 30/18 A2974=
201203112355 METAR MRLB 120000Z 08023KT 9999 FEW040 27/19 A2975=
201203120000 METAR MRLB 120000Z 08023KT 9999 FEW040 27/19 A2975=
201203120100 METAR MRLB 120100Z 08021KT 9999 FEW040 26/18 A2976=
201203120200 METAR MRLB 120200Z 08020KT 9999 FEW040 26/18 A2978=
201203120300 METAR MRLB NIL=
201203120400 METAR MRLB NIL=
201203120500 METAR MRLB NIL=
201203120600 METAR MRLB NIL=
201203120700 METAR MRLB NIL=
201203120800 METAR MRLB NIL=
201203120900 METAR MRLB NIL=
201203121000 METAR MRLB NIL=
201203121100 METAR MRLB NIL=
201203121200 METAR MRLB 121200Z 06022KT CAVOK 26/17 A2976=
201203121300 METAR MRLB 121300Z 06020KT CAVOK 27/18 A2978=
201203121400 METAR MRLB 121400Z 05022KT CAVOK 29/18 A2982=
201203121500 METAR MRLB 121500Z 06022KT 9999 FEW035 30/17 A2983=
201203121600 METAR MRLB 121600Z 06025G35KT 9999 FEW035 31/18 A2983=
201203121700 METAR MRLB 121700Z 05024KT 9999 FEW035 32/17 A2982=
201203121800 METAR MRLB 121800Z 05022KT 9999 FEW035 33/16 A2979=
201203121900 METAR MRLB 121900Z 06021KT 9999 FEW035 34/15 A2976=
201203122000 METAR MRLB 122000Z 05022G32KT 9999 FEW035 33/17 A2973=
201203122100 METAR MRLB 122100Z 07024KT 9999 FEW035 33/15 A2973=
201203122200 METAR MRLB 122200Z 06025KT CAVOK 31/17 A2972=
201203122300 METAR MRLB 122300Z 07022KT CAVOK 30/18 A2972=
201203122358 METAR MRLB 130000Z 06025KT CAVOK 27/18 A2972=
201203130000 METAR MRLB 130000Z 06025KT CAVOK 27/18 A2972=
201203130100 METAR MRLB 130100Z 07024KT CAVOK 27/18 A2973=
201203130200 METAR MRLB 130200Z 07020G30KT CAVOK 26/18 A2974=
201203130300 METAR MRLB NIL=
201203130400 METAR MRLB NIL=
201203130500 METAR MRLB NIL=
201203130600 METAR MRLB NIL=
201203130700 METAR MRLB NIL=
201203130800 METAR MRLB NIL=
201203130900 METAR MRLB NIL=
201203131000 METAR MRLB NIL=
201203131100 METAR MRLB NIL=
201203131200 METAR MRLB 131200Z 02006KT CAVOK 25/18 A2977=
201203131300 METAR MRLB 131300Z 08016KT CAVOK 27/18 A2978=
201203131400 METAR MRLB 131400Z 04012KT CAVOK 29/18 A2981=
201203131500 METAR MRLB 131500Z 07021KT CAVOK 30/17 A2981=
201203131600 METAR MRLB 131600Z 08020KT 9999 FEW040 31/18 A2982=
201203131700 METAR MRLB 131700Z 08024KT 9999 FEW040 31/18 A2982=
201203131800 METAR MRLB 131800Z 06023KT 9999 FEW040 32/17 A2980=
201203131900 METAR MRLB 131900Z 06021KT 9999 FEW040 33/18 A2979=
201203132000 METAR MRLB 132000Z 06026KT 9999 FEW040 33/17 A2975=
201203132100 METAR MRLB 132100Z 08026KT 9999 FEW040 31/18 A2974=
201203132200 METAR MRLB 132200Z 07024KT 9999 FEW040 31/18 A2973=
201203132300 METAR MRLB 132300Z 07026KT CAVOK 30/16 A2972=
201203132350 METAR MRLB 140000Z 07022KT CAVOK 28/18 A2979=
201203140000 METAR MRLB 140000Z 07022KT CAVOK 28/18 A2979=
201203140100 METAR MRLB 140100Z 07025KT CAVOK 27/18 A2974=
201203140200 METAR MRLB 140200Z 07024KT CAVOK 27/18 A2974=
201203140300 METAR MRLB NIL=
201203140400 METAR MRLB NIL=
201203140500 METAR MRLB NIL=
201203140600 METAR MRLB NIL=
201203140700 METAR MRLB NIL=
201203140800 METAR MRLB NIL=
201203140900 METAR MRLB NIL=
201203141000 METAR MRLB NIL=
201203141100 METAR MRLB NIL=
201203141200 METAR MRLB 141200Z 07019KT CAVOK 26/18 A2973=
201203141300 METAR MRLB 141300Z 08016KT CAVOK 27/18 A2976=
201203141400 METAR MRLB 141400Z 07017KT CAVOK 29/17 A2979=
201203141500 METAR MRLB 141500Z 06024KT CAVOK 30/18 A2980=
201203141600 METAR MRLB 141600Z 06024KT CAVOK 32/17 A2981=
201203141700 METAR MRLB 141700Z 06024KT CAVOK 32/17 A2979=
201203141800 METAR MRLB 141800Z 06025KT CAVOK 33/17 A2977=
201203141900 METAR MRLB 141900Z 06024KT CAVOK 34/16 A2975=
201203142000 METAR MRLB 142000Z 07022KT CAVOK 33/17 A2974=
201203142100 METAR MRLB 142100Z 06021KT CAVOK 33/16 A2972=
201203142200 METAR MRLB 142200Z 06020KT CAVOK 32/17 A2971=
201203142300 METAR MRLB 142300Z 07020KT CAVOK 30/17 A2972=
201203142355 METAR MRLB 150000Z 07022KT CAVOK 28/18 A2973=
201203150000 METAR MRLB 150000Z 07022KT CAVOK 28/18 A2973=
201203150100 METAR MRLB 150100Z 08021KT CAVOK 28/19 A2975=
201203150200 METAR MRLB 150200Z 07022KT CAVOK 27/18 A2978=
201203150300 METAR MRLB NIL=
201203150400 METAR MRLB NIL=
201203150500 METAR MRLB NIL=
201203150600 METAR MRLB NIL=
201203150700 METAR MRLB NIL=
201203150800 METAR MRLB NIL=
201203150900 METAR MRLB NIL=
201203151000 METAR MRLB NIL=
201203151100 METAR MRLB NIL=
201203151200 METAR MRLB 151200Z 07017KT CAVOK 26/18 A2978=
201203151300 METAR MRLB 151300Z 06016KT CAVOK 27/18 A2981=
201203151400 METAR MRLB 151400Z 06025KT CAVOK 29/18 A2981=
201203151500 METAR MRLB 151500Z 06024KT CAVOK 29/18 A2981=
201203151600 METAR MRLB 151600Z 07024KT 9999 FEW035 31/18 A2984=
201203151700 METAR MRLB 151700Z 06025KT 9999 FEW035 32/18 A2981=
201203151800 METAR MRLB 151800Z 06025KT 9999 FEW035 32/17 A2978=
201203151900 METAR MRLB 151900Z 06023KT 9999 FEW035 33/17 A2977=
201203152000 METAR MRLB 152000Z 06022KT 9999 FEW030 SCT250 33/18 A2976=
201203152100 METAR MRLB 152100Z 07022G32KT 9999 FEW030 SCT250 32/18 A2973=
201203152200 METAR MRLB 152200Z 07020G30KT CAVOK 30/18 A2973=
201203152300 METAR MRLB 152300Z 07023KT CAVOK 29/18 A2973=
201203152355 METAR MRLB 160000Z 07022KT CAVOK 27/18 A2976=
201203160000 METAR MRLB 160000Z 07022KT CAVOK 27/18 A2976=
201203160100 METAR MRLB 160100Z 07020G30KT CAVOK 27/17 A2977=
201203160200 METAR MRLB 160200Z 08020KT CAVOK 27/18 A2981=
201203160300 METAR MRLB NIL=
201203160400 METAR MRLB NIL=
201203160500 METAR MRLB NIL=
201203160600 METAR MRLB NIL=
201203160700 METAR MRLB NIL=
201203160800 METAR MRLB NIL=
201203160900 METAR MRLB NIL=
201203161000 METAR MRLB NIL=
201203161100 METAR MRLB NIL=
201203161200 METAR MRLB 161200Z 07022KT CAVOK 26/18 A2979=
201203161300 METAR MRLB 161300Z 06020KT CAVOK 27/18 A2982=
201203161400 METAR MRLB 161400Z 07022KT CAVOK 29/17 A2985=
201203161500 METAR MRLB 161500Z 07020G30KT CAVOK 30/17 A2986=
201203161600 METAR MRLB 161600Z 06020G30KT CAVOK 31/17 A2987=
201203161700 METAR MRLB 161700Z 07023KT CAVOK 32/16 A2986=
201203161800 METAR MRLB 161800Z 07020G30KT CAVOK 33/15 A2984=
201203161900 METAR MRLB 161900Z 06020KT CAVOK 34/15 A2980=
201203162000 METAR MRLB 162000Z 06023G33KT 9999 FEW040 34/16 A2979=
201203162100 METAR MRLB 162100Z 06021KT CAVOK 33/16 A2976=
201203162200 METAR MRLB 162200Z 06024KT CAVOK 32/16 A2976=
201203162300 METAR MRLB 162300Z 07019KT CAVOK 31/17 A2976=
201203162354 METAR MRLB 170000Z 06018KT CAVOK 29/18 A2978=
201203170000 METAR MRLB 170000Z 06018KT CAVOK 29/18 A2978=
201203170100 METAR MRLB 170100Z 07017KT CAVOK 28/17 A2979=
201203170200 METAR MRLB 170200Z 07020KT CAVOK 27/17 A2982=
201203170300 METAR MRLB NIL=
201203170400 METAR MRLB NIL=
201203170500 METAR MRLB NIL=
201203170600 METAR MRLB NIL=
201203170700 METAR MRLB NIL=
201203170800 METAR MRLB NIL=
201203170900 METAR MRLB NIL=
201203171000 METAR MRLB NIL=
201203171100 METAR MRLB NIL=
201203171200 METAR MRLB 171200Z 11002KT CAVOK 26/18 A2983=
201203171300 METAR MRLB 171300Z 20004KT CAVOK 26/18 A2984=
201203171400 METAR MRLB 171400Z 35003KT CAVOK 28/18 A2988=
201203171500 METAR MRLB 171500Z 06011KT CAVOK 31/17 A2989=
201203171600 METAR MRLB 171600Z 06015KT CAVOK 32/16 A2990=
201203171700 METAR MRLB 171700Z 07019KT CAVOK 33/16 A2987=
201203171800 METAR MRLB 171800Z 07019KT CAVOK 33/16 A2986=
201203171900 METAR MRLB 171900Z 07021KT CAVOK 33/16 A2983=
201203172000 METAR MRLB 172000Z 06020KT CAVOK 34/17 A2981=
201203172100 METAR MRLB 172100Z 06020KT CAVOK 33/16 A2978=
201203172200 METAR MRLB 172200Z 07018KT CAVOK 32/15 A2978=
201203172300 METAR MRLB 172300Z 08020KT CAVOK 30/16 A2980=
201203172354 METAR MRLB 180000Z 08016KT CAVOK 29/16 A2980=
201203180000 METAR MRLB 180000Z 08016KT CAVOK 29/16 A2980=
201203180100 METAR MRLB 180100Z 08017KT CAVOK 28/16 A2982=
201203180200 METAR MRLB 180200Z 08015KT CAVOK 27/16 A2984=
201203180300 METAR MRLB NIL=
201203180400 METAR MRLB NIL=
201203180500 METAR MRLB NIL=
201203180600 METAR MRLB NIL=
201203180700 METAR MRLB NIL=
201203180800 METAR MRLB NIL=
201203180900 METAR MRLB NIL=
201203181000 METAR MRLB NIL=
201203181100 METAR MRLB NIL=
201203181200 METAR MRLB 181200Z 04005KT CAVOK 20/17 A2985=
201203181300 METAR MRLB 181300Z 08010KT CAVOK 27/18 A2986=
201203181400 METAR MRLB 181400Z 34006KT CAVOK 28/18 A2990=
201203181500 METAR MRLB 181500Z 06013KT CAVOK 32/16 A2991=
201203181600 METAR MRLB 181600Z 07015KT CAVOK 33/16 A2990=
201203181700 METAR MRLB 181700Z 06015KT CAVOK 33/15 A2989=
201203181800 METAR MRLB 181800Z 08016KT CAVOK 33/16 A2986=
201203181900 METAR MRLB 181900Z 07018KT 9999 FEW035 SCT250 34/14 A2984=
201203182000 METAR MRLB 182000Z 07020KT 9999 FEW035 33/15 A2981=
201203182100 METAR MRLB 182100Z 08020KT 9999 FEW030 33/16 A2980=
201203182200 METAR MRLB 182200Z 07020KT CAVOK 32/15 A2979=
201203182300 METAR MRLB 182300Z 07018KT CAVOK 30/15 A2979=
201203182353 METAR MRLB 190000Z 08018KT CAVOK 28/14 A2981=
201203190000 METAR MRLB 190000Z 08018KT CAVOK 28/14 A2981=
201203190100 METAR MRLB 190100Z 08014KT CAVOK 27/16 A2980=
201203190200 METAR MRLB 190200Z 09013KT CAVOK 27/16 A2981=
201203190300 METAR MRLB NIL=
201203190400 METAR MRLB NIL=
201203190500 METAR MRLB NIL=
201203190600 METAR MRLB NIL=
201203190700 METAR MRLB NIL=
201203190800 METAR MRLB NIL=
201203190900 METAR MRLB NIL=
201203191000 METAR MRLB NIL=
201203191100 METAR MRLB NIL=
201203191200 METAR MRLB 191200Z 04003KT CAVOK 18/15 A2982=
201203191300 METAR MRLB 191300Z 28003KT CAVOK 24/16 A2983=
201203191400 METAR MRLB 191400Z 06012KT CAVOK 28/16 A2985=
201203191500 METAR MRLB 191500Z 05018KT CAVOK 31/15 A2988=
201203191600 METAR MRLB 191600Z 07018KT CAVOK 32/14 A2988=
201203191700 METAR MRLB 191700Z 08016KT CAVOK 33/13 A2986=
201203191800 METAR MRLB 191800Z 07015KT 9999 FEW030 33/14 A2983=
201203191900 METAR MRLB 191900Z 06014KT 9999 FEW030 34/14 A2980=
201203192000 METAR MRLB 192000Z 08014KT 9999 FEW035 34/14 A2977=
201203192100 METAR MRLB 192100Z 05018KT CAVOK 33/14 A2973=
201203192200 METAR MRLB 192200Z 07015KT CAVOK 33/15 A2973=
201203192300 METAR MRLB 192300Z 06015KT CAVOK 31/16 A2973=
201203192356 METAR MRLB 200000Z 06014KT CAVOK 29/16 A2975=
201203200000 METAR MRLB 200000Z 06014KT CAVOK 29/16 A2975=
201203200100 METAR MRLB 200100Z 07015KT CAVOK 28/16 A2977=
201203200200 METAR MRLB 200200Z 07014KT CAVOK 27/16 A2979=
201203200300 METAR MRLB NIL=
201203200400 METAR MRLB NIL=
201203200500 METAR MRLB NIL=
201203200600 METAR MRLB NIL=
201203200700 METAR MRLB NIL=
201203200800 METAR MRLB NIL=
201203200900 METAR MRLB NIL=
201203201000 METAR MRLB NIL=
201203201100 METAR MRLB NIL=
201203201200 METAR MRLB 201200Z 14002KT CAVOK 22/17 A2980=
201203201300 METAR MRLB 201300Z 00000KT CAVOK 23/17 A2981=
201203201400 METAR MRLB 201400Z 07002KT CAVOK 27/16 A2983=
201203201500 METAR MRLB 201500Z 34002KT CAVOK 30/15 A2986=
201203201600 METAR MRLB 201600Z 08009KT CAVOK 32/13 A2986=
201203201700 METAR MRLB 201700Z 05009KT 9999 FEW040 A2983=
201203201800 METAR MRLB 201800Z 08005KT 9999 SCT040 33/14 A2980=
201203201900 METAR MRLB 201900Z 15006KT 9999 SCT040 36/13 A2977=
201203202000 METAR MRLB 202000Z 27009KT BKN040 34/15 A2974=
201203202100 METAR MRLB 202100Z 28010KT 9999 SCT040 33/14 A2971=
201203202200 METAR MRLB 202200Z 28012KT 9999 FEW040 32/14 A2971=
201203202300 METAR MRLB 202300Z 28008KT 9999 FEW040 32/14 A2972=
201203202355 METAR MRLB 210000Z 26005KT 9999 SCT040 30/16 A2974=
201203210000 METAR MRLB 210000Z 26005KT 9999 SCT040 30/16 A2974=
201203210100 METAR MRLB 210100Z 20004KT 9999 FEW040 28/18 A2975=
201203210200 METAR MRLB 210200Z 15004KT CAVOK 27/18 A2977=
201203210300 METAR MRLB NIL=
201203210400 METAR MRLB NIL=
201203210500 METAR MRLB NIL=
201203210600 METAR MRLB NIL=
201203210700 METAR MRLB NIL=
201203210800 METAR MRLB NIL=
201203210900 METAR MRLB NIL=
201203211000 METAR MRLB NIL=
201203211100 METAR MRLB NIL=
201203211200 METAR MRLB 211200Z 34002KT CAVOK 19/17 A2980=
201203211300 METAR MRLB 211300Z 00000KT CAVOK 23/17 A2980=
201203211302 METAR MRLB 21300Z 00000KT CAVOK 23/17 A2980=
201203211400 METAR MRLB 211400Z 31002KT CAVOK 26/17 A2982=
201203211500 METAR MRLB 211500Z 02004KT CAVOK 20/17 A2985=
201203211600 METAR MRLB 211600Z 09007KT CAVOK 33/14 A2985=
201203211700 METAR MRLB 211700Z 08006KT CAVOK 34/13 A2984=
201203211800 METAR MRLB 211800Z 07011KT 9999 FEW040 34/13 A2981=
201203211900 METAR MRLB 211900Z 09009KT 9999 FEW040 35/13 A2977=
201203212000 METAR MRLB 212000Z 04012KT 9999 FEW035 SCT250 34/13 A2976=
201203212100 METAR MRLB 212100Z 10010KT 9999 SCT035 35/14 A2974=
201203212200 METAR MRLB 212200Z 07010KT 9999 SCT035 33/14 A2974=
201203212300 METAR MRLB 212300Z 05006KT 9999 SCT035 32/15 A2976=
201203212354 METAR MRLB 220000Z 06005KT 9999 SCT040 30/17 A2979=
201203220000 METAR MRLB 220000Z 06005KT 9999 SCT040 30/17 A2979=
201203220100 METAR MRLB 220100Z 14008KT 9999 FEW045 28/18 A2980=
201203220200 METAR MRLB 220200Z 14008KT CAVOK 27/18 A2981=
201203220300 METAR MRLB NIL=
201203220400 METAR MRLB NIL=
201203220500 METAR MRLB NIL=
201203220600 METAR MRLB NIL=
201203220700 METAR MRLB NIL=
201203220800 METAR MRLB NIL=
201203220900 METAR MRLB NIL=
201203221000 METAR MRLB NIL=
201203221100 METAR MRLB NIL=
201203221200 METAR MRLB 221200Z 35002KT CAVOK 19/17 A2980=
201203221300 METAR MRLB 221300Z 03004KT CAVOK 22/18 A2982=
201203221400 METAR MRLB 221400Z 21004KT CAVOK 28/17 A2984=
201203221500 METAR MRLB 221500Z 35005KT CAVOK 30/17 A2987=
201203221600 METAR MRLB 221600Z 03007KT CAVOK 31/17 A2987=
201203221700 METAR MRLB 221700Z 07015KT CAVOK 34/15 A2984=
201203221800 METAR MRLB 221800Z 07015KT 9999 FEW040 34/16 A2982=
201203221900 METAR MRLB 221900Z 08014KT 9999 FEW040 34/16 A2978=
201203222000 METAR MRLB 222000Z 07014KT 9999 FEW040 35/16 A2975=
201203222100 METAR MRLB 222100Z 08014KT 9999 FEW040 34/16 A2972=
201203222200 METAR MRLB 222200Z 07017KT 9999 FEW040 33/16 A2972=
201203222300 METAR MRLB 222300Z 07020KT CAVOK 31/17 A2973=
201203230100 METAR MRLB 230100Z 08015KT CAVOK 28/16 A2976=
201203230200 METAR MRLB 230200Z 07016KT CAVOK 28/17 A2979=
201203230300 METAR MRLB NIL=
201203230400 METAR MRLB NIL=
201203230500 METAR MRLB NIL=
201203230600 METAR MRLB NIL=
201203230700 METAR MRLB NIL=
201203230800 METAR MRLB NIL=
201203230900 METAR MRLB NIL=
201203231000 METAR MRLB NIL=
201203231100 METAR MRLB NIL=
201203231200 METAR MRLB 231200Z 00000KT CAVOK 21/17 A2981=
201203231300 METAR MRLB 231300Z 30002KT CAVOK 23/18 A2982=
201203231400 METAR MRLB 231400Z 28002KT CAVOK 28/18 A2986=
201203231500 METAR MRLB 231500Z 07004KT CAVOK 30/18 A2988=
201203231600 METAR MRLB 231600Z 05013KT 9999 FEW040 32/18 A2988=
201203231700 METAR MRLB 231700Z 08011KT 9999 FEW040 32/18 A2987=
201203231800 METAR MRLB 231800Z 08012KT 9999 FEW040 33/18 A2984=
201203231900 METAR MRLB 231900Z 09012KT 9999 FEW040 33/17 A2981=
201203232000 METAR MRLB 232000Z 06015KT 9999 FEW040 34/17 A2977=
201203232100 METAR MRLB 232100Z 07015KT 9999 FEW040 32/18 A2976=
201203232200 METAR MRLB 232200Z 06016KT 9999 FEW040 31/18 A2975=
201203232300 METAR MRLB 232300Z 06018KT 9999 FEW040 29/18 A2974=
201203232356 METAR MRLB 240000Z 08015KT 9999 FEW040 SCT120 27/17 2976=
201203240000 METAR MRLB 240000Z 08015KT 9999 FEW040 SCT120 27/17 2976=
201203240100 METAR MRLB 240100Z 07012KT CAVOK 27/17 A2978=
201203240200 METAR MRLB 240200Z 08013KT CAVOK 27/16 A2979=
201203240300 METAR MRLB NIL=
201203240400 METAR MRLB NIL=
201203240500 METAR MRLB NIL=
201203240600 METAR MRLB NIL=
201203240700 METAR MRLB NIL=
201203240800 METAR MRLB NIL=
201203240900 METAR MRLB NIL=
201203241000 METAR MRLB NIL=
201203241100 METAR MRLB NIL=
201203241200 METAR MRLB 241200Z 03002KT CAVOK 20/15 A2983=
201203241300 METAR MRLB 241300Z 02002KT CAVOK 23/16 A2983=
201203241400 METAR MRLB 241400Z 28003KT CAVOK 27/15 A2986=
201203241500 METAR MRLB 241500Z 23002KT CAVOK 31/17 A2988=
201203241600 METAR MRLB 241600Z 08015KT CAVOK 31/16 A2988=
201203241700 METAR MRLB 241700Z 07011KT 9999 FEW035 33/16 A2987=
201203241800 METAR MRLB 241800Z 09011KT 9999 FEW035 34/16 A2984=
201203241853 METAR MRLB 241853Z 09011KT 9999 FEW035 33/16 A2981=
201203241900 METAR MRLB 241900Z 09011KT 9999 FEW035 33/16 A2981=
201203242000 METAR MRLB 242000Z 06011KT 9999 SCT030 34/15 A2978=
201203242100 METAR MRLB 242100Z 05012KT 9999 SCT030 34/15 A2976=
201203242200 METAR MRLB 242200Z 07012KT 9999 SCT030 34/15 A2976=
201203242300 METAR MRLB 242300Z 07013KT 9999 FEW035 32/15 A2976=
201203242350 METAR MRLB 250000Z 08008KT 9999 FEW035 30/16 A2978=
201203250000 METAR MRLB 250000Z 08008KT 9999 FEW035 30/16 A2978=
201203250100 METAR MRLB 250100Z 08008KT 9999 FEW040 28/17 A2980=
201203250200 METAR MRLB 250200Z 12006KT 9999 FEW045 28/18 A2982=
201203250300 METAR MRLB NIL=
201203250400 METAR MRLB NIL=
201203250500 METAR MRLB NIL=
201203250600 METAR MRLB NIL=
201203250700 METAR MRLB NIL=
201203250800 METAR MRLB NIL=
201203250900 METAR MRLB NIL=
201203251000 METAR MRLB NIL=
201203251100 METAR MRLB NIL=
201203251200 METAR MRLB 251200Z 02004KT CAVOK 19/17 A2984=
201203251300 METAR MRLB 251300Z 04004KT CAVOK 22/17 A2986=
201203251400 METAR MRLB 251400Z 00000KT CAVOK 27/17 A2988=
201203251500 METAR MRLB 251500Z 08007KT CAVOK 31/15 A2990=
201203251600 METAR MRLB 251600Z 10012KT CAVOK 33/13 A2989=
201203251700 METAR MRLB 251700Z 06010KT CAVOK 34/14 A2987=
201203251800 METAR MRLB 251800Z 06012KT 9999 FEW030 35/12 A2984=
201203251900 METAR MRLB 251900Z 09008KT 9999 FEW025 35/12 A2981=
201203252000 METAR MRLB 252000Z 10008KT 9999 FEW025 35/11 A2977=
201203252100 METAR MRLB 252100Z 08010KT 9999 FEW025 36/12 A2975=
201203252200 METAR MRLB 252200Z 08007KT 9999 FEW035 34/13 A2974=
201203252300 METAR MRLB 252300Z 07012KT CAVOK 32/13 A2975=
201203252351 METAR MRLB 260000Z 07010KT CAVOK 30/15 A2977=
201203260000 METAR MRLB 260000Z 07010KT CAVOK 30/15 A2977=
201203260100 METAR MRLB 260100Z 07010KT CAVOK 29/16 A2979=
201203260200 METAR MRLB 260200Z 08008KT CAVOK 28/17 A2981=
201203260300 METAR MRLB NIL=
201203260400 METAR MRLB NIL=
201203260500 METAR MRLB NIL=
201203260600 METAR MRLB NIL=
201203260700 METAR MRLB NIL=
201203260800 METAR MRLB NIL=
201203260900 METAR MRLB NIL=
201203261000 METAR MRLB NIL=
201203261100 METAR MRLB NIL=
201203261200 METAR MRLB 261200Z 00000KT CAVOK 19/16 A2985=
201203261300 METAR MRLB 261300Z 04002KT CAVOK 23/16 A2986=
201203261400 METAR MRLB 261400Z 27002KT CAVOK 29/14 A2989=
201203261500 METAR MRLB 261500Z 22004KT CAVOK 30/13 A2991=
201203261600 METAR MRLB 261600Z 16004KT CAVOK 33/13 A2989=
201203261700 METAR MRLB 261700Z 33004KT CAVOK 33/15 A2988=
201203261800 METAR MRLB 261800Z 09010KT CAVOK 35/13 A2985=
201203261900 METAR MRLB 261900Z 09010KT CAVOK 34/13 A2981=
201203262000 METAR MRLB 262000Z 08008KT CAVOK 35/13 A2978=
201203262100 METAR MRLB 262100Z 06013KT CAVOK 35/13 A2975=
201203262200 METAR MRLB 262200Z 06017KT CAVOK 34/13 A2975=
201203262300 METAR MRLB 262300Z 05018KT CAVOK 32/14 A2975=
201203262350 METAR MRLB 270000Z 07017KT CAVOK 30/15 A2976=
201203270000 METAR MRLB 270000Z 07017KT CAVOK 30/15 A2976=
201203270050 METAR MRLB 2700100Z 07016KT CAVOK 29/15 A2978=
201203270100 METAR MRLB 2700100Z 07016KT CAVOK 29/15 A2978=
201203270200 METAR MRLB 270200Z 07014KT CAVOK 28/15 A2979=
201203270300 METAR MRLB NIL=
201203270400 METAR MRLB NIL=
201203270500 METAR MRLB NIL=
201203270600 METAR MRLB NIL=
201203270700 METAR MRLB NIL=
201203270800 METAR MRLB NIL=
201203270900 METAR MRLB NIL=
201203271000 METAR MRLB NIL=
201203271100 METAR MRLB NIL=
201203271200 METAR MRLB 271200Z 05005KT CAVOK 19/14 A2984=
201203271300 METAR MRLB 271300Z 02002KT CAVOK 24/14 A2985=
201203271400 METAR MRLB 271400Z 30003KT CAVOK 27/14 A2987=
201203271500 METAR MRLB 271500Z 35003KT CAVOK 30/13 A2989=
201203271600 METAR MRLB 271600Z 08016KT CAVOK 32/12 A2988=
201203271700 METAR MRLB 271700Z 10014KT CAVOK 34/12 A2987=
201203271800 METAR MRLB 271800Z 08014KT CAVOK 34/12 A2985=
201203271900 METAR MRLB 271900Z 08012KT CAVOK 35/12 A2982=
201203272000 METAR MRLB 272000Z 06012KT CAVOK 35/12 A2979=
201203272100 METAR MRLB 272100Z 05014KT CAVOK 34/13 A2977=
201203272200 METAR MRLB 272200Z 06016KT CAVOK 33/13 A2976=
201203272300 METAR MRLB 272300Z 06016KT CAVOK 32/16 A2977=
201203272350 METAR MRLB 280000Z 06014KT CAVOK 30/17 A2979=
201203280000 METAR MRLB 280000Z 06014KT CAVOK 30/17 A2979=
201203280100 METAR MRLB 280100Z 06015KT CAVOK 28/18 A2981=
201203280200 METAR MRLB 280200Z 06017KT CAVOK 28/18 A2983=
201203280300 METAR MRLB NIL=
201203280400 METAR MRLB NIL=
201203280500 METAR MRLB NIL=
201203280600 METAR MRLB NIL=
201203280700 METAR MRLB NIL=
201203280800 METAR MRLB NIL=
201203280900 METAR MRLB NIL=
201203281000 METAR MRLB NIL=
201203281100 METAR MRLB NIL=
201203281200 METAR MRLB 281200Z 07003KT CAVOK 21/17 A2980=
201203281300 METAR MRLB 281300Z 29005KT CAVOK 21/17 A2981=
201203281400 METAR MRLB 281400Z 29003KT CAVOK 27/18 A2983=
201203281500 METAR MRLB 281500Z 07004KT CAVOK 30/16 A2985=
201203281600 METAR MRLB 281600Z 06007KT CAVOK 32/15 A2985=
201203281700 METAR MRLB 281700Z 08014KT CAVOK 33/15 A2983=
201203281800 METAR MRLB 281800Z 09017KT 9999 FEW040 33/17 A2982=
201203281900 METAR MRLB 281900Z 08015KT 9999 FEW040 33/17 A2979=
201203282000 METAR MRLB 282000Z 08012KT 9999 SCT040 32/17 A2976=
201203282100 METAR MRLB 282100Z 07017KT 9999 FEW040 SCT130 32/18 A2974 2=
201203282200 METAR MRLB 282200Z 06022KT 9999 FEW040 SCT130 30/18 A2973=
201203282300 METAR MRLB 282300Z 06022KT 9999 FEW040 SCT130 29/18 A2974=
201203282347 METAR MRLB 290000Z 06021KT 9999 SCT040 28/15 A2974=
201203290000 METAR MRLB 290000Z 06021KT 9999 SCT040 28/15 A2974=
201203290100 METAR MRLB 290100Z 08017KT 9999 FEW040 27/16 A2975=
201203290200 METAR MRLB 290200Z 08018KT 9999 FEW040 27/17 A2978=
201203290300 METAR MRLB NIL=
201203290400 METAR MRLB NIL=
201203290500 METAR MRLB NIL=
201203290600 METAR MRLB NIL=
201203290700 METAR MRLB NIL=
201203290800 METAR MRLB NIL=
201203290900 METAR MRLB NIL=
201203291000 METAR MRLB NIL=
201203291100 METAR MRLB NIL=
201203291200 METAR MRLB 291200Z 00000KT CAVOK 24/17 A2974=
201203291300 METAR MRLB 291300Z 02006KT CAVOK 24/17 A2975=
201203291400 METAR MRLB 291400Z 08015KT CAVOK 30/16 A2977=
201203291500 METAR MRLB 291500Z 08013KT CAVOK 31/17 A2979=
201203291600 METAR MRLB 291600Z 08016KT CAVOK 32/16 A2979=
201203291700 METAR MRLB 291700Z 07014KT CAVOK 34/15 A2979=
201203291800 METAR MRLB 291800Z 08014KT 9999 FEW040 34/15 A2978=
201203291900 METAR MRLB 291900Z 07017KT 9999 FEW040 34/15 A2975=
201203292000 METAR MRLB 292000Z 06016KT 9999 FEW040 34/15 A2973=
201203292100 METAR MRLB 292100Z 06018KT 9999 FEW040 34/16 A2972=
201203292200 METAR MRLB 292200Z 06018KT CAVOK 34/15 A2972=
201203292300 METAR MRLB 292300Z 06018KT CAVOK 32/15 A2972=
201203292351 METAR MRLB 300000Z 06013KT CAVOK 30/17 A2974=
201203300000 METAR MRLB 300000Z 06013KT CAVOK 30/17 A2974=
201203300100 METAR MRLB 300100Z 07013KT CAVOK 29/17 A2975=
201203300200 METAR MRLB 300200Z 08013KT CAVOK 29/17 A2976=
201203300300 METAR MRLB NIL=
201203300400 METAR MRLB NIL=
201203300500 METAR MRLB NIL=
201203300600 METAR MRLB NIL=
201203300700 METAR MRLB NIL=
201203300800 METAR MRLB NIL=
201203300900 METAR MRLB NIL=
201203301000 METAR MRLB NIL=
201203301100 METAR MRLB NIL=
201203301200 METAR MRLB 301200Z 03005KT CAVOK 21/17 A2976=
201203301300 METAR MRLB 301300Z 10004KT CAVOK 26/18 A2979=
201203301400 METAR MRLB 301400Z 08014KT CAVOK 30/19 A2981=
201203301500 METAR MRLB 301500Z 09015KT CAVOK 31/18 A2983=
201203301600 METAR MRLB 301600Z 08014KT CAVOK 33/17 A2983=
201203301700 METAR MRLB 301700Z 06013KT CAVOK 34/17 A2982=
201203301800 METAR MRLB 301800Z 05011KT 9999 FEW040 SCT250 35/17 A2979=
201203301900 METAR MRLB 301900Z 05010KT 9999 FEW040 35/17 A2977=
201203302000 METAR MRLB 302000Z 08010KT 9999 SCT035 35/17 A2975=
201203302100 METAR MRLB 302100Z 05016KT 9999 FEW030 35/17 A2974=
201203302200 METAR MRLB 302200Z 06018KT 9999 FEW035 SCT250 34/16 A2973=
201203302300 METAR MRLB 302300Z 07016KT CAVOK 32/16 A2974=
201203302350 METAR MRLB 310000Z 06015KT CAVOK 30/17 A2976=
201203310000 METAR MRLB 310000Z 06015KT CAVOK 30/17 A2976=
201203310100 METAR MRLB 310100Z 07012KT CAVOK 29/17 A2977=
201203310200 METAR MRLB 310200Z 07012KT CAVOK 28/17 A2979=
201203310300 METAR MRLB NIL=
201203310400 METAR MRLB NIL=
201203310500 METAR MRLB NIL=
201203310600 METAR MRLB NIL=
201203310700 METAR MRLB NIL=
201203310800 METAR MRLB NIL=
201203310900 METAR MRLB NIL=
201203311000 METAR MRLB NIL=
201203311100 METAR MRLB NIL=
201203311200 METAR MRLB 311200Z 02003KT CAVOK 20/17 A2979=
201203311300 METAR MRLB 311300Z 01003KT CAVOK 24/17 A2981=
201203311400 METAR MRLB 311400Z 00000KT CAVOK 28/18 A2986=
201203311500 METAR MRLB 311500Z 10005KT CAVOK 31/17 A2986=
201203311600 METAR MRLB 311600Z 08015KT CAVOK 33/16 A2985=
201203311700 METAR MRLB 311700Z 08016KT CAVOK 34/16 A2984=
201203311800 METAR MRLB NIL=
201203311900 METAR MRLB 311900Z 09012KT 9999 SCT040 BKN250 35/17 A2978=
201203312000 METAR MRLB 312000Z 09010KT 9999 FEW035 SCT250 36/17 A2975=
201203312100 METAR MRLB 312100Z 06014KT 9999 FEW040 BKN250 35/17 A2973=
201203312200 METAR MRLB 312200Z 05013KT 9999 FEW040 BKN250 35/16 A2971=
201203312300 METAR MRLB 312300Z 05011KT CAVOK 34/17 A2971=
201203312347 METAR MRLB 010000Z 06011KT CAVOK 32/18 A2973=
201203312352 METAR MRLB 010000Z 06011KT CAVOK 32/18 A2973=
201203312357 METAR MRLB 010000Z 06011KT CAVOK 32/18 A2973=
201204010000 METAR MRLB 010000Z 06011KT CAVOK 32/18 A2973=
201204010100 METAR MRLB 010100Z 07009KT CAVOK 30/19 A2975=
201204010200 METAR MRLB 010200Z 30003KT CAVOK 29/19 A2977=
201204010300 METAR MRLB NIL=
201204010400 METAR MRLB NIL=
201204010500 METAR MRLB NIL=
201204010600 METAR MRLB NIL=
201204010700 METAR MRLB NIL=
201204010800 METAR MRLB NIL=
201204010900 METAR MRLB NIL=
201204011000 METAR MRLB NIL=
201204011100 METAR MRLB NIL=
201204011200 METAR MRLB 011200Z 12002KT CAVOK 23/19 A2979=
201204011300 METAR MRLB 011300Z 25002KT CAVOK 27/20 A2980=
201204011400 METAR MRLB 011400Z 15003KT CAVOK 29/19 A2983=
201204011500 METAR MRLB 011500Z 16003KT CAVOK 30/19 A2984=
201204011600 METAR MRLB 011600Z 30003KT CAVOK 33/19 A2983=
201204011700 METAR MRLB 011700Z 25004KT 9999 FEW035 BKN250 33/19 A2981=
201204011800 METAR MRLB 011800Z 25004KT 9999 SCT035 BKN250 34/18 A2978=
201204011900 METAR MRLB 011900Z 26012KT 9999 FEW035 BKN250 34/19 A2975=
201204012000 METAR MRLB 012000Z 28014KT 9999 SCT035 BKN250 34/20 A2973=
201204012100 METAR MRLB 012100Z 27012KT 9999 SCT035TCU BKN250 34/20A2970=
201204012154 METAR MRLB 012154Z 09010KT 9999 SCT035 SCT250 30/19 A2971=
201204012200 METAR MRLB 09010KT 9999 SCT035 SCT250 30/19 A2971=
201204012300 METAR MRLB 012300Z 12004KT 9999 BKN035 SCT250 32/21 A2971=
201204012353 METAR MRLB 020000Z 14007KT 9999 FEW035 SCT140 BKN250 28/21 A2971=
201204020000 METAR MRLB 020000Z 14007KT 9999 FEW035 SCT140 BKN250 28/21 A2971=
201204020100 METAR MRLB 020100Z 15004KT CAVOK 27/21 A2973=
201204020200 METAR MRLB 020200Z 16005KT CAVOK 27/21 A2976=
201204020300 METAR MRLB NIL=
201204020400 METAR MRLB NIL=
201204020500 METAR MRLB NIL=
201204020600 METAR MRLB NIL=
201204020700 METAR MRLB NIL=
201204020800 METAR MRLB NIL=
201204020900 METAR MRLB NIL=
201204021000 METAR MRLB NIL=
201204021100 METAR MRLB NIL=
201204021200 METAR MRLB 021200Z 33002KT CAVOK 22/20 A2974=
201204021300 METAR MRLB 021300Z 28003KT CAVOK 25/21 A2976=
201204021400 METAR MRLB 021400Z 19005KT CAVOK 28/20 A2980=
201204021500 METAR MRLB 021500Z 08006KT CAVOK 32/19 A2981=
201204021600 METAR MRLB 021600Z 11007KT CAVOK 32/19 A2980=
201204021700 METAR MRLB 021700Z 08006KT CAVOK 33/18 A2980=
201204021800 METAR MRLB 021800Z 11005KT 9999 FEW035 OVC250 30/19 A2977=
201204021900 METAR MRLB 021900Z 08006KT 9999 SCT035 BKN250 34/19 A2975=
201204022000 METAR MRLB 022000Z 26008KT 9999 SCT030 BKN200 32/21 A2973=
201204022100 METAR MRLB 022100Z 27010KT 9999 SCT040 BKN220 31/21 A2972=
201204022200 METAR MRLB 022200Z 29008KT 9999 SCT040 BKN240 30/21 A2971=
201204022300 METAR MRLB 022300Z 29006KT 9999 SCT040 BKN240 29/22 A2972=
201204022352 METAR MRLB 030000Z 20004KT 9999 FEW030 BKN220 29/22 A2973=
201204030000 METAR MRLB 030000Z 20004KT 9999 FEW030 BKN220 29/22 A2973=
201204030100 METAR MRLB 030100Z 08004KT 9999 FEW040 SCT220 28/23 A2974=
201204030200 METAR MRLB 030200Z 05003KT CAVOK 27/23 A2976=
201204030300 METAR MRLB NIL=
201204030400 METAR MRLB NIL=
201204030500 METAR MRLB NIL=
201204030600 METAR MRLB NIL=
201204030700 METAR MRLB NIL=
201204030800 METAR MRLB NIL=
201204030900 METAR MRLB NIL=
201204031000 METAR MRLB NIL=
201204031100 METAR MRLB NIL=
201204031200 METAR MRLB 031200Z 06003KT 9999 SCT040 BKN200 23/21 A2980=
201204031300 METAR MRLB 031300Z 02003KT 9999 FEW040 SCT250 26/22 A2982=
201204031400 METAR MRLB 031400Z 00000KT CAVOK 30/22 A2985=
201204031500 METAR MRLB 031500Z 00000KT 9999 FEW035 SCT250 31/20 A2986=
201204031600 METAR MRLB 031600Z 08005KT 9999 SCT030 BKN250 33/20 A2985=
201204031700 METAR MRLB 031700Z 17008KT 9999 SCT030 BKN250 34/20 A2983=
201204031800 METAR MRLB 031800Z 23008KT 9999 SCT030 BKN250 34/20 A2980=
201204031900 METAR MRLB 031900Z 27012KT 9999 SCT030TCU BKN170 31/22 A2977=
201204032000 METAR MRLB 032000Z 26015KT 9999 SCT030 BKN180 32/22 A2975=
201204032100 METAR MRLB 032100Z 28012KT 9999 SCT040 BKN250 32/21 A2973=
201204032200 METAR MRLB 032200Z 27008KT 9999 VCSH SCT030CB BKN150 32/21 A2971=
201204032300 METAR MRLB 032300Z 17010KT 9999 FEW030 SCT150 28/20 A2973=
201204032351 METAR MRLB 040000Z 14005KT 9999 SCT030 BKN180 27/20 A2975=
201204040000 METAR MRLB 040000Z 14005KT 9999 SCT030 BKN180 27/20 A2975=
201204040100 METAR MRLB 040100Z 17006KT 9999 SCT025 BKN100 26/22 A2977=
201204040200 METAR MRLB 040200Z 14008KT 9999 SCT030 BKN150 25/22 A2979=
201204040300 METAR MRLB NIL=
201204040400 METAR MRLB NIL=
201204040500 METAR MRLB NIL=
201204040600 METAR MRLB NIL=
201204040700 METAR MRLB NIL=
201204040800 METAR MRLB NIL=
201204040900 METAR MRLB NIL=
201204041000 METAR MRLB NIL=
201204041100 METAR MRLB NIL=
201204041200 METAR MRLB 041200Z 07002KT 9999 FEW035 SCT130 BKN250 24/21 A2980=
201204041300 METAR MRLB 041300Z 06003KT 9999 FEW035 SCT130 25/21 A2981=
201204041400 METAR MRLB 041400Z 27003KT 9999 FEW035 SCT130 29/22 A2984=
201204041500 METAR MRLB 041500Z 27005KT 9999 FEW035 SCT130 31/22 A2984=
201204041600 METAR MRLB 041600Z 28004KT 9999 SCT035 32/21 A2982=
201204041700 METAR MRLB 041700Z 05006KT 9999 SCT035 35/19 A2978=
201204041800 METAR MRLB 041800Z 08003KT 9999 BKN035 35/20 A2976=
201204041900 METAR MRLB 041900Z 20003KT 9999 BKN035 SCT250 34/20 A2973=
201204042000 METAR MRLB 042000Z 08007KT 9999 SCT035 BKN250 36/19 A2969=
201204042100 METAR MRLB 042100Z 06008KT 9999 FEW035 BKN250 37/17 A2967=
201204042200 METAR MRLB 042200Z 07009KT 9999 SCT035 BKN250 36/18 A2967=
201204042300 METAR MRLB 042300Z 07012KT 9999 VCSH FEW030CB FEW035 BKN250 33/19 A2968=
201204042357 METAR MRLB 050000Z 11014KT 9999 SCT035 BKN130 30/21 A2972=
201204050000 METAR MRLB 050000Z 11014KT 9999 VCSH SCT035 BKN130 30/21 A2972=
201204050100 METAR MRLB 050100Z 13009KT 9999 FEW035 SCT120 29/21 A2975=
201204050200 METAR MRLB 050200Z 15006KT CAVOK 28/22 A2977=
201204050300 METAR MRLB NIL=
201204050400 METAR MRLB NIL=
201204050500 METAR MRLB NIL=
201204050600 METAR MRLB NIL=
201204050700 METAR MRLB NIL=
201204050800 METAR MRLB NIL=
201204050900 METAR MRLB NIL=
201204051000 METAR MRLB NIL=
201204051100 METAR MRLB NIL=
201204051200 METAR MRLB 051200Z 02004KT 9999 SCT030 SCT120 25/21 A2981=
201204051300 METAR MRLB 051300Z 02004KT 9999 SCT030 BKN120 26/21 A2983=
201204051400 METAR MRLB 051400Z 36005KT 9999 SCT035 BKN120 27/22 A2986=
201204051500 METAR MRLB 051500Z 28005KT 9999 SCT035 BKN120 28/22 A2988=
201204051600 METAR MRLB 051600Z 26005KT 9999 SCT035 BKN130 28/22 A2988=
201204051700 METAR MRLB 051700Z 32007KT 9999 BKN030 SCT130 29/22 A2987=
201204051800 METAR MRLB 051800Z 28009KT 9999 BKN030 SCT130 30/23 A2983=
201204051900 METAR MRLB 051900Z 25009KT 9999 FEW035 BKN140 30/22 A2981=
201204052000 METAR MRLB 052000Z 27010KT 9999 FEW030 BKN180 29/22 A2979=
201204052100 METAR MRLB 052100Z 27010KT 9999 FEW030 BKN250 31/22 A2977=
201204052200 METAR MRLB 052200Z 29010KT 9999 SCT030 BKN240 29/22 A2976=
201204052300 METAR MRLB 052300Z 28010KT 9999 FEW035 BKN250 28/22 A2975=
201204060000 METAR MRLB NIL=
201204060100 METAR MRLB 060100Z 29005KT CAVOK 26/23 A2978=
201204060200 METAR MRLB 060200Z 27004KT CAVOK 26/22 A2980=
201204060300 METAR MRLB NIL=
201204060400 METAR MRLB NIL=
201204060500 METAR MRLB NIL=
201204060600 METAR MRLB NIL=
201204060700 METAR MRLB NIL=
201204060800 METAR MRLB NIL=
201204060900 METAR MRLB NIL=
201204061000 METAR MRLB NIL=
201204061100 METAR MRLB NIL=
201204061200 METAR MRLB 061200Z 00000KT CAVOK 23/21 A2981=
201204061300 METAR MRLB 061300Z 36003KT CAVOK 25/22 A2984=
201204061400 METAR MRLB 061400Z 00000KT 9999 FEW035 OVC250=
201204061401 METAR MRLB 061401Z 00000KT 9999 FEW035 OVC250 29/22 A2988=
201204061500 METAR MRLB 061500Z 15005KT 9999 FEW035 BKN250 29/22 A2989=
201204061600 METAR MRLB 061600Z 04004KT 9999 FEW035 BKN250 31/21 A2988=
201204061700 METAR MRLB 061700Z 02004KT 9999 SCT035 BKN250 33/20 A2987=
201204061800 METAR MRLB 061800Z 16004KT 9999 SCT035 BKN250 35/17 A2984=
201204061900 METAR MRLB 061900Z 10004KT 9999 SCT BKN250 36/14 A2979=
201204062000 METAR MRLB 062000Z 24009KT 9999 SCT035 BKN250 36/19 A2976=
201204062100 METAR MRLB 062100Z 27009KT 9999 SCT035 BKN250 35/19 A2974=
201204062200 METAR MRLB 062200Z 30011KT 9999 SCT035 BKN250 34/20 A2973=
201204062300 METAR MRLB 062300Z 27008KT 9999 SCT035 BKN250 33/19 A2974=
201204062345 METAR MRLB 070000Z 22007KT 9999 SCT030 BKN250 31/21 A2976=
201204070000 METAR MRLB 070000Z 22007KT 9999 SCT030 BKN250 31/21 A2976=
201204070100 METAR MRLB 070100Z 23004KT 9999 FEW030 BKN250 29/21 A2980=
201204070200 METAR MRLB 070200Z 15005KT 9999 FEW030 BKN250 28/23 A2983=
201204070300 METAR MRLB NIL=
201204070400 METAR MRLB NIL=
201204070500 METAR MRLB NIL=
201204070600 METAR MRLB NIL=
201204070700 METAR MRLB NIL=
201204070800 METAR MRLB NIL=
201204070900 METAR MRLB NIL=
201204071000 METAR MRLB NIL=
201204071100 METAR MRLB NIL=
201204071200 METAR MRLB 071200Z 00000KT CAVOK 23/20 A2983=
201204071300 METAR MRLB 071300Z 00000KT CAVOK 26/21 A2986=
201204071400 METAR MRLB 071400Z 17004KT CAVOK 28/21 A2989=
201204071500 METAR MRLB 071500Z 16003KT CAVOK 30/21 A2991=
201204071600 METAR MRLB 071600Z 36008KT 9999 FEW040 OVC250 30/19 A2991=
201204071700 METAR MRLB 071700Z 07012KT 9999 FEW040 BKN250 33/17 A2991=
201204071800 METAR MRLB 071800Z 08010KT 9999 SCT040 BKN250 33/18 A2988=
201204071900 METAR MRLB 071900Z 07009KT 9999 SCT040 BKN250 33/18 A2984=
201204072000 METAR MRLB 072000Z 06008KT 9999 SCT040 BKN250 34/18 A2981=
201204072100 METAR MRLB 072100Z 04010KT 9999 SCT040 BKN250 34/18 A2980=
201204072200 METAR MRLB 072200Z 11003KT 9999 FEW040 SCT140 BKN250 34/18 A2978=
201204072300 METAR MRLB 072300Z 26007KT 9999 SCT040 BKN140 30/21 A2980=
201204072351 METAR MRLB 080000Z 25003KT 9999 SCT035 BKN140 30/21 A2982=
201204080000 METAR MRLB 080000Z 25003KT 9999 SCT035 BKN140 30/21 A2982=
201204080100 METAR MRLB 080100Z 23003KT 9999 SCT035 BKN140 29/21 A2985=
201204080200 METAR MRLB 080200Z 18003KT 9999 SCT035 BKN120 28/22 A2988=
201204080300 METAR MRLB NIL=
201204080400 METAR MRLB NIL=
201204080500 METAR MRLB NIL=
201204080600 METAR MRLB NIL=
201204080700 METAR MRLB NIL=
201204080800 METAR MRLB NIL=
201204080900 METAR MRLB NIL=
201204081000 METAR MRLB NIL=
201204081100 METAR MRLB NIL=
201204081200 METAR MRLB 081200Z VRB02KT CAVOK 24/21 A2986=
201204081300 METAR MRLB 081300Z 35004KT CAVOK 25/22 A2987=
201204081400 METAR MRLB 081400Z 07002KT CAVOK 28/21 A2990=
201204081500 METAR MRLB 081500Z 16003KT CAVOK 31/20 A2992=
201204081600 METAR MRLB 081600Z 09007KT CAVOK 33/17 A2990=
201204081700 METAR MRLB 081700Z 08008KT CAVOK 34/17 A2989=
201204081800 METAR MRLB 081800Z 08013KT 9999 FEW040 BKN250 34/13 A2986=
201204081900 METAR MRLB 081900Z 07015KT 9999 FEW040 BKN250 36/14 A2984=
201204082000 METAR MRLB 082000Z 07018KT 9999 FEW035 SCT250 36/15 A2981=
201204082100 METAR MRLB 082100Z 07013KT 9999 FEW035 SCT250 35/15 A2979=
201204082200 METAR MRLB 082200Z 05016KT 9999 FEW035 SCT250 34/16 A2979=
201204082300 METAR MRLB 082300Z 05018KT 9999 FEW035 SCT200 33/15 A2980=
201204082354 METAR MRLB 090000Z 07014KT CAVOK 30/14 A2981=
201204090000 METAR MRLB 090000Z 07014KT CAVOK 30/14 A2981=
201204090100 METAR MRLB 090100Z 09014KT CAVOK 29/16 A2984=
201204090200 METAR MRLB 090200Z 11010KT CAVOK 28/16 A2985=
201204090300 METAR MRLB NIL=
201204090400 METAR MRLB NIL=
201204090500 METAR MRLB NIL=
201204090600 METAR MRLB NIL=
201204090700 METAR MRLB NIL=
201204090800 METAR MRLB NIL=
201204090900 METAR MRLB NIL=
201204091000 METAR MRLB NIL=
201204091100 METAR MRLB NIL=
201204091200 METAR MRLB 091200Z 00000KT CAVOK 20/17 A2983=
201204091300 METAR MRLB 091300Z 03005KT CAVOK 23/18 A2984=
201204091400 METAR MRLB 091400Z 31003KT CAVOK 28/18 A2986=
201204091500 METAR MRLB 091500Z 05012KT CAVOK 32/17 A2987=
201204091600 METAR MRLB 091600Z 08017KT 9999 FEW030 SCT250 32/16 A2986=
201204091700 METAR MRLB 091700Z 09015KT 9999 FEW030 SCT250 33/17 A2984=
201204091800 METAR MRLB 091800Z 08015KT 9999 FEW025 SCT250 34/16 A2981=
201204091900 METAR MRLB 091900Z 06017KT 9999 SCT025 BKN250 34/15 A2978=
201204092000 METAR MRLB 092000Z 05016KT 9999 FEW035 SCT250 36/15 A2976=
201204092100 METAR MRLB 092100Z 07012KT 9999 FEW035 SCT250 34/15 A2974=
201204092200 METAR MRLB 092200Z 06016KT 9999 FEW035 SCT250 34/15 A2973=
201204092300 METAR MRLB 092300Z 06014KT CAVOK 32/15 A2975=
201204092350 METAR MRLB 100000Z 07015KT CAVOK 29/17 A2976=
201204100000 METAR MRLB 100000Z 07015KT CAVOK 29/17 A2976=
201204100100 METAR MRLB 100100Z 08012KT CAVOK 28/18 A2977=
201204100200 METAR MRLB 100200Z 07012KT CAVOK 28/18 A2979=
201204100300 METAR MRLB NIL=
201204100400 METAR MRLB NIL=
201204100500 METAR MRLB NIL=
201204100600 METAR MRLB NIL=
201204100700 METAR MRLB NIL=
201204100800 METAR MRLB NIL=
201204100900 METAR MRLB NIL=
201204101000 METAR MRLB NIL=
201204101100 METAR MRLB NIL=
201204101200 METAR MRLB 101200Z 03005KT CAVOK 22/17 A2982=
201204101300 METAR MRLB 101300Z 06005KT CAVOK 27/17 A2986=
201204101400 METAR MRLB 101400Z 34003KT CAVOK 29/17 A2988=
201204101500 METAR MRLB 101500Z 07015KT CAVOK 31/17 A2989=
201204101600 METAR MRLB 101600Z 06014KT 9999 FEW040 OVC250 32/16 A2988=
201204101700 METAR MRLB 101700Z 07016KT 9999 FEW040 BKN250 33/15 A2985=
201204101800 METAR MRLB 101800Z 05015KT 9999 FEW040 BKN250 34/15 A2984=
201204101900 METAR MRLB 101900Z 05013KT 9999 FEW040 BKN250 35/14 A2980=
201204102000 METAR MRLB 102000Z 06014KT 9999 FEW040 BKN250 36/14 A2977=
201204102100 METAR MRLB 102100Z 06010KT 9999 FEW040 BKN250 35/14 A2976=
201204102200 METAR MRLB 102200Z 07012KT 9999 FEW040 BKN250 34/14 A2976=
201204102300 METAR MRLB 102300Z 06014KT 9999 FEW040 OVC250 32/16 A2977=
201204102352 METAR MRLB 110000Z 05010KT CAVOK 30/17 A2979=
201204110000 METAR MRLB 110000Z 05010KT CAVOK 30/17 A2979=
201204110100 METAR MRLB 110100Z 06006KT CAVOK 29/17 A2981=
201204110200 METAR MRLB 110200Z 14006KT CAVOK 29/17 A2983=
201204110300 METAR MRLB NIL=
201204110400 METAR MRLB NIL=
201204110500 METAR MRLB NIL=
201204110600 METAR MRLB NIL=
201204110700 METAR MRLB NIL=
201204110800 METAR MRLB NIL=
201204110900 METAR MRLB NIL=
201204111000 METAR MRLB NIL=
201204111100 METAR MRLB NIL=
201204111200 METAR MRLB 111200Z 09003KT CAVOK 21/16 A2988=
201204111300 METAR MRLB 111300Z 26003KT CAVOK 24/17 A2990=
201204111400 METAR MRLB 111400Z 20002KT CAVOK 25/17 A2992=
201204111500 METAR MRLB 111500Z 36004KT CAVOK 28/17 A2995=
201204111600 METAR MRLB 111600Z 08007KT CAVOK 31/15 A2994=
201204111700 METAR MRLB 111700Z 07011KT CAVOK 32/14 A2993=
201204111800 METAR MRLB 111800Z 08009KT 9999 FEW035 BKN250 34/15 A2990=
201204111900 METAR MRLB 111900Z 08008KT 9999 FEW035 BKN250 34/14 A2987=
201204112000 METAR MRLB 112000Z 04007KT 9999 SCT035 BKN250 35/14 A2984=
201204112100 METAR MRLB 112100Z 07004KT 9999 SCT030 BKN250 34/14 A2983=
201204112200 METAR MRLB 112200Z 27010KT 9999 SCT035 BKN250 32/16 A2983=
201204112300 METAR MRLB 112300Z 27008KT 9999 SCT040 BKN250 30/18 A2984=
201204112351 METAR MRLB 120000Z 24006KT 9999 FEW045 SCT250 29/19 A2985=
201204120000 METAR MRLB 120000Z 24006KT 9999 FEW045 SCT250 29/19 A2985=
201204120100 METAR MRLB 120100Z 20005KT CAVOK 28/20 A2987=
201204120200 METAR MRLB 120200Z 16003KT CAVOK 27/20 A2989=
201204120300 METAR MRLB NIL=
201204120400 METAR MRLB NIL=
201204120500 METAR MRLB NIL=
201204120600 METAR MRLB NIL=
201204120700 METAR MRLB NIL=
201204120800 METAR MRLB NIL=
201204120900 METAR MRLB NIL=
201204121000 METAR MRLB NIL=
201204121100 METAR MRLB NIL=
201204121200 METAR MRLB 121200Z 00000KT CAVOK 21/19 A2988=
201204121300 METAR MRLB 121300Z 02002KT CAVOK 24/19 A2990=
201204121400 METAR MRLB 121400Z 16002KT CAVOK 27/19 A2993=
201204121500 METAR MRLB 121500Z 35002KT CAVOK 29/17 A2994=
201204121600 METAR MRLB 121600Z 13003KT CAVOK 32/16 A2993=
201204121700 METAR MRLB 121700Z 05005KT CAVOK 34/14 A2991=
201204121800 METAR MRLB 121800Z 04007KT 9999 FEW040 34/14 A2989=
201204121900 METAR MRLB 121900Z 09007KT 9999 FEW040 36/15 A2984=
201204122000 METAR MRLB 122000Z 04007KT 9999 FEW040 34/14 A2982=
201204122100 METAR MRLB 122100Z 32005KT 9999 SCT035 34/17 A2980=
201204122152 METAR MRLB 132200Z 27009KT 9999 SCT035 33/16 A2979=
201204122200 METAR MRLB 122200Z 24009KT 9999 SCT035 32/18 A2980=
201204122300 METAR MRLB 122300Z 26007KT 9999 BKN035 32/19 A2981=
201204122346 METAR MRLB 130000Z 22007KT 9999 SCT030 30/18 A2983=
201204130000 METAR MRLB 130000Z 22007KT 9999 SCT030 30/18 A2983=
201204130100 METAR MRLB 130100Z 20003KT 9999 FEW030 29/18 A2986=
201204130200 METAR MRLB 130200Z 15004KT 9999 FEW030 29/18 A2988=
201204130300 METAR MRLB NIL=
201204130400 METAR MRLB NIL=
201204130500 METAR MRLB NIL=
201204130600 METAR MRLB NIL=
201204130700 METAR MRLB NIL=
201204130800 METAR MRLB NIL=
201204130900 METAR MRLB NIL=
201204131000 METAR MRLB NIL=
201204131100 METAR MRLB NIL=
201204131200 METAR MRLB 131200Z 02002KT CAVOK 21/17 A2988=
201204131300 METAR MRLB 131300Z 30003KT CAVOK 24/18 A2990=
201204131400 METAR MRLB 131400Z 02002KT CAVOK 27/18 A2994=
201204131500 METAR MRLB 131500Z 28002KT CAVOK 29/17 A2995=
201204131600 METAR MRLB 131600Z 03004KT CAVOK 31/16 A2995=
201204131700 METAR MRLB 131700Z 13004KT 9999 FEW040 OVC250 34/13 A2992=
201204131800 METAR MRLB 131800Z 07005KT 9999 FEW040 BKN250 35/14 A2988=
201204131900 METAR MRLB 131900Z 13004KT 9999 FEW040 BKN250 35/16 A2984=
201204132000 METAR MRLB 132000Z 28010KT 9999 SCT035 BKN250 34/16 A2982=
201204132100 METAR MRLB 132100Z 24008KT 9999 SCT035 33/18 A2980=
201204132200 METAR MRLB 132200Z 27009KT 9999 SCT035 33/16 A2979=
201204132300 METAR MRLB 132300Z 27009KT 9999 FEW035 32/18 A2981=
201204132350 METAR MRLB 140000Z 22005KT 9999 SCT040 30/16 A2982=
201204140000 METAR MRLB 140000Z 22005KT 9999 SCT040 30/16 A2982=
201204140100 METAR MRLB 140100Z 19005KT 9999 FEW040 29/17 A2984=
201204140200 METAR MRLB 140200Z 13003KT 9999 FEW040 28/17 A2986=
201204140300 METAR MRLB NIL=
201204140400 METAR MRLB NIL=
201204140500 METAR MRLB NIL=
201204140600 METAR MRLB NIL=
201204140700 METAR MRLB NIL=
201204140800 METAR MRLB NIL=
201204140900 METAR MRLB NIL=
201204141000 METAR MRLB NIL=
201204141100 METAR MRLB NIL=
201204141200 METAR MRLB 141200Z 15001KT CAVOK 21/18 A2989=
201204141300 METAR MRLB 141300Z 22002KT CAVOK 25/19 A2989=
201204141400 METAR MRLB 141400Z 00000KT CAVOK 28/17 A2993=
201204141500 METAR MRLB 141500Z 27004KT CAVOK 31/17 A2993=
201204141600 METAR MRLB 141600Z 09010KT CAVOK 33/15 A2991=
201204141700 METAR MRLB 141700Z 07007KT CAVOK 34/13 A2990=
201204141800 METAR MRLB 141800Z 08008KT 9999 FEW040 SCT300 35/14 A2986=
201204141900 METAR MRLB 141900Z 07009KT 9999 FEW040 35/14 A2982=
201204142000 METAR MRLB 142000Z 08014KT 9999 FEW040 SCT250 36/14 A2978=
201204142100 METAR MRLB 142100Z 08012KT 9999 FEW040 SCT250 35/14 A2977=
201204142200 METAR MRLB 142200Z 05012KT 9999 FEW045 34/13 A2976=
201204142300 METAR MRLB 142300Z 04015KT CAVOK 32/14 A2976=
201204142348 METAR MRLB 150000Z 09012KT CAVOK 31/16 A2979=
201204150000 METAR MRLB 150000Z 09012KT CAVOK 31/16 A2979=
201204150100 METAR MRLB 150100Z 06012KT CAVOK 30/15 A2981=
201204150200 METAR MRLB 150200Z 15003KT CAVOK 29/16 A2984=
201204150300 METAR MRLB NIL=
201204150400 METAR MRLB NIL=
201204150500 METAR MRLB NIL=
201204150600 METAR MRLB NIL=
201204150700 METAR MRLB NIL=
201204150800 METAR MRLB NIL=
201204150900 METAR MRLB NIL=
201204151000 METAR MRLB NIL=
201204151100 METAR MRLB NIL=
201204151200 METAR MRLB 151200Z 00000KT CAVOK 23/17 A2982=
201204151300 METAR MRLB 151300Z 01004KT CAVOK 25/18 A2984=
201204151400 METAR MRLB 151400Z 28006KT CAVOK 29/18 A2987=
201204151500 METAR MRLB NIL=
201204151600 METAR MRLB 151600Z 08015KT CAVOK 32/17 A2987=
201204151700 METAR MRLB 151700Z 04012KT 9999 FEW030 34/16 A2987=
201204151800 METAR MRLB 151800Z 07012KT 9999 FEW030 34/16 A2984=
201204151900 METAR MRLB 151900Z 06015KT 9999 SCT030 35/16 A2979=
201204152000 METAR MRLB 152000Z 03014KT 9999 SCT030 36/16 A2975=
201204152100 METAR MRLB 152100Z 05012KT 9999 SCT030 36/16 A2974=
201204152200 METAR MRLB 152200Z 05012KT 9999 FEW035 34/16 A2973=
201204152300 METAR MRLB 152300Z 05015KT 9999 FEW045 33/17 A2974=
201204152353 METAR MRLB 160000Z 06015KT 9999 FEW045 29/18 A2976=
201204160000 METAR MRLB 160000Z 06015KT 9999 FEW045 29/18 A2976=
201204160100 METAR MRLB 160100Z 05014KT CAVOK 29/17 A2978=
201204160200 METAR MRLB 160200Z 05008KT CAVOK 28/18 A2981=
201204160300 METAR MRLB NIL=
201204160400 METAR MRLB NIL=
201204160500 METAR MRLB NIL=
201204160600 METAR MRLB NIL=
201204160700 METAR MRLB NIL=
201204160800 METAR MRLB NIL=
201204160900 METAR MRLB NIL=
201204161000 METAR MRLB NIL=
201204161100 METAR MRLB NIL=
201204161200 METAR MRLB 161200Z 10003KT CAVOK 23/18 A2983=
201204161300 METAR MRLB 161300Z 00000KT CAVOK 27/19 A2985=
201204161400 METAR MRLB 161400Z 19004KT CAVOK 30/19 A2988=
201204161500 METAR MRLB 161500Z 09008KT CAVOK 31/18 A2988=
201204161600 METAR MRLB 161600Z 08008KT 9999 FEW040 33/18 A2987=
201204161700 METAR MRLB 161700Z 08008KT 9999 SCT040 34/17 A2985=
201204161800 METAR MRLB 161800Z 12004KT 9999 BKN035 35/17 A2983=
201204161900 METAR MRLB 161900Z 26009KT 9999 BKV035 32/20 A2981=
201204162000 METAR MRLB 162000Z 26011KT 9999 BKN035 33/19 A2977=
201204162100 METAR MRLB 162100Z 28014KT FEW030TCU SCT035 32/19 A2977=
201204162200 METAR MRLB 162200Z 26011KT 9999 FEW030TCU SCT035 32/18 A2976=
201204162300 METAR MRLB 162300Z 24007KT 9999 BKN035 32/19 A2978=
201204162350 METAR MRLB 170000Z 18008KT 9999 FEW030TCU BKN035 30/21 A2980=
201204170000 METAR MRLB 170000Z 18008KT 9999 FEW030TCU BKN035 30/21 A2980=
201204170100 METAR MRLB 170100Z 16007KT 9999 SCT035 BKN120 27/21 A2981=
201204170200 METAR MRLB 170200Z 14006KT CAVOK 26/22 A2981=
201204170300 METAR MRLB NIL=
201204170400 METAR MRLB NIL=
201204170500 METAR MRLB NIL=
201204170600 METAR MRLB NIL=
201204170700 METAR MRLB NIL=
201204170800 METAR MRLB NIL=
201204170900 METAR MRLB NIL=
201204171000 METAR MRLB NIL=
201204171100 METAR MRLB NIL=
201204171200 METAR MRLB 171200Z 02002KT CAVOK 23/20 A2983=
201204171300 METAR MRLB 171300Z 05002KT CAVOK 26/21 A2986=
201204171400 METAR MRLB 171400Z 28004KT CAVOK 28/20 A2990=
201204171500 METAR MRLB 171500Z 27004KT CAVOK 30/21 A2990=
201204171600 METAR MRLB 171600Z 31004KT 9999 FEW035 OVC250 32/18 A2989=
201204171700 METAR MRLB 171700Z 16004KT 9999 FEW035 BKN250 32/18 A2989=
201204171800 METAR MRLB 171800Z 26008KT FEW030TCU SCT035 SCT250 33/19 A2985=
201204171900 METAR MRLB 171900Z 26013KT 9999 VCSH SCT030TCU BKN250 33/20 A2981=
201204172000 METAR MRLB 172000Z 24013KT 9999 VCSH FEW020CB SCT080 BKN200 32/20 A2980=
201204172100 METAR MRLB 172100Z 02017KT 0500 RA SCT010CB BKN020 26/22 A2979=
201204172200 METAR MRLB 172200Z 17004KT 4000 RA SCT010CB BKN035 23/22 A2981=
201204172300 METAR MRLB 172300Z 15005KT 9000 -RA SCT015CB BKN100 23/22 A2981=
201204172349 METAR MRLB 180000Z 10007KT 9999 DZ SCT025 BKN100 23/23 A2984=
201204180000 METAR MRLB 180000Z 10007KT 9999 DZ SCT025 BKN100 23/23 A2984=
201204180100 METAR MRLB 180100Z 00000KT 9999 SCT025 BKN100 23/23 A2984 RERA=
201204180200 METAR MRLB 180200Z 08004KT 9999 FEW015 OVC120 23/23 A2986=
201204180300 METAR MRLB NIL=
201204180400 METAR MRLB NIL=
201204180500 METAR MRLB NIL=
201204180600 METAR MRLB NIL=
201204180700 METAR MRLB NIL=
201204180800 METAR MRLB NIL=
201204180900 METAR MRLB NIL=
201204181000 METAR MRLB NIL=
201204181100 METAR MRLB NIL=
201204181200 METAR MRLB 181200Z 34002KT 9999 FEW040 OVC130 23/22 A2984=
201204181300 METAR MRLB 181300Z 05004KT 9999 FEW005 BKN130 23/23 A2987=
201204181400 METAR MRLB 181400Z 33003KT 9999 FEW010 SCT130 BKN250 26/23 A2990=
201204181500 METAR MRLB 181500Z 24002KT 9999 FEW020 BKN130 28/23 A2992=
201204181600 METAR MRLB 181600Z 23005KT 9999 VCSH SCT020 BKN130 29/24 A2992=
201204181649 METAR MRLB 191700Z 28008KT 9999 VCSH BKN020 SCT130 28/22 A2991=
201204181700 METAR MRLB NIL=
201204181800 METAR MRLB 181800Z 35007KT 9999 -RA FEW020 BKN100 25/23 A2988=
201204181900 METAR MRLB 181900Z 30003KT 9999 FEW030 BKN120 28/24 A2984=
201204182000 METAR MRLB 182000Z 25002KT 9999 SCT025 BKN100 30/23 A2982=
201204182100 METAR MRLB 182100Z 14006KT 9999 FEW030 BKN120 30/21 A2979=
201204182200 METAR MRLB 182200Z 16007KT 9999 FEW030 BKN120 29/22 A2978=
201204182300 METAR MRLB 182300Z 16007KT 9999 FEW030 SCT130 BKN250 29/22 A2978=
201204182347 METAR MRLB 190000Z 18004KT 9999 FEW030 SCT130 BKN250 28/22 A2986=
201204190000 METAR MRLB 190000Z 18004KT 9999 FEW030 SCT130 BKN250 28/22 A2986=
201204190100 METAR MRLB 190100Z 15003KT CAVOK 27/23 A2980=
201204190200 METAR MRLB 190200Z 16003KT CAVOK 27/22 A2981=
201204190300 METAR MRLB NIL=
201204190400 METAR MRLB NIL=
201204190500 METAR MRLB NIL=
201204190600 METAR MRLB NIL=
201204190700 METAR MRLB NIL=
201204190800 METAR MRLB NIL=
201204190900 METAR MRLB NIL=
201204191000 METAR MRLB NIL=
201204191100 METAR MRLB NIL=
201204191200 METAR MRLB 191200Z 07002KT CAVOK 23/21 A2982=
201204191300 METAR MRLB 191300Z 18004KT CAVOK 25/22 A2984=
201204191400 METAR MRLB 191400Z 17005KT 9999 FEW040 SCT250 27/22 A2987=
201204191500 METAR MRLB 191500Z 26005KT 9999 FEW035 SCT250 29/22 A2988=
201204191600 METAR MRLB 191600Z 15003KT 9999 SCT035 SCT250 32/22 A2988=
201204191700 METAR MRLB 191700Z 18004KT 9999 SCT035 SCT250 31/21 A2987=
201204191800 METAR MRLB 191800Z 07013KT 9999 SCT035 SCT130 33/19 A2984=
201204191900 METAR MRLB 191900Z 03004KT 9999 SCT035 SCT130 32/20 A2981=
201204192000 METAR MRLB 192000Z 07014KT 9999 VCSH SCT025TCU SCT120 32/18 A978=
201204192100 METAR MRLB 192100Z 02012KT 9999 SCT025 SCT120 31/20 A2976=
201204192200 METAR MRLB 192200Z 08008 9999 SCT035 SCT120 32/18 A2985=
201204192300 METAR MRLB 192300Z 17006KT 9999 FEW030 SCT120 BKN250 29/22 A2976=
201204192351 METAR MRLB 200000Z 17005KT 9999 FEW035 BKN250 28/23 A2977=
201204200000 METAR MRLB 200000Z 17005KT 9999 FEW035 BKN250 28/23 A2977=
201204200100 METAR MRLB 200100Z 16004KT CAVOK 26/23 A2977=
201204200200 METAR MRLB 200200Z 16005KT 9999 FEW030 BKN250 25/23 A2979=
201204200300 METAR MRLB NIL=
201204200400 METAR MRLB NIL=
201204200500 METAR MRLB NIL=
201204200600 METAR MRLB NIL=
201204200700 METAR MRLB NIL=
201204200800 METAR MRLB NIL=
201204200900 METAR MRLB NIL=
201204201000 METAR MRLB NIL=
201204201100 METAR MRLB NIL=
201204201200 METAR MRLB 201200Z 12003KT CAVOK 23/21 A2979=
201204201300 METAR MRLB 201300Z 18003KT CAVOK 25/22 A2981=
201204201400 METAR MRLB 201400Z 00000KT CAVOK 28/21 A2984=
201204201500 METAR MRLB 201500Z 09002KT 9999 FEW030 SCT250 31/21 A2987=
201204201600 METAR MRLB 201600Z 15004KT 9999 BKN030 SCT250 30/21 A2986=
201204201700 METAR MRLB 201700Z 16005KT 9999 BKN030 SCT250 32/21 A2985=
201204201800 METAR MRLB 201800Z 25002KT 9999 BKN035 SCT250 33/20 A2982=
201204201900 METAR MRLB 201900Z 27010KT 9999 SCT030TCU SCT035 32/22 A2978=
201204202000 METAR MRLB 202000Z 19010KT 8000 1000SW TSRA SCT015CB BKN080 27/23 A2978=
201204202100 METAR MRLB 202100Z 29007KT 9000 -RA SCT020CB BKN100 24/23 A2974=
201204202200 METAR MRLB 202200Z 04010KT 9999 VCSH SCT015CB BKN100 25/24 A2974=
201204202300 METAR MRLB 202300Z 33005KT 9999 DZ SCT015CB BKN100 23/22 A2975=
201204202347 METAR MRLB 210000Z 01007KT 9999 SCT020 BKN100 25/23 A2977=
201204210000 METAR MRLB 210000Z 01007KT 9999 SCT020 BKN100 25/23 A2977=
201204210100 METAR MRLB 210100Z 01004KT 9999 SCT025 OVC100 24/23 A2978=
201204210200 METAR MRLB 210200Z 03005KT 9999 SCT020 OVC120 24/23 A2980=
201204210300 METAR MRLB NIL=
201204210400 METAR MRLB NIL=
201204210500 METAR MRLB NIL=
201204210600 METAR MRLB NIL=
201204210700 METAR MRLB NIL=
201204210800 METAR MRLB NIL=
201204210900 METAR MRLB NIL=
201204211000 METAR MRLB NIL=
201204211100 METAR MRLB NIL=
201204211200 METAR MRLB 211200Z 01003KT 8000 VCFG SCT012 23/22 A2981=
201204211300 METAR MRLB 211300Z 04003KT CAVOK 25/22 A2983=
201204211400 METAR MRLB 211400Z 00000KT CAVOK 28/22 A2986=
201204211500 METAR MRLB 211500Z 15005KT 9999 FEW030 29/23 A2988=
201204211600 METAR MRLB 211600Z 18005KT 9999 SCT025 30/23 A2987=
201204211700 METAR MRLB 211700Z 00000KT 9999 SCT025TCU 31/21 A2986=
201204211800 METAR MRLB 211800Z 00000KT 9999 SCT030 32/20 A2983=
201204211900 METAR MRLB 211900Z 24010KT 9999 SCT030 33/23 A2979=
201204212000 METAR MRLB 212000Z 25013KT 9999 SCT035 31/23 A2976=
201204212100 METAR MRLB 212100Z 27013KT 9999 BKN030 31/22 A2975=
201204212200 METAR MRLB 212200Z 28010KT 9999 FEW030 30/22 A2975=
201204212300 METAR MRLB 212300Z 28009KT FEW030 SCT120 30/22 A2975=
201204212301 METAR MRLB 212301Z 28009KT 9999FEW030 SCT120 30/22 A2975=
201204212346 METAR MRLB 220000Z 25004KT 9999 SCT025 BKN100 29/22 A2978=
201204220000 METAR MRLB 220000Z 25004KT 9999 SCT025 BKN100 29/22 A2978=
201204220100 METAR MRLB 220100Z 14007KT 9999 SCT025 SCT100 26/22 A2980=
201204220200 METAR MRLB 220200Z 10003KT 9999 -RA SCT025 SCT100 26/23 A2985=
201204220300 METAR MRLB NIL=
201204220400 METAR MRLB NIL=
201204220500 METAR MRLB NIL=
201204220600 METAR MRLB NIL=
201204220700 METAR MRLB NIL=
201204220800 METAR MRLB NIL=
201204220900 METAR MRLB NIL=
201204221000 METAR MRLB NIL=
201204221100 METAR MRLB NIL=
201204221200 METAR MRLB 221200Z 00000KT CAVOK 24/22 A2982=
201204221300 METAR MRLB 221300Z 20002KT CAVOK 25/23 A2984=
201204221400 METAR MRLB 221400Z 18004KT CAVOK 26/24 A2985=
201204221500 METAR MRLB 221500Z 23002KT 9999 FEW010 SCT250 29/23 A2989=
201204221600 METAR MRLB 221600Z 00000KT 9999 FEW020 SCT250 32/22 A2989=
201204221700 METAR MRLB 221700Z 23009KT 9999 SCT030 31/21 A2988=
201204221800 METAR MRLB 221800Z 29007KT 9999 SCT030 32/20 A2985=
201204221900 METAR MRLB 221900Z 26009KT 9999 SCT030 33/21 A2981=
201204222000 METAR MRLB 222000Z 26011KT 9999 SCT030 31/22 A2978=
201204222100 METAR MRLB 222100Z 29011KT 9999 FEW030 32/22 A2976=
201204222200 METAR MRLB 222200Z 27009KT 9999 FEW030TCU 31/22 A2974=
201204222300 METAR MRLB 222300Z 27008KT 9999 FEW030TCU SCT250 31/22 A2975=
201204222350 METAR MRLB 230000Z 28007KT 9999 SCT035 SCT130 29/23 A2978=
201204230000 METAR MRLB 230000Z 28007KT 9999 SCT035 SCT130 29/23 A2978=
201204230100 METAR MRLB 230100Z 30004KT 9999 FEW035 SCT130 28/24 A2982=
201204230200 METAR MRLB 230200Z 31003KT 9999 SCT030 SCT250 28/24 A2984=
201204230300 METAR MRLB NIL=
201204230400 METAR MRLB NIL=
201204230500 METAR MRLB NIL=
201204230600 METAR MRLB NIL=
201204230700 METAR MRLB NIL=
201204230800 METAR MRLB NIL=
201204230900 METAR MRLB NIL=
201204231000 METAR MRLB NIL=
201204231100 METAR MRLB NIL=
201204231200 METAR MRLB 231200Z 10004KT CAVOK 24/22 A2980=
201204231300 METAR MRLB 231300Z 08013KT CAVOK 27/21 A2982=
201204231400 METAR MRLB 231400Z 08006KT CAVOK 28/20 A2986=
201204231500 METAR MRLB 231500Z 08009KT 9999 FEW035 BKN250 30/20 A2989=
201204231600 METAR MRLB 231600Z 09013KT 9999 FEW035 BKN250 31/19 A2988=
201204231700 METAR MRLB 231700Z 09013KT 9999 FEW035 SCT250 31/18 A2988=
201204231800 METAR MRLB 231800Z 08016KT 9999 FEW035 BKN250 32/16 A2986=
201204231900 METAR MRLB 231900Z 07015KT 9999 FEW040 BKN250 32/17 A2983=
201204232000 METAR MRLB 232000Z 07015KT 9999 FEW040 SCT250 33/17 A2981=
201204232100 METAR MRLB 232100Z 08014KT 9999 FEW040 SCT250 32/17 A2979=
201204232200 METAR MRLB 232200Z 06016KT CAVOK 32/16 A2978=
201204232300 METAR MRLB 232300Z 06014KT CAVOK 30/17 A2980=
201204232348 METAR MRLB 240000Z 09018KT CAVOK 28/18 A2981=
201204240000 METAR MRLB 240000Z 09018KT CAVOK 28/18 A2981=
201204240100 METAR MRLB 240100Z 07016KT CAVOK 27/18 A2982=
201204240200 METAR MRLB 240200Z 08016KT CAVOK 27/18 A2983=
201204240300 METAR MRLB NIL=
201204240400 METAR MRLB NIL=
201204240500 METAR MRLB NIL=
201204240600 METAR MRLB NIL=
201204240700 METAR MRLB NIL=
201204240800 METAR MRLB NIL=
201204240900 METAR MRLB NIL=
201204241000 METAR MRLB NIL=
201204241100 METAR MRLB NIL=
201204241200 METAR MRLB 241200Z 13005KT CAVOK 24/19 A2980=
201204241300 METAR MRLB 241300Z 29005KT CAVOK 25/20 A2982=
201204241400 METAR MRLB 241400Z 19003KT CAVOK 28/19 A2985=
201204241500 METAR MRLB 241500Z 26010KT CAVOK 30/18 A2986=
201204241600 METAR MRLB 241600Z 32006KT 9999 FEW040 SCT250 30/18 A2988=
201204241700 METAR MRLB 241700Z 08012KT 9999 FEW040 32/14 A2987=
201204241800 METAR MRLB 241800Z 09014KT 9999 FEW040 SCT250 32/14 A2984=
201204241900 METAR MRLB 241900Z 07016KT CAVOK 32/14 A2982=
201204242000 METAR MRLB 242000Z 08015KT CAVOK 32/14 A2979=
201204242100 METAR MRLB 242100Z 07015KT CAVOK 32/15 A2977=
201204242200 METAR MRLB 242200Z 08012KT CAVOK 32/16 A2976=
201204242300 METAR MRLB 242300Z 07014KT CAVOK 30/16 A2978=
201204242342 METAR MRLB 250000Z 07014KT CAVOK 28/16 A2978=
201204250000 METAR MRLB 250000Z 07014KT CAVOK 28/16 A2978=
201204250100 METAR MRLB 250100Z 09010KT CAVOK 27/16 A2980=
201204250200 METAR MRLB 250200Z 08013KT CAVOK 27/16 A2983=
201204250300 METAR MRLB NIL=
201204250700 METAR MRLB NIL=
201204250800 METAR MRLB NIL=
201204250900 METAR MRLB NIL=
201204251000 METAR MRLB NIL=
201204251100 METAR MRLB NIL=
201204251200 METAR MRLB 251200Z 27003KT CAVOK 22/19 A2980=
201204251300 METAR MRLB 251300Z 08006KT CAVOK 24/19 A2981=
201204251400 METAR MRLB 251400Z 31007KT CAVOK 27/18 A2982=
201204251500 METAR MRLB 251500Z 02004KT CAVOK 29/15 A2982=
201204251600 METAR MRLB 251600Z 06010KT CAVOK 32/14 A2981=
201204251700 METAR MRLB 251700Z 08014KT CAVOK 33/13 A2981=
201204251800 METAR MRLB 251800Z 07019KT CAVOK 32/14 A2980=
201204251900 METAR MRLB 251900Z 07018KT CAVOK 33/15 A2978=
201204252000 METAR MRLB 252000Z 07017KT CAVOK 32/17 2977=
201204252100 METAR MRLB 252100Z 07016KT CAVOK 33/16 A2975=
201204252200 METAR MRLB 252200Z 05019KT CAVOK 31/16 A2975=
201204252300 METAR MRLB 252300Z 07017KT CAVOK 30/17 A2976=
201204252348 METAR MRLB 260000Z 07014KT CAVOK 28/18 A2977=
201204260000 METAR MRLB 260000Z 07014KT CAVOK 28/18 A2977=
201204260100 METAR MRLB 260100Z 07012KT CAVOK 27/16 A2979=
201204260200 METAR MRLB 260200Z 08012KT CAVOK 27/17 A2979=
201204260300 METAR MRLB NIL=
201204260400 METAR MRLB NIL=
201204260500 METAR MRLB NIL=
201204260600 METAR MRLB NIL=
201204260700 METAR MRLB NIL=
201204260800 METAR MRLB NIL=
201204260900 METAR MRLB NIL=
201204261000 METAR MRLB NIL=
201204261100 METAR MRLB NIL=
201204261200 METAR MRLB 261200Z 02002KT CAVOK 22/19 A2981=
201204261300 METAR MRLB 261300Z 34003KT CAVOK 24/19 A2984=
201204261400 METAR MRLB 261400Z 19004KT CAVOK 28/18 A2985=
201204261500 METAR MRLB 261500Z 35003KT CAVOK 30/17 A2986=
201204261600 METAR MRLB 261600Z 01004KT CAVOK 32/17 A2985=
201204261700 METAR MRLB 261700Z 34007KT CAVOK 33/17 A2982=
201204261800 METAR MRLB 261800Z 08010KT CAVOK 34/15 A2982=
201204261900 METAR MRLB 261900Z 10009KT 9999 FEW040 OVC250 34/16 A2979=
201204262000 METAR MRLB 262000Z 10010KT 9999 FEW045 OVC250 34/16 A2976=
201204262100 METAR MRLB 262100Z 09014KT CAVOK 32/16 A2976=
201204262200 METAR MRLB 262200Z 07012KT CAVOK 31/17 A2975=
201204262300 METAR MRLB NIL=
201204270000 METAR MRLB NIL=
201204270100 METAR MRLB NIL=
201204270200 METAR MRLB NIL=
201204270300 METAR MRLB NIL=
201204270400 METAR MRLB NIL=
201204270500 METAR MRLB NIL=
201204270600 METAR MRLB NIL=
201204270700 METAR MRLB NIL=
201204270800 METAR MRLB NIL=
201204270900 METAR MRLB NIL=
201204271000 METAR MRLB NIL=
201204271100 METAR MRLB NIL=
201204271200 METAR MRLB NIL=
201204271300 METAR MRLB 271300Z 27005KT CAVOK 26/21 A2985=
201204271400 METAR MRLB 271400Z 21005KT CAVOK 27/21 A2987=
201204271500 METAR MRLB 271500Z 19006KT CAVOK 28/21 A2987=
201204271600 METAR MRLB 271600Z 18009KT CAVOK 28/21 A2987=
201204271700 METAR MRLB NIL=
201204271800 METAR MRLB NIL=
201204271900 METAR MRLB 271900Z 19006KT 9999 FEW040 BKN150 29/21 A2983=
201204272000 METAR MRLB 272000Z 15005KT 9999 FEW040 BKN150 29/21 A2981=
201204272100 METAR MRLB 272100Z 16006KT 9999 FEW040 BKN140 29/22 2980=
201204272200 METAR MRLB 272200Z 16005KT 9999 FEW040 BKN140 29/21 A2980=
201204272300 METAR MRLB 272300Z 13007KT 9999 FEW040 BKN140 29/20 A2981=
201204272353 METAR MRLB 280000Z 08009KT 9999 FEW035 BKN140 28/20 A2982=
201204280000 METAR MRLB 280000Z 08009KT 9999 FEW035 BKN140 28/20 A2982=
201204280100 METAR MRLB 280100Z 09006KT 9999 FEW035 BKN140 27/20 A2984=
201204280200 METAR MRLB 280200Z 08006KT 9999 FEW035 BKN140 26/20 A2986=
201204280300 METAR MRLB NIL=
201204280400 METAR MRLB NIL=
201204280500 METAR MRLB NIL=
201204280600 METAR MRLB NIL=
201204280700 METAR MRLB NIL=
201204280800 METAR MRLB NIL=
201204280900 METAR MRLB NIL=
201204281000 METAR MRLB NIL=
201204281100 METAR MRLB NIL=
201204281200 METAR MRLB 281200Z 03004KT 9999 FEW040 BKN140 22/21 A2981=
201204281300 METAR MRLB 281300Z 03003KT 9999 FEW040 BKN150 24/21 A2983=
201204281400 METAR MRLB 281400Z 10003KT 9999 FEW040 SCT140 28/21 A2985=
201204281500 METAR MRLB 281500Z 18005KT 9999 FEW035 BKN140 28/21 A2987=
201204281600 METAR MRLB 281600Z 20003KT 9999 FEW035 BKN240 31/20 A2986=
201204281700 METAR MRLB 281700Z 04003KT 9999 FEW040 BKN240 32/20 A2984=
201204281800 METAR MRLB 281800Z 19005KT 9999 SCT040 BKN250 33/20 A2981=
201204281900 METAR MRLB 281900Z 19006KT 9999 SCT035 BKN240 34/19 A2979=
201204282000 METAR MRLB 282000Z 27006KT 9999 SCT035 BKN240 34/21 A2976=
201204282100 METAR MRLB 282100Z 28010KT 9999 FEW030TCU SCT035 SCT250 32/21 A2975=
201204282200 METAR MRLB 282200Z 27009KT 9999 FEW030TCU BKN035 31/21 A2975=
201204282300 METAR MRLB 282300Z 22009KT 9999 VCSH FEW025CB SCT030TCU SCT035 29/23 A2977=
201204282350 METAR MRLB 290000Z 09010KT 9999 -RA VCSH FEW030TCU BKN035 26/22 A2981=
201204290000 METAR MRLB 290000Z 09010KT 9999 -RA VCSH FEW030TCU BKN035 26/22 A2981=
201204290001 METAR MRLB 290001Z 07003KT 9999 SCT035 SCT120 26/22 A2982=
201204290100 METAR MRLB NIL=
201204290200 METAR MRLB 290200Z 05003KT 9999 SCT035 BKN120 25/23 A2983=
201204290300 METAR MRLB NIL=
201204290400 METAR MRLB NIL=
201204290500 METAR MRLB NIL=
201204290600 METAR MRLB NIL=
201204290700 METAR MRLB NIL=
201204290800 METAR MRLB NIL=
201204290900 METAR MRLB NIL=
201204291000 METAR MRLB NIL=
201204291100 METAR MRLB NIL=
201204291200 METAR MRLB 291200Z 06004KT CAVOK 23/22 A2983=
201204291300 METAR MRLB 291300Z VRB02KT CAVOK 26/22 A2984=
201204291400 METAR MRLB 291400Z 09001KT CAVOK 28/22 A2987=
201204291500 METAR MRLB 291500Z 21003KT 9999 FEW035 BKN250 29/22 A2989=
201204291600 METAR MRLB 291600Z 26004KT 9999 FEW035 BKN250 30/23 A2988=
201204291700 METAR MRLB 291700Z 19003KT 9999 FEW035 BKN250 33/21 A2987=
201204291800 METAR MRLB 291800Z 27006KT 9999 FEW030 BKN250 33/21 A2984=
201204291900 METAR MRLB 291900Z 29007KT 9999 FEW030 BKN250 33/22 A2981=
201204292000 METAR MRLB 292000Z 28012KT 9999 FEW030 BKN250 32/22 A2978=
201204292100 METAR MRLB 292100Z 25010KT 9999 FEWO30TCU SCT250 32/22 A2976=
201204292200 METAR MRLB 292200Z 27012KT 9999 FEW030TCU SCT200 31/22 A2974=
201204292300 METAR MRLB 292300Z 26008KT 9999 FEW030TCU SCT250 30/21 A2975=
201204292353 METAR MRLB 300000Z 27006KT 9999 FEW040 SCT150 29/22 A2976=
201204300000 METAR MRLB 300000Z 27006KT 9999 FEW040 SCT150 29/22 A2976=
201204300100 METAR MRLB 300100Z 00000KT CAVOK 28/22 A2978=
201204300200 METAR MRLB 300200Z 10003KT CAVOK 27/22 A2979=
201204300300 METAR MRLB NIL=
201204300400 METAR MRLB NIL=
201204300500 METAR MRLB NIL=
201204300600 METAR MRLB NIL=
201204300700 METAR MRLB NIL=
201204300800 METAR MRLB NIL=
201204300900 METAR MRLB NIL=
201204301000 METAR MRLB NIL=
201204301100 METAR MRLB NIL=
201204301200 METAR MRLB 301200Z 28005KT CAVOK 24/23 A2982=
201204301300 METAR MRLB 301300Z 00000KT CAVOK 26/23 A2983=
201204301400 METAR MRLB 301400Z 10005KT CAVOK 29/22 A2985=
201204301500 METAR MRLB 301500Z 00000KT CAVOK 30/22 A2986=
201204301600 METAR MRLB 301600Z 28005KT 9999 FEW035 BKN250 32/21 A2985=
201204301700 METAR MRLB 301700Z 34008KT 9999 FEW030 BKN250 33/19 A2983=
201204301800 METAR MRLB 301800Z 31006KT 9999 SCT030 BKN250 34/19 A2980=
201204301900 METAR MRLB 301900Z 04009KT 9999 SCT030 BKN250 35/19 A2977=
201204302000 METAR MRLB 302000Z 04008KT 9999 SCT035 BKN250 35/17 A2974=
201204302100 METAR MRLB 302100Z 08006KT 9999 SCT035 BKN250 34/17 A2972=
201204302200 METAR MRLB 302200Z 04010KT 9999 FEW035 BKN250 35/18 A2971=
201204302300 METAR MRLB 302300Z 06009KT 9999 FEW035 SCT250 34/19 A2972=
201204302353 METAR MRLB 010000Z 09008KT 9999 FEW035 BKN250 32/20 A2974=
201205010000 METAR MRLB 010000Z 09008KT 9999 FEW035 BKN250 32/20 A2974=
201205010100 METAR MRLB 010100Z 08007KT 9999 FEW035 BKN250 30/20 A2977=
201205010200 METAR MRLB 010200Z 10008KT 9999 FEW035 SCT250 29/21 A2978=
201205010300 METAR MRLB NIL=
201205010400 METAR MRLB NIL=
201205010500 METAR MRLB NIL=
201205010600 METAR MRLB NIL=
201205010700 METAR MRLB NIL=
201205010800 METAR MRLB NIL=
201205010900 METAR MRLB NIL=
201205011000 METAR MRLB NIL=
201205011100 METAR MRLB NIL=
201205011200 METAR MRLB 011200Z 03004KT CAVOK 23/22 A2977=
201205011300 METAR MRLB 011300Z 19003KT CAVOK 25/22 A2979=
201205011400 METAR MRLB 011400Z 17003KT CAVOK 27/21 A2983=
201205011500 METAR MRLB 011500Z 26003KT 9999 FEW035 BKN250 30/21 A2983=
201205011600 METAR MRLB 011600Z 04006KT 9999 FEW035 BKN240 33/20 A2982=
201205011700 METAR MRLB 011700Z 07008KT 9999 SCT035 BKN240 33/18 2981=
201205011800 METAR MRLB 011800Z 08006KT 9999 SCT035 BKN240 34/19 A2979=
201205011900 METAR MRLB 011900Z 09006KT 9999 SCT035 BKN240 34/19 A2977=
201205012000 METAR MRLB 012000Z 05009KT 9999 SCT035 BKN230 34/20 A2974=
201205012100 METAR MRLB 012100Z 05006KT 9999 SCT035 BKN250 34/19 A2972=
201205012200 METAR MRLB 012200Z 12006KT 9999 FEW025TCU SCT030 SCT250 33/21 A2971=
201205012300 METAR MRLB 012300Z 23006KT 9999 BKN035 30/23 A2974=
201205012354 METAR MRLB 020000Z 13005KT 9999 BKN035 30/21 A2977=
201205020000 METAR MRLB 020000Z 13005KT 9999 BKN035 30/21 A2977=
201205020100 METAR MRLB 020100Z 17007KT 9999 SCT035 OVC130 27/22 A2978=
201205020200 METAR MRLB 020200Z 16007KT 9999 FEW035 OVC130 27/22 A2979=
201205020300 METAR MRLB NIL=
201205020400 METAR MRLB NIL=
201205020500 METAR MRLB NIL=
201205020600 METAR MRLB NIL=
201205020700 METAR MRLB NIL=
201205020800 METAR MRLB NIL=
201205020900 METAR MRLB NIL=
201205021000 METAR MRLB NIL=
201205021100 METAR MRLB NIL=
201205021200 METAR MRLB 021200Z 07004KT CAVOK 23/21 A2980=
201205021300 METAR MRLB 021300Z 15002KT CAVOK 26/22 A2982=
201205021400 METAR MRLB 021400Z 01003KT CAVOK 28/22 A2984=
201205021500 METAR MRLB 021500Z 08005KT CAVOK 31/21 A2985=
201205021600 METAR MRLB 021600Z 07008KT 9999 FEW030 BKN250 32/20 A2985=
201205021656 METAR MRLB 061700Z 06012KT 9999 FEW035 SCT250 33/19 A2985=
201205021700 METAR MRLB 021700Z 06012KT 9999 FEW035 SCT250 33/19 A2985=
201205021800 METAR MRLB 021800Z 11009KT 9999 SCT035 SCT250 33/19 A2982=
201205021900 METAR MRLB 021900Z 08010KT 9999 FEW035 BKN250 34/19 A2980=
201205022000 METAR MRLB 022000Z 08008KT 9999 SCT030 BKN250 34/19 A2977=
201205022100 METAR MRLB 022100Z 05010KT 9999 SCT030TCU BKN250 35/18 A2974=
201205022200 METAR MRLB 022200Z 28010KT 9999 FEWO25TCU SCT100 BKN250 33/21 A2974=
201205022300 METAR MRLB 022300Z 22010KT 9999 FEW030TCU SCT100 BKN250 29/23 A2976=
201205022352 METAR MRLB 030000Z 21006KT 9999 SCT040TCU BKN150 28/23 A2978=
201205030000 METAR MRLB 030000Z 21006KT 9999 SCT040TCU BKN150 28/23 A2978=
201205030100 METAR MRLB 030100Z 22005KT 9999 FEW040 SCT100 27/24 A2979=
201205030200 METAR MRLB 030200Z 17006KT 9999 FEW040 SCT120 26/24 A2980=
201205030300 METAR MRLB NIL=
201205030400 METAR MRLB NIL=
201205030500 METAR MRLB NIL=
201205030600 METAR MRLB NIL=
201205030700 METAR MRLB NIL=
201205030800 METAR MRLB NIL=
201205030900 METAR MRLB NIL=
201205031000 METAR MRLB NIL=
201205031100 METAR MRLB NIL=
201205031200 METAR MRLB 031200Z 00000KT CAVOK 23/20 A2980=
201205031300 METAR MRLB 031300Z 00000KT 9999 FEW040 SCT100 26/21 A2983=
201205031400 METAR MRLB 031400Z 33005KT CAVOK 28/22 A2986=
201205031500 METAR MRLB 031500Z 04010KT CAVOK 31/20 A2987=
201205031600 METAR MRLB 031600Z 05010KT 9999 FEW035 SCT100 32/20 A2986=
201205031700 METAR MRLB 031700Z 08005KT 9999 SCT030 BKN150 32/20 A2985=
201205031800 METAR MRLB 031800Z 09012KT 9999 SCT025 BKN150 33/19 A2983=
201205031900 METAR MRLB 031900Z 11010KT 9999 SCT025 BKN250 34/18 A2980=
201205032000 METAR MRLB 032000Z 07008KT 9999 SCT030 BKN250 34/18 A2977=
201205032100 METAR MRLB 032100Z 04005KT 9999 SCT035 BKN250 33/19 A2975=
201205032200 METAR MRLB 032200Z 26009KT 9999 SCT035 BKN250 31/22 A2975=
201205032300 METAR MRLB 032300Z 30004KT 9999 SCT035 BKN140 29/22 A2977=
201205032350 METAR MRLB 040000Z 15003KT 9999 SCT035 BKN140 29/22 A2980=
201205040000 METAR MRLB 040000Z 15003KT 9999 SCT035 BKN140 29/22 A2980=
201205040100 METAR MRLB 040100Z 16006KT 9999 SCT035 BKN140 28/22 A2981=
201205040200 METAR MRLB 040200Z 15007KT 9999 SCT035 BKN140 27/22 A2983=
201205040300 METAR MRLB NIL=
201205040400 METAR MRLB NIL=
201205040500 METAR MRLB NIL=
201205040600 METAR MRLB NIL=
201205040700 METAR MRLB NIL=
201205040800 METAR MRLB NIL=
201205040900 METAR MRLB NIL=
201205041000 METAR MRLB NIL=
201205041100 METAR MRLB NIL=
201205041200 METAR MRLB 041200Z 00000KT CAVOK 24/22 A2981=
201205041300 METAR MRLB 041300Z 35003KT CAVOK 26/22 A2984=
201205041400 METAR MRLB 041400Z 35005KT CAVOK 29/22 A2986=
201205041500 METAR MRLB 041500Z 13003KT 9999 FEW035 BKN250 31/21 A2987=
201205041600 METAR MRLB 041600Z 07008KT 9999 SCT035 SCT250 32/20 A2987=
201205041700 METAR MRLB 041700Z 08010KT 9999 SCT035 SCT250 33/20 A2986=
201205041800 METAR MRLB 041800Z 07008KT 9999 SCT035 BKN250 33/20 A2985=
201205041900 METAR MRLB 041900Z 13008KT 9999 SCT035 SCT250 34/20 A2981=
201205042000 METAR MRLB 042000Z 26006KT 9999 SCT035 BKN250 32/22 A2980=
201205042100 METAR MRLB 042100Z 28005KT SCT030 BKN250 33/22 A2976=
201205042200 METAR MRLB 042200Z 27009KT 9999 FEW030TCU BKN035 33/22 A2977=
201205042300 METAR MRLB 042300Z 32004KT 9999 VCSH FEW030TCU BKN035 32/20 A2979=
201205042357 METAR MRLB 050000Z 19009KT 9999 BKN030 SCT120 27/22 A2981=
201205050000 METAR MRLB 050000Z 19009KT 9999 BKN030 SCT120 27/22 A2981=
201205050100 METAR MRLB 050100Z 13009KT 9999 SCT030 BKN100 28/20 A2982=
201205050200 METAR MRLB 050200Z 11008KT 9999 SCT035 BKN100 28/20 A2984=
201205050300 METAR MRLB NIL=
201205050400 METAR MRLB NIL=
201205050500 METAR MRLB NIL=
201205050600 METAR MRLB NIL=
201205050700 METAR MRLB NIL=
201205050800 METAR MRLB NIL=
201205050900 METAR MRLB NIL=
201205051000 METAR MRLB NIL=
201205051100 METAR MRLB NIL=
201205051200 METAR MRLB 051200Z 03002KT 9999 FEW025 SCT120 BKN250 24/21 A2984=
201205051300 METAR MRLB 051300Z 01003KT 9999 FEW030 SCT120 BKN250 25/21 A2986=
201205051400 METAR MRLB 051400Z 02003KT CAVOK 28/22 A2988=
201205051500 METAR MRLB 051500Z 34003KT 9999 FEW030 SCT140 BKN250 29/22 A2989=
201205051600 METAR MRLB 051600Z 03003KT 9999 FEW030 BKN140 30/22 A2989=
201205051700 METAR MRLB 051700Z 04003KT 9999 FEW030 OVC130 30/20 A2987=
201205051800 METAR MRLB 051800Z 09004KT 9999 FEW030 SCT130 BKN250 31/19 A2986=
201205051900 METAR MRLB 051900Z 34004KT 9999 FEW030 SCT130 BKN250 32/19 A2983=
201205052000 METAR MRLB 052000Z 27010KT 9999 FEW035 BKN200 32/22 A2982=
201205052100 METAR MRLB 052100Z 28010KT 9999 SCT030 BKN250 31/22 A2980=
201205052200 METAR MRLB 052200Z 25007KT 9999 FEW030 BKN250 30/22 A2978=
201205052300 METAR MRLB 052300Z 26007KT 9999 FEW035 BKN250 30/22 A2979=
201205052355 METAR MRLB 060000Z 25008KT 9999 FEW040 SCT250 28/22 A2980=
201205060000 METAR MRLB 060000Z 25008KT 9999 FEW040 SCT250 28/22 A2980=
201205060100 METAR MRLB 060100Z 18003KT 9999 FEW040 27/23 A2982=
201205060200 METAR MRLB 060200Z 16003KT 9999 FEW045 27/23 A2984=
201205060300 METAR MRLB NIL=
201205060400 METAR MRLB NIL=
201205060500 METAR MRLB NIL=
201205060600 METAR MRLB NIL=
201205060700 METAR MRLB NIL=
201205060800 METAR MRLB NIL=
201205060900 METAR MRLB NIL=
201205061000 METAR MRLB NIL=
201205061100 METAR MRLB NIL=
201205061200 METAR MRLB 061200Z 00000KT CAVOK 23/21 A2984=
201205061300 METAR MRLB 061300Z 00000KT CAVOK 26/21 A2987=
201205061400 METAR MRLB 061400Z 18005KT CAVOK 27/22 A2989=
201205061500 METAR MRLB 061500Z 10010KT 9999 FEW030 SCT250 30/22 A2991=
201205061600 METAR MRLB 061600Z 24004KT 9999 SCT030 BKN250 30/21 A2990=
201205061700 METAR MRLB 061700Z 00000KT 9999 SCT030 BKN250 31/20 A2988=
201205061800 METAR MRLB 061800Z 20006KT 9999 SCT030 BKN250 33/19 A2985=
201205061900 METAR MRLB 061900Z 17008KT 9999 SCT030 BKN250 34/18 A2983=
201205062000 METAR MRLB 062000Z 25004KT 9999 SCT030 BKN250 36/16 A2980=
201205062100 METAR MRLB 062100Z 26012KT 9999 SCT035 BKN250 32/21 A2979=
201205062200 METAR MRLB 062200Z 26011KT 9999 SCT035 BKN250 32/21 A2979=
201205062300 METAR MRLB 062300Z 25008KT 9999 SCT035 BKN250 31/21 A2980=
201205062350 METAR MRLB 070000Z 18005KT 9999 SCT030 BKN240 29/20 A2982=
201205070000 METAR MRLB 070000Z 18005KT 9999 SCT030 BKN240 29/20 A2982=
201205070100 METAR MRLB 070100Z 10004KT 9999 SCT035 BKN140 26/22 A2983=
201205070200 METAR MRLB 070200Z 06005KT 9999 SCT030 BKN130 25/22 A2986=
201205070300 METAR MRLB NIL=
201205070400 METAR MRLB NIL=
201205070500 METAR MRLB NIL=
201205070600 METAR MRLB NIL=
201205070700 METAR MRLB NIL=
201205070800 METAR MRLB NIL=
201205070900 METAR MRLB NIL=
201205071000 METAR MRLB NIL=
201205071100 METAR MRLB NIL=
201205071200 METAR MRLB 071200Z 03004KT 9999 FEW035 BKN140 23/21 A2981=
201205071300 METAR MRLB 071300Z 35003KT 9999 FEW035 BKN140 26/22 A2983=
201205071400 METAR MRLB 071400Z 03003KT 9999 FEW035 BKN140 29/22 A2985=
201205071500 METAR MRLB 071500Z 27005KT 9999 FEW035 BKN250 31/22 A2987=
201205071600 METAR MRLB 071600Z 26005KT 9999 SCT035 BKN250 31/22 A2986=
201205071700 METAR MRLB 071700Z 23006KT 9999 SCT035 BKN240 32/22 A2985=
201205071800 METAR MRLB 071800Z 16007KT 9999 SCT035 BKN240 32/22 A2983=
201205071900 METAR MRLB 071900Z 15004KT 9999 SCT035 BKN240 33/21 A2981=
201205072000 METAR MRLB 072000Z 27008KT 9999 FEW020CB SCT030 BKN240 33/22 A2979=
201205072100 METAR MRLB 072100Z 34007KT 9999 3000SW -TS SHRA FEW020CB BKN030 29/24 A2978=
201205072200 METAR MRLB 072200Z 18007KT 9999 VCSH SCT030 BKN100 26/23 A2976=
201205072300 METAR MRLB 072300Z 17005KT 9999 VCSH SCT025 BKN120 26/23 A2977=
201205072353 METAR MRLB 080000Z 17003KT 9999 SCT030 BKN120 26/23 A2980=
201205080000 METAR MRLB 080000Z 17003KT 9999 SCT030 BKN120 26/23 A2980=
201205080100 METAR MRLB 080100Z 12004KT 9999 FEW030 BKN120 25/23 A2981=
201205080200 METAR MRLB 080200Z 12004KT CAVOK 25/22 A2983=
201205080300 METAR MRLB NIL=
201205080400 METAR MRLB NIL=
201205080500 METAR MRLB NIL=
201205080600 METAR MRLB NIL=
201205080700 METAR MRLB NIL=
201205080800 METAR MRLB NIL=
201205080900 METAR MRLB NIL=
201205081000 METAR MRLB NIL=
201205081100 METAR MRLB NIL=
201205081200 METAR MRLB 081200Z 10004KT CAVOK 23/22 A2981=
201205081300 METAR MRLB 081300Z 35003KT CAVOK 25/22 A2984=
201205081400 METAR MRLB 081400Z 10002KT CAVOK 28/22 A2986=
201205081500 METAR MRLB 081500Z 17004KT 9999 FEW030 OVC250 28/24 A2987=
201205081600 METAR MRLB 081600Z 22005KT 9999 FEW030 OVC250 30/22 A2988=
201205081700 METAR MRLB 081700Z 20005KT 9999 FEW030 OVC250 31/22 A2987=
201205081800 METAR MRLB 081800Z 22006KT 9999 FEW030 SCT120 BKN250 31/22 A2984=
201205081900 METAR MRLB 081900Z 20009KT 9999 VCSH SCT030TCU SCT120 32/22 A2982=
201205082000 METAR MRLB 082000Z 04014KT 9999 -TSRA SCT020CB BKN100 27/22 A2983=
201205082100 METAR MRLB 082100Z 30005KT 9999 DZ SCT025 BKN140 25/21 A2978=
201205082200 METAR MRLB 082200Z 03006KT 9999 SCT035 BKN140 26/23 A2977=
201205082300 METAR MRLB 082300Z 02004KT 9999 FEW045 BKN150 26/23 A2978=
201205082349 METAR MRLB 090000Z 35004KT CAVOK 25/23 A2980=
201205090000 METAR MRLB 090000Z 35004KT CAVOK 25/23 A2980=
201205090100 METAR MRLB 090100Z 01004KT CAVOK 25/23 A2982=
201205090200 METAR MRLB 090200Z 00000KT CAVOK 25/23 A2983=
201205090300 METAR MRLB NIL=
201205090400 METAR MRLB NIL=
201205090500 METAR MRLB NIL=
201205090600 METAR MRLB NIL=
201205090700 METAR MRLB NIL=
201205090800 METAR MRLB NIL=
201205090900 METAR MRLB NIL=
201205091000 METAR MRLB NIL=
201205091100 METAR MRLB NIL=
201205091200 METAR MRLB 091200Z 03005KT CAVOK 23/22 A2981=
201205091300 METAR MRLB 091300Z 00000KT CAVOK 26/22 A2983=
201205091400 METAR MRLB 091400Z 17004KT CAVOK 28/23 A2985=
201205091500 METAR MRLB 091500Z 17004KT 9999 FEW030 BKN250 30/22 A2987=
201205091600 METAR MRLB 091600Z 04004KT 9999 FEW030 BKN250 31/22 A2987=
201205091700 METAR MRLB 091700Z 27005KT 9999 SCT030 BKN250 32/20 A2985=
201205091800 METAR MRLB 091800Z 30004KT 9999 SCT030 BKN250 33/20 A2982=
201205091900 METAR MRLB 091900Z 25005KT 9999 SCT030 BKN250 34/20 A2979=
201205092000 METAR MRLB 092000Z 27010KT 9999 VCSH SCT025TCU BKN250 31/22 A2976=
201205092100 METAR MRLB 092100Z 28011KT 9999 SCT035 BKN250 31/23 A2974=
201205092200 METAR MRLB 092200Z 27009KT 9999 SCT030TCU BKN230 31/22 A2973=
201205092300 METAR MRLB 092300Z 26007KT 9999 SCT035 BKN230 31/21 A2972=
201205092353 METAR MRLB 100000Z 17006KT 9999 SCT030 BKN230 28/22 A2975=
201205100000 METAR MRLB 100000Z 17006KT 9999 SCT030 BKN230 28/22 A2975=
201205100100 METAR MRLB 100100Z 16006KT 9999 SCT030 BKN140 26/23 A2976=
201205100200 METAR MRLB 100200Z 14005KT 9999 SCT030 BKN140 25/23 A2978=
201205100300 METAR MRLB NIL=
201205100400 METAR MRLB NIL=
201205100500 METAR MRLB NIL=
201205100600 METAR MRLB NIL=
201205100700 METAR MRLB NIL=
201205100800 METAR MRLB NIL=
201205100900 METAR MRLB NIL=
201205101000 METAR MRLB 101000Z 36005KT 9999 FEW035 OVC250 31/21 A2977=
201205101100 METAR MRLB NIL=
201205101200 METAR MRLB 101200Z 12002KT 9999 FEW030 OVC250 23/21 A2979=
201205101300 METAR MRLB 101300Z 35003KT CAVOK 25/21 A2980=
201205101400 METAR MRLB 101400Z 34001KT CAVOK 27/21 A2981=
201205101500 METAR MRLB 101500Z 03002KT CAVOK 29/20 A2980=
201205101600 METAR MRLB 101600Z 36005KT 9999 FEW035 OVC250 31/21 A2977=
201205101653 METAR MRLB 1700Z 360.4KT 9999 FEW035 OVC250 32/19 A2975=
201205101700 METAR MRLB 101700Z 36004KT 9999 FEW035 OVC250 32/19 A2975=
201205101800 METAR MRLB 101800Z 07008KT 9999 FEW035 OVC250 34/16 A2973=
201205101900 METAR MRLB 101900Z 13005KT 9999 SCT035 BKN250 33/18 A2971=
201205102000 METAR MRLB 102000Z 12006KT 9999 SCT035 BKN250 34/17 A2969=
201205102100 METAR MRLB 102100Z 27007KT 9999 SCT035 BKN230 32/20 A2967=
201205102200 METAR MRLB 102200Z 28008KT 9999 SCT035 BKN230 32/21 A2967=
201205102300 METAR MRLB 102300Z 29006KT 9999 FEW035 BKN140 30/19 A2969=
201205102350 METAR MRLB 110000Z 23003KT 9999 SCT035 BKN140 29/21 A2972=
201205110000 METAR MRLB 110000Z 23003KT 9999 SCT035 BKN140 29/21 A2972=
201205110100 METAR MRLB 110100Z 18003KT 9999 SCT035 BKN140 28/21 A2975=
201205110200 METAR MRLB 110200Z 15003KT 9999 SCT030 BKN140 27/21 A2978=
201205110300 METAR MRLB NIL=
201205110400 METAR MRLB NIL=
201205110500 METAR MRLB NIL=
201205110600 METAR MRLB NIL=
201205110700 METAR MRLB NIL=
201205110800 METAR MRLB NIL=
201205110900 METAR MRLB NIL=
201205111000 METAR MRLB NIL=
201205111100 METAR MRLB NIL=
201205111200 METAR MRLB 111200Z 14003KT CAVOK 23/21 A2977=
201205111300 METAR MRLB 111300Z 19004KT CAVOK 25/22 A2980=
201205111400 METAR MRLB 111400Z 12001KT CAVOK 27/22 A2981=
201205111500 METAR MRLB 111500Z 07002KT 9999 FEW035 OVC250 29/21 A2981=
201205111600 METAR MRLB 111600Z 33004KT 9999 FEW035 OVC250 31/20 A2980=
201205111700 METAR MRLB 111700Z 05004KT 9999 FEW035 OVC250 32/19 A2978=
201205111800 METAR MRLB 111800Z 15006KT 9999 FEW035 OVC250 34/16 A2976=
201205111900 METAR MRLB 111900Z 07007KT CAVOK 32/18 A2975=
201205112000 METAR MRLB 112000Z 15004KT CAVOK 33/16 A2977=
201205112100 METAR MRLB 112100Z 25008KT CAVOK 31/20 A2976=
201205112200 METAR MRLB 112200Z 25006KT CAVOK 32/20 A2976=
201205112300 METAR MRLB 112300Z 28005KT CAVOK 31/21 A2977=
201205112351 METAR MRLB 120000Z 00000KT CAVOK 29/22 A2979=
201205120000 METAR MRLB 120000Z 00000KT CAVOK 29/22 A2979=
201205120100 METAR MRLB 120100Z 00000KT CAVOK 27/22 A2980=
201205120200 METAR MRLB 120200Z 19005KT CAVOK 27/22 A2982=
201205120300 METAR MRLB NIL=
201205120400 METAR MRLB NIL=
201205120500 METAR MRLB NIL=
201205120600 METAR MRLB NIL=
201205120700 METAR MRLB NIL=
201205120800 METAR MRLB NIL=
201205120900 METAR MRLB NIL=
201205121000 METAR MRLB NIL=
201205121100 METAR MRLB NIL=
201205121200 METAR MRLB 121200Z 00000KT CAVOK 23/21 A2984=
201205121300 METAR MRLB 121300Z 00000KT CAVOK 27/22 A2986=
201205121400 METAR MRLB 121400Z 25005KT CAVOK 29/22 A2988=
201205121500 METAR MRLB 121500Z 00000KT CAVOK 31/21 A2988=
201205121600 METAR MRLB 121600Z 01004KT 9999 FEW035 SCT250 33/21 A2985=
201205121700 METAR MRLB 121700Z 22004KT 9999 SCT030 BKN250 33/21 2983=
201205121800 METAR MRLB 121800Z 08017KT 9999 SCT025 BKN250 33/20 A2981=
201205121900 METAR MRLB 121900Z 06019KT 9999 SCT030 BKN250 33/20 A2979=
201205122000 METAR MRLB 122000Z 06015KT 9999 SCT030 BKN250 33/20 A2977=
201205122100 METAR MRLB 122100Z 05014KT 9999 SCT035 BKN250 34/20 A2975=
201205122200 METAR MRLB 122200Z 04015KT 9999 SCT035 BKN240 33/21 A2974=
201205122300 METAR MRLB 122300Z 07009KT 9999 SCT035 BKN240 30/20 A2976=
201205122351 METAR MRLB 130000Z 08009KT 9999 FEW035 BKN240 30/20 A2979=
201205130000 METAR MRLB 130000Z 08009KT 9999 FEW035 BKN240 30/20 A2979=
201205130100 METAR MRLB 130100Z 10005KT 9999 SCT035 BKN230 28/21 A2980=
201205130200 METAR MRLB 130200Z 10006KT 9999 SCT030 BKN230 27/21 A2982=
201205130300 METAR MRLB NIL=
201205130400 METAR MRLB NIL=
201205130500 METAR MRLB NIL=
201205130600 METAR MRLB NIL=
201205130700 METAR MRLB NIL=
201205130800 METAR MRLB NIL=
201205130900 METAR MRLB NIL=
201205131000 METAR MRLB NIL=
201205131100 METAR MRLB NIL=
201205131200 METAR MRLB 131200Z 03003KT 9999 FEW035 BKN250 25/22 A2977=
201205131300 METAR MRLB 131300Z 25004KT 9999 SCT035 BKN250 26/22 A2981=
201205131400 METAR MRLB 131400Z 10007KT 9999 VCSH SCT030 BKN240 29/21 A2983=
201205131500 METAR MRLB 131500Z 06004KT 9999 SCT030 BKN140 29/23 A2983=
201205131600 METAR MRLB 131600Z 04009KT 9999 SCT030 BKN140 31/22 A2985=
201205131652 METAR MRLB 231700Z 18003KT 9999 -RA FEW025 OVC120 28/24 A2987=
201205131700 METAR MRLB 131700Z 35010KT 9999 SCT035 BKN240 32/22 A2983=
201205131800 METAR MRLB 131800Z 04016KT 9999 SCT035 BKN140 30/20 A2980=
201205131900 METAR MRLB 131900Z 07014KT 9999 SCT035 BKN140 30/21 A2976=
201205132000 METAR MRLB 132000Z 06013KT 9999 SCT030 BKN140 31/20 A2974=
201205132100 METAR MRLB 132100Z 04015KT 9999 FEW040 SCT100 BKN250 32/20 A2972=
201205132200 METAR MRLB 132200Z 05013KT 9999 FEW040 BKN120 31/20 A2971=
201205132300 METAR MRLB 132300Z 07012KT 9999 FEW045 OVC120 30/20 A2972=
201205132354 METAR MRLB 140000Z 08013KT 9999 FEW045 BKN130 30/21 A2974=
201205140000 METAR MRLB 140000Z 08013KT 9999 FEW045 BKN130 30/21 A2974=
201205140100 METAR MRLB 140100Z 08008KT CAVOK 29/21 A2975=
201205140200 METAR MRLB 140200Z 09008KT CAVOK 28/21 A2975=
201205140300 METAR MRLB NIL=
201205140400 METAR MRLB NIL=
201205140500 METAR MRLB NIL=
201205140600 METAR MRLB NIL=
201205140700 METAR MRLB NIL=
201205140800 METAR MRLB NIL=
201205140900 METAR MRLB NIL=
201205141000 METAR MRLB NIL=
201205141100 METAR MRLB NIL=
201205141200 METAR MRLB 141200Z 13002KT 9999 -RA BKN030 SCT120 25/23 A2977=
201205141300 METAR MRLB 141300Z 02003KT 9999 BKN030 SCT120 25/23 A2980=
201205141400 METAR MRLB 141400Z 08002KT 9999 FEW030 BKN130 29/23 A2981=
201205141500 METAR MRLB 141500Z 34004KT 9999 FEW030 SCT140 BKN250 28/24 A2983=
201205141600 METAR MRLB 141600Z 01003KT 9999 BKN030 SCT250 30/24 A2983=
201205141700 METAR MRLB 141700Z 10004KT 9999 FEW025TCU SCT030 BKN250 30/24 A2981=
201205141800 METAR MRLB 141800Z 04009KT 9999 SCT030 BKN250 32/22 A2979=
201205141900 METAR MRLB 141900Z 02010KT 9999 SCT030 BKN250 33/21 A2974=
201205142000 METAR MRLB 142000Z 20010KT 9999 VCSH SCT020TCU BKN220 31/23 A2972=
201205142100 METAR MRLB 142100Z 12010KT 9999 2000SW TSRA SCT010CB BKN070 24/23 A2972=
201205142200 METAR MRLB 142200Z 25005KT 9999 -RA SCT012CB BKN080 24/23 A2973=
201205142300 METAR MRLB 142300Z 05004KT 9999 SCT012 BKN035 24/23 A2974=
201205142355 METAR MRLB 150000Z 02005KT 9999 SCT025CB BKN100 24/23 A2976=
201205150000 METAR MRLB 150000Z 02005KT 9999 SCT025CB BKN100 24/23 A2976=
201205150100 METAR MRLB 150100Z 04005KT 9999 RA SCT020 OVC090 24/23 A2978=
201205150200 METAR MRLB 150200Z 00000KT 9000 DZ SCT020 OVC100 24/23 A2981=
201205150300 METAR MRLB NIL=
201205150400 METAR MRLB NIL=
201205150500 METAR MRLB NIL=
201205150600 METAR MRLB NIL=
201205150700 METAR MRLB NIL=
201205150800 METAR MRLB NIL=
201205150900 METAR MRLB NIL=
201205151000 METAR MRLB NIL=
201205151100 METAR MRLB NIL=
201205151200 METAR MRLB 151200Z 14007KT 9999 FEW020 SCT100 BKN250 23/22 A2980=
201205151300 METAR MRLB 151300Z 15005KT 9999 SCT030 BKN140 24/23 A2984=
201205151400 METAR MRLB 151400Z 07007KT 9999 FEW040 BKN250 27/23 A2984=
201205151500 METAR MRLB 151500Z 12004KT 9999 FEW020 SCT100 BKN250 28/23 A2986=
201205151600 METAR MRLB 151600Z 17003KT 9999 FEW020 SCT100 BKN250 29/23 A2987=
201205151700 METAR MRLB 151700Z 16004KT 9999 FEW015 BKN250 30/23 A2985=
201205151800 METAR MRLB 151800Z 00000KT 9999 SCT018 BKN250 30/23 A2983=
201205151900 METAR MRLB 151900Z 25005KT 9999 SCT015 BKN220 31/24 A2981=
201205152000 METAR MRLB 152000Z 22006KT 9999 VCSH SCT015TCU BKN100 31/23 A2979=
201205152100 METAR MRLB 152140 06003KT 9999 -RA SCT010 BKN100 23/22 A2979=
201205152140 METAR MRLB 152140Z 06003KT 9999 -RA SCT010 BKN100 23/22 A2979=
201205152200 METAR MRLB 152200Z 06003KT 9999 SCT020 BKN100 24/23 A2979=
201205152300 METAR MRLB 152300Z 03005KT 9999 SCT030 BKN100 24/23 A2980=
201205152352 METAR MRLB 160000Z 03004KT 9999 -DZ SCT025 BKN100 24/22 A2980=
201205160000 METAR MRLB 160000Z 03004KT 9999 -DZ SCT025 BKN100 24/22 A2980=
201205160100 METAR MRLB 160100Z 00000KT 9999 SCT030 BKN100 24/23 A2982=
201205160200 METAR MRLB 160200Z 14003KT 9999 SCT030 BKN110 24/23 A2986=
201205160300 METAR MRLB NIL=
201205160400 METAR MRLB NIL=
201205160500 METAR MRLB NIL=
201205160600 METAR MRLB NIL=
201205160700 METAR MRLB NIL=
201205160800 METAR MRLB NIL=
201205160900 METAR MRLB NIL=
201205161000 METAR MRLB NIL=
201205161100 METAR MRLB NIL=
201205161200 METAR MRLB 161200Z 00000KT 0400 FG VV/// 23/22 A2982=
201205161300 METAR MRLB 161300Z 00000KT 9999 SCT008 BKN100 24/23 A2983=
201205161400 METAR MRLB 161400Z 00000KT 9999 FEW030 BKN120 27/23 A2987=
201205161500 METAR MRLB 161500Z 17003KT 9999 FEW035 BKN120 28/23 A2989=
201205161600 METAR MRLB 161600Z 28004KT 9999 FEW035 BKN130 31/23 A2988=
201205161700 METAR MRLB 161700Z 34003KT 9999 FEW035 BKN140 31/23 A2985=
201205161800 METAR MRLB 161800Z 31003KT 9999 SCT035 BKN140 32/23 A2982=
201205161900 METAR MRLB 161900Z 08007KT 9999 FEW035 BKN230 33/20 A2979=
201205162000 METAR MRLB 162000Z 09006KT 9999 SCT035 33/21 A2976=
201205162100 METAR MRLB 162100Z 35003KT 9999 BKN035 33/23 A2974=
201205162200 METAR MRLB 162200Z 25006KT 9999 FEW035 32/23 A2973=
201205162300 METAR MRLB 162300Z 26005KT 9999 FEW040 32/23 A2974=
201205162352 METAR MRLB 170000Z 25005KT 9999 FEW040 SCT250 29/24 A2975=
201205170000 METAR MRLB 170000Z 25005KT 9999 FEW040 SCT250 29/24 A2975=
201205170100 METAR MRLB 170100Z 00000KT CAVOK 29/23 A2977=
201205170200 METAR MRLB 170200Z 15002KT 9999 FEW035 28/23 A2979=
201205170300 METAR MRLB NIL=
201205170400 METAR MRLB NIL=
201205170500 METAR MRLB NIL=
201205170600 METAR MRLB NIL=
201205170700 METAR MRLB NIL=
201205170800 METAR MRLB NIL=
201205170900 METAR MRLB NIL=
201205171000 METAR MRLB NIL=
201205171100 METAR MRLB NIL=
201205171200 METAR MRLB 171200Z 05003KT CAVOK 24/23 A2978=
201205171300 METAR MRLB 171300Z 00000KT CAVOK 27/24 A2981=
201205171400 METAR MRLB 171400Z 14003KT CAVOK 29/23 A2984=
201205171500 METAR MRLB 171500Z 24004KT CAVOK 30/23 A2985=
201205171600 METAR MRLB 171600Z 22004KT 9999 SCT030 BKN300 31/23 A2984=
201205171700 METAR MRLB 171700Z 17002KT 9999 BKN030 SCT300 32/23 A2981=
201205171800 METAR MRLB 171800Z 08007KT 9999 SCT030 SCT300 33/22 A2979=
201205171900 METAR MRLB 171900Z 08010KT 9999 SCT035 SCT300 33/22 A2976=
201205172000 METAR MRLB 172000Z 07006KT 9999 SCT030TCU BKN250 33/22 A3975=
201205172100 METAR MRLB 172100Z 25008KT 9999 SCT030TCU BKN240 31/24 A2973=
201205172200 METAR MRLB 172200Z 26006KT 9999 SCT030TCU BKN220 31/24 A2972=
201205172300 METAR MRLB 172300Z 27006KT 9999 SCT030TCU BKN250 30/24 A2972=
201205172351 METAR MRLB 180000Z 28005KT 9999 FEW035 SCT250 29/24 A2974=
201205180000 METAR MRLB 180000Z 28005KT 9999 FEW035 SCT250 29/24 A2974=
201205180100 METAR MRLB 180100Z 16006KT 9999 TS SCT020CB SCT100 27/24 A2978=
201205180200 METAR MRLB 180200Z 18005KT 9999 FEW020CB SCT100 25/23 A2979=
201205180300 METAR MRLB NIL=
201205180400 METAR MRLB NIL=
201205180500 METAR MRLB NIL=
201205180600 METAR MRLB NIL=
201205180700 METAR MRLB NIL=
201205180800 METAR MRLB NIL=
201205180900 METAR MRLB NIL=
201205181000 METAR MRLB NIL=
201205181100 METAR MRLB NIL=
201205181200 METAR MRLB 181200Z 00000KT CAVOK 24/23 A2977=
201205181300 METAR MRLB 181300Z 01004KT CAVOK 25/23 A2978=
201205181400 METAR MRLB 181400Z 00000KT CAVOK 26/24 A2980=
201205181500 METAR MRLB 181500Z 20004KT CAVOK 27/24 A2981=
201205181600 METAR MRLB 181600Z 17004KT 9999 FEW030 BKN250 30/23 A2981=
201205181700 METAR MRLB 181700Z 00000KT 9999 FEW025 BKN250 30/24 A2980=
201205181800 METAR MRLB 181800Z 15004KT 9999 FEW025 BKN250 31/24 A2977=
201205181850 METAR MRLB 281900Z 25006KT 9999 SCT035 BKN250 32/23 A2977=
201205181900 METAR MRLB 181900Z 00000KT CAVOK 33/22 A2973=
201205182000 METAR MRLB 182000Z 10011KT CAVOK 31/22 A2971=
201205182100 METAR MRLB 182100Z 09010KT 9999 FEW035 BKN230 31/21 A2968=
201205182200 METAR MRLB 182200Z 08009KT 9999 FEW035 BKN230 32/21 A2967=
201205182300 METAR MRLB 182300Z 15004KT 9999 FEW035 BKN230 31/23 A2969=
201205182352 METAR MRLB 190000Z 12006KT 9999 FEW035 BKN230 30/21 A2971=
201205190000 METAR MRLB 190000Z 12006KT 9999 FEW035 BKN230 30/21 A2971=
201205190100 METAR MRLB 190100Z 13006KT 9999 FEW035 BKN240 28/23 A2975=
201205190200 METAR MRLB 190200Z 12006KT 9999 FEW035 BKN230 27/23 A2977=
201205190300 METAR MRLB NIL=
201205190400 METAR MRLB NIL=
201205190500 METAR MRLB NIL=
201205190600 METAR MRLB NIL=
201205190700 METAR MRLB NIL=
201205190800 METAR MRLB NIL=
201205190900 METAR MRLB NIL=
201205191000 METAR MRLB NIL=
201205191100 METAR MRLB NIL=
201205191200 METAR MRLB 191200Z 20003KT 9999 FEW030 BKN120 24/23 A2976=
201205191300 METAR MRLB 191300Z 05003KT 9999 SCT030 BKN110 26/23 A2977=
201205191400 METAR MRLB 191400Z 19004KT 9999 SCT030 BKN110 26/24 A2981=
201205191500 METAR MRLB 191500Z 20003KT 9999 SCT035 BKN120 28/24 A2982=
201205191600 METAR MRLB 191600Z 16003KT 9999 SCT035 BKN120 29/24 A2983=
201205191700 METAR MRLB 191700Z 1903KT 9999 SCT030 BKN130 31/23 A2982=
201205191800 METAR MRLB 191800Z 18004KT 9999 SCT030 BKN130 31/23 A2980=
201205191900 METAR MRLB 191900Z 26006KT 9999 SCT030 BKN140 31/23 A2976=
201205192000 METAR MRLB 192000Z 27009KT 9999 VCSH FEW025CB SCT030TCU SCT130 32/23 A2973=
201205192100 METAR MRLB 192100Z 11007KT 3000 RA VCTS FEW020CB BKN030 25/23 A2973=
201205192200 METAR MRLB 192200Z 34005KT 9999 FEW015 SCT030 BKN100 24/23 A2973=
201205192300 METAR MRLB 192300Z 36003KT 9999 SCT035 OVC100 25/23 A2973=
201205192353 METAR MRLB 200000Z 01002KT 9999 FEW035 OVC120 24/23 A2975=
201205200000 METAR MRLB 200000Z 01002KT 9999 FEW035 OVC120 24/23 A2975=
201205200100 METAR MRLB 200100Z 06004KT 9999 FEW035 OVC120 24/23 A2978=
201205200200 METAR MRLB 200200Z 04003KT 9999 SCT035 BKN120 25/23 A2980=
201205200300 METAR MRLB NIL=
201205200400 METAR MRLB NIL=
201205200500 METAR MRLB NIL=
201205200600 METAR MRLB NIL=
201205200700 METAR MRLB NIL=
201205200800 METAR MRLB NIL=
201205200900 METAR MRLB NIL=
201205201000 METAR MRLB NIL=
201205201100 METAR MRLB NIL=
201205201200 METAR MRLB 201200Z 08004KT 9999 FEW040 OVC250 24/22 A2978=
201205201300 METAR MRLB 201300Z 10002KT 9999 FEW040 OVC250 25/23 A2981=
201205201400 METAR MRLB 201400Z 12004KT 9999 FEW025 SCT140 BKN250 26/23 A2983=
201205201500 METAR MRLB 201500Z 12005KT 9999 FEW030 OVC250 28/23 A2984=
201205201600 METAR MRLB 201600Z 14006KT 9999 SCT030 BKN250 29/23 A2985=
201205201700 METAR MRLB 201700Z 14006KT 9999 SCT030 BKN250 29/23 A2985=
201205201800 METAR MRLB 201800Z 15007KT 9999 BKN030 SCT250 30/23 A2983=
201205201900 METAR MRLB 201900Z 16006KT 9999 FEW030 SCT130 BKN250 29/22 A2981=
201205202000 METAR MRLB 202000Z 15005KT 9999 VCSH SCT020TCU BKN220 30/23 A2978=
201205202100 METAR MRLB 202100Z 21008KT 9999 VCSH FEW015CB SCT025 BKN180 26/23 A2977=
201205202200 METAR MRLB 202200Z 22005KT 9999 SCT020TCU BKN120 26/22 A2977=
201205202300 METAR MRLB 202300Z 34004KT 9999 SCT018 BKN120 26/23 A2978=
201205202351 METAR MRLB 210000Z 02005KT 9999 VCSH SCT012TCU BKN100 26/23 A2979=
201205210000 METAR MRLB 210000Z 02005KT 9999 VCSH SCT012TCU BKN100 26/23 A2979=
201205210100 METAR MRLB 210100Z 01003KT 6000 RA SCT015 OVC100 24/23 A2982=
201205210200 METAR MRLB 210200Z 35004KT 9000 SCT015 BKN100 24/23 A2984 RERA=
201205210300 METAR MRLB NIL=
201205210400 METAR MRLB NIL=
201205210500 METAR MRLB NIL=
201205210600 METAR MRLB NIL=
201205210700 METAR MRLB NIL=
201205210800 METAR MRLB NIL=
201205210900 METAR MRLB NIL=
201205211000 METAR MRLB NIL=
201205211100 METAR MRLB NIL=
201205211200 METAR MRLB 211200Z 00000KT 8000 FEW005 SCT030 BKN150 24/23 A2984=
201205211300 METAR MRLB 211300Z 16003KT 9999 FEW010 SCT035 BKN150 25/23 A2986=
201205211400 METAR MRLB 211400Z 00000KT 9999 SCT015 BKN140 25/23 A2988=
201205211500 METAR MRLB 211500Z 00000KT 9999 SCT015 BKN150 26/23 A2989=
201205211600 METAR MRLB 211600Z 18004KT 9999 SCT015 BKN140 28/23 A2990=
201205211700 METAR MRLB 211700Z 13005KT 9999 SCT015TCU BKN200 28/22 A2989=
201205211800 METAR MRLB 211800Z 33004KT 9999 -RA SCT015TCU BKN100 27/23 A2988=
201205211900 METAR MRLB 211900Z 35004KT 9999 VCSH SCT015TCU BKN120 26/23 A2984=
201205212000 METAR MRLB 212000Z 28004KT 9999 -RA SCT020 BKN120 27/24 A2983=
201205212100 METAR MRLB 212100Z 31005KT 9999 SCT025 BKN120 28/23 A2980=
201205212200 METAR MRLB 212200Z 26004KT 9999 SCT030 BKN130 28/23 A2979=
201205212300 METAR MRLB 212300Z 24004KT 9999 SCT030 BKN130 28/23 A2979=
201205212350 METAR MRLB 220000Z 26005KT 9999 FEW035 BKN130 26/23 A2981=
201205220000 METAR MRLB 220000Z 26005KT 9999 FEW035 BKN130 26/23 A2981=
201205220100 METAR MRLB 220100Z 28003KT 9999 SCT035 BKN120 26/23 A2984=
201205220200 METAR MRLB 220200Z 32003KT 9999 SCT030 BKN120 25/23 A2987=
201205220300 METAR MRLB NIL=
201205220400 METAR MRLB NIL=
201205220500 METAR MRLB NIL=
201205220600 METAR MRLB NIL=
201205220700 METAR MRLB NIL=
201205220800 METAR MRLB NIL=
201205220900 METAR MRLB NIL=
201205221000 METAR MRLB NIL=
201205221100 METAR MRLB NIL=
201205221200 METAR MRLB 221200Z 06003KT 9999 SCT030 BKN130 24/22 A2984=
201205221300 METAR MRLB 221300Z 14003KT 9999 FEW030 BKN130 25/23 A2986=
201205221400 METAR MRLB 221400Z 00000KT 9999 FEW035 BKN140 29/23 A2989=
201205221500 METAR MRLB 221500Z 20003KT 9999 SCT035 BKN140 29/23 A2990=
201205221600 METAR MRLB 221600Z 24006KT 9999 SCT030 BKN140 29/23 A2991=
201205221700 METAR MRLB 221700Z 25005KT 9999 SCT030 BKN130 29/23 A2989=
201205221800 METAR MRLB 221800Z 23003KT 9999 VCSH FEW030CB SCT030 BKN130 30/23 A2987=
201205221900 METAR MRLB 221900Z 32007KT 9999 VCSH SCT025TCU BKN120 28/24 A2985=
201205222000 METAR MRLB 222000Z 34002KT 9999 FEW020TCU SCT040 BKN140 28/23 A2982=
201205222053 METAR MRLB 252100Z 27010KT 9999 SCT030 SCT140 BKN250 31/21 A2981=
201205222100 METAR MRLB 222100Z 04002KT 9999 FEW025 OVC130 27/23 2981=
201205222200 METAR MRLB 222200Z 15003KT 9999 FEW025 OVC120 27/24 A2978=
201205222300 METAR MRLB 222300Z 15002KT 9999 FEW025 OVC120 27/24 A2978=
201205222350 METAR MRLB 230000Z 14004KT 9999 FEW025 OVC140 26/24 A2981=
201205230000 METAR MRLB 230000Z 14004KT 9999 FEW025 OVC140 26/24 A2981=
201205230100 METAR MRLB 230100Z 13005KT 9999 FEW025 BKN140 25/23 A2982=
201205230200 METAR MRLB 230200Z 01002KT 9999 FEW030 BKN140 25/23 A2984=
201205230300 METAR MRLB NIL=
201205230400 METAR MRLB NIL=
201205230500 METAR MRLB NIL=
201205230600 METAR MRLB NIL=
201205230700 METAR MRLB NIL=
201205230800 METAR MRLB NIL=
201205230900 METAR MRLB NIL=
201205231000 METAR MRLB NIL=
201205231100 METAR MRLB NIL=
201205231200 METAR MRLB 231200Z 31003KT 9999 4500SW BCFG SCT030 BKN130 23/23 A2982=
201205231300 METAR MRLB 231300Z 00000KT 9999 BKN035 SCT130 35/23 A2984=
201205231400 METAR MRLB 231400Z 07003KT 9999 SCT040 BKN130 26/23 A2987=
201205231500 METAR MRLB 231500Z 15003KT 9999 SCT030 BKN130 27/24 A2988=
201205231600 METAR MRLB 231600Z 18006KT 9999 FEW020 SCT035 BKN130 28/24 A2989=
201205231700 METAR MRLB 231700Z 18003KT 9999 -RA FEW025 OVC120 28/24 A2987=
201205231800 METAR MRLB 231800Z 28007KT 9999 SCT025 BKN120 29/25 A2985=
201205231900 METAR MRLB 231900Z 26010KT 9999 SCT025 BKN120 28/24 A2982=
201205232000 METAR MRLB 232000Z 26008KT 9999 SCT025 BKN140 28/24 A2979=
201205232100 METAR MRLB 232100Z 26008KT 9999 SCT025TCU BKN150 28/24 A2978=
201205232200 METAR MRLB 232200Z 23008KT 9999 SCT020TCU BKN100 27/24 A2978=
201205232300 METAR MRLB 232300Z 18005KT 9999 SCT018TCU BKN120 26/23 A2978=
201205232349 METAR MRLB 240000Z 00000KT 9999 SCT025 BKN100 26/24 A2978=
201205240000 METAR MRLB 240000Z 00000KT 9999 SCT025 BKN100 26/24 A2978=
201205240100 METAR MRLB 240100Z 08005KT 9999 -RA SCT020 BKN100 25/24 A2980=
201205240200 METAR MRLB 240200Z 00000KT 9999 SCT020 BKN120 25/24 A2980=
201205240300 METAR MRLB NIL=
201205240400 METAR MRLB NIL=
201205240500 METAR MRLB NIL=
201205240600 METAR MRLB NIL=
201205240700 METAR MRLB NIL=
201205240800 METAR MRLB NIL=
201205240900 METAR MRLB NIL=
201205241000 METAR MRLB NIL=
201205241100 METAR MRLB NIL=
201205241200 METAR MRLB 241200Z 04004KT CAVOK 24/23 A2982=
201205241300 METAR MRLB 241300Z 00000KT CAVOK 26723 A2983=
201205241400 METAR MRLB 241400Z 00000KT 9999 FEW012 SCT250 28/23 A2985=
201205241500 METAR MRLB 241500Z 19003KT 9999 FEW015 SCT150 28/24 A2988=
201205241600 METAR MRLB 241600Z 18005KT 9999 SCT020 BKN250 29/25 A2989=
201205241700 METAR MRLB 241700Z 19004KT 9999 SCT020 BKN150 29/24 A2989=
201205241800 METAR MRLB 241800Z 00000KT 9999 SCT015TCU BKN140 29/24 A2987=
201205241900 METAR MRLB 241900Z 21004KT 9999 VCSH SCT018TCU BKN120 31/23 A2984=
201205242000 METAR MRLB 242000Z 15013KT 1500 RA SCT010CB BKN020 25/23 A2983=
201205242100 METAR MRLB 242100Z 06005KT 9999 -RA SCT020 BKN100 22/21 A2979=
201205242200 METAR MRLB 242200Z 03003KT 9999 -RA SCT025 BKN100 22/21 A2977=
201205242300 METAR MRLB 242300Z 08004KT 9999 -RA SCT030 BKN100 22/22 A2977=
201205242351 METAR MRLB 250000Z 06003KT 9999 DZ FEW030 BKN100 23/22 A2981=
201205250000 METAR MRLB 250000Z 06003KT 9999 DZ FEW030 BKN100 23/22 A2981=
201205250100 METAR MRLB 250100Z 16003KT 9999 FEW030 BKN100 23/22 A2984=
201205250200 METAR MRLB 250200Z 03003KT 9999 FEW035 BKN100 23/22 A2984=
201205250300 METAR MRLB NIL=
201205250400 METAR MRLB NIL=
201205250500 METAR MRLB NIL=
201205250600 METAR MRLB NIL=
201205250700 METAR MRLB NIL=
201205250800 METAR MRLB NIL=
201205250900 METAR MRLB NIL=
201205251000 METAR MRLB NIL=
201205251100 METAR MRLB NIL=
201205251200 METAR MRLB 251200Z 06003KT CAVOK 22/21 A2983=
201205251300 METAR MRLB 251300Z 00000KT CAVOK 24/21 A2985=
201205251400 METAR MRLB 251400Z 16004KT CAVOK 25/22 A2987=
201205251500 METAR MRLB 251500Z 00000KT CAVOK 28/23 A2989=
201205251600 METAR MRLB 251600Z 20003KT 9999 FEW035 BKN250 29/23 A2990=
201205251700 METAR MRLB 251700Z 00000KT 9999 FEW035 BKN250 31/22 A2988=
201205251800 METAR MRLB 251800Z 27003KT 9999 FEW035 BKN250 32/22 A2987=
201205251900 METAR MRLB 251900Z 25007KT 9999 SCT035 BKN250 31/23 A2985=
201205252000 METAR MRLB 252000Z 27008KT 9999 FEW020TCU SCT030 BKN250 31/23 A2983=
201205252100 METAR MRLB 252100Z 27010KT 9999 SCT030 SCT140 BKN250 31/21 A2981=
201205252200 METAR MRLB 252200Z 26007KT 9999 FEW025TCU OVC250 31/23 A2979=
201205252300 METAR MRLB 252300Z 27005KT 9999 FEW025 BKN130 29/23 A2979=
201205252351 METAR MRLB 260003Z 31003KT 9999 -RA VCSH FEW020TCU BKN030 28/23 A2981=
201205260000 METAR MRLB 260000Z 3103KT 9999 -RA VCSH FEW020TCU BKN030 28/23 A2981=
201205260003 METAR MRLB 260003Z 31003KT 9999 -RA VCSH FEW020TCU BKN030 28/23 A2981=
201205260100 METAR MRLB 260100Z 08006KT 9999 -RA VCTS FEW025CB SCT030 BKN100 25/23 A2983=
201205260200 METAR MRLB 260200Z 15004KT 9999 FEW025 BKN130 24/23 A2983=
201205260300 METAR MRLB NIL=
201205260400 METAR MRLB NIL=
201205260500 METAR MRLB NIL=
201205260600 METAR MRLB NIL=
201205260700 METAR MRLB NIL=
201205260800 METAR MRLB NIL=
201205260900 METAR MRLB NIL=
201205261000 METAR MRLB NIL=
201205261100 METAR MRLB NIL=
201205261200 METAR MRLB 261200Z 08004KT 9999 VCFG FEW030 OVC250 23/22 A2983=
201205261300 METAR MRLB 261300Z 15003KT FEW004 OVC250 25/23 A2983=
201205261400 METAR MRLB 261400Z 14002KT 9999 FEW012 BKN250 28/24 A2984=
201205261500 METAR MRLB 261500Z 20003KT 9999 FEW030 BKN250 29/24 A2984=
201205261600 METAR MRLB 261600Z 21004KT 9999 FEW030 SCT300 30/24 A2984=
201205261700 METAR MRLB 261700Z 21006KT 9999 SCT030 31/25 A2982=
201205261800 METAR MRLB 261800Z 24006KT 9999 FEW025TCU BKN030 31/24 A2981=
201205261900 METAR MRLB 261900Z 25011KT 9999 4000SW -SHRA SCT025TCU SCT030 29/24 A2979=
201205262000 METAR MRLB 262000Z 26012KT 9999 VCSH SCT025TCU BKN220 31/25 A2976=
201205262100 METAR MRLB 262100Z 27008KT 9999 VCSH SCT025TCU BKN140 30/24 A2977=
201205262200 METAR MRLB 262200Z 00000KT 9999 4000W -TSRA SCT015CB BKN080 23/22 A2978=
201205262300 METAR MRLB 262300Z 26003KT 9999 SCT020 BKN100 23/23 A2975=
201205262351 METAR MRLB 270000Z 00000KT 9999 FEW010 SCT030 BKN120 23/22 A2977=
201205270000 METAR MRLB 270000Z 00000KT 9999 FEW010 SCT030 BKN120 23/22 A2977=
201205270100 METAR MRLB 270100Z 00000KT 9999 SCT020 BKN100 23/23 A2979=
201205270200 METAR MRLB 270200Z 02005KT 9999 SCT020 BKN100 23/23 A2979=
201205270300 METAR MRLB NIL=
201205270400 METAR MRLB NIL=
201205270500 METAR MRLB NIL=
201205270600 METAR MRLB NIL=
201205270700 METAR MRLB NIL=
201205270800 METAR MRLB NIL=
201205270900 METAR MRLB NIL=
201205271000 METAR MRLB NIL=
201205271100 METAR MRLB NIL=
201205271200 METAR MRLB 271200Z 06004KT CAVOK 23/21 A2977=
201205271300 METAR MRLB 271300Z 12003KT CAVOK 25/22 A2980=
201205271400 METAR MRLB 271400Z 21003KT CAVOK 26/23 A2982=
201205271500 METAR MRLB 271500Z 18004KT CAVOK 27/23 A2984=
201205271600 METAR MRLB 271600Z 14003KT 9999 SCT025 BKN250 29/23 A2984=
201205271700 METAR MRLB 271700Z 29004KT 9999 SCT025 BKN250 31/23 A2983=
201205271800 METAR MRLB 271800Z 00000KT 9999 SCT020 BKN250 31/23 A2981=
201205271900 METAR MRLB 271900Z 28010KT 9999 SCT020 BKN250 31/23 A2979=
201205272000 METAR MRLB 272000Z 29010KT 9999 SCT020 BKN250 31/23 A2976=
201205272100 METAR MRLB 272100Z 26007KT 9999 FEW020TCU SCT030 BKN250 31/23 A2975=
201205272200 METAR MRLB 272200Z 27008KT 9999 SCT035 BKN240 31/23 A2974=
201205272300 METAR MRLB 272300Z 28006KT 9999 SCT035 BKN240 30/22 A2974=
201205272352 METAR MRLB 280000Z 25004KT 9999 SCT035 BKN240 28/23 A2976=
201205280000 METAR MRLB 280000Z 25004KT 9999 SCT035 BKN240 28/23 A2976=
201205280100 METAR MRLB 280100Z 14004KT 9999 SCT030 BKN230 26/24 A2976=
201205280200 METAR MRLB 280200Z 14003KT 9999 SCT030 BKN230 26/24 A2978=
201205280300 METAR MRLB NIL=
201205280400 METAR MRLB NIL=
201205280500 METAR MRLB NIL=
201205280600 METAR MRLB NIL=
201205280700 METAR MRLB NIL=
201205280800 METAR MRLB NIL=
201205280900 METAR MRLB NIL=
201205281000 METAR MRLB NIL=
201205281100 METAR MRLB NIL=
201205281200 METAR MRLB 281200Z 00000KT 9999 2000SW BCFG SCT010 BKN240 23/22 A2980=
201205281300 METAR MRLB 281300Z 30003KT 9999 FEW035 BKN240 25/23 A2980=
201205281400 METAR MRLB 281400Z 00000KT 9999 FEW035 BKN250 27/23 A2981=
201205281500 METAR MRLB 281500Z 00000KT 9999 FEW035 BKN250 29/23 A2981=
201205281600 METAR MRLB 281600Z 10003KT 9999 FEW035 BKN250 31/22 A2981=
201205281700 METAR MRLB 281700Z 23005KT 9999 SCT035 BKN250 31/21 A2980=
201205281800 METAR MRLB 281800Z 24004KT 9999 SCT035 BKN250 31/23 A2979=
201205281900 METAR MRLB 281900Z 25006KT 9999 SCT035 BKN250 32/23 A2977=
201205282000 METAR MRLB 282000Z 26008KT 9999 SCT035 BKN250 32/24 A2975=
201205282100 METAR MRLB 282100Z 26009KT 9999 SCT035 BKN250 31/24 A2974=
201205282200 METAR MRLB 282200Z 27010KT 9999 VCSH SCT030 BKN230 30/23 A2973=
201205282300 METAR MRLB 282300Z 25006KT 9999 4000S -RA FEW020TCU SCT030 BKN140 30/23 A2976=
201205282354 METAR MRLB 290000Z 15008KT 9999 SCT025 BKN130 25/23 A2978=
201205290000 METAR MRLB 290000Z 15008KT 9999 SCT025 BKN130 25/23 A2978=
201205290100 METAR MRLB 290100Z 16008KT 9999 DZ SCT020 BKN120 23/22 A2981=
201205290200 METAR MRLB 290200Z 13005KT 9999 -DZ SCT020 BKN100 23/22 A2981=
201205290300 METAR MRLB NIL=
201205290400 METAR MRLB NIL=
201205290500 METAR MRLB NIL=
201205290600 METAR MRLB NIL=
201205290700 METAR MRLB NIL=
201205290800 METAR MRLB NIL=
201205290900 METAR MRLB NIL=
201205291000 METAR MRLB NIL=
201205291100 METAR MRLB NIL=
201205291200 METAR MRLB 291200Z 08003KT 0500 FG BKN001 23/22 A2979=
201205291300 METAR MRLB 291300Z 00000KT 5000 VCFG SCT004 24/23 A2980=
201205291400 METAR MRLB 291400Z 34003KT 9999 FEW015 SCT250 26/23 A2980=
201205291500 METAR MRLB 291500Z 20003KT 9999 FEW020 SCT250 29/24 A2983=
201205291600 METAR MRLB 291600Z 00000KT 9999 FEW020 SCT250 30/23 A2983=
201205291700 METAR MRLB 291700Z 28004KT 9999 SCT020 BKN250 31/24 A2982=
201205291800 METAR MRLB 291800Z 00000KT 9999 -RA SCT018TCU BKN200 28/24 A2981=
201205291900 METAR MRLB 291900Z 25006KT 9999 VCSH SCT020TCU BKN200 31/24 A2979=
201205292000 METAR MRLB 292000Z 25007KT 9999 FEW025 BKN250 31/24 A2976=
201205292100 METAR MRLB 292100Z 27005KT 9999 FEW025 BKN250 30/25 A2974=
201205292200 METAR MRLB 292200Z 27006KT 9999 FEW030 BKN250 30/24 A2973=
201205292300 METAR MRLB 292300Z 26007KT 9999 FEW030 BKN250 29/24 A2973=
201205292353 METAR MRLB 300000Z 27006KT 9999 FEW030 SCT250 29/24 A2975=
201205300000 METAR MRLB 300000Z 27006KT 9999 FEW030 SCT250 29/24 A2975=
201205300100 METAR MRLB 300100Z 15005KT 9999 VCSH SCT020CB BKN120 26/23 A2978=
201205300200 METAR MRLB 300200Z 12005KT 9999 SCT020CB BKN100 25/23 A2980=
201205300300 METAR MRLB NIL=
201205300400 METAR MRLB NIL=
201205300500 METAR MRLB NIL=
201205300600 METAR MRLB NIL=
201205300700 METAR MRLB NIL=
201205300800 METAR MRLB NIL=
201205300900 METAR MRLB NIL=
201205301000 METAR MRLB NIL=
201205301100 METAR MRLB NIL=
201205301200 METAR MRLB 301200Z 25002KT CAVOK 24/23 A2979=
201205301300 METAR MRLB 301300Z 22003KT CAVOK 25/24 A2981=
201205301400 METAR MRLB 301400Z 16004KT 9999 FEW020 BKN130 27/24 A2982=
201205301500 METAR MRLB 301500Z 12005KT CAVOK 29/23 A2982=
201205301600 METAR MRLB 301600Z 13008KT CAVOK 30/23 A2981=
201205301700 METAR MRLB 301700Z 14005KT 9999 FEW030 OVC250 30/24 A2981=
201205301800 METAR MRLB 301800Z 16004KT 9999 FEW030 OVC250 31/24 A2980=
201205301900 METAR MRLB 301900Z 16005KT 9999 FEW030 OVC250 32/25 A2977=
201205302000 METAR MRLB 302000Z 13006KT 9999 FEW030 BKN250 33/24 A2974=
201205302100 METAR MRLB 302100Z 16005KT 9999 FEW030TCU OVC250 33/24 A2972=
201205302200 METAR MRLB 302200Z 17005KT 9999 SCT030 BKN250 33/23 A2973=
201205302258 METAR MRLB 310000Z 34012KT 7000 1500SW -TSRA FEW02CB BKN025 24/23 A2975=
201205302300 METAR MRLB 302300Z 28011KT 9999 VCTS VCSH FEW020CB SCT030 SCT250 30/25 A2974=
201205310000 METAR MRLB 310000Z 34012KT 7000 1500SW -TSRA FEW02CB BKN025 24/23 A2975=
201205310100 METAR MRLB 310100Z 12003KT 9999 -RA VCTS FEW020CB SCT030 BKN100 24/23 A2979 RETSRA=
201205310200 METAR MRLB 310200Z 16004KT 9999 -DZ SCT025 BKN120 24/24 A2980=
201205310300 METAR MRLB NIL=
201205310400 METAR MRLB NIL=
201205310500 METAR MRLB NIL=
201205310600 METAR MRLB NIL=
201205310700 METAR MRLB NIL=
201205310800 METAR MRLB NIL=
201205310900 METAR MRLB NIL=
201205311000 METAR MRLB NIL=
201205311100 METAR MRLB NIL=
201205311200 METAR MRLB 311200Z 00000KT 9999 1000SW SCT002 BKN020 24/23 A2978=
201205311300 METAR MRLB 311300Z 03003KT 9999 SCT025 BKN100 24/23 A2981=
201205311400 METAR MRLB 311400Z 07004KT 9999 FEW035 BKN120 25/23 A2983=
201205311500 METAR MRLB 311500Z 10003KT 9999 FEW035 BKN120 27/24 A21984=
201205311600 METAR MRLB 311600Z 14003KT 9999 FEW035 BKN120 28/24 A2986=
201205311700 METAR MRLB 311700Z 15005KT 9999 FEW035 BKN130 28/24 A2985=
201205311800 METAR MRLB NIL=
201205311900 METAR MRLB 311900Z 16005KT 9999 SCT030 BKN120 28/24 A2981=
201205312000 METAR MRLB 312000Z 24003KT 9999 SCT030 BKN120 29/24 A2980=
201205312100 METAR MRLB 312100Z 22004KT 9999 SCT030 BKN250 29/25 A2979=
201205312200 METAR MRLB 312200Z 20005 9999 FEW025TCU SCT140 BKN250 29/24 A2978=
201205312300 METAR MRLB 312300Z 21003KT 9999 FEW025TCU BKN120 28/23 A2981=
201205312355 METAR MRLB 010000Z 01008KT 9999 -RA SCT020 BKN100 26/23 A2983=
201206010000 METAR MRLB 010000Z 01008KT 9999 -RA SCT020 BKN100 26/23 A2983=
201206010100 METAR MRLB 010100Z 05007KT 9999 -RA SCT020 BKN100 24/23 A2984=
201206010200 METAR MRLB 010200Z 02004KT 9999 SCT030 BKN100 24/23 A2985=
201206010300 METAR MRLB NIL=
201206010400 METAR MRLB NIL=
201206010500 METAR MRLB NIL=
201206010600 METAR MRLB NIL=
201206010700 METAR MRLB NIL=
201206010800 METAR MRLB NIL=
201206010900 METAR MRLB NIL=
201206011000 METAR MRLB NIL=
201206011100 METAR MRLB NIL=
201206011200 METAR MRLB 011200Z 00000KT CAVOK 23/22 A2984=
201206011255 METAR MRLB 01300Z 00000KT CAVOK 24/23 A2987=
201206011300 METAR MRLB 011300Z 00000KT CAVOK 24/23 A2987=
201206011400 METAR MRLB 011400Z COR 11001KT 9999 FEW012 BKN130 27/24 A2989=
201206011500 METAR MRLB 011500Z COR 10002KT 9999 FEW020 SCT130 BKN250 28/24 A2991=
201206011600 METAR MRLB 011600Z 26003KT 9999 SCT025 BKN130 29/24 A2991=
201206011700 METAR MRLB 011700Z 26003KT 9999 FEW020TCU FEW030 BKN130 29/24 A2990=
201206011800 METAR MRLB 011800Z 24005KT 9999 FEW025 BKN130 31/23 A2989=
201206011900 METAR MRLB 011900Z 26007KT 9999 FEW025 BKN130 31/24 A2987=
201206012000 METAR MRLB 012000Z 26010KT 9999 SCT025TCU BKN150 31/23 A2985=
201206012100 METAR MRLB 012100Z 26008KT 9999 FEW020TCU BKN250 31/22 A2982=
201206012200 METAR MRLB 012200Z 27010KT 9999 FEW025TCU BKN250 30/23 A2981=
201206012300 METAR MRLB 012300Z 28007KT 9999 FEW030 BKN250 29/23 A2983=
201206012354 METAR MRLB 020000Z 28007KT 9999 FEW035 SCT100 28/24 A2985=
201206020000 METAR MRLB 020000Z 28007KT 9999 FEW035 SCT100 28/24 A2985=
201206020100 METAR MRLB 020100Z 23004KT 9999 FEW030 SCT140 27/24 A2985=
201206020200 METAR MRLB 020200Z 16003KT 9999 SCT020 BKN100 26/25 A2989=
201206020300 METAR MRLB NIL=
201206020400 METAR MRLB NIL=
201206020500 METAR MRLB NIL=
201206020600 METAR MRLB NIL=
201206020700 METAR MRLB NIL=
201206020800 METAR MRLB NIL=
201206020900 METAR MRLB NIL=
201206021000 METAR MRLB NIL=
201206021100 METAR MRLB NIL=
201206021200 METAR MRLB 021200Z 17004KT 0200 FG VV/// 23/23 A2983=
201206021300 METAR MRLB 021300Z 19003KT 9999 FEW010 SCT100 24/23 A2984=
201206021400 METAR MRLB 021400Z 00000KT 9999 FEW020 BKN150 26/23 A2987=
201206021500 METAR MRLB 021500Z 00000KT CAVOK 29/23 A2988=
201206021600 METAR MRLB 021600Z 20003KT CAVOK 30/23 A2989=
201206021700 METAR MRLB 021700Z 00000KT 9999 FEW020 BKN150 31/22 A2989=
201206021800 METAR MRLB 021800Z 00000KT CAVOK 31/23 A2988=
201206021900 METAR MRLB 021900Z 28005KT 9999 FEW025 BKN140 31/24 A2986=
201206022000 METAR MRLB 022000Z 30004KT 9999 SCT025 BKN150 32/24 A2983=
201206022100 METAR MRLB 022100Z 15003KT 9999 SCT030 BKN140 31/24 A2981=
201206022200 METAR MRLB 022200Z 12005KT 9999 SCT035 BKN140 32/24 A2979=
201206022300 METAR MRLB 022300Z 14007KT 9999 FEW035 BKN 230 30/24 A2981=
201206022355 METAR MRLB 030000Z 15008KT 9999 SCT035 BKN140 28/24 A2982=
201206030000 METAR MRLB 030000Z 15008KT 9999 SCT035 BKN140 28/24 A2982=
201206030100 METAR MRLB 030100Z 10003KT 9999 SCT035 BKN140 27/24 A2984=
201206030200 METAR MRLB 030200Z 00000KT 9999 SCT030 BKN130 26/24 A2987=
201206030300 METAR MRLB NIL=
201206030400 METAR MRLB NIL=
201206030500 METAR MRLB NIL=
201206030600 METAR MRLB NIL=
201206030700 METAR MRLB NIL=
201206030800 METAR MRLB NIL=
201206030900 METAR MRLB NIL=
201206031000 METAR MRLB NIL=
201206031100 METAR MRLB NIL=
201206031200 METAR MRLB 031200Z 00000KT 9999 FEW020 BKN140 24/23 A2981=
201206031300 METAR MRLB 031300Z 00000KT 9999 FEW035 BKN240 28/24 A2983=
201206031400 METAR MRLB 031400Z 00000KT 9999 SCT035 BKN240 28/24 A2983=
201206031500 METAR MRLB 031500Z 28003KT 9999 FEW035 BKN240 29/24 A2986=
201206031600 METAR MRLB 031600Z 21004KT 9999 SCT035 BKN250 30/24 A2987=
201206031700 METAR MRLB 031700Z 12006KT 9999 SCT035 BKN250 32/23 A2988=
201206031800 METAR MRLB 031800Z 06008KT 9999 SCT035 BKN250 33/22 A2986=
201206031900 METAR MRLB 031900Z 10008KT 9999 SCT035 BKN250 33/22 A2983=
201206032000 METAR MRLB 032000Z 14006KT 9999 SCT035 BKN240 34/22 A2982=
201206032100 METAR MRLB 032100Z 21006KT 9999 VCTS VCSH FEW020CB BKN030 29/24 A2980=
201206032200 METAR MRLB 032200Z 36007KT 9999 FEW020CB BKN030 27/25 A2982=
201206032300 METAR MRLB 032300Z 30004KT 9999 SCT030 BKN120 27/24 A2981=
201206032355 METAR MRLB 040000Z 36003 9999 FEW030 OVC120 26/24 A2983=
201206040000 METAR MRLB 040000Z 36003 9999 FEW030 OVC120 26/24 A2983=
201206040100 METAR MRLB 040100Z 32002KT 9999 FEW035 OVC120 26/24 A2984=
201206040200 METAR MRLB 040200Z 10002KT CAVOK 25/24 A2985=
201206040300 METAR MRLB NIL=
201206040400 METAR MRLB NIL=
201206040500 METAR MRLB NIL=
201206040600 METAR MRLB NIL=
201206040700 METAR MRLB NIL=
201206040800 METAR MRLB NIL=
201206040900 METAR MRLB NIL=
201206041000 METAR MRLB NIL=
201206041100 METAR MRLB NIL=
201206041200 METAR MRLB 041200Z 00000KT CAVOK 24/23 A2981=
201206041300 METAR MRLB 041300Z 00000KT 9999 FEW003 OVC250 24/23 A2984=
201206041400 METAR MRLB 041400Z 34002KT 9999 FEW020 OVC250 28/24 A2984=
201206041500 METAR MRLB 041500Z 25001KT 9999 FEW025 OVC250 29/24 A2985=
201206041600 METAR MRLB 041600Z 17005KT 9999 SCT030 SCT250 29/24 A2985=
201206041700 METAR MRLB 041700Z 20005KT 9999 SCT030 SCT250 30/24 A2984=
201206041800 METAR MRLB 041800Z 11005KT 9999 BKN030 SCT250 32/23 A2982=
201206041900 METAR MRLB 041900Z 11010KT 9999 VCSH FEW020CB SCT025TCU SCT130 31/23 A2980=
201206042000 METAR MRLB 042000Z 00000KT 9999 SCT025 BKN220 31/23 A2976=
201206042100 METAR MRLB 042100Z 24004KT 9999 SCT020TCU BKN150 30/23 A2977=
201206042200 METAR MRLB 042200Z 28007KT 9999 SCT020TCU BKN150 28/24 A2975=
201206042300 METAR MRLB 042300Z 34006KT 9999 VCSH SCT020CB BKN120 27/24 A2975=
201206042351 METAR MRLB 050000Z 22003KT 9999 SCT020CB BKN100 26/24 A2977 RERA=
201206050000 METAR MRLB 050000Z 22003KT 9999 SCT020CB BKN100 26/24 A2977 RERA=
201206050100 METAR MRLB 050100Z 00000KT 9000 SCT020CB BKN100 25/23 A2978=
201206050200 METAR MRLB 050200Z 00000KT 9999 SCT020CB BKN120 25/24 A2981=
201206050300 METAR MRLB NIL=
201206050400 METAR MRLB NIL=
201206050500 METAR MRLB NIL=
201206050600 METAR MRLB NIL=
201206050700 METAR MRLB NIL=
201206050800 METAR MRLB NIL=
201206050900 METAR MRLB NIL=
201206051000 METAR MRLB NIL=
201206051100 METAR MRLB NIL=
201206051200 METAR MRLB 051200Z 00000KT 0200 FG VV/// 23/22 A2980=
201206051300 METAR MRLB 051300Z 00000KT 0500 FG BKN001 24/23 A2982=
201206051400 METAR MRLB 051400Z 00000KT 9999 VCFG FEW005 SCT018 BKN250 25/23 A2982=
201206051500 METAR MRLB 051500Z 19003KT 9999 FEW015 SCT250 27/24 A2983=
201206051600 METAR MRLB 051600Z 18006KT 9999 SCT020 BKN250 28/24 A2983=
201206051656 METAR MRLB 061700Z 15005KT 9999 FEW020 BKN250 30/24 A2981=
201206051700 METAR MRLB NIL=
201206051800 METAR MRLB 051800Z 19003KT 9999 SCT020 BKN250 31/24 A2979=
201206051900 METAR MRLB 051900Z 00000KT 9999 VCSH FEW010CB SCT025 BKN150 31/24 A2977=
201206052000 METAR MRLB 052000Z 34005KT 9999 SCT020TCU BKN120 26/23 A2973 RETSRA=
201206052100 METAR MRLB 052100Z 29006KT 9999 SCT030 BKN120 27/25 A2973=
201206052200 METAR MRLB 052200Z 26005KT 9999 SCT030 BKN130 28/25 A2975=
201206052300 METAR MRLB 052300Z 29004KT 9999 SCT035 BKN130 28/25 A2975=
201206052351 METAR MRLB 060000Z 17004KT 9999 -RA SCT025 BKN110 27/24 A2975=
201206060000 METAR MRLB 060000Z 17004KT 9999 -RA SCT025 BKN110 27/24 A2975=
201206060100 METAR MRLB 060100Z 07008KT 7000 RA FEW015TCU SCT025 BKN100 25/24 A2977=
201206060200 METAR MRLB 060200Z 14005KT 8000 RA SCTO15 BKN100 25/24 A2979=
201206060300 METAR MRLB NIL=
201206060400 METAR MRLB NIL=
201206060500 METAR MRLB NIL=
201206060600 METAR MRLB NIL=
201206060700 METAR MRLB NIL=
201206060800 METAR MRLB NIL=
201206060900 METAR MRLB NIL=
201206061000 METAR MRLB NIL=
201206061100 METAR MRLB NIL=
201206061200 METAR MRLB 061200Z 00000KT 9999 FEW015 BKN120 24/23 A2980=
201206061300 METAR MRLB 061300Z 00000KT 9999 SCT025 BKN140 25/24 A2981=
201206061400 METAR MRLB 061400Z 17003KT 9999 SCT030 BKN230 27/24 A2983=
201206061500 METAR MRLB 061500Z 18003KT 9999 SCT035 BKN230 29/24 A2985=
201206061600 METAR MRLB 061600Z 17003KT 9999 SCT035 BKN230 29/24 A2985=
201206061700 METAR MRLB 061700Z 30006KT 9999 SCT035 BKN240 30/24 A2984=
201206061800 METAR MRLB 061800Z 32003KT 9999 SCT030 BKN240 31/24 A2983=
201206061900 METAR MRLB 061900Z 25003KT 9999 RA FEW020TCU SCT030 BKN140 30/24 A2980=
201206062000 METAR MRLB 062000Z 13005KT 9999 VCSH SCT030 BKN130 28/25 A2979=
201206062100 METAR MRLB 062100Z 22007KT 9999 VCSH FEW025CB SCT030 BKN130 26/25 A2978=
201206062200 METAR MRLB 062200Z 00000KT 9999 FEW025 OVC130 27/25 A2977=
201206062300 METAR MRLB 062300Z 29003KT 9999 FEW025 OVC130 27/24 A2977=
201206062356 METAR MRLB 070000Z 14003KT 9999 FEW025 OVC130 26/25 A2979=
201206070000 METAR MRLB 070000Z 14003KT 9999 FEW025 OVC130 26/25 A2979=
201206070100 METAR MRLB 070100Z 07002KT CAVOK 26/25 A2980=
201206070200 METAR MRLB 070200Z 00000KT CAVOK 26/25 A2981=
201206070300 METAR MRLB NIL=
201206070400 METAR MRLB NIL=
201206070500 METAR MRLB NIL=
201206070600 METAR MRLB NIL=
201206070700 METAR MRLB NIL=
201206070800 METAR MRLB NIL=
201206070900 METAR MRLB NIL=
201206071000 METAR MRLB NIL=
201206071100 METAR MRLB NIL=
201206071200 METAR MRLB 071200Z 22001KT 0700 FG FEW015 BKN250 24/23 A2980=
201206071300 METAR MRLB 071300Z 13002KT 9999 VCFG FEW004 OVC250 25/25 A2982=
201206071400 METAR MRLB 071400Z 28003KT 6000 2500SW BCFG FEW002 BKN008 25/24 A2983=
201206071500 METAR MRLB 071500Z 28003KT 9999 FEW006 BKN250 27/25 A2984=
201206071600 METAR MRLB 071600Z 27003KT 9999 FEW025 BKN250 29/25 A2985=
201206071700 METAR MRLB 071700Z 22003KT 9999 SCT030 SCT250 31/25 A2983=
201206071756 METAR MRLB 171800Z 18004KT 9999 SCT030 BKN250 30/25 A2982=
201206071800 METAR MRLB 071800Z 18004KT 9999 SCT030 BKN250 30/25 A2982=
201206071806 METAR MRLB 171800Z 18004KT 9999 SCT030 BKN250 30/25 A2982=
201206071900 METAR MRLB NIL=
201206072000 METAR MRLB NIL=
201206072100 METAR MRLB NIL=
201206072102 MRLB 72100Z 25005KT 9999 SCT025 BKN250 33/24 A2975=
201206072200 METAR MRLB NIL=
201206072300 METAR MRLB 072300Z 25005KT 9999 FEW030 BKN250 31/25 A2974=
201206072351 METAR MRLB 080000Z 25004KT 9999 FEW035 BKN250 29/25 A2975=
201206080000 MRLB 080000Z 25004KT 9999 FEW035 BKN250 29/25 A2975=
201206080100 METAR MRLB 080100Z 00000KT CAVOK 29/25 A2976=
201206080200 METAR MRLB 080200Z 19004KT CAVOK 27/25 A2977=
201206080300 METAR MRLB NIL=
201206080400 METAR MRLB NIL=
201206080500 METAR MRLB NIL=
201206080600 METAR MRLB NIL=
201206080700 METAR MRLB NIL=
201206080800 METAR MRLB NIL=
201206080900 METAR MRLB NIL=
201206081000 METAR MRLB NIL=
201206081100 METAR MRLB NIL=
201206081200 METAR MRLB 081200Z 00000KT CAVOK 25/24 A2975=
201206081300 METAR MRLB 081300Z 25004KT CAVOK 26/24 A2976=
201206081400 METAR MRLB 081400Z 00000KT CAVOK 29/24 A2979=
201206081500 METAR MRLB 081500Z 26005KT 9999 FEW035 31/23 A2980=
201206081600 METAR MRLB 081600Z 27004KT 9999 FEW030 32/24 A2978=
201206081700 METAR MRLB 081700Z 01006KT 9999 SCT030 32/23 A2976=
201206081800 METAR MRLB 081800Z 05010KT 9999 SCT025 BKN250 33/23 A2975=
201206081900 METAR MRLB 081900Z 07012KT 9999 SCT025 BKN250 34/22 A2973=
201206082000 METAR MRLB 082000Z 08009KT 9999 SCT030 BKN250 34/22 A2972=
201206082100 METAR MRLB 082100Z 07008KT 9999 SCT035 BKN240 29/21 A2970=
201206082200 METAR MRLB 082200Z 14006KT 9999 FEW035 BKN240 29/22 A2968=
201206082300 METAR MRLB 082300Z 10009KT 9999 FEW035 BKN240 30/22 A2970=
201206082350 METAR MRLB 090000Z 12005KT 9999 FEW035 BKN240 29/23 A2971=
201206090000 METAR MRLB 090000Z 12005KT 9999 FEW035 BKN240 29/23 A2971=
201206090100 METAR MRLB 090100Z 08006KT 9999FEW035 BKN240 28/23 A2972=
201206090200 METAR MRLB 090200Z 10006KT 9999 FEW035 BKN230 27/23 A2974=
201206090300 METAR MRLB NIL=
201206090400 METAR MRLB NIL=
201206090500 METAR MRLB NIL=
201206090600 METAR MRLB NIL=
201206090700 METAR MRLB NIL=
201206090800 METAR MRLB NIL=
201206090900 METAR MRLB NIL=
201206091000 METAR MRLB NIL=
201206091100 METAR MRLB NIL=
201206091200 METAR MRLB 091200Z 13005KT CAVOK 24/22 A2972=
201206091300 METAR MRLB 091300Z 19004KT CAVOK 26/23 A2973=
201206091400 METAR MRLB 091400Z 20005KT CAVOK 28/22 A2976=
201206091500 METAR MRLB 091500Z 19006KT 9999 FEW035 BKN250 29/22 A2979=
201206091600 METAR MRLB 091600Z 18004KT 9999 FEW035 BKN250 30/23 A2979=
201206091700 METAR MRLB 091700Z 26003KT 9999 SCT035 BKN250 32/23 A2980=
201206091800 METAR MRLB 091800Z 22004KT 9999 SCT035 BKN250 32/23 A2978=
201206091900 METAR MRLB 091900Z 10008KT 9999 SCT035 BKN250 31/23 A2975=
201206092000 METAR MRLB 092000Z 10008KT 9999 FEW030 SCT150 32/23 A2973=
201206092100 METAR MRLB 092100Z 11011KT 9999 FEW035 BKN200 31/23 A2972=
201206092200 METAR MRLB 092200Z 10006KT CAVOK 30/23 A2971=
201206092300 METAR MRLB 092300Z 09008KT CAVOK 28/21 A2970=
201206092354 METAR MRLB 100000Z 07003KT CAVOK 28/21 A2971=
201206100000 METAR MRLB 100000Z 07003KT CAVOK 28/21 A2971=
201206100100 METAR MRLB 100100Z 13005KT CAVOK 26/21 A2971=
201206100200 METAR MRLB 100200Z 12005KT CAVOK 27/21 A2974=
201206100300 METAR MRLB NIL=
201206100400 METAR MRLB NIL=
201206100500 METAR MRLB NIL=
201206100600 METAR MRLB NIL=
201206100700 METAR MRLB NIL=
201206100800 METAR MRLB NIL=
201206100900 METAR MRLB NIL=
201206101000 METAR MRLB NIL=
201206101100 METAR MRLB NIL=
201206101200 METAR MRLB 101200Z 17004KT CAVOK 24/22 A2978=
201206101300 METAR MRLB 101300Z 17004KT 9999 FEW035 SCT140 BKN250 25/22 A2978=
201206101400 METAR MRLB 101400Z 23003KT 9999 FEW035 SCT140 BKN250 27/22 A2979=
201206101500 METAR MRLB 101500Z 21003KT 9999 FEW035 SCT140 BKN250 28/23 A2982=
201206101600 METAR MRLB 101600Z 00000KT 9999 FEW035 SCT140 BKN250 29/24 A2982=
201206101700 METAR MRLB 101700Z 14002KT 9999 FEW035 SCT130 BKN250 31/24 A2980=
201206101800 METAR MRLB 101800Z 16004KT 9999 SCT035 BKN140 32/23 A2978=
201206101900 METAR MRLB 101900Z 28004KT 9999 SCT035 SCT130 31/24 A2977=
201206102000 METAR MRLB 102000Z 30005KT 9999 SCT030TCU BKN250 30/24 A2977=
201206102100 METAR MRLB 102100Z 24007KT 9999 BKN030 SCT250 31/24 A2976=
201206102200 METAR MRLB 102200Z 25007KT 9999 BKN025 SCT120 30/24 A2976=
201206102300 METAR MRLB 102300Z 28006KT 9999 SCT020 BKN130 30/24 A2976=
201206102352 METAR MRLB 110000Z 30004KT 9999 SCT020 BKN130 28/24 A2978=
201206110000 METAR MRLB 110000Z 30004KT 9999 SCT020 BKN130 28/24 A2978=
201206110100 METAR MRLB 110100Z 33003KT 9999 SCT020 BKN130 28/24 A2981=
201206110200 METAR MRLB 110200Z 25003KT 9999 SCT020 BKN250 26/24 A2981=
201206110300 METAR MRLB NIL=
201206110400 METAR MRLB NIL=
201206110500 METAR MRLB NIL=
201206110600 METAR MRLB NIL=
201206110700 METAR MRLB NIL=
201206110800 METAR MRLB NIL=
201206110900 METAR MRLB NIL=
201206111000 METAR MRLB NIL=
201206111100 METAR MRLB NIL=
201206111200 METAR MRLB 111200Z 00000KT 9999 FEW020 SCT100 BKN250 25/23 A2977=
201206111300 METAR MRLB 111300Z 00000KT 9999 FEW020 SCT140 26/23 A2977=
201206111400 METAR MRLB 111400Z 28005KT 9999 FEW020 BKN140 27/24 A2977=
201206111500 METAR MRLB 111500Z 27006KT 9999 FEW020 BKN120 28/24 A2978=
201206111600 METAR MRLB 111600Z 22006KT 9999 FEW020 BKN150 29/24 A2976=
201206111700 METAR MRLB 111700Z 23006KT 9999 SCT020 BKN140 28/25 A2979=
201206111800 METAR MRLB 111800Z 08016KT 9999 SCT018 BKN120 28/21 A2980=
201206111900 METAR MRLB 111900Z 08013KT 9999 SCT020 BKN150 29/23 A2978=
201206112000 METAR MRLB 112000Z 06017KT 9999 SCT020 BKN150 30/22 A2977=
201206112100 METAR MRLB 112100Z 07014KT 9999 SCT035 BKN150 30/22 A2977=
201206112200 METAR MRLB 112200Z 06018KT 9999 SCT035 BKN140 30/21 A2975=
201206112300 METAR MRLB 112300Z 08011KT 9999 SCT035 BKN140 29/21 A2975=
201206112355 METAR MRLB 120000Z 08011KT 9999 FEW035 BKN140 28/21 A2977=
201206120000 METAR MRLB 120000Z 08011KT 9999 FEW035 BKN140 28/21 A2977=
201206120100 METAR MRLB 120100Z 06010KT 9999 FEW035 BKN140 28/21 A2978=
201206120200 METAR MRLB 120200Z 06009KT 9999 SCT035 BKN140 27/21 A2979=
201206120300 METAR MRLB NIL=
201206120400 METAR MRLB NIL=
201206120500 METAR MRLB NIL=
201206120600 METAR MRLB NIL=
201206120700 METAR MRLB NIL=
201206120800 METAR MRLB NIL=
201206120900 METAR MRLB NIL=
201206121000 METAR MRLB NIL=
201206121100 METAR MRLB NIL=
201206121200 METAR MRLB 121200Z 13003KT 9999 SCT025 BKN130 23/21 A2976=
201206121300 METAR MRLB 121300Z 15003KT 9999 SCT030 BKN130 24/22 A2979=
201206121400 METAR MRLB 121400Z 08003KT 9999 SCT030 BKN140 27/23 A2980=
201206121500 METAR MRLB NIL=
201206121600 METAR COR MRLB 121600Z 10006KT 9999 -DZ SCT035 BKN120 27/23 A2983=
201206121700 METAR MRLB 121700Z 08011KT 9999 DZ SCT030 BKN120 27/22 A2982=
201206121800 METAR MRLB 121800Z 09010KT 9999 SCT030 BKN120 28/23 A2981=
201206121900 METAR MRLB 121900Z 08010KT 9999 SCT025 BKN120 28/22 A2980=
201206122000 METAR MRLB 122000Z 12011KT 9999 FEW025 OVC120 27/23 A2975=
201206122100 METAR MRLB 122100Z 12009KT 9999 FEW035 BKN130 27/21 A2972=
201206122200 METAR MRLB 122200Z 10006KT CAVOK 26/21 A2973=
201206122300 METAR MRLB 122300Z 01007KT CAVOK 25/21 A2974=
201206122348 METAR MRLB 130000Z 06004KT CAVOK 25/22 A2976=
201206130000 METAR MRLB 130000Z 06004KT CAVOK 25/22 A2976=
201206130100 METAR MRLB 130100Z 03004KT CAVOK 24/21 A2979=
201206130200 METAR MRLB 130200Z 34002KT CAVOK 24/22 A2979=
201206130300 METAR MRLB NIL=
201206130400 METAR MRLB NIL=
201206130500 METAR MRLB NIL=
201206130600 METAR MRLB NIL=
201206130700 METAR MRLB NIL=
201206130800 METAR MRLB NIL=
201206130900 METAR MRLB NIL=
201206131000 METAR MRLB NIL=
201206131100 METAR MRLB NIL=
201206131200 METAR MRLB 131200Z 06003KT 9999 SCT030 BKN120 22/21 A2984=
201206131300 METAR MRLB 131300Z 15003KT 9999 SCT025 BKN100 22/21 A2987=
201206131400 METAR MRLB 131400Z 02007KT 9999 4000N RA SCT020 SCT100 22/21 A2988=
201206131500 METAR MRLB 131500Z 00000KT 4000 RA SCT010 BKN100 22/22 A2990=
201206131600 METAR MRLB 131600Z 05005KT 9999 -RA FEW020 BKN100 23/22 A2989=
201206131700 METAR MRLB 131700Z 03003KT 9999 FEW020 OVC100 24/23 A2987=
201206131800 METAR MRLB 131800Z 15002KT 9999 FEW020 OVC120 25/24 A2985=
201206131900 METAR MRLB 131900Z 16007KT 9999 SCT020 BKN100 26/24 A2984=
201206132000 METAR MRLB 132000Z 17008KT 9999 BKN025 SCT120 26/23 A2982=
201206132100 METAR MRLB 132100Z 13004KT 9999 SCT020 BKN120 26/23 A2981=
201206132200 METAR MRLB 132200Z 15003KT 9999 FEW035 BKN150 26/23 A2981=
201206132300 METAR MRLB 132300Z 15003KT 9999 FEW045 BKN150 25/23 A2982=
201206140000 METAR MRLB 140000Z 13003KT 9999 SCT045 BKN140 25/23 A2983=
201206140100 METAR MRLB 140100Z 00000KT 9999 SCT040 BKN140 24/23 A2984=
201206140200 METAR MRLB 140200Z 10003KT 9999 SCT040 BKN120 24/23 A2985=
201206140300 METAR MRLB NIL=
201206140400 METAR MRLB NIL=
201206140500 METAR MRLB NIL=
201206140600 METAR MRLB NIL=
201206140700 METAR MRLB NIL=
201206140800 METAR MRLB NIL=
201206140900 METAR MRLB NIL=
201206141000 METAR MRLB NIL=
201206141100 METAR MRLB NIL=
201206141200 METAR MRLB 141200Z 00000KT CAVOK 23/22 A2981=
201206141300 METAR MRLB 141300Z 00000KT CAVOK 24/23 A2985=
201206141400 METAR MRLB 141400Z 00000KT CAVOK 25/23 A2986=
201206141500 METAR MRLB 141500Z 00000KT 9999 FEW015 BKN140 27/22 A2987=
201206141600 METAR MRLB 141600Z 21005KT 9999 FEW015 SCT150 30/23 A2980=
201206141700 METAR MRLB 141700Z 22006KT 9999 SCT020 BKN150 29/24 A2990=
201206141800 METAR MRLB 141800Z 22005KT 9999 SCT020 BKN150 29/24 A2989=
201206141900 METAR MRLB 141900Z 26007KT 9999 SCT020 BKN140 31/23 A2987=
201206142000 METAR MRLB 142000Z 27009KT 9999 VCSH FEW025TCU SCT030 30/23 A2983=
201206142100 METAR MRLB 142100Z 28009KT 9999 VCSH FEW020TCU SCT030 BKN230 29/24 A2982=
201206142200 METAR MRLB 142200Z 16007KT 2000 -TSRA FEW010CB SCT020 BKN120 25/22 A2982=
201206142300 METAR MRLB 142300Z 26003KT 9999 VCSH SCT025 BKN120 25/24 A2982 RERA=
201206142352 METAR MRLB 150000Z 00000KT 9999 SCT020 BKN120 25/23 A2984=
201206150000 METAR MRLB 150000Z 00000KT 9999 SCT020 BKN120 25/23 A2984=
201206150100 METAR MRLB 150100Z 03004KT 9999 SCT030 BKN120 25/24 A2986=
201206150200 METAR MRLB 150200Z 03003KT 9999 SCT025 BKN120 24/23 A2987=
201206150300 METAR MRLB NIL=
201206150400 METAR MRLB NIL=
201206150500 METAR MRLB NIL=
201206150600 METAR MRLB NIL=
201206150700 METAR MRLB NIL=
201206150800 METAR MRLB NIL=
201206150900 METAR MRLB NIL=
201206151000 METAR MRLB NIL=
201206151100 METAR MRLB NIL=
201206151200 METAR MRLB 151200Z 06003KT 9999 FEW025 BKN240 23/22 A2985=
201206151300 METAR MRLB 151300Z 00000KT CAVOK 25/23 A2986=
201206151400 METAR MRLB 151400Z 00000KT 9999 FEW035 BKN250 26/24 A2988=
201206151500 METAR MRLB 151500Z 28005KT 9999 SCT030 BKN250 28/24 A2990=
201206151600 METAR MRLB 151600Z 29003KT 9999 SCT030 BKN240 29/24 A2989=
201206151700 METAR MRLB 151700Z 15004KT 9999 SCT035 BKN240 30/23 A2987=
201206151800 METAR MRLB 151800Z 23006KT 9999 FEW035 BKN240 29/24 A2985=
201206151900 METAR MRLB 151900Z 19004KT 9999 SCT035 BKN230 30/22 A2983=
201206152000 METAR COR MRLB 152000Z 28007KT 9999 FEW035 OVC230 30/24 A2981=
201206152100 METAR MRLB 152100Z 24004KT 9999 FEW035 OVC250 31/23 A2980=
201206152200 METAR MRLB 152200Z 21003KT 9999 FEW035 OVC250 31/23 A2980=
201206152300 METAR MRLB 152300Z 21005KT 9999 FEW035 SCT140 BKN250 30/24 A2980=
201206152350 METAR MRLB 160000Z 23005KT CAVOK 30/23 A2980=
201206160000 METAR MRLB 160000Z 23005KT CAVOK 30/23 A2980=
201206160100 METAR MRLB 160100Z 25004KT CAVOK 28/24 A2980=
201206160200 METAR MRLB 160200Z 18004KT CAVOK 27/24 A2982=
201206160300 METAR MRLB NIL=
201206160400 METAR MRLB NIL=
201206160500 METAR MRLB NIL=
201206160600 METAR MRLB NIL=
201206160700 METAR MRLB NIL=
201206160800 METAR MRLB NIL=
201206160900 METAR MRLB NIL=
201206161000 METAR MRLB NIL=
201206161100 METAR MRLB NIL=
201206161200 METAR MRLB 161200Z 18004KT CAVOK 23/22 A2982=
201206161300 METAR MRLB 161300Z 29002KT CAVOK 25/23 A2983=
201206161400 METAR MRLB 161400Z 15008KT CAVOK 27/23 A2984=
201206161500 METAR MRLB 161500Z 01002KT CAVOK 29/24 A2986=
201206161600 METAR MRLB 161600Z 32003KT 9999 FEW035 OVC250 30/24 A2987=
201206161700 METAR MRLB 161700Z 00000KT 9999 FEW035 BKN250 31/23 A2987=
201206161800 METAR MRLB 161800Z 30002KT 9999 SCT030 BKN250 32/23 A2986=
201206161900 METAR MRLB 161900Z 14003KT 9999 FEW035 BKN250 32/23 A2983=
201206162000 METAR MRLB 162000Z 11005KT 9999 SCT025 BKN250 31/23 A2981=
201206162100 METAR MRLB 162100Z 10005KT 9999 SCT020TCU BKN250 31/23 A2979=
201206162200 METAR MRLB 162200Z 14004KT 9999 SCT030 BKN250 30/24 A2977=
201206162300 METAR MRLB 162300Z 28005KT 9999 FEW025 BKN150 29/24 A2979=
201206162356 METAR MRLB 170000Z 26003KT 9999 FEW030 SCT150 28/23 A2980=
201206170000 METAR MRLB 170000Z 26003KT 9999 FEW030 SCT150 28/23 A2980=
201206170100 METAR MRLB 170100Z 23003KT 9999 SCT020CB BKN100 28/24 A2982=
201206170200 METAR MRLB 170200Z 19006KT 9000 SCT020CB BKN120 25/23 A2984 LTNG W=
201206170300 METAR MRLB NIL=
201206170400 METAR MRLB NIL=
201206170500 METAR MRLB NIL=
201206170600 METAR MRLB NIL=
201206170700 METAR MRLB NIL=
201206170800 METAR MRLB NIL=
201206170900 METAR MRLB NIL=
201206171000 METAR MRLB NIL=
201206171100 METAR MRLB NIL=
201206171200 METAR MRLB 171200Z 07003KT CAVOK 24/22 A2982=
201206171300 METAR MRLB 171300Z 01003KT CAVOK 25/23 A2984=
201206171400 METAR MRLB 171400Z 35004KT CAVOK 26/24 A2985=
201206171500 METAR MRLB 171500Z 00000KT CAVOK 28/24 A2985=
201206171600 METAR MRLB 171600Z 08003KT 9999 FEW020 BKN250 29/24 A2987=
201206171700 METAR MRLB 171700Z 12004KT 9999 FEW020 BKN250 30/24 A2984=
201206171800 METAR MRLB 171800Z 12006KT 9999 FEW020 BKN250 31/24 A2982=
201206171900 METAR MRLB 171900Z 17003KT 9999 SCT020 BKN250 31/23 A2981=
201206172000 METAR MRLB 172000Z 09010KT 9999 SCT025TCU BKN250 30/23 A2979=
201206172100 METAR MRLB 172100Z 13003KT 9999 -RA SCT020TCU BKN140 30/23 A2977=
201206172200 METAR MRLB 172200Z 18010KT 2500 RA FEW008 SCT020 BKN100 24/22 A2977=
201206172300 METAR MRLB 172300Z 15003KT 9999 SCT030 BKN100 24/22 A2976 RERA=
201206172350 METAR MRLB 180000Z 03006KT 9999 SCT025 BKN110 24/23 A2979=
201206180000 METAR MRLB 180000Z 03006KT 9999 SCT025 BKN110 24/23 A2979=
201206180100 METAR MRLB 180100Z 04003KT 9999 SCT030 BKN120 24/23 A2981=
201206180200 METAR MRLB 180200Z 34003KT 9999 -DZ SCT030 BKN120 24/23 A2984=
201206180300 METAR MRLB NIL=
201206180400 METAR MRLB NIL=
201206180500 METAR MRLB NIL=
201206180600 METAR MRLB NIL=
201206180700 METAR MRLB NIL=
201206180800 METAR MRLB NIL=
201206180900 METAR MRLB NIL=
201206181000 METAR MRLB NIL=
201206181100 METAR MRLB NIL=
201206181200 METAR MRLB 181200Z 05004KT 0400 FG VV/// 22/22 A2980=
201206181300 METAR MRLB 181300Z 08005KT 9999 SCT025 BKN130 24/23 A2982=
201206181400 METAR MRLB 181400Z 12003KT 9999 SCT030 BKN240 25/23 A2983=
201206181500 METAR MRLB 181500Z 07004KT 9999 SCT030 BKN250 27/24 A2985=
201206181600 METAR MRLB 181600Z 13004KT 9999 SCT035 SCT250 28/24 A2986=
201206181700 METAR MRLB 181700Z 18003KT 9999 SCT035 BKN250 29/24 A2986=
201206181800 METAR MRLB 181800Z 17003KT 9999 SCT035 BKN250 30/23 A2985=
201206181900 METAR MRLB 181900Z 15003KT 9999 SCT030 BKN250 31/23 A2983=
201206182000 METAR MRLB 182000Z 29010KT 9999 FEW025TCU BKN250 30/24 A2981=
201206182100 METAR MRLB 182100Z 28008KT 9999 FEW030 SCT250 29/23 A2980=
201206182200 METAR MRLB 182200Z 27007KT 9999 FEW030 OVC250 30/23 A2980=
201206182300 METAR MRLB 182300Z 28006KT 9999 FEW035 BKN250 28/23 A2979=
201206182350 METAR MRLB 190000Z 31003KT 9999 FEW025 BKN250 27/23 A2978=
201206190000 METAR MRLB 190000Z 31003KT 9999 FEW025 BKN250 27/23 A2978=
201206190100 METAR MRLB 190100Z 00000KT 9999SCT025 BKN250 27/24 A2980=
201206190200 METAR MRLB 190200Z 33003KT 9999 SCT025 BKN250 26/23 A2982=
201206190300 METAR MRLB NIL=
201206190400 METAR MRLB NIL=
201206190500 METAR MRLB NIL=
201206190600 METAR MRLB NIL=
201206190700 METAR MRLB NIL=
201206190800 METAR MRLB NIL=
201206190900 METAR MRLB NIL=
201206191000 METAR MRLB NIL=
201206191100 METAR MRLB NIL=
201206191200 METAR MRLB 191200Z 00000KT CAVOK 23/22 A2984=
201206191300 METAR MRLB 191300Z 13002KT 9999 1000S FG FEW002 SCT005 23/22 A2986=
201206191400 METAR MRLB 191400Z 17002KT 9999 SCT008 25/24 A2988=
201206191500 METAR MRLB 191500Z 15002KT 9999 SCT015 27/25 A2989=
201206191600 METAR MRLB 191600Z 09002KT 9999 FEW030 SCT250 29/24 A2990=
201206191700 METAR MRLB 191700Z 18003KT 9999 SCT035 SCT250 30/23 A2990=
201206191800 METAR MRLB 191800Z 22004KT 9999 FEW035 SCT250 30/22 A2989=
201206191900 METAR MRLB 191900Z 27006KT 9999 FEW035 SCT250 31/23 A2986=
201206192000 METAR MRLB 192000Z 29010KT 9999 FEW030 SCT250 31/23 A2984=
201206192100 METAR MRLB 192100Z 27012KT 9999 FEW025 SCT250 29/23 A2983=
201206192200 METAR MRLB 192200Z 26010KT 9999 FEW025 BKN250 28/24 A2981=
201206192300 METAR MRLB 192300Z 28010KT 9999 FEW025 SCT250 29/24 A2982=
201206192351 METAR MRLB 200000Z 28006KT 9999 FEW030 SCT250 28/24 A2982=
201206200000 METAR MRLB 200000Z 28006KT 9999 FEW030 SCT250 28/24 A2982=
201206200100 METAR MRLB 200100Z 27004KT 9999 FEW030 27/24 A2983=
201206200200 METAR MRLB 200200Z 00000KT 9999 FEW035 26/24 A2985=
201206200300 METAR MRLB NIL=
201206200400 METAR MRLB NIL=
201206200500 METAR MRLB NIL=
201206200600 METAR MRLB NIL=
201206200700 METAR MRLB NIL=
201206200800 METAR MRLB NIL=
201206200900 METAR MRLB NIL=
201206201000 METAR MRLB NIL=
201206201100 METAR MRLB NIL=
201206201200 METAR MRLB 201200Z 00000KT CAVOK 23/22 A2986 SCT080=
201206201300 METAR MRLB 201300Z 00000KT CAVOK 24/23 A2987=
201206201400 METAR MRLB 201400Z 05005KT 9999 FEW020 SCT250 27/24 A2988=
201206201500 METAR MRLB 201500Z 34005KT 9999 SCT020 BKN250 28/24 A2989=
201206201600 METAR MRLB 201600Z 27008KT 9999 SCT020 BKN250 30/23 A2990=
201206201700 METAR MRLB 201700Z 28006KT 9999 SCT025 BKN150 30/23 A2990=
201206201800 METAR MRLB 201800Z 28008KT 9999 SCT025 BKN250 31/24 A2988=
201206201823 METAR COR MRLB 201823Z 26006KT 9999 SCT025 31/24 A2986=
201206201900 METAR MRLB 201900Z 27008KT 9999 FEW025 SCT250 31/24 A2985=
201206202000 METAR MRLB 202000Z 26009KT 9999 FEW030 BKN280 31/24 A2984=
201206202100 METAR MRLB 202100Z 27010KT 9999 SCT030 BKN250 30/23 A2983=
201206202200 METAR MRLB 202200Z 28009KT 9999 SCT030 BKN250 30/23 A2982=
201206202300 METAR MRLB 202300Z 28009KT 9999 FEW035 BKN250 29/24 A2981=
201206202353 METAR MRLB 210000Z 27007KT 9999 FEW035 BKN250 28/24 A2982=
201206210000 METAR MRLB 210000Z 27007KT 9999 FEW035 BKN250 28/24 A2982=
201206210100 METAR MRLB 210100Z 28004KT 9999 FEW035 BKN250 27/24 A2982=
201206210200 METAR MRLB 210200Z 32004KT 9999 SCT035 BKN250 26/24 A2985=
201206210300 METAR MRLB NIL=
201206210400 METAR MRLB NIL=
201206210500 METAR MRLB NIL=
201206210600 METAR MRLB NIL=
201206210700 METAR MRLB NIL=
201206210800 METAR MRLB NIL=
201206210900 METAR MRLB NIL=
201206211000 METAR MRLB NIL=
201206211100 METAR MRLB NIL=
201206211200 METAR MRLB 211200Z 00000KT CAVOK 24/23 A2983=
201206211300 METAR MRLB 211300Z 03003KT CAVOK 25/23 A2984=
201206211400 METAR MRLB 211400Z 34003KT 9999 FEW030 BKN250 28/25 A2986=
201206211500 METAR MRLB 211500Z 30004KT 9999 SCT035 BKN250 29/24 A2988=
201206211600 METAR MRLB 211600Z 30005KT 9999 SCT030 SCT250 30/24 A2987=
201206211700 METAR MRLB 211700Z 28007KT 9999 SCT030 BKN250 31/24 A2986=
201206211800 METAR MRLB 211800Z 27008KT 9999 SCT035 BKN250 31/24 A2984=
201206211900 METAR MRLB 211900Z 26009KT 9999 FEW035 BKN250 31/24 A2982=
201206212000 METAR MRLB 212000Z 26010KT 9999 FEW025TCU SCT250 31/23 A2979=
201206212100 METAR MRLB 212100Z 26008KT 9999FEW025 SCT120 30/23 A2978=
201206212200 METAR MRLB 212200Z 27009KT 9999 FEW025 SCT130 30/24 A2977=
201206212300 METAR MRLB 212300Z 28008KT 9999 FEW025 SCT130 30/24 A2977=
201206212350 METAR MRLB 220000Z 26007KT CAVOK 29/24 A2978=
201206220000 METAR MRLB 220000Z 26007KT CAVOK 29/24 A2978=
201206220100 METAR MRLB 220100Z 28005KT 9999 FEW030 BKN140 28/24 A2978=
201206220200 METAR MRLB 220200Z 28002KT 9999 FEW030 BKN140 27/24 A2979=
201206220300 METAR MRLB NIL=
201206220400 METAR MRLB NIL=
201206220500 METAR MRLB NIL=
201206220600 METAR MRLB NIL=
201206220700 METAR MRLB NIL=
201206220800 METAR MRLB NIL=
201206220900 METAR MRLB NIL=
201206221000 METAR MRLB NIL=
201206221100 METAR MRLB NIL=
201206221200 METAR MRLB 221200Z 07004KT 9999 FEW005 OVC250 23/22 A2978=
201206221300 METAR MRLB 221300Z 12003KT 9999 SCT010 SCT250 23/22 A2982=
201206221400 METAR MRLB 221400Z 07003KT 9999 FEW015 OVC250 26/24 A2983=
201206221500 METAR MRLB 221500Z 12003KT 9999 FEW030 OVC250 28/24 A2985=
201206221600 METAR MRLB 221600Z 15004KT 9999 FEW030 BKN250 29/24 A2986=
201206221700 METAR MRLB 221700Z 10002KT 9999 SCT030 SCT250 30/24 A2985=
201206221800 METAR MRLB 221800Z 9999 FEW030 SCT140 BKN250 31/24 A2984=
201206221900 METAR MRLB 221900Z 19004KT 9999 SCT030 BKN250 32/24 A2982=
201206222000 METAR MRLB 222000Z 27011KT 9999 SCT025TCU BKN140 30/23 A2980=
201206222100 METAR MRLB 222100Z 13008KT 1000 TSRA SCT010CB BKN020 22/20 A2980=
201206222200 METAR MRLB 222200Z 03008KT 9999 SCT020 BKN100 24/23 A2979 RETSRA=
201206222300 METAR MRLB 222300Z 03004KT 9999 FEW030 BKN140 24/23 A2980=
201206222350 METAR MRLB 230000Z 10003KT 9999 FEW035 SCT120 24723 A2980=
201206230000 METAR MRLB 230000Z 10003KT 9999 FEW035 SCT120 24723 A2980=
201206230100 METAR MRLB 230100Z 19003KT 9999 FEW020 BKN100 24/23 A2982=
201206230200 METAR MRLB 230200Z 12003KT 9999 FEW020 BKN120 24/23 A2984=
201206230300 METAR MRLB NIL=
201206230400 METAR MRLB NIL=
201206230500 METAR MRLB NIL=
201206230600 METAR MRLB NIL=
201206230700 METAR MRLB NIL=
201206230800 METAR MRLB NIL=
201206230900 METAR MRLB NIL=
201206231000 METAR MRLB NIL=
201206231100 METAR MRLB NIL=
201206231200 METAR MRLB 231200Z 00000KT 0500 FG VV/// 22/22 A2986=
201206231300 METAR MRLB 231300Z 00000KT 9999 2000W FG FEW004 25/22 A2988=
201206231400 METAR MRLB 231400Z 00000KT 9999 FEW008 SCT250 27/23 A2988=
201206231500 METAR MRLB 231500Z 17004KT 9999 FEW010 SCT250 28/24 A2988=
201206231600 METAR MRLB 231600Z 18003KT 9999 SCT015 BKN250 29/24 A2989=
201206231700 METAR MRLB 231700Z 18005KT 9999 SCT018 BKN250 30/22 A2988=
201206231800 METAR MRLB 231800Z 22005KT 9999 SCT020 BKN250 31/22 A2985=
201206231900 METAR MRLB 231900Z 28008KT 9999 SCT020TCU BKN250 31/23 A2985=
201206232000 METAR MRLB 232000Z 23008KT 8000 TSRA SCT012CB BKN120 26/23 A2984=
201206232100 METAR MRLB 232100Z 27009KT 9999 SCT025 BKN120 27/24 A2981 RETSRA=
201206232200 METAR MRLB 232200Z 28005KT 9999 SCT030 BKN120 26/23 A2983=
201206232300 METAR MRLB 232300Z 29003KT 9999 FEW030 BKN130 26/23 A2986=
201206232350 METAR MRLB 240000Z 32004KT 9999 FEW035 BKN130 26/23 A2986=
201206240000 METAR MRLB 240000Z 32004KT 9999 FEW035 BKN130 26/23 A2986=
201206240100 METAR MRLB 240100Z 03003KT 9999 SCT035 BKN130 25/23 A2988=
201206240200 METAR MRLB 240200Z 03004KT 9999 -DZ SCT030 BKN120 25/23 A2988=
201206240300 METAR MRLB NIL=
201206240400 METAR MRLB NIL=
201206240500 METAR MRLB NIL=
201206240600 METAR MRLB NIL=
201206240700 METAR MRLB NIL=
201206240800 METAR MRLB NIL=
201206240900 METAR MRLB NIL=
201206241000 METAR MRLB NIL=
201206241100 METAR MRLB NIL=
201206241200 METAR MRLB 241200Z 00000KT 0400 FG VV/// 22/21 A2987=
201206241300 METAR MRLB 241300Z 00000KT 9999 FEW030 BKN250 24/22 A2989=
201206241400 METAR MRLB 241400Z 32003KT CAVOK 27/22 A2990=
201206241500 METAR MRLB 241500Z 25003KT 9999 FEW035 SCT250 28/24 A2988=
201206241600 METAR MRLB 241600Z 26005KT 9999 SCT035 SCT250 29/23 A2988=
201206241700 METAR MRLB 241700Z 24004KT 9999 SCT035 SCT250 30/23 A2988=
201206241800 METAR MRLB 241800Z 25004KT 9999 SCT035 BKN250 31/23 A2987=
201206241900 METAR MRLB 241900Z 28005KT 9999 SCT035 BKN250 31/23 A2985=
201206242000 METAR MRLB 242000Z 27006KT 9999 SCT035 SCT250 31/23 A2981=
201206242100 METAR MRLB 242100Z 28008KT 9999 SCT030 BKN250 31/24 A2979=
201206242200 METAR MRLB 242200Z 30007KT 9999 FEW025 SCT120 BKN250 29/24 A2979=
201206242205 METAR MRLB 242205Z 29007KT 9999 -TS FEW020CB SCT120 BKN250 29/24 A2979=
201206242300 METAR MRLB 242300Z 30003KT 9999 FEW030 SCT120 BKN250 28/24 A2981=
201206242350 METAR MRLB 250000Z 30003KT CAVOK 28/24 A2982=
201206250000 METAR MRLB 250000Z 30003KT CAVOK 28/24 A2982=
201206250100 METAR MRLB 250100Z 34002KT CAVOK 27/24 A2984=
201206250200 METAR MRLB 250200Z 31002KT CAVOK 27/24 A2985=
201206250300 METAR MRLB NIL=
201206250400 METAR MRLB NIL=
201206250500 METAR MRLB NIL=
201206250600 METAR MRLB NIL=
201206250700 METAR MRLB NIL=
201206250800 METAR MRLB NIL=
201206250900 METAR MRLB NIL=
201206251000 METAR MRLB NIL=
201206251100 METAR MRLB NIL=
201206251200 METAR MRLB 251200Z 08002KT 9999 FEW030 BKN250 23/22 A2985=
201206251300 METAR MRLB 251300Z 0702KT CAVOK 26/23 A2985=
201206251400 METAR MRLB 251400Z 08002KT CAVOK 29/24 A2984=
201206251500 METAR MRLB 251500Z 12002KT 9999 FEW030 OVC250 30/24 A2982=
201206251600 METAR MRLB 251600Z 07003KT 9999 SCT030 BKN250 31/22 A2979=
201206251700 METAR COR MRLB 251700Z 33004KT 9999 SCT030 BKN250 32/22 A2978=
201206251701 METAR MRLB 251701Z 33004KT 9999 SCT030 BKN250 32/22 A2978=
201206251800 METAR MRLB 251800Z 30006KT 9999 SCT030 BKN250 32/23 A2976=
201206251900 METAR MRLB 251900Z 30008KT 9999 SCT030 BKN250 31/23 A2975=
201206252000 METAR MRLB 252000Z 30008KT 9999 SCT030 BKN250 31/23 A2974=
201206252100 METAR MRLB 252100Z 29010KT 9999 FEW030 SCT250 31/23 A2973=
201206252200 METAR MRLB 252200Z 29010KT 9999 FEW030 SCT250 31/22 A2973=
201206252300 METAR MRLB 252300Z 19011KT 9999 VCSH SCT025TCU BKN150 25/21 A2977=
201206260000 METAR MRLB 260000Z 07003KT 9999 SCT030CB BKN150 25/21 A2980=
201206260100 METAR MRLB 260100Z 08003KT 9999 SCT025CB BKN140 25/21 A2982=
201206260200 METAR MRLB 260200Z 08004KT 9999 SCT020CB BKN120 25/21 A2983 LTNG W=
201206260300 METAR MRLB NIL=
201206260400 METAR MRLB NIL=
201206260500 METAR MRLB NIL=
201206260600 METAR MRLB NIL=
201206260700 METAR MRLB NIL=
201206260800 METAR MRLB NIL=
201206260900 METAR MRLB NIL=
201206261000 METAR MRLB NIL=
201206261100 METAR MRLB NIL=
201206261200 METAR MRLB 261200Z 00000KT 9999 FEW030 SCT120 23/22 A2991=
201206261300 METAR MRLB 261300Z 10004KT 9999 FEW030 SCT250 26/23 A2992=
201206261400 METAR MRLB 261400Z 16004KT 9999 FEW030 SCT250 26/24 A2993=
201206261500 METAR MRLB 261500Z 09006KT 9999 FEW025 SCT250 28/24 A2993=
201206261600 METAR MRLB 261600Z 11008KT 9999 SCT025 BKN250 30/24 A2988=
201206261700 METAR MRLB 261700Z 15008KT 9999 SCT025 BKN250 30/24 A2988=
201206261800 METAR MRLB 261800Z 15005KT 9999 SCT025 BKN250 31/24 2985=
201206261900 METAR MRLB 261900Z 18006KT 9999 SCT025TCU BKN250 32/23 A2984=
201206262000 METAR MRLB 262000Z 16005KT 9999 FEW025TCU SCT035 BKN250 32/22 A2981=
201206262100 METAR MRLB 262100Z 17005KT 9999 FEW020TCU SCT030 BKN140 29/23 A2981=
201206262200 METAR MRLB 262200Z 10003KT 9999 SCT025 BKN140 28/23 A2982=
201206262300 METAR MRLB 262300Z 03003KT 9999 SCT030 BKN140 26/22 A2984=
201206262353 METAR MRLB 270000Z 03006KT 9999 FEW035 BKN140 25/22 A2986=
201206270000 METAR MRLB 270000Z 03006KT 9999 FEW035 BKN140 25/22 A2986=
201206270100 METAR MRLB 270100Z 06004KT 9999 -DZ SCT030 BKN130 25/23 A2989=
201206270200 METAR MRLB 270200Z 12003KT 9999 SCT025 BKN120 25/23 A2990=
201206270300 METAR MRLB NIL=
201206270400 METAR MRLB NIL=
201206270500 METAR MRLB NIL=
201206270600 METAR MRLB NIL=
201206270700 METAR MRLB NIL=
201206270800 METAR MRLB NIL=
201206270900 METAR MRLB NIL=
201206271000 METAR MRLB NIL=
201206271100 METAR MRLB NIL=
201206271200 METAR MRLB 271200Z 00000KT 9999 FEW025 BKN140 23/22 A2991=
201206271300 METAR MRLB 271300Z 00000KT 9999 FEW035 BKN250 25/23 A2993=
201206271400 METAR MRLB 271400Z 18003KT 9999 FEW035 BKN250 27/24 A2994=
201206271500 METAR MRLB 271500Z 22004KT 9999 SCT035 BKN250 28/24 A2996=
201206271600 METAR MRLB 271600Z 18003KT 9999 SCT030 BKN250 28/24 A2996=
201206271700 METAR MRLB 271700Z 14003KT 9999 SCT030 BKN230 29/24 A2995=
201206271800 METAR MRLB 271800Z 13003KT 9999 SCT030 BKN230 30/23 A2993=
201206271900 METAR MRLB 271900Z 25003KT 9999 SCT025 BKN230 31/23 A2991=
201206272000 METAR MRLB 272000Z 28003KT 9999 FEW030 OVC250 31/23 A2988=
201206272100 METAR MRLB 272100Z 28006KT 9999 BKN025 SCT250 31/23 A2987=
201206272200 METAR MRLB 272200Z 27012KT 9999 -TS VCSH FEW010CB SCT020 SCT120 31/23 A2986=
201206272300 METAR MRLB 272300Z 07004KT 9999 -RA SCT020 BKN120 25/23 A2989 RERA=
201206272349 METAR MRLB 280000Z 25002KT 9999 FEW020 SCT120 25/24 A2988=
201206280000 METAR MRLB 280000Z 25002KT 9999 FEW020 SCT120 25/24 A2988=
201206280100 METAR MRLB 280100Z 05003KT CAVOK 24/23 A2990=
201206280200 METAR MRLB 280200Z 10003KT CAVOK 24/23 A2993=
201206280300 METAR MRLB NIL=
201206280400 METAR MRLB NIL=
201206280500 METAR MRLB NIL=
201206280600 METAR MRLB NIL=
201206280700 METAR MRLB NIL=
201206280800 METAR MRLB NIL=
201206280900 METAR MRLB NIL=
201206281000 METAR MRLB NIL=
201206281100 METAR MRLB NIL=
201206281200 METAR MRLB 281200Z 00000KT 9999 FEW005 SCT250 23/22 A2992=
201206281300 METAR MRLB 281300Z 10005KT 9999 FEW005 SCT250 26/23 A2994=
201206281400 METAR MRLB 281400Z 10007KT CAVOK 28/23 A2995=
201206281500 METAR MRLB 281500Z 03009KT 9999 FEW025 SCT250 29/24 A2995=
201206281600 METAR MRLB 281600Z 06010KT 9999 FEW030 BKN250 31/22 A2994=
201206281700 METAR MRLB 281700Z 07010KT 9999 FEW030 BKN250 32/21 A2992=
201206281800 METAR MRLB 281800Z 05011KT 9999 FEW035 BKN250 32/21 A2991=
201206281900 METAR MRLB 281900Z 06011KT 9999 FEW035 BKN250 33/22 A2989=
201206282000 METAR MRLB 282000Z 04010KT 9999 FEW035 BKN250 33/22 A2987=
201206282100 METAR MRLB 282100Z 05014KT 9999 FEW030 SCT100 BKN250 32/21 A2987=
201206282200 METAR MRLB 282200Z 06012KT 9999 FEW030 SCT250 31/21 A2985=
201206282300 METAR MRLB 282300Z 07010KT 9999 FEW035 SCT100 BKN250 30/21 A2986=
201206290000 METAR MRLB 290000Z 08010KT CAVOK 28/21 A2987=
201206290100 METAR MRLB 290100Z 07012KT CAVOK 28/21 A2988=
201206290200 METAR MRLB 290200Z 09006KT CAVOK 27/21 A2990=
201206290300 METAR MRLB NIL=
201206290400 METAR MRLB NIL=
201206290500 METAR MRLB NIL=
201206290600 METAR MRLB NIL=
201206290700 METAR MRLB NIL=
201206290800 METAR MRLB NIL=
201206290900 METAR MRLB NIL=
201206291000 METAR MRLB NIL=
201206291100 METAR MRLB NIL=
201206291200 METAR MRLB 291200Z 28003KT 9999 SCT030 BKN100 22/20 A2985 RERA=
201206291300 METAR MRLB 291300Z 01008KT 9999 FEW035 BKN120 23/20 A2986=
201206291400 METAR MRLB 291400Z 00000KT CAVOK 26/22 A2987=
201206291500 METAR MRLB NIL=
201206291600 METAR MRLB 291600Z 07010KT CAVOK 29/21 A2989=
201206291700 METAR MRLB 291700Z 09007KT CAVOK 30/20 A2989=
201206291800 METAR MRLB 291800Z 10012KT 9999 FEW025 SCT140 30/19 A2985=
201206291900 METAR COR MRLB 291900Z 10012KT 9999 FEW025 SCT140 30/19 A2985=
201206292000 METAR MRLB 292000Z 04009KT 9999 FEW025 SCT140 31/20 A2984=
201206292100 METAR MRLB 292100Z 03009KT 9999 FEW035 SCT140 31/21 A2981=
201206292200 METAR MRLB 292200Z 05011KT 9999 SCT035 SCT140 31/21 A2981=
201206292300 METAR MRLB 292300Z 05010KT 9999 SCT035 BKN140 30/21 A2983=
201206300000 METAR MRLB 300000Z 09007KT 9999 SCT030 BKN130 28/20 A2985=
201206300100 METAR MRLB 300100Z 14005KT 9999 -RA SCT025 BKN120 23/21 A2988=
201206300200 METAR MRLB 300200Z 14006KT 9999 -RA SCT020 BKN100 22/21 A2991=
201206300300 METAR MRLB NIL=
201206300400 METAR MRLB NIL=
201206300500 METAR MRLB NIL=
201206300600 METAR MRLB NIL=
201206300700 METAR MRLB NIL=
201206300800 METAR MRLB NIL=
201206300900 METAR MRLB NIL=
201206301000 METAR MRLB NIL=
201206301100 METAR MRLB NIL=
201206301200 METAR MRLB 301200Z 18006KT 9999 FEW025 BKN130 23/21 A2982=
201206301300 METAR MRLB 301300Z 06007KT 9999 FEW035 BKN130 24/22 A2985=
201206301400 METAR MRLB 301400Z 14003KT 9999 FEW035 BKN140 27/23 A2988=
201206301500 METAR MRLB 301500Z 10008KT 9999 FEW035 BKN250 29/21 A2989=
201206301600 METAR MRLB 301600Z 12006KT 9999 FEW035 BKN250 30/22 A2989=
201206301700 METAR MRLB 301700Z 10007KT 9999 FEW035 BKN250 31/21 A2987=
201206301800 METAR MRLB 301800Z 07008KT 9999 FEW035 BKN250 31/21 A2985=
201206301900 METAR MRLB 301900Z 10009KT 9999 SCT035 BKN250 31/20 A2983=
201206302000 METAR MRLB 302000Z 10010KT 9999 SCT030 BKN240 32/21 A2982=
201206302100 METAR MRLB 302100Z 07006KT 9999 SCT035 BKN250 32/21 A2981=
201206302200 METAR MRLB 302200Z 14002KT 9999 SCT030 SCT120 31/21 A2980=
201206302300 METAR MRLB 302300Z 29008KT 9999 -RA VCTS FEW015TCU BKN025 28/23 A2981=
201206302350 METAR MRLB 010000Z 28005KT 9999 VCSH BKN020 SCT120 26/22 A2985=
201206302356 METAR MRLB 010000Z 28005KT 9999 VCSH BKN020 SCT120 26/22 A2985=
201206302359 METAR MRLB 010000Z 28005KT 9999 VCSH BKN020 SCT120 26/22 A2985=
201207010000 METAR MRLB 010000Z 28005KT 9999 VCSH BKN020 SCT120 26/22 A2985=
201207010101 METAR MRLB 010101Z 22005KT 9999 VCTS SCT020 BKN120 25/22 A2987=
201207010200 METAR MRLB 010200Z 22005KT 9999 VCTS SCT020 BKN120 25/22 A2987=
201207010300 METAR MRLB NIL=
201207010400 METAR MRLB NIL=
201207010500 METAR MRLB NIL=
201207010600 METAR MRLB NIL=
201207010700 METAR MRLB NIL=
201207010800 METAR MRLB NIL=
201207010900 METAR MRLB NIL=
201207011000 METAR MRLB NIL=
201207011100 METAR MRLB NIL=
201207011200 METAR MRLB 011200Z 02003KT 9999 FEW035 BKN250 22/21 A2986=
201207011300 METAR MRLB 011300Z 04004KT 9999 FEW035 BKN250 25/23 A2988=
201207011400 METAR MRLB 011400Z 09003 CAVOK 28/23 A2988=
201207011500 METAR MRLB 011500Z 11006KT 9999 FEW035 BKN250 28/23 A2989=
201207011600 METAR MRLB 011600Z 12009KT 9999 FEW040 BKN250 30/22 A2990=
201207011700 METAR MRLB 011700Z 11007KT 9999 FEW040 BKN250 31/22 A2991=
201207011800 METAR MRLB 011800Z 09010KT 9999 SCT030 SCT250 30/21 A2989=
201207011900 METAR MRLB 011900Z 09011KT 9999 FEW035 SCT130 BKN250 30/21 A2986=
201207012000 METAR MRLB 012000Z 08009KT 9999 FEW035 BKN130 30/21 A2985=
201207012100 METAR MRLB 012100Z 11010KT CAVOK 28/20 A2983=
201207012200 METAR MRLB 012200Z 10008KT CAVOK 28/20 A2980=
201207012300 METAR MRLB 012300Z 09005KT CAVOK 28/20 A2980=
201207012355 METAR MRLB 020000Z 00000KT CAVOK 27/22 A2981=
201207020000 METAR MRLB 020000Z 00000KT CAVOK 27/22 A2981=
201207020100 METAR MRLB 020100Z 07003KT 9999 FEW040 SCT100 26/21 A2983=
201207020200 METAR MRLB NIL=
201207020300 METAR MRLB NIL=
201207020400 METAR MRLB NIL=
201207020500 METAR MRLB NIL=
201207020600 METAR MRLB NIL=
201207020700 METAR MRLB NIL=
201207020800 METAR MRLB NIL=
201207020900 METAR MRLB NIL=
201207021000 METAR MRLB NIL=
201207021100 METAR MRLB NIL=
201207021200 METAR MRLB 021200Z 00000KT CAVOK 23/20 A2983=
201207021300 METAR MRLB 021300Z 00000KT CAVOK 27/22 A2984=
201207021400 METAR MRLB 021400Z 08010G20KT CAVOK 29/21 A2985=
201207021500 METAR MRLB 021500Z 06018KT CAVOK 30/21 A2986=
201207021600 METAR MRLB 021600Z 07012KT 9999 FEW030 SCT250 30/20 A2988=
201207021700 METAR MRLB 021700Z 06012KT 9999 FEW030 SCT240 32/21 A2989=
201207021800 METAR MRLB 021800Z 06010KT 9999 SCT030 BKN250 31/21 A2985=
201207021900 METAR MRLB 021900Z 08006KT 9999 SCT035 BKN250 31/21 A2983=
201207022000 METAR MRLB 022000Z 07006KT 9999 SCT035 BKN250 32/22 A2980=
201207022100 METAR MRLB 022100Z 06010KT 9999 FEW035 BKN250 32/21 A2979=
201207022200 METAR MRLB 022200Z 06011KT 9999 SCT035 BKN240 31/21 A2978=
201207022300 METAR MRLB 022300Z 09008KT 9999 SCT035 BKN240 29/21 A2978=
201207022352 METAR MRLB 030000Z 10010KT 9999 SCT035 BKN140 28/20 A2980=
201207030000 METAR MRLB 030000Z 10010KT 9999 SCT035 BKN140 28/20 A2980=
201207030100 METAR MRLB 030100Z 08014KT 9999 SCT035 BKN140 28/19 A2983=
201207030200 METAR MRLB 030200Z 06008KT 9999 SCT035 BKN140 27/20 A2985=
201207030300 METAR MRLB NIL=
201207030400 METAR MRLB NIL=
201207030500 METAR MRLB NIL=
201207030600 METAR MRLB NIL=
201207030700 METAR MRLB NIL=
201207030800 METAR MRLB NIL=
201207030900 METAR MRLB NIL=
201207031000 METAR MRLB NIL=
201207031100 METAR MRLB NIL=
201207031200 METAR MRLB 031200Z 26007KT CAVOK 23/21 A2979=
201207031300 METAR MRLB 031300Z 15004KT CAVOK 25/22 A2983=
201207031400 METAR MRLB 031400Z 06010KT CAVOK 29/22 A2983=
201207031500 METAR MRLB 031500Z 12004KT 9999 FEW035 BKN250 30/22 A2984=
201207031600 METAR MRLB 031600Z 08016KT 9999 FEW035 SCT250 31/21 A2982=
201207031700 METAR MRLB 031700Z 08015KT 9999 FEW035 SCT250 31/21 A2981=
201207031800 METAR MRLB 031800Z 07017KT 9999 FEW035 SCT250 32/21 A2980=
201207031900 METAR MRLB 031900Z 07018KT 9999 SCT035 BKN250 32/21 A2978=
201207032000 METAR MRLB 032000Z 07017KT 9999 FEW035 OVC250 32/21 A2977=
201207032100 METAR MRLB 032100Z 06017KT 9999 FEW035 BKN250 31/21 A2975=
201207032200 METAR MRLB 032200Z 05015KT 9999 FEW035 OVC250 31/21 A2976=
201207032300 METAR MRLB 032300Z 06016KT 9999 FEW035 BKN250 30/21 A2978=
201207032348 METAR MRLB 040000Z 05011KT 9999 FEW035 SCT130 BKN250 29/21 A2979=
201207040000 METAR MRLB 040000Z 05011KT 9999 FEW035 SCT130 BKN250 29/21 A2979=
201207040100 METAR MRLB 040100Z 08008KT 9999 FEW035 SCT130 BKN250 28/21 A2981=
201207040200 METAR MRLB 040200Z 10005KT 9999 FEW035 BKN250 27/21 A2984=
201207040300 METAR MRLB NIL=
201207040400 METAR MRLB NIL=
201207040500 METAR MRLB NIL=
201207040600 METAR MRLB NIL=
201207040700 METAR MRLB NIL=
201207040800 METAR MRLB NIL=
201207040900 METAR MRLB NIL=
201207041000 METAR MRLB NIL=
201207041100 METAR MRLB NIL=
201207041200 METAR MRLB 041200Z 27003KT 9999 -RA SCT030 BKN120 24/22 A2984=
201207041300 METAR MRLB 041300Z 11002KT 9999 -RA FEW030 OVC120 24/23 A2983=
201207041400 METAR MRLB 041400Z 23003KT -RA OVC120 24/22 A2981=
201207041500 METAR MRLB 041500Z 22005KT 9999 FEW030 OVC120 25/22 A2983=
201207041600 METAR MRLB 041600Z 15004KT CAVOK 27/22 A2983=
201207041700 METAR MRLB 041700Z 11004KT 9999 FEW030 OVC120 28/22 A2984=
201207041800 METAR MRLB 041800Z 04007KT 9999 FEW030 BKN120 29/23 A2984=
201207041900 METAR MRLB 041900Z 03009KT 9999 FEW030 BKN120 31/23 A2981=
201207042000 METAR MRLB 042000Z 05011KT 9999 FEW030 BKN120 31/22 A2979=
201207042100 METAR MRLB 042100Z 09006KT 9999 FEW030 BKN140 30/22 A2977=
201207042200 METAR MRLB 042200Z 07006KT 9999 FEW035 SCT150 30/21 A2978=
201207042251 METAR MRLB 0422300Z 11005KT 9999 FEW025TCU SCT250 29/22 A2977=
201207042300 METAR MRLB 0422300Z 11005KT 9999 FEW025TCU SCT250 29/22 A2977=
201207042354 METAR MRLB 050000Z 09004KT 9999 FEW030 SCT140 28/22 A2978=
201207050000 METAR MRLB 050000Z 09004KT 9999 FEW030 SCT140 28/22 A2978=
201207050100 METAR MRLB 050100Z 18004KT 9999 FEW030 SCT120 27/22 A2982=
201207050200 METAR MRLB 050200Z 15003KT 9999 FEW030 SCT140 26/23 A2984=
201207050300 METAR MRLB NIL=
201207050400 METAR MRLB NIL=
201207050500 METAR MRLB NIL=
201207050600 METAR MRLB NIL=
201207050700 METAR MRLB NIL=
201207050800 METAR MRLB NIL=
201207050900 METAR MRLB NIL=
201207051000 METAR MRLB NIL=
201207051100 METAR MRLB NIL=
201207051200 METAR MRLB 051200Z 17005KT CAVOK 22/21 A2981=
201207051300 METAR MRLB 051300Z 16006KT CAVOK 24/22 A2982=
201207051400 METAR MRLB NIL=
201207051500 METAR MRLB 051500Z 29006KT 9999 FEW025 SCT250 30/23 A2982=
201207051600 METAR MRLB 051600Z 29006KT 9999 FEW025 SCT250 30/23 A2982=
201207051700 METAR MRLB 051700Z 25006KT 9999 FEW025 BKN250 31/22 A2980=
201207051800 METAR MRLB 051800Z 28006KT 9999 SCT030 BKN250 30/22 A2978=
201207051900 METAR MRLB 051900Z 11010KT 9999 SCT030 BKN150 31/22 A2977=
201207052000 METAR MRLB 052000Z 12004KT 9999 SCT030 BKN140 31/21 A2977=
201207052100 METAR MRLB 052100Z 08016KT 9999 FEW030 BKN140 30/20 A2977=
201207052200 METAR MRLB 052200Z 06015KT 9999 FEW035 BKN140 29/20 A2978=
201207052300 METAR MRLB 052300Z 27003KT 9999 FEW035 BKN140 29/21 A2978=
201207052350 METAR MRLB 060000Z 16005KT 9999 SCT030 BKN130 27/21 A2980=
201207060000 METAR MRLB 060000Z 16005KT 9999 SCT030 BKN130 27/21 A2980=
201207060100 METAR MRLB 060100Z 09008KT 9999 SCT030 BKN120 26/20 A2983=
201207060200 METAR MRLB 060200Z 12008KT 9999 SCT030 BKN120 24/20 A2982=
201207060300 METAR MRLB NIL=
201207060400 METAR MRLB NIL=
201207060500 METAR MRLB NIL=
201207060600 METAR MRLB NIL=
201207060700 METAR MRLB NIL=
201207060800 METAR MRLB NIL=
201207060900 METAR MRLB NIL=
201207061000 METAR MRLB NIL=
201207061100 METAR MRLB NIL=
201207061200 METAR MRLB 061200Z 03004KT 9999 FEW030 BKN130 22/20 A2981=
201207061300 METAR MRLB 061300Z 03004KT 9999 FEW030 BKN130 22/20 A2982=
201207061400 METAR MRLB 061400Z 15003KT 9999 FEW035 BKN130 25/22 A2983=
201207061500 METAR MRLB 061500Z 28003KT 9999 FEW035 BKN140 28/22 A2984=
201207061600 METAR MRLB 061600Z 10008KT 9999 FEW035 BKN140 28/22 A2983=
201207061700 METAR MRLB 061700Z 08015KT 9999 FEW035 BKN140 30/22 A2983=
201207061800 METAR MRLB 061800Z 08012KT 9999 FEW035 BKN140 29/21 A2982=
201207061900 METAR MRLB 061900Z 10010KT 9999 FEW035 BKN140 30/21 A2980=
201207062000 METAR MRLB 062000Z 11007KT 9999 FEW035 BKN140 31/21 A2978=
201207062100 METAR MRLB 062100Z 11009KT 9999 SCT035 BKN140 30/20 A2978=
201207062200 METAR MRLB 062200Z 10006KT 9999 FEW035 BKN140 30/20 A2977=
201207062300 METAR MRLB 062300Z 07008KT 9999 SCT035 BKN140 29/20 A2977=
201207062347 METAR MRLB 070000Z 28003KT 9999 SCT035 BKN140 28/21 A2979=
201207070000 METAR MRLB 070000Z 28003KT 9999 SCT035 BKN140 28/21 A2979=
201207070100 METAR MRLB 070100Z 10004KT 9999 FEW035 BKN130 27/21 A2981=
201207070200 METAR MRLB 070200Z 14003KT 9999 FEW035 BKN130 26/21 A2983=
201207070300 METAR MRLB NIL=
201207070400 METAR MRLB NIL=
201207070500 METAR MRLB NIL=
201207070600 METAR MRLB NIL=
201207070700 METAR MRLB NIL=
201207070800 METAR MRLB NIL=
201207070900 METAR MRLB NIL=
201207071000 METAR MRLB NIL=
201207071100 METAR MRLB NIL=
201207071200 METAR MRLB 071200Z 00000KT CAVOK 23/21 A2980=
201207071300 METAR MRLB 071300Z 05002KT CAVOK 25/22 A2981=
201207071400 METAR MRLB 071400Z 29002KT CAVOK 26/22 A2981=
201207071500 METAR MRLB 071500Z 21002KT CAVOK 29/23 A2982=
201207071600 METAR MRLB 071600Z 12006KT 9999 FEW040 SCT140 30/22 A2982=
201207071700 METAR MRLB 071700Z 12007KT 9999 FEW040 SCT250 31/21 A2982=
201207071800 METAR MRLB 071800Z 09004KT 9999 SCT040 BKN250 32/21 A2982=
201207071900 METAR MRLB 071900Z 11007KT 9999 BKN035 SCT250 31/21 A2981=
201207072000 METAR MRLB 072000Z 28007KT 9999 SCT030TCU BKN150 29/22 A2979=
201207072100 METAR MRLB 072100Z 25008KT 9999 SCT030TCU BKN140 30/22 A2978=
201207072200 METAR MRLB 072200Z 26006KT 9999 FEW030 SCT220 30/22 A2977=
201207072300 METAR MRLB 072300Z 20005KT 9999 FEW025 BKN140 28/22 A2979=
201207072353 METAR MRLB 080000Z 18005KT 9999 FEW035 BKN120 26/23 A2981=
201207080000 METAR MRLB 080000Z 18005KT 9999 FEW035 BKN120 26/23 A2981=
201207080100 METAR MRLB 080100Z 17005KT 9999 FEW035 SCT120 25/23 A2981=
201207080200 METAR MRLB 080200Z 00000KT 9999 FEW030 BKN120 25/22 A2982=
201207080300 METAR MRLB NIL=
201207080400 METAR MRLB NIL=
201207080500 METAR MRLB NIL=
201207080600 METAR MRLB NIL=
201207080700 METAR MRLB NIL=
201207080800 METAR MRLB NIL=
201207080900 METAR MRLB NIL=
201207081000 METAR MRLB NIL=
201207081100 METAR MRLB NIL=
201207081200 METAR MRLB 081200Z 00000KT 9999 FEW040 SCT250 23/22 A2981=
201207081300 METAR MRLB 081300Z 00000KT 9999 FEW035 SCT250 27/23 A2982=
201207081400 METAR MRLB 081400Z 00000KT 9999 FEW030 SCT120 27/23 A2985=
201207081500 METAR MRLB 081500Z 34005KT 9999 FEW030 SCT250 29/23 A2984=
201207081600 METAR MRLB 081600Z 08005KT 9999 SCT025 BKN250 30/23 A2983=
201207081700 METAR MRLB 081700Z 11006KT 9999 SCT025 BKN250 31/23 A2985=
201207081800 METAR MRLB 081800Z 09009KT 9999 SCT025 BKN250 30/23 A2983=
201207081900 METAR MRLB 081900Z 10007KT 9999 FEW025 BKN250 31/23 A2980=
201207082000 METAR MRLB 082000Z 08005KT 9999 SCT025 BKN250 30/22 A2980=
201207082100 METAR MRLB 082100Z 05008KT 9999 SCT030 BKN140 31/22 A2978=
201207082200 METAR MRLB 082200Z 23007KT 9999 SCT025 BKN130 28/23 A2978=
201207082300 METAR MRLB 082300Z 13007KT 9999 2000SW -TSRA FEW008CB SCT020 BKN100 25/23 A2981=
201207082350 METAR MRLB 090000Z 29003KT 9999 -DZ SCT025 BKN100 25/23 A2983 RETSRA=
201207090000 METAR MRLB 090000Z 29003KT 9999 -DZ SCT025 BKN100 25/23 A2983 RETSRA=
201207090100 METAR MRLB 090100Z 00000KT 9999 SCT030 BKN100 24/23 A2983=
201207090200 METAR MRLB 090200Z 24003KT 9999 DZ SCT025 BKN100 24/23 A2984=
201207090300 METAR MRLB NIL=
201207090400 METAR MRLB NIL=
201207090500 METAR MRLB NIL=
201207090600 METAR MRLB NIL=
201207090700 METAR MRLB NIL=
201207090800 METAR MRLB NIL=
201207090900 METAR MRLB NIL=
201207091000 METAR MRLB NIL=
201207091100 METAR MRLB NIL=
201207091200 METAR MRLB 091200Z 05007KT 9999 FEW030 SCT130 25/21 A2979=
201207091300 METAR MRLB 091300Z 06004KT 9999 FEW030 SCT130 24/22 A2981=
201207091400 METAR MRLB 091400Z 08014KT 9999 FEW035 SCT140 28/22 A2979=
201207091500 METAR MRLB 091500Z 07017KT 9999 FEW035 SCT250 29/21 A2979=
201207091600 METAR MRLB 091600Z 08015KT 9999 FEW035 BKN230 29/21 A2978=
201207091700 METAR MRLB 091700Z 08017KT 9999 FEW035 BKN230 30/21 A2979=
201207091800 METAR MRLB 091800Z 07018KT 9999 SCT030 BKN230 30/21 A2981=
201207091900 METAR MRLB 091900Z 07013KT 9999 SCT035 BKN250 31/21 A2980=
201207092000 METAR MRLB 092000Z 08008KT 9999 FEW035 BKN250 31/21 A2979=
201207092100 METAR MRLB 092100Z 10008KT 9999 FEW035 SCT130 BKN250 31/20 A2977=
201207092200 METAR MRLB 092200Z 07009KT 9999 SCT030 BKN120 31/21 A2976=
201207092300 METAR MRLB 092300Z 07013KT 9999 FEW035 BKN140 30/20 A2977=
201207092357 METAR MRLB 100000Z 08013KT 9999 FEW035 BKN140 29/19 A2978=
201207100000 METAR MRLB 100000Z 08013KT 9999 FEW035 BKN140 29/19 A2978=
201207100100 METAR MRLB 100100Z 09008KT 9999 FEW035 BKN130 27/20 A2980=
201207100200 METAR MRLB 100200Z 08009KT 9999 FEW035 BKN130 27/21 A2982=
201207100300 METAR MRLB NIL=
201207100400 METAR MRLB NIL=
201207100500 METAR MRLB NIL=
201207100600 METAR MRLB NIL=
201207100700 METAR MRLB NIL=
201207100800 METAR MRLB NIL=
201207100900 METAR MRLB NIL=
201207101000 METAR MRLB NIL=
201207101100 METAR MRLB NIL=
201207101200 METAR MRLB 101200Z 00000KT 9999 FEW035 OVC250 23/21 A2981=
201207101300 METAR MRLB 101300Z 17002KT 9999 FEW035 SCT140 BKN250 26/23 A2982=
201207101400 METAR MRLB 101400Z 15003KT 9999 FEW035 SCT140 BKN250 28/23 A2983=
201207101500 METAR MRLB 101500Z 23005KT 9999 FEW035 SCT140 BKN250 29/23 A2985=
201207101600 METAR MRLB 101600Z 0601KT 9999 SCT035 BKN250 31/22 A2984=
201207101601 METAR MRLB 101601Z 06011KT 9999 SCT035 BKN250 31/22 A2984=
201207101700 METAR MRLB 101700Z 05010KT 9999 SCT035 BKN250 31/22 A2984=
201207101800 METAR MRLB 101800Z 09005KT 9999 BKN030 SCT250 32/22 A2983=
201207101900 METAR MRLB 101900Z 06008KT 9999 SCT030 BKN120 31/22 A2981=
201207102000 METAR MRLB 102000Z 05009KT 9999 FEW020TCU FEW030 BKN120 30/19 A2980=
201207102100 METAR MRLB 102100Z 13003KT 9999 -RA FEW030 OVC100 29/21 A2980=
201207102200 METAR MRLB 102200Z 22004KT 9999 FEW040 OVC120 27/24 A2981=
201207102300 METAR MRLB 102300Z 23002KT CAVOK 28/24 A2980=
201207102353 METAR MRLB 110000Z 03005KT CAVOK 27/23 A2979=
201207110000 METAR MRLB 110000Z 03005KT CAVOK 27/23 A2979=
201207110100 METAR MRLB 110100Z 15003KT CAVOK 26/23 A2983=
201207110145 METAR MRLB 110200 19003KT CAVOK 25/23 A2984=
201207110200 METAR MRLB 110200Z 19003KT CAVOK 25/23 A2984=
201207110300 METAR MRLB NIL=
201207110400 METAR MRLB NIL=
201207110500 METAR MRLB NIL=
201207110600 METAR MRLB NIL=
201207110700 METAR MRLB NIL=
201207110800 METAR MRLB NIL=
201207110900 METAR MRLB NIL=
201207111000 METAR MRLB NIL=
201207111100 METAR MRLB NIL=
201207111200 METAR MRLB 111200Z 00000KT 0600 FG FEW003 SCT250 22/22 A2979=
201207111300 METAR MRLB 111300Z 21001KT 1000 600W BR SCT004 23/22 A2981=
201207111400 METAR MRLB 111400Z 24003KT 9999 FEW025 SCT250 26/24 A2982=
201207111500 METAR MRLB 111500Z 27003KT 9999 FEW030 SCT250 29/24 A2982=
201207111600 METAR MRLB 111600Z 10004KT 9999 FEW030 31/24 A2982=
201207111700 METAR MRLB 111700Z 06016KT 9999 SCT035 32/22 A2983=
201207111800 METAR MRLB 111800Z 06012KT 9999 BKN030 SCT250 32/22 A2983=
201207111900 METAR COR MRLB 111900Z 07011KT 9999 SCT035 BKN250 30/20 2981=
201207112000 METAR MRLB 112000Z 08008KT 9999 FEW035 SCT140 BKN250 31/21 A2979=
201207112100 METAR MRLB 112100Z 06009KT 9999 FEW035 BKN140 30/22 A2978=
201207112200 METAR MRLB 112200Z 07006KT 9999 FEW035 BKN140 31/21 A2978=
201207112300 METAR MRLB 112300Z 06010KT 9999 FEW035 BKN140 30/21 A2978=
201207112350 METAR MRLB 120000Z 06010KT 9999 FEW035 BKN230 29/21 A2979=
201207120000 METAR MRLB 120000Z 06010KT 9999 FEW035 BKN230 29/21 A2979=
201207120100 METAR MRLB 120100Z 07008KT 9999 FEW035 BKN230 28/21 A2982=
201207120200 METAR MRLB 120200Z 07009KT 9999 SCT035 BKN230 27/21 A2984=
201207120300 METAR MRLB NIL=
201207120400 METAR MRLB NIL=
201207120500 METAR MRLB NIL=
201207120600 METAR MRLB NIL=
201207120700 METAR MRLB NIL=
201207120800 METAR MRLB NIL=
201207120900 METAR MRLB NIL=
201207121000 METAR MRLB NIL=
201207121100 METAR MRLB NIL=
201207121200 METAR MRLB 121200Z 10004KT 9999 SCT030 BKN250 25/21 A2982=
201207121300 METAR MRLB 121300Z 04003KT 9999 FEW035 BKN250 25/22 A2983=
201207121400 METAR MRLB 121400Z 07011KT 9999 FEW035 BKN250 29/22 A2983=
201207121500 METAR MRLB 121500Z 08015KT 9999 FEW035 BKN250 30/21 A2984=
201207121600 METAR MRLB 121600Z 07009KT 9999 FEW035 BKN250 31/21 A2985=
201207121700 METAR MRLB 121700Z 08009KT 9999 FEW035 BKN250 32/21 A2985=
201207121800 METAR MRLB 121800Z 05007KT 9999 FEW035 BKN250 33/20 A2983=
201207121900 METAR MRLB 121900Z 09006KT 9999 SCTO35 BKN250 34/21 A2981=
201207122000 METAR MRLB 122000Z 08011KT 9999 SCT035 BKN250 33/19 A2978=
201207122100 METAR MRLB 122100Z 10008KT 9999 SCT035 BKN250 34/19 A2975=
201207122200 METAR MRLB 122200Z 16007KT 9999 -RA FEW020TCU SCT030 SCT250 33/21 A2976=
201207122210 METAR MRLB 122210Z 17006KT 9999 -TSRA FEW015CB SCT030 31/22 A2978=
201207122220 METAR MRLB 122220Z 27006KT 9999 2000SW -TSRA FEW015CB BKN030 28/21A2979=
201207122300 METAR MRLB 122300Z 21005KT 9999 VCSH SCT020 SCT120 27/22 A2980 RETS=
201207122349 METAR MRLB 130000Z 19002KT 9999 SCT020 BKN120 26/23 A2982=
201207122355 METAR MRLB 130000Z 19002KT 9999 SCT020 BKN120 26/23 A2982=
201207130000 METAR MRLB 130000Z 19002KT 9999 SCT020 BKN120 26/23 A2982=
201207130100 METAR MRLB 130100Z 12003KT 9999 SCT020 BKN120 26/23 A2985=
201207130200 METAR MRLB 130200Z 17004KT 9999 -RA SCT020 BKN120 25/23 A2985=
201207130300 METAR MRLB NIL=
201207130400 METAR MRLB NIL=
201207130500 METAR MRLB NIL=
201207130600 METAR MRLB NIL=
201207130700 METAR MRLB NIL=
201207130800 METAR MRLB NIL=
201207130900 METAR MRLB NIL=
201207131200 METAR MRLB 131200Z 11002KT CAVOK 23/22 A2984=
201207131300 METAR MRLB 131300Z 00000KT 9999 FEW035 SCT140 24/23 A2987=
201207131356 METAR MRLB 131356Z 19002KT 9999 FEW035 BKN250 26/24 A2986=
201207131400 METAR MRLB 131400Z 19002KT 9999 FEW035 BKN250 26/24 A2986=
201207131500 METAR MRLB 131500Z 06004KT 9999 FEW035 BKN250 28/23 A2988=
201207131600 METAR MRLB 131600Z 06008KT 9999 SCT030 SCT120 30/23 A2987=
201207131700 METAR MRLB 131700Z 09007KT 9999 SCT030 BKN250 30/23 A2987=
201207131800 METAR MRLB 131800Z 08009KT 9999 FEW035 BKN250 31/22 A2986=
201207131900 METAR MRLB 131900Z 12005KT 9999 SCT030 SCT140 30/22 A2985=
201207132000 METAR MRLB 132000Z 03009KT 9999 SCT030 BKN150 31/22 A2982=
201207132100 METAR MRLB 132100Z 04010KT 9999 SCT030TCU BKN150 32/23 A2980=
201207132200 METAR MRLB 132200Z 06011KT 9999 SCT025TCU BKN140 30/22 A2979=
201207132300 METAR MRLB 132300Z 16006KT 9999 VCSH SCTO20CB BKN120 26/23 A2982 CB W=
201207132353 METAR MRLB 140000Z 15004KT 9999 FEW020 BKN140 25/22 A2985=
201207140000 METAR MRLB 140000Z 15004KT 9999 FEW020 BKN140 25/22 A2985=
201207140100 METAR MRLB 140100Z 18005KT 9999 FEW025 BKN120 24/23 A2986=
201207140200 METAR MRLB 140200Z 21003KT 9999 FEW025 SCT100 24/23 A2990=
201207140300 METAR MRLB NIL=
201207140400 METAR MRLB NIL=
201207140500 METAR MRLB NIL=
201207140600 METAR MRLB NIL=
201207140700 METAR MRLB NIL=
201207140800 METAR MRLB NIL=
201207140900 METAR MRLB NIL=
201207141000 METAR MRLB NIL=
201207141100 METAR MRLB NIL=
201207141200 METAR MRLB 141200Z 07009KT CAVOK 26/20 A2984=
201207141300 METAR MRLB 141300Z 10006KT CAVOK 27/20 A2986=
201207141400 METAR MRLB 141400Z 08008KT CAVOK 29/20 A2985=
201207141500 METAR MRLB 141500Z 09009KT CAVOK 30/19 A2987=
201207141600 METAR MRLB 141600Z 07012KT CAVOK 31/20 A2987=
201207141700 METAR MRLB 141700Z 10010KT CAVOK 31/20 A2987=
201207141800 METAR MRLB 141800Z 10012KT 9999 FEW030 SCT250 32/20 A2987=
201207141900 METAR MRLB 141900Z 09008KT 9999 FEW030 BKN250 32/19 A2986=
201207142000 METAR MRLB 142000Z 08012KT 9999 FEW030 BKN250 32/19 A2985=
201207142100 METAR MRLB 142100Z 07009KT 9999 FEW035 BKN250 33/19 A2984=
201207142200 METAR MRLB 142200Z 05008KT 9999 SCT035 BKN250 32/19 A2983=
201207142300 METAR MRLB 142300Z 28007KT 9999 SCT035 BKN250 30/22 A2984=
201207142350 METAR MRLB 150000Z 28006KT 9999 SCT035 BKN240 29/23 A2986=
201207150000 METAR MRLB 150000Z 28006KT 9999 SCT035 BKN240 29/23 A2986=
201207150100 METAR MRLB 150100Z 24003KT 9999 SCT030 BKN230 27/23 A2989=
201207150200 METAR MRLB 150200Z 22003KT 9999 SCT030 BKN230 26/23 A2992=
201207150300 METAR MRLB NIL=
201207150400 METAR MRLB NIL=
201207150500 METAR MRLB NIL=
201207150600 METAR MRLB NIL=
201207150700 METAR MRLB NIL=
201207150800 METAR MRLB NIL=
201207150900 METAR MRLB NIL=
201207151000 METAR MRLB NIL=
201207151100 METAR MRLB NIL=
201207151200 METAR MRLB 151200Z 00000KT CAVOK 22/21 A2987=
201207151300 METAR MRLB 151300Z 19003KT CAVOK 24/22 A2990=
201207151400 METAR MRLB 151400Z 18006KT CAVOK 27/22 A2991=
201207151500 METAR MRLB 151500Z 28007KT 9999 FEW035 BKN250 29/23 A2992=
201207151600 METAR MRLB 151600Z 10005KT 9999 FEW035 BKN250 31/22 A2991=
201207151700 METAR MRLB 151700Z 10009KT 9999 FEW035 BKN250 31/22 A2989=
201207151800 METAR MRLB 151800Z 13007KT 9999 SCT035 BKN250 32/22 A2988=
201207151900 METAR MRLB 151900Z 33006KT 9999 SCT030 BKN220 31/22 A2986=
201207152000 METAR MRLB 152000Z 06011KT 9999 SCT030 BKN200 30/22 A2986=
201207152100 METAR MRLB 152100Z 08009KT 9999 FEW030 OVC150 29/22 A2982=
201207152200 METAR MRLB 152200Z 09009KT 9999 FEW030 OVC150 29/20 A2982=
201207152300 METAR MRLB 152300Z 07009KT 9999 FEW030 OVC150 28/20 A2983=
201207152348 METAR MRLB 160000Z 07010KT 9999 FEW030 OVC150 28/20 A2986=
201207160000 METAR MRLB 160000Z 07010KT 9999 FEW030 OVC150 28/20 A2986=
201207160100 METAR MRLB 160100Z 07011KT 9999 FEW030 OVC140 27/20 A2987=
201207160200 METAR MRLB 160200Z 08010KT 9999 FEW030 OVC140 27/21 A2989=
201207160300 METAR MRLB NIL=
201207160400 METAR MRLB NIL=
201207160500 METAR MRLB NIL=
201207160600 METAR MRLB NIL=
201207160700 METAR MRLB NIL=
201207160800 METAR MRLB NIL=
201207160900 METAR MRLB NIL=
201207161000 METAR MRLB NIL=
201207161100 METAR MRLB NIL=
201207161200 METAR MRLB 161200Z 02003KT CAVOK 23/21 A2987=
201207161300 METAR MRLB 161300Z 03004KT CAVOK 24/22 A2987=
201207161400 METAR MRLB 161400Z 21005KT 9999 FEW035 BKN250 27/23 A2988=
201207161500 METAR MRLB 161500Z 13002KT 9999 FEW035 BKN250 30/23 A2989=
201207161600 METAR MRLB 161600Z 06006KT 9999 SCT030 SCT100 31/23 A2989=
201207161700 METAR MRLB 161700Z 08006KT 9999 SCT030 SCT100 30/22 A2988=
201207161800 METAR MRLB 161800Z 05012KT 9999 OVC030 30/22 A2981=
201207161900 METAR MRLB 161900Z 06008KT 9999 SCT030 BKN100 30/22 A2985=
201207162000 METAR MRLB 162000Z 06011KT 9999 FEW030 SCT100 31/22 A2982=
201207162100 METAR MRLB 162100Z 07011KT 9999 FEW030 SCT250 32/22 A2982=
201207162200 METAR MRLB 162200Z 05013KT 9999 FEW030 SCT250 31/20 A2980=
201207162300 METAR MRLB 162300Z 06013KT CAVOK 30/20 A2980=
201207162349 METAR MRLB 170000Z 04008KT CAVOK 29/20 A2981=
201207170000 METAR MRLB 170000Z 04008KT CAVOK 29/20 A2981=
201207170100 METAR MRLB 170100Z 07008KT CAVOK 28/21 A2984=
201207170147 METAR MRLB 070200Z 07007KT CAVOK 27/21 A2985=
201207170200 METAR MRLB NIL=
201207170300 METAR MRLB NIL=
201207170400 METAR MRLB NIL=
201207170500 METAR MRLB NIL=
201207170600 METAR MRLB NIL=
201207170700 METAR MRLB NIL=
201207170800 METAR MRLB NIL=
201207170900 METAR MRLB NIL=
201207171000 METAR MRLB NIL=
201207171100 METAR MRLB NIL=
201207171200 METAR MRLB 171200Z 10007KT CAVOK 24/20 A2983=
201207171300 METAR MRLB 171300Z 08011KT CAVOK 28/20 A2982=
201207171400 METAR MRLB 171400Z 08012KT CAVOK 29/21 A2983=
201207171500 METAR MRLB 171500Z 07015KT CAVOK 30/20 A2984=
201207171600 METAR MRLB 171600Z 06016KT CAVOK 32/20 A2984=
201207171700 METAR MRLB 171700Z 07012KT CAVOK 32/20 A2983=
201207171800 METAR MRLB 171800Z 05013KT CAVOK 33/20 A2981 SCT250=
201207171900 METAR MRLB 171900Z 08017KT CAVOK 33/18 A2981 RMK SCT250=
201207172000 METAR MRLB 172000Z 08012KT CAVOK 34/18 A2978=
201207172100 METAR MRLB 172100Z 08013KT 9999 FEW035 SCT250 34/18 A2976=
201207172200 METAR MRLB 172200Z 05013KT 9999 FEW035 SCT250 34/20 A2975=
201207172300 METAR MRLB 172300Z 06010KT CAVOK 32/20 A2975=
201207172352 METAR MRLB 180000Z 08009KT CAVOK 30/20 A2977=
201207180000 METAR MRLB 180000Z 08009KT CAVOK 30/20 A2977=
201207180100 METAR MRLB 180100Z 08008KT CAVOK 29/21 A2981=
201207180200 METAR MRLB 180200Z 09007KT CAVOK 28/21 A2985=
201207180300 METAR MRLB NIL=
201207180400 METAR MRLB NIL=
201207180500 METAR MRLB NIL=
201207180600 METAR MRLB NIL=
201207180700 METAR MRLB NIL=
201207180800 METAR MRLB NIL=
201207180900 METAR MRLB NIL=
201207181000 METAR MRLB NIL=
201207181100 METAR MRLB NIL=
201207181200 METAR MRLB 181200Z 16004KT 9999 FEW035 BKN250 23/21 A2979=
201207181300 METAR MRLB 181300Z 20005KT 9999 FEW035 BKN220 24/22 A2983=
201207181400 METAR MRLB 181400Z 19003KT 9999 FEW035 BKN220 27/23 A2985=
201207181500 METAR MRLB 181500Z 07008KT 9999 FEW035 BKN240 29/22 A2987=
201207181600 METAR MRLB 181600Z 05006KT 9999 SCT025 BKN130 30/22 A2989=
201207181700 METAR MRLB 181700Z 06008KT 9999 SCT030 BKN140 30/21 A2985=
201207181800 METAR MRLB 181800Z 08007KT 9999 FEW035 BKN140 31/21 A2980=
201207181900 METAR MRLB 181900Z 10011KT 9999 FEW035 SCT130 BKN250 31/21 A2979=
201207182000 METAR MRLB 182000Z 09008KT 9999 FEW035 BKN140 31/21 A2979=
201207182100 METAR MRLB 182100Z 09007KT CAVOK 31/22 A2981=
201207182200 METAR MRLB 182200Z 07010KT 9999 FEW030 OVC130 31/21 A2981=
201207182300 METAR MRLB 182300Z 06006KT 9999 FEW035 OVC130 30/21 A2978=
201207182347 METAR MRLB 190000Z 09004KT 9999 FEW035 OVC130 29/21 A2979=
201207190000 METAR MRLB 190000Z 09004KT 9999 FEW035 OVC130 29/21 A2979=
201207190100 METAR MRLB 190100Z 24003KT 9999 FEW035 OVC130 27/22 A2984=
201207190200 METAR MRLB 190200Z 10004KT 9999 FEW035 OVC130 27/23 A2985=
201207190300 METAR MRLB NIL=
201207190400 METAR MRLB NIL=
201207190500 METAR MRLB NIL=
201207190600 METAR MRLB NIL=
201207190700 METAR MRLB NIL=
201207190800 METAR MRLB NIL=
201207190900 METAR MRLB NIL=
201207191000 METAR MRLB NIL=
201207191100 METAR MRLB NIL=
201207191200 METAR MRLB 191200Z 12002KT 9999 FEW035 OVC130 24/ 21 A2984=
201207191300 METAR MRLB 191300Z 16003KT 9999 FEW035 OVC130 25/22 A2985=
201207191400 METAR MRLB 191400Z 14008KT 9999 SCT030 BKN140 27/22 A2987=
201207191500 METAR MRLB 191500Z 06010KT 9999 BKN030 SCT140 28/22 A2990=
201207191600 METAR MRLB 191600Z 07013KT 9999 BKN030 SCT100 29/21 A2989=
201207191700 METAR MRLB 191700Z 06019KT 9999 FEW035 SCT130 BKN250 30/21 A2987=
201207191800 METAR MRLB 191800Z 06016G27KT 9999 SCT035 BKN250 30/20 A2986=
201207191900 METAR MRLB 191900Z 09012KT 9999 FEW035 OVC240 31/21 A2984=
201207192000 METAR MRLB 192000Z 08010KT 9999 FEW030 BKN250 30/20 A2983=
201207192100 METAR MRLB 192100Z 08016KT 9999 FEW030 BKN250 30/20 A2982=
201207192200 METAR MRLB 192200Z 07018KT 9999 FEW030 BKN250 30/20 A2981=
201207192300 METAR MRLB 192300Z 06014KT 9999 FEW030 BKN250 28/20 A2981=
201207192353 METAR MRLB 200000Z 07013KT 9999 FEW035 SCT250 28/20 A2981=
201207200000 METAR MRLB 200000Z 07013KT 9999 FEW035 SCT250 28/20 A2981=
201207200100 METAR MRLB 200100Z 07016KT 9999 FEW035 FEW100 27/21 A2981=
201207200200 METAR MRLB 200200Z 07014KT 9999 FEW040 27/21 A2984=
201207200300 METAR MRLB NIL=
201207200400 METAR MRLB NIL=
201207200500 METAR MRLB NIL=
201207200600 METAR MRLB NIL=
201207200700 METAR MRLB NIL=
201207200800 METAR MRLB NIL=
201207200900 METAR MRLB NIL=
201207201000 METAR MRLB NIL=
201207201100 METAR MRLB NIL=
201207201200 METAR MRLB 201200Z 00000KT 9999 FEW030 SCT250 23/21 A2981=
201207201300 METAR MRLB 201300Z 00000KT 9999 FEW045 SCT250 25/21 A2983=
201207201400 METAR MRLB 201400Z 29005KT 9999 FEW040 SCT250 28/23 A2984=
201207201500 METAR MRLB 201500Z 08012KT 9999 FEW025 SCT100 BKN250 29/22 A2985=
201207201600 METAR MRLB 201600Z 08015KT 9999 FEW025 SCT100 BKN250 30/22 A2985=
201207201700 METAR MRLB 201700Z 07015KT 9999 FEW025 SCT140 30/21 A2985=
201207201800 METAR MRLB 201800Z 06014G24KT 9999 SCT025 BKN140 31/22 A2984=
201207201900 METAR MRLB 201900Z 11008KT 9999 SCT030 BKN140 32/22 A2982=
201207202000 METAR MRLB 202000Z 11010KT 9999 SCT030 BKN130 31/22 A2980=
201207202100 METAR MRLB 202100Z 09011KT 9999 SCT030 BKN230 32/22 A2978=
201207202200 METAR MRLB 202200Z 08012KT 9999 SCT035 BKN220 32/20 A2979=
201207202300 METAR MRLB 202300Z 08009KT 9999 SCT035 BKN220 31/21 A2979=
201207202350 METAR MRLB 210000Z 07008KT 9999 SCT035 BKN220 29/21 A2981=
201207210000 METAR MRLB 210000Z 07008KT 9999 SCT035 BKN220 29/21 A2981=
201207210100 METAR MRLB 210100Z 09006KT 9999 SCT030 BKN200 27/21 A2982=
201207210200 METAR MRLB 210200Z 09007KT 9999 SCT035 BKN140 26/21 A2985=
201207210300 METAR MRLB NIL=
201207210400 METAR MRLB NIL=
201207210500 METAR MRLB NIL=
201207210600 METAR MRLB NIL=
201207210700 METAR MRLB NIL=
201207210800 METAR MRLB NIL=
201207210900 METAR MRLB NIL=
201207211000 METAR MRLB NIL=
201207211100 METAR MRLB NIL=
201207211200 METAR MRLB 211200Z 04005KT 9999 FEW030 BKN230 23/21 A2984=
201207211300 METAR MRLB 211300Z 24003KT 9999 FEW035 BKN230 25/22 A2987=
201207211400 METAR MRLB 211400Z 27005KT 9999 FEW035 BKN230 27/22 A2986=
201207211500 METAR MRLB 211500Z 29007KT 9999 FEW035 BKN220 29/22 A2984=
201207211600 METAR MRLB 211600Z 30011KT 9999 FEW035 BKN220 30/21 A2983=
201207211700 METAR MRLB 211700Z 12006KT 9999 FEW035 BKN220 31/21 A2984=
201207211800 METAR MRLB 211800Z 07014KT 9999 SCT035 BKN240 33/20 A2983=
201207211900 METAR MRLB 211900Z 06015KT 9999 SCT035 BKN200 31/20 A2981=
201207212000 METAR MRLB 212000Z 07014KT 9999 SCT035 BKN140 31/20 A2980=
201207212100 METAR MRLB 212100Z 07014KT 9999 FEW035 OVC140 31/20 A2979=
201207212200 METAR MRLB 212200Z 07012KT 9999 SCT035 BKN140 30/21 A2978=
201207212300 METAR MRLB 212300Z 07009KT 9999 FEW035 OVC130 29/20 A2979=
201207212345 METAR MRLB 220000Z 08009KT 9999 FEW035 OVC120 28/20 A2979=
201207220000 METAR MRLB 220000Z 08009KT 9999 FEW035 OVC120 28/20 A2979=
201207220100 METAR MRLB 220100Z 09008KT 9999 FEW035 SCT120 BKN250 27/21 A2980=
201207220200 METAR MRLB 220200Z 08007KT 9999 FEW035 OVC250 27/21 A2983=
201207220300 METAR MRLB NIL=
201207220400 METAR MRLB NIL=
201207220500 METAR MRLB NIL=
201207220600 METAR MRLB NIL=
201207220700 METAR MRLB NIL=
201207220800 METAR MRLB NIL=
201207220900 METAR MRLB NIL=
201207221000 METAR MRLB NIL=
201207221100 METAR MRLB NIL=
201207221200 METAR MRLB 221200Z 14003KT 9999 FEW035 OVC130 24/22 A2983=
201207221300 METAR MRLB 221300Z 08003KT 9999 FEW035 OVC130 25/22 A2986=
201207221400 METAR MRLB 221400Z 16005KT 9999 FEW035 OVC130 27/23 A2988=
201207221500 METAR MRLB 221500Z 07008KT 9999 FEW035 OVC130 29/22 A2989=
201207221600 METAR MRLB 221600Z 09008KT 9999 FEW035 OVC130 30/21 A2990=
201207221700 METAR MRLB 221700Z 09006KT 9999 FEW035 OVC120 30/22 A2990=
201207221800 METAR MRLB 221800Z 09011KT 9999 FEW035 OVC130 30/20 A2989=
201207221900 METAR MRLB 221900Z 09009KT 9999 FEW035 OVC130 30/20 A2986=
201207222000 METAR MRLB 222000Z 11010KT 9999 FEW030 OVC140 30/20 A2982=
201207222100 METAR MRLB 222100Z 16005KT CAVOK 30/21 A2981=
201207222200 METAR MRLB 222200Z 16006KT CAVOK 29/21 A2981 FEW100 OVC140=
201207222300 METAR MRLB 222300Z 13004KT CAVOK 28/21 A2982 OVC140=
201207222351 METAR MRLB 230000Z 13003KT CAVOK 27/21 A2986 FEW120 BKN250=
201207230000 METAR MRLB 230000Z 13003KT CAVOK 27/21 A2986 FEW120 BKN250=
201207230100 METAR MRLB 230100Z 15003KT CAVOK 27/21 A2989 FEW140 BKN250=
201207230200 METAR MRLB 230200Z 00000KT CAVOK 26/21 A2991=
201207230300 METAR MRLB NIL=
201207230400 METAR MRLB NIL=
201207230500 METAR MRLB NIL=
201207230600 METAR MRLB NIL=
201207230700 METAR MRLB NIL=
201207230800 METAR MRLB NIL=
201207230900 METAR MRLB NIL=
201207231000 METAR MRLB NIL=
201207231100 METAR MRLB NIL=
201207231200 METAR MRLB 231200Z 00000KT 9999 FEW030 SCT100 BKN250 23/21 A2988=
201207231300 METAR MRLB 231300Z 17003KT 9999 FEW030 BKN250 24/22 A2989=
201207231400 METAR MRLB 231400Z 16005KT 9999 FEW035 SCT100 BKN250 26/22 A2989=
201207231500 METAR MRLB 231500Z 01006KT 9999 FEW030 SCT120 30/22 A2989=
201207231600 METAR MRLB 231600Z 09014KT 9999 FEW030 SCT100 31/21 A2988=
201207231700 METAR MRLB 231700Z 09015KT 9999 FEW025 SCT120 32/21 A2985=
201207231800 METAR MRLB 231800Z 08015KT FEW025 SCT100 32/21 A2983=
201207231900 METAR MRLB 231900Z 07017KT 9999 FEW025 SCT100 31/21 A2984=
201207232000 METAR COR MRLB 232000Z 09014G25KT 9999 FEW025 BKN120 30/21 A2981=
201207232100 METAR MRLB 232100Z 05012KT 9999 SCT030 BKN120 32/22 A2982=
201207232200 METAR MRLB 232200Z 08013KT 9999 FEW030 SCT120 BKN250 31/21 A2983=
201207232300 METAR MRLB 232300Z 06014KT 9999 SCT030 BKN250 30/21 A2983=
201207232351 METAR MRLB 240000Z 06011KT 9999 SCT030 BKN130 29/21 A2985=
201207240000 METAR MRLB 240000Z 06011KT 9999 SCT030 BKN130 29/21 A2985=
201207240100 METAR MRLB 240100Z 07009KT 9999 FEW030 BKN140 28/21 A2986=
201207240200 METAR MRLB 240200Z 08010KT 9999 SCT030 BKN140 27/21 A2988=
201207240300 METAR MRLB NIL=
201207240400 METAR MRLB NIL=
201207240500 METAR MRLB NIL=
201207240600 METAR MRLB NIL=
201207240700 METAR MRLB NIL=
201207240800 METAR MRLB NIL=
201207240900 METAR MRLB NIL=
201207241000 METAR MRLB NIL=
201207241100 METAR MRLB NIL=
201207241200 METAR MRLB 241200Z 16004KT 9999 FEW030 BKN230 25/21 A2986=
201207241300 METAR MRLB 241300Z 14010KT 9999 FEW030 SCT130 BKN250 28/22 A2987=
201207241400 METAR MRLB 241400Z 08019KT 9999 SCT030 BKN120 28/21 A2989=
201207241500 METAR MRLB 241500Z 09017KT 9999 SCT025 BKN120 29/20 A2988=
201207241600 METAR MRLB 241600Z 07014KT 9999 FEW030 BKN120 30/21 A2992=
201207241700 METAR MRLB 241700Z 06017KT 9999 FEW030 BKN250 32/21 A2989=
201207241800 METAR MRLB 241800Z 06017KT 9999 FEW030 BKN250 33/20 A2988=
201207241900 METAR MRLB 241900Z 07012KT 9999 SCT030 BKN120 33/21 A2987=
201207241949 METAR MRLB 242000 08013G25KT 3000 +RA FEW020CB BKN030 26/19 A2989=
201207242000 METAR MRLB 242000Z 08013G25KT 3000 +RA FEW020CB BKN030 26/19 A2989=
201207242100 METAR MRLB 242100Z 06005KT 9999 FEW025 OVC090 25/22 A2986=
201207242200 METAR MRLB 242200Z 09006KT 9999 FEW025 OVC100 26/23 A2984=
201207242300 METAR MRLB 242300Z 06004KT 9999 FEW025 OVC100 26/23 A2987=
201207242347 METAR MRLB 250000Z 09004KT 9999 FEW025 OVC100 27/23 A2987=
201207250000 METAR MRLB 250000Z 09004KT 9999 FEW025 OVC100 27/23 A2987=
201207250100 METAR MRLB 250100Z 10009KT 9999 FEW025 OVC100 26/22 A2987=
201207250200 METAR MRLB 250200Z 09005KT 9999 FEW025 OVC100 26/22 A2989=
201207250300 METAR MRLB NIL=
201207250400 METAR MRLB NIL=
201207250500 METAR MRLB NIL=
201207250600 METAR MRLB NIL=
201207250700 METAR MRLB NIL=
201207250800 METAR MRLB NIL=
201207250900 METAR MRLB NIL=
201207251000 METAR MRLB NIL=
201207251100 METAR MRLB NIL=
201207251200 METAR MRLB 251200Z 08009KT 9999 FEW035 BKN250 26/20 A2985=
201207251300 METAR MRLB 251300Z 07010KT 9999 FEW035 BKN130 27/22 A2986=
201207251400 METAR MRLB 251400Z 08009KT 9999 FEW035 OVC120 28/21 A2989=
201207251500 METAR MRLB 251500Z 08010KT 9999 FEW035 OVC120 28/22 A2989=
201207251600 METAR MRLB 251600Z 08013KT 9999 SCT035 BKN120 29/21 A2989=
201207251700 METAR MRLB 251700Z 08012KT 9999 FEW035 BKN130 30/22 A2988=
201207251800 METAR MRLB 251800Z 06016KT 9999 FEW035 OVC130 30/22 A2987=
201207251900 METAR MRLB 251900Z 06009KT 9999 FEW035 OVC130 32/21 A2984=
201207252000 METAR MRLB 252000Z 07016KT 9999 FEW035 BKN130 32/21 A2981=
201207252100 METAR MRLB 252100Z 06012KT 9999 FEW025 SCT250 32/20 A2979=
201207252200 METAR MRLB 252200Z 08008KT 9999 FEW025 SCT250 31/19 A2979=
201207252300 METAR MRLB 252300Z 07011KT CAVOK 30/20 A2980=
201207252352 METAR MRLB 260000Z 09010KT CAVOK 28/20 A2980 FEW100 SCT250=
201207260000 METAR MRLB 260000Z 09010KT CAVOK 28/20 A2980 FEW100 SCT250=
201207260100 METAR MRLB 260100Z 08010KT CAVOK 27/20 A2982 SCT120=
201207260200 METAR MRLB 260200Z 07010KT CAVOK 27/21 A2984 SCT140=
201207260300 METAR MRLB NIL=
201207260400 METAR MRLB NIL=
201207260500 METAR MRLB NIL=
201207260600 METAR MRLB NIL=
201207260700 METAR MRLB NIL=
201207260800 METAR MRLB NIL=
201207260900 METAR MRLB NIL=
201207261000 METAR MRLB NIL=
201207261100 METAR MRLB NIL=
201207261200 METAR MRLB 261200Z 10003KT 9999 FEW030 SCT250 25/22 A2981=
201207261300 METAR MRLB 261300Z 05008KT 9999 FEW040 SCT250 27/22 A2981=
201207261400 METAR MRLB 261400Z 03005KT 9999 FEW035 SCT250 29/22 A2984=
201207261500 METAR MRLB 261500Z 07013KT 9999 FEW030 31/22 A2983=
201207261600 METAR MRLB 261600Z 08015KT 9999 SCT025 32/22 A2984=
201207261700 METAR MRLB 261700Z 05014KT 9999 SCT025 33/22 A2983=
201207261800 METAR MRLB 261800Z 05016KT 9999 SCT020TCU BKN120 31/21 A2982=
201207261900 METAR MRLB 261900Z 07010KT 9999 FEW025 SCT100 32/22 A2981=
201207262000 METAR MRLB 262000Z 09011KT 9999 FEW030 SCT140 33/21 A2977=
201207262100 METAR MRLB 262100Z 04013KT 9999 FEW030 SCT250 32/21 A2975=
201207262200 METAR MRLB 262200Z 05013KT 9999 SCT030 BKN250 33/21 A2976=
201207262300 METAR MRLB 262300Z 06015KT 9999 FEW030 BKN250 32/21 A2978=
201207262351 METAR MRLB 270000Z 07010KT 9999 FEW035 BKN250 30/21 A2979=
201207270000 METAR MRLB 270000Z 07010KT 9999 FEW035 BKN250 30/21 A2979=
201207270100 METAR MRLB 270100Z 06010KT 9999 FEW035 BKN250 29/21 A2982=
201207270200 METAR MRLB 270200Z 05015KT 9999 SCT035 BKN250 28/21 A2984=
201207270300 METAR MRLB NIL=
201207270400 METAR MRLB NIL=
201207270500 METAR MRLB NIL=
201207270600 METAR MRLB NIL=
201207270700 METAR MRLB NIL=
201207270800 METAR MRLB NIL=
201207270900 METAR MRLB NIL=
201207271000 METAR MRLB NIL=
201207271100 METAR MRLB NIL=
201207271200 METAR MRLB NIL=
201207271300 METAR MRLB 271300Z 07009KT 9999 FEW030 SCT250 29/22 A2984=
201207271400 METAR MRLB 271400Z 05011KT 9999 FEW030 SCT250 30/22 A2984=
201207271500 METAR MRLB 271500Z 05012KT 9999 SCT035 SCT250 31/21 A2985=
201207271600 METAR MRLB 271600Z 06014KT 9999 SCT030 SCT130 32/22 A2984=
201207271700 METAR MRLB 271700Z 09011KT 9999 SCT030 SCT120 32/22 A2983=
201207271800 METAR MRLB 271800Z 05017KT 9999 SCT035 BKN250 32/23 A2980=
201207271900 METAR MRLB 271900Z 06016KT 9999 -RA SCT025 BKN120 30/22 A2981=
201207272000 METAR MRLB 272000Z 08010KT 9999 SCT030 SCT130 29/23 A2978=
201207272100 METAR MRLB 272100Z 07013KT 9999 BKN025 SCT120 32/ 22 A2977=
201207272200 METAR MRLB 272200Z 06016KT 9999 FEW030 OVC130 31/21 A2976=
201207272300 METAR MRLB 272300Z 07015KT 9999 FEW035 BKN130 29/21 A2977=
201207272347 METAR MRLB 280000Z 07016KT 9999 FEW035 SCT130 BKN250 29/21 A2978=
201207280000 METAR MRLB 280000Z 07016KT 9999 FEW035 SCT130 BKN250 29/21 A2978=
201207280100 METAR MRLB 280100Z 06018KT 9999 FEW035 SCT130 28/21 A2981=
201207280200 METAR MRLB 280200Z 06015KT 9999 FEW035 SCT130 28/21 A2984=
201207280300 METAR MRLB NIL=
201207280400 METAR MRLB NIL=
201207280500 METAR MRLB NIL=
201207280600 METAR MRLB NIL=
201207280700 METAR MRLB NIL=
201207280800 METAR MRLB NIL=
201207280900 METAR MRLB NIL=
201207281000 METAR MRLB NIL=
201207281100 METAR MRLB NIL=
201207281200 METAR MRLB 281200Z COR 07020KT 9999 FEW035 OVC140 27/18 A2981=
201207281300 METAR MRLB 281300Z 07020KT 9999 FEW035 OVC140 28/18 A2980=
201207281400 METAR MRLB 281400Z 07018KT 9999 FEW035 BKN140 29/17 A2982=
201207281500 METAR MRLB 281500Z 07021KT 9999 FEW035 OVC140 30/18 A2982=
201207281600 METAR MRLB 281600Z 07021KT 9999 FEW035 SCT140 BKN250 31/18 A2983=
201207281700 METAR MRLB 281700Z 07024G36KT 9999 FEW035 OVC250 32/18 A2982=
201207281800 METAR MRLB 281800Z 07022G32KT CAVOK 33/18 A2981=
201207281900 METAR MRLB 281900Z 08015G25KT 9999 FEW035 OVC250 33/19 A2980=
201207282000 METAR MRLB 282000Z 07018KT CAVOK 34/17 A2979=
201207282100 METAR MRLB 282100Z 08018KT 9999 FEW040 BKN250 33/17 A2979=
201207282200 METAR MRLB 282200Z 07015KT CAVOK 32/17 A2979=
201207282300 METAR MRLB 282300Z 09015KT CAVOK 30/17 A2981=
201207282353 METAR MRLB 290000Z 09012KT CAVOK 29/18 A2983=
201207290000 METAR MRLB 290000Z 09012KT CAVOK 29/18 A2983=
201207290100 METAR MRLB 290100Z 08014KT CAVOK 28/18 A2986=
201207290200 METAR MRLB 290200Z 09006KT CAVOK 27/18 A2989=
201207290300 METAR MRLB NIL=
201207290400 METAR MRLB NIL=
201207290500 METAR MRLB NIL=
201207290600 METAR MRLB NIL=
201207290700 METAR MRLB NIL=
201207290800 METAR MRLB NIL=
201207290900 METAR MRLB NIL=
201207291000 METAR MRLB NIL=
201207291100 METAR MRLB NIL=
201207291200 METAR MRLB 291200Z 18007KT 9999 FEW040 BKN100 23/20 A2982=
201207291300 METAR MRLB 291300Z 21004KT 9999 FEW040 BKN100 24/20 A2985=
201207291400 METAR MRLB 291400Z 09007KT 9999 FEW040 BKN100 26/21 A2988=
201207291500 METAR MRLB 291500Z 11014KT 9999 FEW040 BKN100 28/21 A2990=
201207291600 METAR MRLB 291600Z 12010KT 9999 FEW040 BKN100 28/20 A2991=
201207291700 METAR MRLB 291700Z 10010KT 9999 FEW030 BKN120 29/21 A2989=
201207291800 METAR MRLB 291800Z 08008KT 9999 FEW030 BKN120 30/20 A2988=
201207291900 METAR MRLB 291900Z 09012KT 9999 FEW030 BKN120 30/20 A2987=
201207292000 METAR MRLB 292000Z 10010KT 9999 FEW040 BKN120 29/20 A2985=
201207292100 METAR MRLB 292100Z 10006KT 9999 FEW035 BKN120 29/21 A2984=
201207292200 METAR MRLB 292200Z 10005KT 9999 FEW035 BKN120 28/20 A2986=
201207292300 METAR MRLB 292300Z 22004KT 9999 FEW035 BKN120 28/20 A2987=
201207292352 METAR MRLB 300000Z 16003KT 9999 FEW035 BKN110 27/21 A2989=
201207300000 METAR MRLB 300000Z 16003KT 9999 FEW035 BKN110 27/21 A2989=
201207300100 METAR MRLB 300100Z 30003KT 9999 FEW035 BKN110 26/21 A2991=
201207300200 METAR MRLB 300200Z 19003KT 9999 FEW030 BKN100 25/21 A2993=
201207300300 METAR MRLB NIL=
201207300400 METAR MRLB NIL=
201207300500 METAR MRLB NIL=
201207300600 METAR MRLB NIL=
201207300700 METAR MRLB NIL=
201207300800 METAR MRLB NIL=
201207300900 METAR MRLB NIL=
201207301000 METAR MRLB NIL=
201207301100 METAR MRLB NIL=
201207301200 METAR MRLB 301200Z 00000KT 9999 FEW035 BKN120 23/21 A2987=
201207301300 METAR MRLB 301300Z 00000KT 9999 FEW035 BKN110 23/21 A2987=
201207301400 METAR MRLB 301400Z 00000KT 9999 FEW035 BKN120 26/22 A2986=
201207301500 METAR MRLB 301500Z 16004KT CAVOK 26/22 A2987=
201207301600 METAR MRLB 301600Z 22003KT CAVOK 29/22 A2987=
201207301700 METAR MRLB 301700Z 09014KT 9999 FEW035 BKN120 30/17 A2986=
201207301800 METAR MRLB 301800Z 09015G25KT 9999 FEW035 BKN130 31/18 A2984=
201207301900 METAR MRLB 301900Z 09017KT 9999 FEW035 BKN120 31/19 A2982=
201207302000 METAR MRLB 302000Z 08016KT 9999 FEW035 OVC120 31/19 A2979=
201207302100 METAR MRLB 302100Z 07016KT 9999 FEW035 OVC120 30/19 A2980=
201207302200 METAR MRLB 302200Z 10009KT 9999 FEW035 OVC120 29/19 A2982=
201207302300 METAR MRLB 302300Z 10009KT 9999 FEW035 OVC130 29/20 A2986=
201207302352 METAR MRLB 310000Z 10010KT 9999 FEW035 OVC130 28/19 A2988=
201207310000 METAR MRLB 310000Z 10010KT 9999 FEW035 OVC130 28/19 A2988=
201207310100 METAR MRLB 310100Z 08008KT 9999 FEW35 BKN130 27/20 A2992=
201207310200 METAR MRLB 310200Z 09006KT 9999 FEW035 BKN130 27/20 A2994=
201207310300 METAR MRLB NIL=
201207310400 METAR MRLB NIL=
201207310500 METAR MRLB NIL=
201207310600 METAR MRLB NIL=
201207310700 METAR MRLB NIL=
201207310800 METAR MRLB NIL=
201207310900 METAR MRLB NIL=
201207311000 METAR MRLB NIL=
201207311100 METAR MRLB NIL=
201207311200 METAR MRLB 311200Z 08014KT 9999 FEW035 OVC250 27/19 A2985=
201207311300 METAR MRLB 311300Z 08012KT 9999 FEW035 OVC250 27/20 A2987=
201207311400 METAR MRLB 311400Z 06012KT 9999 FEW035 BKN250 29/20 A2990=
201207311500 METAR MRLB 311500Z 07016KT 9999 FEW035 SCT25030/20 A2990=
201207311600 METAR MRLB 311600Z 07012KT 9999 BKN035 29/21 A2993=
201207311700 METAR MRLB 311700Z 07014KT 9999 -RA BKN030 SCT100 29/21 A2993=
201207311800 METAR MRLB 311800Z 06015KT 9999 FEW030 BKN120 30/22 A2991=
201207311900 METAR MRLB 311900Z 10010KT 9999 FEW035 BKN120 31/20 A2989=
201207312000 METAR MRLB 312000Z 09013KT 9999 FEW030 BKN140 32/18 A2986=
201207312100 METAR MRLB 312100Z 09011KT 9999 FEW040 BKN150 31/18 A2986=
201207312200 METAR MRLB 312200Z 06012KT 9999 FEW040 SCT120 30/18 A2985=
201207312300 METAR MRLB 312300Z 06008KT 9999 FEW040 SCT140 29/18 A2986=
201207312354 METAR MRLB 010000Z 10003KT 9999 FEW035 SCT100 28/19 A2987=
201208010000 METAR MRLB 010000Z 10003KT 9999 FEW035 SCT100 28/19 A2987=
201208010100 METAR MRLB 010100Z 08015KT 9999 FEW040 SCT120 28/19 A2988=
201208010200 METAR MRLB 010200Z 08012KT 9999 FEW040 SCT100 28/20 A2987=
201208010300 METAR MRLB NIL=
201208010400 METAR MRLB NIL=
201208010500 METAR MRLB NIL=
201208010600 METAR MRLB NIL=
201208010700 METAR MRLB NIL=
201208010800 METAR MRLB NIL=
201208010900 METAR MRLB NIL=
201208011000 METAR MRLB NIL=
201208011100 METAR MRLB NIL=
201208011200 METAR MRLB 011200Z 30003KT 9999 FEW040 SCT100 22/20 A2991=
201208011300 METAR MRLB 011300Z 18004KT 9999 FEW040 SCT100 24/21 A2992=
201208011400 METAR MRLB 011400Z 16004KT 9999 FEW035 SCT100 26/21 A2994=
201208011500 METAR MRLB 011500Z 03008KT 9999 FEW030 SCT100 30/21 A2994=
201208011600 METAR MRLB 011600Z 09007KT 9999 FEW025 SCT150 31/20 A2993=
201208011700 METAR MRLB 011700Z 07005KT 9999 FEW025 SCT250 32/20 A2992=
201208011800 METAR MRLB 011800Z 08012KT 9999 SCT025 33/19 A2988=
201208011900 METAR MRLB 011900Z 11010KT 9999 SCT025 35/18 A2986=
201208012000 METAR MRLB 012000Z 08010KT 9999 SCT030 35/18 A2985=
201208012100 METAR MRLB 012100Z 09007KT 9999 SCT035 34/18 A2983=
201208012200 METAR MRLB 012200Z 27010KT 9999 SCT035 SCT250 32/21 A2983=
201208012300 METAR MRLB 012300Z 28009KT 9999 SCT035 BKN250 30/22 A2985=
201208012352 METAR MRLB 020000Z 25005KT 9999 SCT030 BKN240 28/23 A2987=
201208020000 METAR MRLB 020000Z 25005KT 9999 SCT030 BKN240 28/23 A2987=
201208020100 METAR MRLB 020100Z 20004KT 9999 SCT030 BKN220 26/22 A2990=
201208020200 METAR MRLB 020200Z 14003KT 9999 SCT030 BKN220 26/23 A2993=
201208020300 METAR MRLB NIL=
201208020400 METAR MRLB NIL=
201208020500 METAR MRLB NIL=
201208020600 METAR MRLB NIL=
201208020700 METAR MRLB NIL=
201208020800 METAR MRLB NIL=
201208020900 METAR MRLB NIL=
201208021000 METAR MRLB NIL=
201208021100 METAR MRLB NIL=
201208021200 METAR MRLB 021200Z 22003KT 9999 FEW030 BKN130 24/23 A2989=
201208021300 METAR MRLB 021300Z 20004KT 9999 FEW030 BKN240 25/23 A2988=
201208021400 METAR MRLB 021400Z 22004KT 9999 FEW035 BKN220 26/24 A2987=
201208021500 METAR MRLB 021500Z 23005KT 9999 FEW035 BKN220 29/24 A2987=
201208021600 METAR MRLB 021600Z 20003KT 9999 FEW035 BKN240 31/23 A2989=
201208021700 METAR MRLB 021700Z 10006KT 9999 FEW035 BKN140 32/21 A2987=
201208021800 METAR MRLB 021800Z 07014KT 9999 FEW035 BKN140 32/20 A2987=
201208021900 METAR MRLB 021900Z 09013KT 9999 FEW035 BKN130 32/20 A2984=
201208022000 METAR MRLB 022000Z 10010KT 9999 FEW035 BKN130 31/21 A2982=
201208022100 METAR MRLB 022100Z 10009KT 9999 FEW035 OVC130 32/21 A2981=
201208022200 METAR MRLB 022200Z 10008KT 9999 FEW035 OVC130 31/20 A2981=
201208022300 METAR MRLB 022300Z 09005KT 9999 FEW040 OVC130 31/21 A2982=
201208022351 METAR MRLB 030000Z 11006KT 9999 FEW040 OVC140 29/21 A2983=
201208030000 METAR MRLB 030000Z 11006KT 9999 FEW040 OVC140 29/21 A2983=
201208030100 METAR MRLB 030100Z 10006KT 9999 FEW040 BKN140 28/20 A2985=
201208030200 METAR MRLB 030200Z 10006KT 9999 FEW040 BKN140 27/20 A2987=
201208030300 METAR MRLB NIL=
201208030400 METAR MRLB NIL=
201208030500 METAR MRLB NIL=
201208030600 METAR MRLB NIL=
201208030700 METAR MRLB NIL=
201208030800 METAR MRLB NIL=
201208030900 METAR MRLB NIL=
201208031000 METAR MRLB NIL=
201208031100 METAR MRLB NIL=
201208031200 METAR MRLB 031200Z 10002KT 9999FEW035 OVC250 22/21 A2988=
201208031300 METAR MRLB 031300Z 06004KT 9999 FEW035 OVC250 23/22 A2989=
201208031400 METAR MRLB 031400Z 07004KT 9999 FEW035 BKN250 27/23 A2988=
201208031500 METAR MRLB 031500Z 08011KT CAVOK 31/22 A2987=
201208031600 METAR MRLB 031600Z 08013KT 9999 FEW035 BKN250 32/21 A2985=
201208031700 METAR MRLB 031700Z 07018KT 9999 FEW035 SCT250 34/19 A2984=
201208031756 METAR MRLB 03180Z 08018KT 9999 FEW035 BKN300 34/19 A2983=
201208031800 METAR MRLB 031800Z COR 08018KT 9999 FEW035 BKN300 34/19 A2983=
201208031900 METAR MRLB 031900Z 07015KT 9999 FEW035 BKN270 35/19 A2982=
201208032000 METAR MRLB 032000Z 06014KT 9999 FEW030 SCT250 35/19 A2979=
201208032100 METAR MRLB 032100Z 09012KT 9999 FEW025 SCT250 35/19 A2978=
201208032200 METAR MRLB 032200Z 08010KT 9999 FEW025 SCT250 34/19 A2977=
201208032300 METAR MRLB 032300Z 08012KT 9999 FEW035 SCT250 32/19 A2978=
201208032352 METAR MRLB 040000Z 08010KT 9999 FEW035 BKN250 30/19 A2981=
201208040000 METAR MRLB 040000Z 08010KT 9999 FEW035 BKN250 30/19 A2981=
201208040100 METAR MRLB 040100Z 10006KT 9999 FEW040 28/20 A2984=
201208040200 METAR MRLB 040200Z 10005KT 9999 FEW045 27/21 A2986=
201208040300 METAR MRLB NIL=
201208040400 METAR MRLB NIL=
201208040500 METAR MRLB NIL=
201208040600 METAR MRLB NIL=
201208040700 METAR MRLB NIL=
201208040800 METAR MRLB NIL=
201208040900 METAR MRLB NIL=
201208041000 METAR MRLB NIL=
201208041100 METAR MRLB NIL=
201208041200 METAR MRLB 041200Z 04004KT 9999 FEW035 SCT250 22/20 A2984=
201208041300 METAR MRLB 041300Z 00000KT 9999 FEW030 SCT100 24/21 A2986=
201208041400 METAR MRLB 041400Z 25003KT 9999 FEW030 SCT100 26/22 A2987=
201208041500 METAR MRLB 041500Z 20005KT 9999 FEW030 SCT100 30/22 A2988=
201208041600 METAR MRLB 041600Z 09010KT 9999 SCT035 32/21 A2988=
201208041700 METAR MRLB 041700Z 02012KT 9999 -RA SCT025 BKN100 28/21 A2987=
201208041800 METAR MRLB 041800Z 05014KT 9999 SCT035 BKN250 32/22 A2985=
201208041900 METAR MRLB 041900Z 08012KT 9999 SCT025 BKN250 33/20 A2984=
201208042000 METAR MRLB 042000Z 05014KT 9999 FEW030 SCT250 34/20 A2980=
201208042100 METAR MRLB 042100Z 05017KT 9999 SCT030 SCT130 32/19 A2980=
201208042200 METAR MRLB 042200Z 06014KT 9999 SCT035 SCT140 32/20 A2978=
201208042300 METAR MRLB 042300Z 05012KT 9999 FEW035 SCT130 BKN250 31/20 A2979=
201208042352 METAR MRLB 050000Z 08009KT 9999 FEW035 BKN140 29/20 A2980=
201208050000 METAR MRLB 050000Z 08009KT 9999 FEW035 BKN140 29/20 A2980=
201208050100 METAR MRLB 050100Z 08007KT 9999 FEW035 BKN200 28/21 A2983=
201208050200 METAR MRLB 050200Z 10008KT 9999 SCT030 BKN200 27/20 A2985=
201208050300 METAR MRLB NIL=
201208050400 METAR MRLB NIL=
201208050500 METAR MRLB NIL=
201208050600 METAR MRLB NIL=
201208050700 METAR MRLB NIL=
201208050800 METAR MRLB NIL=
201208050900 METAR MRLB NIL=
201208051000 METAR MRLB NIL=
201208051100 METAR MRLB NIL=
201208051200 METAR MRLB 051200Z 00000KT 9999 FEW035 BKN250 23/21 A2985=
201208051300 METAR MRLB 051300Z 09005KT 9999 FEW035 BKN250 27/22 A2986=
201208051400 METAR MRLB 051400Z 07014KT 9999 FEW035 BKN250 29/20 A2987=
201208051500 METAR MRLB 051500Z 06014KT 9999 FEW035 BKN250 31/20 A2987=
201208051600 METAR MRLB 051600Z 06012KT 9999 FEW035 BKN250 32/19 A2987=
201208051700 METAR MRLB 051700Z 07013KT 9999 FEW035 BKN250 33/19 A2987=
201208051800 METAR MRLB 051800Z 04012KT 9999 FEW035 BKN250 34/18 A2985=
201208051900 METAR MRLB 051900Z 04012KT 9999 FEW035 BKN250 34/18 A2985=
201208052000 METAR MRLB 052000Z 04013KT 9999 FEW035 BKN250 34/17 A2982=
201208052100 METAR MRLB 052100Z 04009KT 9999 FEW040OVC250 35/18 A2980=
201208052200 METAR MRLB 052200Z 05011KT 9999 FEW040 OVC250 34/18 A2979=
201208052300 METAR MRLB 052300Z 05010KT 9999 FEW040 OVC250 33/18 A2981=
201208052351 METAR MRLB 060000Z 04005KT 9999 FEW040 OVC250 31/19 A2983=
201208060000 METAR MRLB 060000Z 04005KT 9999 FEW040 OVC250 31/19 A2983=
201208060100 METAR MRLB 060100Z 27005KT 9999 FEW040 OVC250 29/23 A2986=
201208060200 METAR MRLB 060200Z 17002KT 9999 FEW040 OVC250 27/22 A2988=
201208060300 METAR MRLB NIL=
201208060400 METAR MRLB NIL=
201208060500 METAR MRLB NIL=
201208060600 METAR MRLB NIL=
201208060700 METAR MRLB NIL=
201208060800 METAR MRLB NIL=
201208060900 METAR MRLB NIL=
201208061000 METAR MRLB NIL=
201208061100 METAR MRLB NIL=
201208061200 METAR MRLB 061200Z 07003KT 9999 FEW020 OVC250 21/20 A2988=
201208061300 METAR MRLB 061300Z 31002KT 9999 FEW020 OVC250 23/21 A2990=
201208061400 METAR MRLB 061400Z 07004KT 9999 FEW025 OVC250 25/23 A2991=
201208061500 METAR MRLB 061500Z 15004KT 9999 FEW025 OVC250 28/23 A2991=
201208061600 METAR MRLB 061600Z 22004KT 9999 FEW030 OVC250 30/22 A2992=
201208061700 METAR MRLB 061700Z 21003KT 9999 SCT030 BKN250 31/21 A2991=
201208061800 METAR MRLB 061800Z 29008KT 9999 SCT030 BKN250 32/20 A2987=
201208061900 METAR MRLB 061900Z 21006KT 9999 SCT035 SCT250 33/21 A2984=
201208062000 METAR MRLB 062000Z 25012KT 9999 SCT030TCU BKN250 33/22 A2980=
201208062100 METAR MRLB 062100Z 27010KT 9999 VCTS VCSH SCT025CB BKN250 31/22 A2979=
201208062200 METAR MRLB 062200Z 28010KT 9999 SCT030TCU BKN220 29/22 A2979=
201208062300 METAR MRLB 062300Z 12004KT 9999 SCT020TCU BKN100 28/23 A2981=
201208062353 METAR MRLB 070000Z 08004KT 9999 SCT030 SCT150 26/22 A2982=
201208070000 METAR MRLB 070000Z 08004KT 9999 SCT030 SCT150 26/22 A2982=
201208070100 METAR MRLB 070100Z 09003KT 9999 SCT045 25/22 A2984=
201208070200 METAR MRLB 070200Z 04003KT 9999 SCT045 25/23 A2986=
201208070300 METAR MRLB NIL=
201208070400 METAR MRLB NIL=
201208070500 METAR MRLB NIL=
201208070600 METAR MRLB NIL=
201208070700 METAR MRLB NIL=
201208070800 METAR MRLB NIL=
201208070900 METAR MRLB NIL=
201208071000 METAR MRLB NIL=
201208071100 METAR MRLB NIL=
201208071200 METAR MRLB 071200Z 00000KT CAVOK 24/22 A2985 FEW080 BKN140=
201208071300 METAR MRLB 071300Z 18004KT 9999 FEW010 SCT100 BKN250 25/23 A2987=
201208071400 METAR MRLB 071400Z 00000KT 9999 FEW035 BKN250 27/24 A2989=
201208071500 METAR MRLB 071500Z 24003KT 9999 SCT025TCU BKN240 29/24 A2989=
201208071600 METAR MRLB 071600Z 28010KT 9999 SCT020TCU BKN100 28/23 A2989=
201208071700 METAR MRLB 071700Z 25010KT 9999 SCT025 BKN220 29/22 A2988=
201208071800 METAR MRLB 071800Z 27010KT 9999 SCT020 BKN240 30/23 A2986=
201208071900 METAR MRLB 071900Z 28008KT 9999 SCT025 BKN250 31/23 A2983=
201208072000 METAR MRLB 072000Z 25009KT 9999 FEW030TCU BKN250 30/23 A2979=
201208072100 METAR MRLB 072100Z 26011KT 9999 SCT030 BKN240 30/22 A2978=
201208072200 METAR MRLB 072200Z 27009KT 9999 SCT030 BKN130 28/23 A2979=
201208072300 METAR MRLB 072300Z 23004KT 9999 SCT025 BKN130 27/22 A2979=
201208072351 METAR MRLB 080000Z 14003KT 9999 -RA SCT025 BKN100 26/23 A2982=
201208080000 METAR MRLB 080000Z 14003KT 9999 -RA SCT025 BKN100 26/23 A2982=
201208080100 METAR MRLB 080100Z 13003KT 9999 -DZ SCT025 BKN100 25/23 A2984=
201208080200 METAR MRLB 080200Z 10004KT 9999 SCT030 BKN100 25/23 A2988=
201208080300 METAR MRLB NIL=
201208080400 METAR MRLB NIL=
201208080500 METAR MRLB NIL=
201208080600 METAR MRLB NIL=
201208080700 METAR MRLB NIL=
201208080800 METAR MRLB NIL=
201208080900 METAR MRLB NIL=
201208081000 METAR MRLB NIL=
201208081100 METAR MRLB NIL=
201208081200 METAR MRLB 081200Z 00000KT 1500 BR SCT003 BKN010 23/22 A2986=
201208081300 METAR MRLB 081300Z 00000KT 9999 4000SW BCFG SCT010 BKN130 23/22 A2987=
201208081400 METAR MRLB 081400Z 12003KT 9999 SCT025 BKN250 25/24 A2988=
201208081500 METAR MRLB 081500Z 00000KT 9999 FEW030 BKN250 28/24 A2988=
201208081600 METAR MRLB 081600Z 19003KT 9999 FEW035 BKN250 29/23 A2989=
201208081700 METAR MRLB 081700Z 17003KT 9999 SCT030 BKN250 31/23 A2986=
201208081800 METAR MRLB 081800Z 19003KT 9999 SCT030 BKN250 31/22 A2983=
201208081900 METAR MRLB 081900Z 18003KT 9999 FEW020TCU SCT030 BKN250 32/22 A2981=
201208082000 METAR MRLB 082000Z 25007KT 9999 -RA FEW020TCU SCT030 BKN250 32/22 A2978=
201208082100 METAR MRLB 082100Z 26005KT 9999 VCSH SCT020 BKN250 31/23 A2976=
201208082200 METAR MRLB 082200Z 28007KT 9999 FEW020 SCT120 BKN250 31/23 A2975=
201208082300 METAR MRLB 082300Z 27006KT 9999 FEW020 SCT120 BKN250 29/24 A2977=
201208082349 METAR MRLB 090000Z 25006KT 9999 FEW025 OVC140 28/24 A2980=
201208090000 METAR MRLB 090000Z 25006KT 9999 FEW025 OVC140 28/24 A2980=
201208090100 METAR MRLB 090100Z 19003KT 9999 FEW025 OVC140 27/24 A2982=
201208090200 METAR MRLB 090200Z 15004KT 9999 FEW025 OVC140 26/24 A2986=
201208090300 METAR MRLB NIL=
201208090400 METAR MRLB NIL=
201208090500 METAR MRLB NIL=
201208090600 METAR MRLB NIL=
201208090700 METAR MRLB NIL=
201208090800 METAR MRLB NIL=
201208090900 METAR MRLB NIL=
201208091000 METAR MRLB NIL=
201208091100 METAR MRLB NIL=
201208091200 METAR MRLB 091200Z 07003KT 0200 FG VV/// 23/23 A2981=
201208091300 METAR MRLB 091300Z 15004KT 9999 FEW005 OVC250 24/23 A2983=
201208091400 METAR MRLB 091400Z 15002KT 9999 FEW010 OVC250 26/24 A2985=
201208091500 METAR MRLB 091500Z COR 13005KT 9999 FEW025 SCT140 BKN250 29/23 A2985=
201208091600 METAR MRLB 091600Z 12006KT 9999 FEW030 SCT140 BKN250 31/22 A2983=
201208091700 METAR MRLB 091700Z 12009KT 9999 FEW030 SCT150 BKN250 32/22 A2984=
201208091800 METAR MRLB 091800Z 10007KT 9999 SCT030 BKN250 33/21 A2981=
201208091900 METAR MRLB 091900Z COR 13008KT 9999 -RA SCT030 SCT250 32/22 A2979=
201208092000 METAR MRLB 092000Z 27012KT 9999 SCT030TCU BKN220 30/21 A2977=
201208092100 METAR MRLB 092100Z 31006KT 9999 -TSRA FEW020CB SCT030 BKN120 27/24 A2976=
201208092200 METAR MRLB 092200Z 15004KT 9999 TSRA SCT015CB BKN070 24/22 A2979=
201208092300 METAR MRLB 092300Z 32004KT 9999 SCT025TCU BKN100 24/23 A2979 RETSRA=
201208092354 METAR MRLB 100000Z 01003KT 9999 FEW030 SCT100 24/23 A2980=
201208100000 METAR MRLB 100000Z 01003KT 9999 FEW030 SCT100 24/23 A2980=
201208100100 METAR MRLB 100100Z 04004KT 9999 FEW025 SCT100 24/24 A2983=
201208100200 METAR MRLB 100200Z 06003KT 9999 FEW025 SCT100 25/24 A2986=
201208100300 METAR MRLB NIL=
201208100400 METAR MRLB NIL=
201208100500 METAR MRLB NIL=
201208100600 METAR MRLB NIL=
201208100700 METAR MRLB NIL=
201208100800 METAR MRLB NIL=
201208100900 METAR MRLB NIL=
201208101000 METAR MRLB NIL=
201208101100 METAR MRLB NIL=
201208101200 METAR MRLB 101200Z 10004KT CAVOK 23/22 A2987 FEW100 BKN220=
201208101300 METAR MRLB 101300Z 13003KT CAVOK 25/23 A2988 FEW100 BKN250=
201208101400 METAR MRLB 101400Z 00000KT CAVOK 27/24 A2989 FEW100 BKN250=
201208101500 METAR MRLB 101500Z 24004KT 9999 FEW015 BKN120 27/24 A2990=
201208101600 METAR MRLB 101600Z 16003KT 9999 SCT025 BKN140 28/24 A2989=
201208101700 METAR MRLB 101700Z 25003KT 9999 SCT025 BKN140 29/24 A2988=
201208101800 METAR MRLB 101800Z 24003KT 9999 SCT025 BKN140 31/23 A2985=
201208101900 METAR MRLB 101900Z 27005KT 9999 SCT025 BKN140 31/24 A2984=
201208102000 METAR MRLB 102000Z 27004KT 9999 SCT025 BKN230 30/23 A2982=
201208102100 METAR MRLB 102100Z 25006KT 9999 SCT025 BKN220 30/23 A2981=
201208102200 METAR MRLB 102200Z 26006KT 9999 4000S -TSRA FEW015CB SCT030 BKN140 31/23 A2981=
201208102300 METAR MRLB 102300Z 12006KT 9999 -RA SCT020 BKN100 23/21 A2984 RETSRA=
201208102352 METAR MRLB 110000Z 05008KT 9999 -DZ SCT025 BKN100 24/22 A2987=
201208110000 METAR MRLB 110000Z 05008KT 9999 -DZ SCT025 BKN100 24/22 A2987=
201208110100 METAR MRLB 110100Z 05003KT 9999 -RA SCT030 BKN100 24/22 A2988=
201208110200 METAR MRLB 110200Z 00000KT 9999 -RA SCT025 BKN100 24/23 A2991=
201208110300 METAR MRLB NIL=
201208110400 METAR MRLB NIL=
201208110500 METAR MRLB NIL=
201208110600 METAR MRLB NIL=
201208110700 METAR MRLB NIL=
201208110800 METAR MRLB NIL=
201208110900 METAR MRLB NIL=
201208111000 METAR MRLB NIL=
201208111100 METAR MRLB NIL=
201208111200 METAR MRLB 111200Z 05003KT CAVOK 23/22 A2987=
201208111300 METAR MRLB 111300Z 00000KT CAVOK 25/23 A2990=
201208111400 METAR MRLB 111400Z 16004KT 9999 FEW030 BKN250 26/23 A2991=
201208111500 METAR MRLB 111500Z 12003KT 9999 FEW030 BKN250 28/24 A2991=
201208111600 METAR MRLB 111600Z 25003KT 9999 SCT030 BKN250 29/24 A2991=
201208111700 METAR MRLB 111700Z 16004KT 9999 SCT035 BKN250 30/23 A2991=
201208111800 METAR MRLB 111800Z 19004KT 9999 SCT035 BKN250 31/22 A2988=
201208111900 METAR MRLB 111900Z 23003KT 9999 SCT035 BKN250 32/23 A2986=
201208112000 METAR MRLB 112000Z 20006KT 9999 -RA FEW020CB SCT030 BKN250 31/22 A2984=
201208112100 METAR MRLB 112100Z 27010KT 9999 3000NW TSRA FEW015CB SCT020 SCT120 29/23 A2985=
201208112200 METAR MRLB 112200Z 20005KT 9999 -RAVCTS SCT020 BKN120 25/22 A2983=
201208112300 METAR MRLB 112300Z 13006KT 9999 -RA FEW020 OVC120 25/23 A2987=
201208112355 METAR MRLB 120000Z 26003KT 9999 -RA FEW020 OVC120 24/23 A2988=
201208120000 METAR MRLB 120000Z 26003KT 9999 -RA FEW020 OVC120 24/23 A2988=
201208120100 METAR MRLB 120100Z 14006KT 9999 FEW020 OVC120 24/22 A2990=
201208120200 METAR MRLB 120200Z 16003KT 9999 -RA FEW020 OVC120 23/22 A2992=
201208120300 METAR MRLB NIL=
201208120400 METAR MRLB NIL=
201208120500 METAR MRLB NIL=
201208120600 METAR MRLB NIL=
201208120700 METAR MRLB NIL=
201208120800 METAR MRLB NIL=
201208120900 METAR MRLB NIL=
201208121000 METAR MRLB NIL=
201208121100 METAR MRLB NIL=
201208121155 METAR MRLB 151200Z 15003KT 0200 FG VV/// 23/22 A2987=
201208121200 METAR MRLB 121200Z COR 15006KT 9999 3000SW BR FEW002 OVC140 22/22 A2984=
201208121300 METAR MRLB 121300Z 14006KT 9999 FEW005 OVC130 23/22 A2986=
201208121400 METAR MRLB 121400Z 17004KT 9999 FEW020 OVC130 25/24 A2988=
201208121500 METAR MRLB 121500Z 23002KT 9999 FEW030 OVC120 26/23 A2990=
201208121600 METAR MRLB 121600Z COR 25002KT 9999 FEW030 BKN130 28/24 A2989=
201208121700 METAR MRLB 121700Z 21004KT 9999 FEW030 SCT130 BKN250 29/24 A2988=
201208121800 METAR MRLB 121800Z 23004KT 9999 SCT030 BKN250 30/23 A2987=
201208121900 METAR MRLB 121900Z 29005KT 9999 FEW030 SCT120 BKN250 31/23 A2984=
201208122000 METAR MRLB 122000Z 10007KT 9999 SCT030TCU BKN220 32/22 A2981=
201208122100 METAR MRLB 122100Z 07013KT 9999 SCT030TCU BKN180 30/22 A2980=
201208122200 METAR MRLB 122200Z 09007KT 9999 SCT035 BKN180 29/22 A2980=
201208122300 METAR MRLB 122300Z 08009KT 9999 SCT035 BKN180 28/22 A2981=
201208122352 METAR MRLB 130000Z 06010KT 9999 FEW040 BKN150 27/21 A2982=
201208130000 METAR MRLB 130000Z 06010KT 9999 FEW040 BKN150 27/21 A2982=
201208130100 METAR MRLB 130100Z 08009KT 9999 FEW040 SCT140 26/20 A2984=
201208130200 METAR MRLB 130200Z 13004KT 9999 FEW040 SCT200 25/20 A2985=
201208130300 METAR MRLB NIL=
201208130400 METAR MRLB NIL=
201208130500 METAR MRLB NIL=
201208130600 METAR MRLB NIL=
201208130700 METAR MRLB NIL=
201208130800 METAR MRLB NIL=
201208130900 METAR MRLB NIL=
201208131000 METAR MRLB NIL=
201208131100 METAR MRLB NIL=
201208131200 METAR MRLB 131200Z 02003KT 9999 FEW045 SCT250 25/22 A2985=
201208131300 METAR MRLB 131300Z 08010KT 9999 SCT040 27/22 A2987=
201208131400 METAR MRLB 131400Z 07011KT CAVOK 29/21 A2989 FEW100=
201208131500 METAR MRLB 131500Z 09012KT CAVOK 30/21 A2991 FEW100=
201208131600 METAR MRLB 131600Z 08011KT 9999 FEW025 31/20 A2990=
201208131700 METAR MRLB 131700Z 08012KT 9999 FEW025 32/20 A2989=
201208131800 METAR MRLB 131800Z 07013KT CAVOK 33/19 A2987 SCT250=
201208131900 METAR MRLB 131900Z 10010KT 9999 FEW030 SCT250 34/18 A2984=
201208132000 METAR MRLB 132000Z 06010KT 9999 FEW030 SCT280 34/18 A2982=
201208132100 METAR MRLB 132100Z 08006KT 9999 SCT035 SCT250 34/19 A2980=
201208132200 METAR MRLB 132200Z 04010KT 9999 SCT035 BKN250 33/20 A2980=
201208132300 METAR MRLB 132300Z 05010KT 9999 SCT035 BKN250 31/20 A2981=
201208132352 METAR MRLB 140000Z 08004KT 9999 SCT035 BKN250 29/20 A2984=
201208140000 METAR MRLB 140000Z 08004KT 9999 SCT035 BKN250 29/20 A2984=
201208140100 METAR MRLB 140100Z 10008KT 9999 SCT030 BKN240 28/20 A2986=
201208140200 METAR MRLB 140200Z 12006KT 9999 SCT030 BKN230 26/20 A2989=
201208140300 METAR MRLB NIL=
201208140400 METAR MRLB NIL=
201208140500 METAR MRLB NIL=
201208140600 METAR MRLB NIL=
201208140700 METAR MRLB NIL=
201208140800 METAR MRLB NIL=
201208140900 METAR MRLB NIL=
201208141000 METAR MRLB NIL=
201208141100 METAR MRLB NIL=
201208141200 METAR MRLB 141200Z 20003KT CAVOK 22/20 A2986=
201208141300 METAR MRLB 141300Z 00000KT CAVOK 24/22 A2988=
201208141400 METAR MRLB 141400Z 18004KT 9999 FEW030 SCT250 27/23 A2991=
201208141500 METAR MRLB 141500Z 12003KT 9999 FEW035 SCT250 28/23 A2992=
201208141600 METAR MRLB 141600Z 06004KT 9999 FEW035 BKN250 30/21 A2991=
201208141700 METAR MRLB 141700Z 16003KT 9999 FEW020TCU SCT030 BKN250 30/22 A2989=
201208141800 METAR MRLB 141800Z 12010KT 9999 -RA FEW015CB SCT025TCU BKN140 29/21 A2988=
201208141900 METAR MRLB 141900Z 22003KT 9999 VCSH FEW020TCU SCT030 BKN140 30/21 A2986=
201208142000 METAR MRLB 142000Z 23007KT 9999 BKN030 SCT130 28/22 A2984=
201208142100 METAR MRLB 142100Z COR 23005KT 9999 -RA FEW030 OVC120 26/23 A2982=
201208142200 METAR MRLB 142200Z 21003KT 9999 FEW025 OVC120 27/23 A2981=
201208142300 METAR MRLB 142300Z 14002KT 9999 FEW025 OVC130 27/23 A2983=
201208142350 METAR MRLB 150000Z 00000KT 9999 FEW020 BKN130 27/23 A2985=
201208150000 METAR MRLB 150000Z 00000KT 9999 FEW020 BKN130 27/23 A2985=
201208150100 METAR MRLB 150100Z 12002KT 9999 FEW020 BKN130 26/23 A2986=
201208150200 METAR MRLB 150200Z 12002KT 9999 FEW020 BKN130 25/23 A2989=
201208150300 METAR MRLB NIL=
201208150400 METAR MRLB NIL=
201208150500 METAR MRLB NIL=
201208150600 METAR MRLB NIL=
201208150700 METAR MRLB NIL=
201208150800 METAR MRLB NIL=
201208150900 METAR MRLB NIL=
201208151000 METAR MRLB NIL=
201208151100 METAR MRLB NIL=
201208151200 METAR MRLB 151200Z 15003KT 0200 FG VV/// 23/22 A2987=
201208151300 METAR MRLB 151300Z 00000KT 2000 BR SCT002 BKN130 23/23 A2989=
201208151400 METAR MRLB 151400Z 06004KT 9999 FEW010 SCT130 BKN250 25/24 A2991=
201208151500 METAR MRLB 151500Z 10004KT 9999 FEW020 BKN250 28/24 A2993=
201208151600 METAR MRLB 151600Z 16005KT 9999 BKN020 SCT250 28/23 A2993=
201208151700 METAR MRLB 151700Z 16004KT 9999 FEW030 BKN130 30/23 A2992=
201208151800 METAR MRLB 151800Z 18005KT 9999 SCT030 SCT130 31/22 A2990=
201208151900 METAR MRLB 151900Z 25002KT 9999 SCT030 SCT130 31/22 A2986=
201208152000 METAR MRLB 152000Z 26008KT 9999 VCSH FEW015TCU SCT020 29/23 A2984=
201208152100 METAR MRLB 152100Z 29008KT 9999 4000SW RA SCT012CB BKN040 23/22 A2984=
201208152200 METAR MRLB 152200Z 01008KT 9999 DZ SCT020 BKN070 23/22 A2987 RERA=
201208152300 METAR MRLB 152300Z 01008KT 9999 SCT025 BKN100 23/22 A2986=
201208152351 METAR MRLB 160000Z 02004KT 9999 FEW025 SCT100 23/22 A2987=
201208160000 METAR MRLB 160000Z 02004KT 9999 FEW025 SCT100 23/22 A2987=
201208160100 METAR MRLB 160100Z 02004KT 9999 FEW030 SCT120 23/22 A2990=
201208160200 METAR MRLB 160200Z 05005KT 9999 FEW025 SCT120 23/22 A2993=
201208160300 METAR MRLB NIL=
201208160400 METAR MRLB NIL=
201208160500 METAR MRLB NIL=
201208160600 METAR MRLB NIL=
201208160700 METAR MRLB NIL=
201208160800 METAR MRLB NIL=
201208160900 METAR MRLB NIL=
201208161000 METAR MRLB NIL=
201208161100 METAR MRLB NIL=
201208161200 METAR MRLB 161200Z 18004KT 0100 FG VV/// 23/22 A2990=
201208161300 METAR MRLB 161300Z 06003KT 9999 VCFG FEW010 SCT020 23/22 A2992=
201208161400 METAR MRLB 161400Z 00000KT 9999 FEW015 SCT250 25/24 A2993=
201208161500 METAR MRLB 161500Z 04004KT CAVOK 27/24 A2994 BKN250=
201208161600 METAR MRLB 161600Z 10006KT CAVOK 29/23 A2993 BKN250=
201208161700 METAR MRLB 161700Z 09004KT 9999 FEW025 SCT250 30/22 A2993=
201208161800 METAR MRLB 161800Z 17005KT 9999 SCT025 BKN250 31/22 A2992=
201208161900 METAR MRLB 161900Z 24007KT 9999 SCT025TCU BKN220 31/23 A2989=
201208162000 METAR COR MRLB 162000Z 27007KT 9999 SCT025TCU BKN250 30/24 A2989=
201208162100 METAR MRLB 162100Z 27006KT 9999 SCT030 BKN140 29/24 A2986=
201208162200 METAR MRLB 162200Z 27005KT 9999 SCT030 BKN140 28/24 A2987=
201208162300 METAR MRLB 162300Z 30004KT 9999 SCT025 BKN140 27/24 A2989=
201208162350 METAR MRLB 170000Z 34005KT 9999 SCT030 BKN130 27/23 A2991=
201208170000 METAR MRLB 170000Z 34005KT 9999 SCT030 BKN130 27/23 A2991=
201208170100 METAR MRLB 170100Z 13003KT 9999 FEW030 BKN130 26/23 A2992=
201208170200 METAR MRLB 170200Z 18005KT 9999 SCT030 BKN120 26/23 A2994=
201208170300 METAR MRLB NIL=
201208170400 METAR MRLB NIL=
201208170500 METAR MRLB NIL=
201208170600 METAR MRLB NIL=
201208170700 METAR MRLB NIL=
201208170800 METAR MRLB NIL=
201208170900 METAR MRLB NIL=
201208171000 METAR MRLB NIL=
201208171100 METAR MRLB NIL=
201208171200 METAR MRLB 171200Z 00000KT 9999 FEW025 BKN250 23/22 A2987=
201208171300 METAR MRLB 171300Z 00000KT 9999 FEW030 SCT250 24/23 A2989=
201208171400 METAR MRLB 171400Z 00000KT CAVOK 26/23 A2990=
201208171500 METAR MRLB 171500Z 23004KT 9999 FEW035 BKN250 28/23 A2993=
201208171600 METAR MRLB 171600Z 27005KT 9999 FEW035 BKN200 29/23 A2993=
201208171700 METAR MRLB 171700Z 08013KT 9999 FEW035 SCT140 BKN200 30/22 A2991=
201208171800 METAR MRLB 171800Z 08013KT 9999 SCT030 BKN130 29/22 A2991=
201208171900 METAR MRLB 171900Z 09010KT 9999 VCTS FEW015CB SCT025 BKN100 27/21 A2991=
201208172000 METAR MRLB 172000Z 09004KT 9999 -RA SCT035 BKN100 26/22 A2988=
201208172100 METAR MRLB 172100Z 10003KT 9999 -RA SCT035 BKN100 25/22 A2987=
201208172200 METAR MRLB 172200Z 15005KT 9999 -RA SCT030 BKN100 25/22 A2988=
201208172300 METAR MRLB 172300Z 14005KT 9999 FEW025 OVC120 26/23 A2988=
201208172350 METAR MRLB 180000Z 12003KT 9999 FEW025 OVC120 25/22 A2990=
201208180000 METAR MRLB 180000Z 12003KT 9999 FEW025 OVC120 25/22 A2990=
201208180100 METAR MRLB 180100Z 09006KT 9999 FEW025 BKN120 25/21 A2992=
201208180200 METAR MRLB 180200Z 15003KT 9999 FEW005 BKN120 24/21 A2994=
201208180300 METAR MRLB NIL=
201208180400 METAR MRLB NIL=
201208180500 METAR MRLB NIL=
201208180600 METAR MRLB NIL=
201208180700 METAR MRLB NIL=
201208180800 METAR MRLB NIL=
201208180900 METAR MRLB NIL=
201208181000 METAR MRLB NIL=
201208181100 METAR MRLB NIL=
201208181200 METAR MRLB 181200Z 19003KT CAVOK 22/21 A2988=
201208181300 METAR MRLB 181300Z 12002KT CAVOK 24/22 A2991=
201208181400 METAR MRLB 181400Z 08002KT CAVOK 26/23 A2993=
201208181500 METAR MRLB 181500Z 11007KT 9999 FEW035 BKN130 30/22 A2993=
201208181600 METAR MRLB 181600Z 13008KT 9999 FEW035 BKN130 30/22 A2993=
201208181700 METAR MRLB 181700Z 14008KT 9999 SCT035 BKN130 30/22 A2993=
201208181800 METAR MRLB 181800Z 13008KT 9999 SCT030 BKN130 30/22 A2991=
201208181900 METAR MRLB 181900Z 13008KT 9999 SCT035 BKN130 30/23 A2990=
201208182000 METAR MRLB 182000Z 15007KT 9999 SCT030 BKN130 30/23 A2986=
201208182100 METAR MRLB 182100Z 10005KT 9999 FEW030 SCT140 30/22 A2985=
201208182200 METAR MRLB 182200Z 16004KT 9999 SCT030 BKN140 30/23 A2985=
201208182300 METAR MRLB 182300Z 18003KT 9999 SCT030 BKN150 30/22 A2985=
201208182354 METAR MRLB 190000Z 09005KT 9999 VCSH BKNO20CB 28/22 A2987=
201208190000 METAR MRLB 190000Z 09005KT 9999 VCSH BKNO20CB 28/22 A2987=
201208190100 METAR MRLB 190100Z 25004KT 9999 SCT020CB BKN100 25/22 A2989=
201208190200 METAR MRLB 190200Z 25004KT 9999 FEW030 SCT120 25/22 A2991=
201208190300 METAR MRLB NIL=
201208190400 METAR MRLB NIL=
201208190500 METAR MRLB NIL=
201208190600 METAR MRLB NIL=
201208190700 METAR MRLB NIL=
201208190800 METAR MRLB NIL=
201208190900 METAR MRLB NIL=
201208191000 METAR MRLB NIL=
201208191100 METAR MRLB NIL=
201208191200 METAR MRLB 191200Z 00000KT 9999 FEW030 SCT100 23/22 A2995=
201208191300 METAR MRLB 191300Z 31003KT 9999 FEW030 SCT120 24/22 A2996=
201208191400 METAR MRLB 191400Z 13003KT CAVOK 26/24 A2997 FEW100 SCT150=
201208191500 METAR MRLB 191500Z 00000KT CAVOK 29/23 A2998 FEW100 SCT200=
201208191600 METAR MRLB 191600Z 11007KT 9999 FEW030 SCT250 31/21 A2998=
201208191700 METAR MRLB 191700Z 12007KT 9999 SCT030 BKN250 32/20 A2996=
201208191800 METAR MRLB 191800Z 12004KT 9999 SCT025 BKN250 32/21 A2994=
201208191900 METAR MRLB 191900Z 07004KT 9999 SCT025 BKN250 32/20 A2992=
201208192000 METAR MRLB 192000Z 27008KT 9999 FEW025 BKN250 32/22 A2990=
201208192100 METAR MRLB 192100Z 27009KT 9999 SCT030 BKN250 31/22 A2988=
201208192200 METAR MRLB 192200Z 27006KT 9999 SCT035 BKN250 30/21 A2988=
201208192300 METAR MRLB 192300Z 28005KT 9999 SCT035 BKN230 29/22 A2988=
201208192351 METAR MRLB 200000Z 25003KT 9999 FEW035 BKN230 28/23 A2988=
201208200000 METAR MRLB 200000Z 25003KT 9999 FEW035 BKN230 28/23 A2988=
201208200100 METAR MRLB 200100Z 34003KT 9999 FEW035 BKN230 27/23 A2989=
201208200200 METAR MRLB 200200Z 03003KT 9999 SCT030 BKN200 26/23 A2990=
201208200300 METAR MRLB NIL=
201208200400 METAR MRLB NIL=
201208200500 METAR MRLB NIL=
201208200600 METAR MRLB NIL=
201208200700 METAR MRLB NIL=
201208200800 METAR MRLB NIL=
201208200900 METAR MRLB NIL=
201208201000 METAR MRLB NIL=
201208201100 METAR MRLB NIL=
201208201200 METAR MRLB 201200Z 19003KT CAVOK 23/22 A2994=
201208201300 METAR MRLB 201300Z 00000KT CAVOK 26/23 A2994=
201208201400 METAR MRLB 201400Z 10003KT CAVOK 26/22 A2996=
201208201500 METAR MRLB 201500Z 24003KT CAVOK 28/22 A2995=
201208201600 METAR MRLB 201600Z 20003KT 9999 FEW035 BKN250 30/23 A2995=
201208201700 METAR MRLB 201700Z 19005KT 9999 FEW035 BKN250 31/22 A2993=
201208201800 METAR MRLB 201800Z 10005KT 9999 SCT030 BKN250 32/21 A2990=
201208201900 METAR MRLB 201900Z 27006KT 9999 FEW020TCU SCT030 BKN250 31/23 A2988=
201208202000 METAR MRLB 202000Z 28008KT 9999 FEW025TCU SCT030 SCT250 31/23 A2985=
201208202100 METAR MRLB 202100Z 28010KT 9999 SCT030 BKN250 30/24 A2984=
201208202200 METAR MRLB 202200Z 26010KT 9999 FEW020TCU FEW025 BKN250 30/24 A2983=
201208202300 METAR MRLB 202300Z 30005KT 9999 -TSRA FEW010CB FEW020 BKN120 28/24 A2985=
201208202351 METAR MRLB 210000Z 18006KT 9999 -RA SCT015 BKN120 25/22 A2988 RETS=
201208210000 METAR MRLB 210000Z 18006KT 9999 -RA SCT015 BKN120 25/22 A2988 RETS=
201208210100 METAR MRLB 210100Z 17004KT 9999 FEW020 BKN120 24/22 A2991=
201208210200 METAR MRLB 210200Z 14003KT 9999 FEW020 BKN120 24/22 A2993=
201208210300 METAR MRLB NIL=
201208210400 METAR MRLB NIL=
201208210500 METAR MRLB NIL=
201208210600 METAR MRLB NIL=
201208210700 METAR MRLB NIL=
201208210800 METAR MRLB NIL=
201208210900 METAR MRLB NIL=
201208211000 METAR MRLB NIL=
201208211100 METAR MRLB NIL=
201208211200 METAR MRLB 211200Z 11003KT CAVOK 22/21 A2989=
201208211300 METAR MRLB 211300Z 04003KT CAVOK 24/23 A2991=
201208211400 METAR MRLB 211400Z 15004KT 9999 FEW035 BKN250 26/24 A2993=
201208211500 METAR MRLB 211500Z 16004KT 9999 SCT030 28/24 A2993=
201208211600 METAR MRLB 211600Z 16004KT 9999 BKN030 29/23 A2993=
201208211700 METAR MRLB 211700Z 16005KT 9999 BKN030 29/23 A2992=
201208211800 METAR MRLB 211800Z 14007KT 9999 BKN030 31/23 A2989=
201208211900 METAR MRLB 211900Z 19005KT 9999 BKN030TCU 32/22 A2987=
201208212000 METAR MRLB 212000Z 27013KT 9999 SCT020TCU BKN100 30/23 A2984=
201208212100 METAR MRLB 212100Z 34010KT 9999 RA SCT015CB BKN070 26/23 A2985=
201208212200 METAR MRLB 212200Z 02008KT 5000 RA FEW010CB BKN025 24/23 A2988=
201208212300 METAR MRLB 212300Z 15007KT 7000 -TSRA SCT015CB BKN070 23/21 A2988=
201208212353 METAR MRLB 220000Z 03004KT 9999 FEW015 BKN100 23/22 A2990 RETSRA=
201208220000 METAR MRLB 220000Z 03004KT 9999 FEW015 BKN100 23/22 A2990 RETSRA=
201208220100 METAR MRLB 220100Z 05004KT 9999 FEW020 BKN100 23/22 A2989=
201208220200 METAR MRLB 220200Z 00000KT 9999 SCT020 BKN100 23/22 A2991=
201208220300 METAR MRLB NIL=
201208220400 METAR MRLB NIL=
201208220500 METAR MRLB NIL=
201208220600 METAR MRLB NIL=
201208220700 METAR MRLB NIL=
201208220800 METAR MRLB NIL=
201208220900 METAR MRLB NIL=
201208221000 METAR MRLB NIL=
201208221100 METAR MRLB NIL=
201208221200 METAR MRLB 221200Z 00000KT 0100 FG BKN001 22/22 A2992=
201208221300 METAR MRLB 221300Z 00000KT 9999 BCFG FEW015 SCT140 23/22 A2993=
201208221400 METAR MRLB 221400Z 34005KT 2000 BR FEW006 SCT100 24/23 A2995=
201208221500 METAR MRLB 221500Z 34004KT 9999 FEW008 SCT100 BKN250 25/23 A2995=
201208221600 METAR MRLB 221600Z 00000KT 9999 SCT015 BKN250 29/23 A2996=
201208221700 METAR MRLB 221700Z 27003KT 9999 SCT020 BKN250 30/25 A2992=
201208221800 METAR MRLB 221800Z 11008KT 9999 SCT020TCU SCT140 31/23 A2990=
201208221900 METAR MRLB 221900Z 06012KT 9999 SCT020TCU SCT250 32/22 A2987=
201208222000 METAR MRLB 222000Z 07008KT 9999 SCT025TCU BKN250 32/22 A2984=
201208222100 METAR MRLB 222100Z 08008KT 9999 FEW030 BKN250 32/21 A2982=
201208222200 METAR MRLB 222200Z 06012KT 9999 SCT030 BKN250 31/21 A2981=
201208222300 METAR MRLB 222300Z 08007KT 9999 SCT035 BKN140 30/21 A2984=
201208222350 METAR MRLB 230000Z 12006KT 9999 SCT035 BKN140 28/21 A2986=
201208230000 METAR MRLB 230000Z 12006KT 9999 SCT035 BKN140 28/21 A2986=
201208230100 METAR MRLB 230100Z 11009KT 9999 SCT030 BKN130 27/21 A2989=
201208230200 METAR MRLB 230200Z 12008KT 9999 SCT030 BKN130 26/22 A2991=
201208230300 METAR MRLB NIL=
201208230400 METAR MRLB NIL=
201208230500 METAR MRLB NIL=
201208230600 METAR MRLB NIL=
201208230700 METAR MRLB NIL=
201208230800 METAR MRLB NIL=
201208230900 METAR MRLB NIL=
201208231000 METAR MRLB NIL=
201208231100 METAR MRLB NIL=
201208231200 METAR MRLB 231200Z 09003KT 9999 SCT030 BKN250 23/22 A2988=
201208231300 METAR MRLB 231300Z 00000KT 9999 FEW030 BKN250 26/23 A2989=
201208231400 METAR MRLB 231400Z 18004KT 9999 FEW035 BKN250 27/24 A2990=
201208231500 METAR MRLB 231500Z 20003KT 9999 SCT035 BKN250 28/23 A2991=
201208231600 METAR MRLB 231600Z 24003KT 9999 SCT030 BKN250 30/23 A2991=
201208231700 METAR MRLB 231700Z 16003KT 9999 SCT030 BKN250 31/22 A2990=
201208231800 METAR MRLB 231800Z 14005KT 9999 SCT030 BKN250 31/23 A2987=
201208231900 METAR MRLB 231900Z 22004KT 9999 SCT030 BKN250 31/23 A2986=
201208232000 METAR MRLB 232000Z 28007KT 9999 FEW030 OVC250 31/23 A2981=
201208232100 METAR MRLB 232100Z 27007KT 9999 SCT025 BKN250 31/23 A2980=
201208232200 METAR MRLB 232200Z 19007KT 9999 FEW020TCU FEW025 BKN250 30/23 A2981=
201208232300 METAR MRLB 232300Z 23007KT 9999 FEW020 SCT140 BKN250 28/23 A2982=
201208232349 METAR MRLB 240000Z 23005KT 9999 SCT020 BKN130 27/23 A2983=
201208240000 METAR MRLB 240000Z 23005KT 9999 SCT020 BKN130 27/23 A2983=
201208240100 METAR MRLB 240100Z 21002KT 9999 SCT020 BKN130 26/23 A2987=
201208240200 METAR MRLB 240200Z 12003KT 9999 FEW005 BKN130 26/23 A2988=
201208240300 METAR MRLB NIL=
201208240400 METAR MRLB NIL=
201208240500 METAR MRLB NIL=
201208240600 METAR MRLB NIL=
201208240700 METAR MRLB NIL=
201208240800 METAR MRLB NIL=
201208240900 METAR MRLB NIL=
201208241000 METAR MRLB NIL=
201208241100 METAR MRLB NIL=
201208241200 METAR MRLB 241200Z 06002KT 1000 BR SCT030 BKN250 23/22 A2986=
201208241300 METAR MRLB 241300Z 04002KT 9999 FEW005 SCT025 BKN250 24/23 A2989=
201208241400 METAR MRLB 241400Z COR 11002KT 9999 FEW010 OVC250 27/24 A2989=
201208241500 METAR MRLB 241500Z 25002KT 9999 SCT020 BKN250 28/24 A2989=
201208241600 METAR MRLB 241600Z 25004KT 9999 SCT025 BKN250 29/23 A2987=
201208241700 METAR MRLB 241700Z 06003KT 9999 SCT035 BKN250 30/22 A2985=
201208241800 METAR MRLB 241800Z 26003KT 9999 SCT035 BKN250 32/22 A2982=
201208241900 METAR MRLB 241900Z 30005KT 9999 SCT035 BKN250 31/22 A2979=
201208242000 METAR MRLB 242000Z 28008KT 9999 SCT030 BKN250 32/23 A2976=
201208242100 METAR MRLB 242100Z 29009KT 9999 SCT030 BKN250 31/23 A2974=
201208242200 METAR MRLB 242200Z 27010KT 9999 FEW030 BKN250 30/23 A2973=
201208242300 METAR MRLB 242300Z 26007KT 9999 SCT035 BKN250 29723 A2976=
201208242351 METAR MRLB 250000Z 26010KT 9999 FEW035 SCT250 28/23 A2978=
201208250000 METAR MRLB 250000Z 26010KT 9999 FEW035 SCT250 28/23 A2978=
201208250100 METAR MRLB 250100Z 23007KT 9999 FEW040 27/23 A2981=
201208250200 METAR MRLB 250200Z 18003KT 9999 FEW030 SCT140 26/23 A2982=
201208250300 METAR MRLB NIL=
201208250400 METAR MRLB NIL=
201208250500 METAR MRLB NIL=
201208250600 METAR MRLB NIL=
201208250700 METAR MRLB NIL=
201208250800 METAR MRLB NIL=
201208250900 METAR MRLB NIL=
201208251000 METAR MRLB NIL=
201208251100 METAR MRLB NIL=
201208251200 METAR MRLB 251200Z 14004KT 9999 BKN020 24/23 A2981=
201208251300 METAR MRLB 251300Z 16003KT 7000 VCFG FEW003 SCT020 24/23 A2983=
201208251400 METAR MRLB 251400Z 00000KT 9999 FEW008 SCT025TCU 26/24 A2985=
201208251500 METAR MRLB 251500Z 00000KT 9999 FEW008 SCT018TCU 28/24 A2984=
201208251600 METAR MRLB 251600Z 03005KT 9999 SCT010TCU SCT025 29/24 A2984=
201208251700 METAR MRLB 251700Z 22009KT 9999 5000SW VCSH FEW010TCU SCT025 BKN250 29/24 A2983=
201208251800 METAR MRLB 251800Z 25007KT 9999 SCT020TCU BKN250 29/24 A2981=
201208251900 METAR MRLB 251900Z 28007KT 9999 FEW015CB SCT025 BKN100 30/24 A2978=
201208252000 METAR MRLB 252000Z 09008KT 9000 TSRA SCT012CB BKN025 26/23 A2978 VIS S 1KM=
201208252100 METAR MRLB 252100Z 07006KT 9999 3000E RA SCT010CB BKN025 24/23 A2978 RETSRA=
201208252200 METAR MRLB 252200Z 15003KT 9999 VCSH SCT025 BKN100 25/23 A2979 RERA=
201208252300 METAR MRLB 252300Z 05003KT 9999 SCT030 BKN100 25/23 A2979=
201208252351 METAR MRLB 260000Z 09003KT 9999 FEW030 BKN120 24/23 A2980=
201208260000 METAR MRLB 260000Z 09003KT 9999 FEW030 BKN120 24/23 A2980=
201208260100 METAR MRLB 260100Z 12003KT 9999 SCT030 BKN120 24/23 A2981=
201208260200 METAR MRLB 260200Z 09005KT 9999 SCT025 BKN120 24/23 A2985=
201208260300 METAR MRLB NIL=
201208260400 METAR MRLB NIL=
201208260500 METAR MRLB NIL=
201208260600 METAR MRLB NIL=
201208260700 METAR MRLB NIL=
201208260800 METAR MRLB NIL=
201208260900 METAR MRLB NIL=
201208261000 METAR MRLB NIL=
201208261100 METAR MRLB NIL=
201208261200 METAR MRLB 261200Z 00000KT 0300 FG VV/// 23/22 A2982=
201208261300 METAR MRLB 261300Z 18003KT 9999 SCT025 SCT250 24/23 A2986=
201208261400 METAR MRLB 261400Z 00000KT 9999 SCT025 BKN250 26/24 A2989=
201208261500 METAR MRLB 261500Z 14006KT 9999 FEW030 BKN250 26/24 A2989=
201208261600 METAR MRLB 261600Z 12003KT 9999 SCT030 BKN250 29/24 A2989=
201208261700 METAR MRLB 261700Z 15005KT 9999 SCT025 BKN250 29/24 A2988=
201208261800 METAR MRLB 261800Z 16006KT 9999 VCSH FEW020TCU SCT030 BKN250 29/24 A2986=
201208261900 METAR MRLB 261900Z 20007KT 9999 VCSH FEW020TCU SCT035 BKN200 30/24 A2983=
201208262000 METAR MRLB 262000Z 29009KT 9999 VCSH FEW020TCU SCT030 BKN140 28/23 A2983=
201208262100 METAR MRLB 262100Z 06007KT 9999 VCSH FEW020 BKN130 28/24 A2981=
201208262200 METAR MRLB 262200Z 03007KT 9999 SCT010 BKN020 26/23 A26/23 A2981=
201208262300 METAR MRLB 262300Z 07003KT 9999 BKN020 SCT080 26/23 A2982=
201208262350 METAR MRLB 270000Z 06002KT 9999 -RA SCT010 SCT020 26/23 A2984=
201208270000 METAR MRLB 270000Z 06002KT 9999 -RA SCT010 SCT020 26/23 A2984=
201208270100 METAR MRLB 270100Z 22004KT 9999 -RA SCT010 BKN020 25/23 A2986=
201208270200 METAR MRLB 270200Z 25002KT 9999 SCT020 BKN100 25/23 A2988=
201208270300 METAR MRLB NIL=
201208270400 METAR MRLB NIL=
201208270500 METAR MRLB NIL=
201208270600 METAR MRLB NIL=
201208270700 METAR MRLB NIL=
201208270800 METAR MRLB NIL=
201208270900 METAR MRLB NIL=
201208271000 METAR MRLB NIL=
201208271100 METAR MRLB NIL=
201208271200 METAR MRLB 271200Z 18002KT 9999 SCT020 BKN120 23/22 A2989=
201208271300 METAR MRLB 271300Z 15004KT 5000 2000S BR FEW002 BKN100 24/23 A2990=
201208271400 METAR MRLB 271400Z 00000KT 9999 SCT010 BKN250 26/24 A2991=
201208271500 METAR MRLB 271500Z 16002KT 9999 SCT020 SCT250 28/25 A2990=
201208271600 METAR MRLB 271600Z 00000KT 9999 SCT020 SCT250 28/24 A2990=
201208271700 METAR MRLB 271700Z 17004KT 9999 SCT025 SCT250 30/24 A2989=
201208271800 METAR MRLB 271800Z 19005KT 9999 SCT030 SCT250 31/25 A2986=
201208271900 METAR MRLB 271900Z 26004KT 9999 BKN030 SCT250 31/24 A2983=
201208272000 METAR MRLB 272000Z 28009KT 9999 SCT025TCU BKN250 31/24 A2979=
201208272100 METAR MRLB 272100Z 02013KT 0300 TSRA SCT010CB BKN025 25/22 A2982=
201208272200 METAR MRLB 272200Z 30003KT 9999 DZ SCT020TCU BKN100 25/23 A2980 RETSRA=
201208272300 METAR MRLB 272300Z 07004KT 9999 DZ FEW015TCU SCT030 BKN100 25/24 A2982=
201208272351 METAR MRLB 280000Z 07003KT 9999 SCT020CB BKN100 25/24 A2984 REDZ=
201208280000 METAR MRLB 280000Z 07003KT 9999 SCT020CB BKN100 25/24 A2984 REDZ=
201208280100 METAR MRLB 280100Z 06004KT 9999 SCT020 BKN100 25/24 A2987 LTNG DST N=
201208280200 METAR MRLB 280200Z 00000KT 8000 -RA FEW015 OVC100 25/24 A2989=
201208280300 METAR MRLB NIL=
201208280400 METAR MRLB NIL=
201208280500 METAR MRLB NIL=
201208280600 METAR MRLB NIL=
201208280700 METAR MRLB NIL=
201208280800 METAR MRLB NIL=
201208280900 METAR MRLB NIL=
201208281000 METAR MRLB NIL=
201208281100 METAR MRLB NIL=
201208281200 METAR MRLB 281200Z 22003KT CAVOK 23/22 A2985 FEW100 BKN250=
201208281300 METAR MRLB 281300Z 00000KT 8000 VCFG FEW005 SCT250 25/23 A2986=
201208281400 METAR MRLB 281400Z 33003KT 9999 FEW010 BKN250 26/24 A2987=
201208281500 METAR MRLB 281500Z 12003KT 9999 FEW015 SCT250 29/25 A2990=
201208281600 METAR MRLB 281600Z 07007KT 9999 FEW020 BKN250 31/25 A2988=
201208281700 METAR MRLB 281700Z 12007KT 9999 FEW020 BKN250 31/24 A2987=
201208281800 METAR MRLB 281800Z 07009KT 9999 SCT020 BKN250 32/24 A2984=
201208281900 METAR MRLB 281900Z 09005KT 9999 FEW015 SCT100 BKN250 31/22 A2983=
201208282000 METAR MRLB 282000Z 09004KT 9999 FEW030 BKN120 30/23 A2982=
201208282100 METAR MRLB 282100Z 13005KT 9999 FEW035 BKN120 29/23 A2980=
201208282200 METAR MRLB 282200Z 10008KT 9999 FEW035 BKN130 28/23 A2979=
201208282300 METAR MRLB 282300Z 15003KT 9999 FEW035 BKN130 27/23 A2981=
201208282351 METAR MRLB 290000Z 16005KT 9999 FEW035 BKN130 27/23 A2982=
201208290000 METAR MRLB 290000Z 16005KT 9999 FEW035 BKN130 27/23 A2982=
201208290100 METAR MRLB 290100Z 00000KT 9999 FEW030 BKN130 26/23 A2984=
201208290200 METAR MRLB 290200Z 05003KT 9999 SCT030 BKN120 26/23 A2987=
201208290300 METAR MRLB NIL=
201208290400 METAR MRLB NIL=
201208290500 METAR MRLB NIL=
201208290600 METAR MRLB NIL=
201208290700 METAR MRLB NIL=
201208290800 METAR MRLB NIL=
201208290900 METAR MRLB NIL=
201208291000 METAR MRLB NIL=
201208291100 METAR MRLB NIL=
201208291200 METAR MRLB 291200Z 00000KT 9999 FEW030 BKN130 22/21 A2983=
201208291300 METAR MRLB 291300Z 00000KT 9999 FEW030 BKN140 24/23 A2986=
201208291400 METAR MRLB 291400Z 00000KT 9999 FEW030 BKN250 26/23 A2989=
201208291500 METAR MRLB 291500Z 15003KT 9999 FEW035 BKN250 27/24 A2988=
201208291600 METAR MRLB 291600Z 10003KT 9999 SCT035 BKN250 29/24 A2988=
201208291700 METAR MRLB 291700Z 09004KT 9999 SCT035 BKN250 30/24 A2987=
201208291800 METAR MRLB 291800Z 08007KT 9999 SCT035 BKN250 31/23 A2984=
201208291900 METAR MRLB 291900Z 10008KT 9999 SCT035 BKN250 32/23 A2981=
201208292000 METAR MRLB 292000Z 13003KT 9999 SCT030 BKN250 32/23 A2977=
201208292100 METAR MRLB 292120 06013KT 4000 2000E +TSRA SCT010CB BKN120 23/20 A2977=
201208292120 METAR MRLB 292120Z 06013KT 4000 2000E +TSRA SCT010CB BKN120 23/20 A2977=
201208292150 METAR MRLB 292120 06013KT 4000 2000E +TSRA SCT010CB BKN120 23/20 A2977=
201208292200 METAR MRLB 292200Z 26006KT 999 -RAVCTS FEW020 OVC100 23/21 A2973=
201208292300 METAR MRLB 292300Z 03005KT 9999 FEW020 OVC100 23/21 A2977=
201208292348 METAR MRLB 300000Z 05004KT 9999 -RA SCT020 BKN100 23/22 A2980=
201208300000 METAR MRLB 300000Z 05004KT 9999 -RA SCT020 BKN100 23/22 A2980=
201208300100 METAR MRLB 300100Z 21003KT 9999 SCT020 BKN100 23/22 A2983=
201208300200 METAR MRLB 300200Z 05002KT 9999 FEW020 OVC100 24/22 A2985=
201208300300 METAR MRLB NIL=
201208300400 METAR MRLB NIL=
201208300500 METAR MRLB NIL=
201208300600 METAR MRLB NIL=
201208300700 METAR MRLB NIL=
201208300800 METAR MRLB NIL=
201208300900 METAR MRLB NIL=
201208301000 METAR MRLB NIL=
201208301100 METAR MRLB NIL=
201208301200 METAR MRLB 301200Z 05003KT 9999 FEW030 OVC140 22/21 A2985=
201208301300 METAR MRLB 301300Z 00000KT 9999 FEW030 OVC140 22/22 A2986=
201208301400 METAR MRLB 301400Z 04005KT 9999 FEW008 OVC140 23/22 A2988=
201208301500 METAR MRLB 301500Z 00000KT 9999 FEW015 OVC250 24/23 A2990=
201208301600 METAR MRLB 301600Z 20005KT 9999 FEW030 SCT140 BKN250 26/24 A2991=
201208301700 METAR MRLB 301700Z 16003KT 9999 FEW030 SCT140 BKN250 29/25 A2990=
201208301800 METAR MRLB 301800Z 13002KT 9999 4000E -TSRA FEW010CB BKN020 30/24 A2988=
201208301900 METAR MRLB 301900Z 26005KT 9999 SCT020 BKN130 26/23 A2986 RETS=
201208302000 METAR MRLB 302000Z 06014KT 9999 0500E TSRA SCT010CB BKN030 26/22 A2985=
201208302100 METAR MRLB 302100Z 26005KT 9999 DZ FEW010 SCT025CB BKN100 23/21 A2982=
201208302200 METAR MRLB 302200Z 00000KT 9999 SCT025 BKN100 23/22 A2984 REDZ=
201208302300 METAR MRLB 302300Z 03003KT 9999 FEW030 BKN100 23/22 A2986=
201208302354 METAR MRLB 310000Z 04004KT 9999 FEW025 BKN250 23/22 A2987=
201208310000 METAR MRLB 310000Z 04004KT 9999 FEW025 BKN250 23/22 A2987=
201208310100 METAR MRLB 310100Z 03003KT 9999 FEW025 BKN120 23/22 A2989=
201208310107 METAR MRLB 310107Z 03003KT 9999 FEW025 BKN120 23/22 A2989=
201208310200 METAR MRLB 310200Z 05004KT 9999 FEW025 BKN120 23/22 A2990=
201208310300 METAR MRLB NIL=
201208310400 METAR MRLB NIL=
201208310500 METAR MRLB NIL=
201208310600 METAR MRLB NIL=
201208310700 METAR MRLB NIL=
201208310800 METAR MRLB NIL=
201208310900 METAR MRLB NIL=
201208311000 METAR MRLB NIL=
201208311100 METAR MRLB NIL=
201208311200 METAR MRLB 311200Z 18004KT CAVOK 22/21 A2987 FEW100=
201208311203 METAR MRLB 311203Z 18004KT CAVOK 22/21 A2987 FEW100 SCT250=
201208311253 METAR MRLB 311253Z 15005KT CAVOK 24/22 A2990 FEW100 SCT250=
201208311300 METAR MRLB 311300Z 15005KT CAVOK 24/22 A2990 FEW100 SCT250=
201208311358 METAR MRLB 311358Z 12005KT CAVOK 26/23 A2992 SCT250=
201208311400 METAR MRLB 311400Z 12005KT CAVOK 26/23 A2992 SCT250=
201208311500 METAR MRLB 311500Z 24003KT 9999 FEW020 SCT250 28/24 A2991=
201208311600 METAR MRLB 311600Z 24005KT 9999 SCT030 BKN250 29/24 A2993=
201208311700 METAR MRLB 311700Z 14004KT 9999 SCT025 BKN250 30/23 A2993=
201208311800 METAR MRLB 311800Z 34004KT 9999 SCT025 BKN250 31/23 A2991=
201208311900 METAR MRLB 311900Z 27006KT 9999 SCT020TCU BKN140 30/24 A2988=
201208312000 METAR MRLB 312000Z 28008KT 9999 VCSH FEW020CB SCT030 BKN140 30/24 A2986=
201208312100 METAR MRLB 312100Z 07004KT 9999 4000SW -TSRA FEW010CB SCT020 BKN130 26/23 A2986=
201208312200 METAR MRLB 312200Z 20007KT 9999 -DZ SCT025 BKN100 23/21 A2990 RETSRA=
201208312300 METAR MRLB 312300Z 15003KT 9999 FEW030 BKN100 23/21 A2989=
201208312350 METAR MRLB 010000Z 03003KT 9999 FEW025 BKN100 23/22 A2988=
201209010000 METAR MRLB 010000Z 03003KT 9999 FEW025 BKN100 23/22 A2988=
201209010100 METAR MRLB 010100Z 16003KT 9999 FEW030 BKN100 23/22 A2989=
201209010200 METAR MRLB 010200Z 19004KT 9999 FEW030 BKN110 23/22 A2991=
201209010300 METAR MRLB NIL=
201209010400 METAR MRLB NIL=
201209010500 METAR MRLB NIL=
201209010600 METAR MRLB NIL=
201209010700 METAR MRLB NIL=
201209010800 METAR MRLB NIL=
201209010900 METAR MRLB NIL=
201209011000 METAR MRLB NIL=
201209011100 METAR MRLB NIL=
201209011200 METAR MRLB 011200Z 05004KT 9999 1500E BCFG SCT003 SCT250 21/20 A2990=
201209011300 METAR MRLB 011300Z 05004KT CAVOK 24/22 A2991=
201209011400 METAR MRLB 011400Z 00000KT CAVOK 26/23 A2991=
201209011500 METAR MRLB 011500Z 16003KT CAVOK 28/24 A2991=
201209011600 METAR MRLB 011600Z 08008KT 9999 FEW030 BKN250 30/23 A2992=
201209011700 METAR MRLB 011700Z 09007KT 9999 FEW030 BKN250 31/22 A2991=
201209011800 METAR MRLB 011800Z 09005KT 9999 FEW035 BKN200 31/22 A2990=
201209011900 METAR MRLB 011900Z 06007KT 9999 FEW035 BKN200 32/21 A2988=
201209012000 METAR MRLB 012000Z 09007KT 9999 FEW035 BKN200 31/21 A2985=
201209012100 METAR MRLB 012100Z 10004KT 9999 SCT030 BKN250 32/22 A2985=
201209012200 METAR MRLB 012200Z 03007KT 9999 FEW030 OVC130 30/22 A2983=
201209012300 METAR MRLB 012300Z 07007KT 9999 SCT030 BKN130 29/22 A2984=
201209012345 METAR MRLB 020000Z 28004 9999 SCT035 BKN130 27/22 A2987=
201209012347 METAR MRLB COR 020000Z 28004KT 9999 SCT035 BKN130 27/22 A2987=
201209020000 METAR MRLB 020000Z COR 28004KT 9999 SCT035 BKN130 27/22 A2987=
201209020100 METAR MRLB 020100Z 21002KT 9999 SCT035 BKN130 27/22 A2989=
201209020200 METAR MRLB 020200Z 07010KT 9999 SCT035 BKN130 27/22 A2990=
201209020300 METAR MRLB NIL=
201209020400 METAR MRLB NIL=
201209020500 METAR MRLB NIL=
201209020600 METAR MRLB NIL=
201209020700 METAR MRLB NIL=
201209020800 METAR MRLB NIL=
201209020900 METAR MRLB NIL=
201209021000 METAR MRLB NIL=
201209021100 METAR MRLB NIL=
201209021200 METAR MRLB 021200Z 11004KT 9999 FEW030 OVC250 23/21 A2988=
201209021300 METAR MRLB 021300Z 09002KT 9999 FEW030 OVC250 25/22 A2990=
201209021400 METAR MRLB 021400Z COR 14003KT 9999 FEW035 OVC250 28/23 A2992=
201209021500 METAR MRLB 021500Z 27004KT 9999 FEW035 OVC250 29/24 A2993=
201209021600 METAR MRLB 021600Z 07014KT 9999 FEW035 OVC250 30/22 A2993=
201209021700 METAR MRLB 021700Z 09008KT 9999 SCT035 BKN250 31/23 A2992=
201209021800 METAR MRLB 021800Z 07006KT 9999 FEW035 SCT140 BKN250 31/22 A2990=
201209021900 METAR MRLB 021900Z 08011KT 9999 SCT035 BKN130 32/21 A2987=
201209022000 METAR MRLB 022000Z 08008KT 9999 SCT030 BKN140 31/21 A2985=
201209022100 METAR MRLB 022100Z 05010KT 9999 SCT030 BKN120 31/22 A2984=
201209022200 METAR MRLB 022200Z 07007KT 9999 FEW030 SCT120 31/22 A2984=
201209022300 METAR MRLB 022300Z 11004KT 9999 FEW025 SCT120 29/22 A2985=
201209022349 METAR MRLB 030000Z 10005KT 9999 FEW030 SCT100 28/22 A2987=
201209030000 METAR MRLB 030000Z 10005KT 9999 FEW030 SCT100 28/22 A2987=
201209030100 METAR MRLB 030100Z 12006KT 9999 FEW030 SCT100 27/22 A2988=
201209030200 METAR MRLB 030200Z 10006KT 9999 FEW030 SCT140 27/21 A2990=
201209030300 METAR MRLB NIL=
201209030400 METAR MRLB NIL=
201209030500 METAR MRLB NIL=
201209030600 METAR MRLB NIL=
201209030700 METAR MRLB NIL=
201209030800 METAR MRLB NIL=
201209030900 METAR MRLB NIL=
201209031000 METAR MRLB NIL=
201209031100 METAR MRLB NIL=
201209031200 METAR MRLB 031200Z 00000KT CAVOK 23/21 A2990 FEW100 BKN250=
201209031300 METAR MRLB 031300Z 00000KT 9999 FEW035 SCT100 24/22 A2994=
201209031400 METAR MRLB 031400Z 29004KT 9999 FEW040 SCT120 26/23 A2995=
201209031500 METAR MRLB 031500Z 27005KT 9999 FEW035 SCT140 27/23 A2997=
201209031600 METAR MRLB 031600Z 07013KT 9999 FEW030 BKN140 28/22 A2997=
201209031700 METAR MRLB 031700Z 01005KT 9999 FEW030 BKN180 30/22 A2996=
201209031800 METAR MRLB 031800Z 09010KT 9999 FEW025 SCT120 BKN250 31/22 A2993=
201209031900 METAR MRLB 031900Z 09010KT 9999 FEW025 SCT140 30/21 A2991=
201209032000 METAR MRLB 032000Z 10010KT 9999 SCT035 SCT140 30/21 A2989=
201209032100 METAR MRLB 032100Z 10006KT 9999 FEW030 BKN140 30/21 A2988=
201209032200 METAR MRLB 032200Z 09006KT 9999 FEW035 BKN200 30/22 A2985=
201209032300 METAR MRLB 032300Z 06003KT 9999 FEW035 BKN140 29/22 A2987=
201209032352 METAR MRLB 040000Z 12007KT 9999 FEW035 BKN140 27/21 A2989=
201209040000 METAR MRLB 040000Z 12007KT 9999 FEW035 BKN140 27/21 A2989=
201209040100 METAR MRLB 040100Z 14006KT 9999 FEW035 BKN140 26/21 A2991=
201209040200 METAR MRLB 040200Z 13007KT 9999 SCT030 BKN140 26/21 A2993=
201209040300 METAR MRLB NIL=
201209040400 METAR MRLB NIL=
201209040500 METAR MRLB NIL=
201209040600 METAR MRLB NIL=
201209040700 METAR MRLB NIL=
201209040800 METAR MRLB NIL=
201209040900 METAR MRLB NIL=
201209041000 METAR MRLB NIL=
201209041100 METAR MRLB NIL=
201209041200 METAR MRLB 041200Z 14004KT 9999 FEW030 BKN130 23/21 A2990=
201209041300 METAR MRLB 041300Z 19003KT 9999 FEW030 SCT130 25/22 A2990=
201209041400 METAR MRLB 041400Z 19005KT 9999 FEW035 BKN250 28/23 A2992=
201209041500 METAR MRLB 041500Z 07005KT 9999 FEW035 BKN250 29/23 A2993=
201209041600 METAR MRLB 041600Z 11007KT 9999 FEW035 BKN250 30/22 A2995=
201209041700 METAR MRLB 041700Z 10007KT 9999 FEW035 BKN140 30/22 A2995=
201209041800 METAR MRLB 041800Z 08007KT 9999 FEW035 BKN140 31/22 A2993=
201209041900 METAR MRLB 041900Z 12007KT 9999 SCT035 BKN140 31/22 A2991=
201209042000 METAR MRLB 042000Z 10010KT 9999 VCSH SCT025 BKN120 29/20 A2989=
201209042100 METAR MRLB 042100Z 10003KT 9999 -TS VCSH FEW015CB SCT020 BKN120 31/21 A2987=
201209042200 METAR MRLB 042200Z 13006KT 9999 -RA SCT020 OVC120 26/22 A2988 RETS=
201209042300 METAR MRLB 042300Z 27003KT 9999 FEW020 OVC120 27/23 A2990=
201209042343 METAR MRLB 050000Z 17002KT 9999 FEW020 OVC120 27/23 A2991=
201209050000 METAR MRLB 050000Z 17002KT 9999 FEW020 OVC120 27/23 A2991=
201209050100 METAR MRLB 050100Z 07003KT 9999 FEW020 OVC120 26/23 A2992=
201209050200 METAR MRLB 050200Z 00000KT 9999 FEW020 OVC120 26/23 A2994=
201209050300 METAR MRLB NIL=
201209050400 METAR MRLB NIL=
201209050500 METAR MRLB NIL=
201209050600 METAR MRLB NIL=
201209050700 METAR MRLB NIL=
201209050800 METAR MRLB NIL=
201209050900 METAR MRLB NIL=
201209051000 METAR MRLB NIL=
201209051100 METAR MRLB NIL=
201209051200 METAR MRLB 051200Z 17006KT 0500 FG SCT002 BKN250 23/22 A2989=
201209051300 METAR MRLB 051300Z 17004KT 9999 FEW005 BKN250 24/23 A2990=
201209051400 METAR MRLB 051400Z 08002KT 9999 SCT010 BKN250 25/24 A2993=
201209051500 METAR MRLB 051500Z 21003KT 9999 SCT030 SCT250 27/24 A2993=
201209051600 METAR MRLB 051600Z 18003KT 9999 SCT030 SCT250 29/24 A2994=
201209051700 METAR MRLB 051700Z 10004KT 9999 -RA BKN025 29/25 A2993=
201209051800 METAR MRLB 051800Z 17003KT 9999 -RA BKN020 30/26 A2991=
201209051900 METAR MRLB 051900Z 28005KT 9999 VCSH SCT020TCU BKN250 29/24 A2988=
201209052000 METAR MRLB 052000Z 01012KT 9000 TSRA SCT012CB BKN070 24/21 A2987=
201209052100 METAR MRLB 052100Z 28004KT 9999 SCT020TCU BKN120 25/22 A2987 RETSRA=
201209052200 METAR MRLB 052200Z 06006KT 9999 FEW020 BKN150 26/23 A2986=
201209052300 METAR MRLB NIL=
201209052349 METAR MRLB 060000Z 08004KT 9999 -RA SCT020 BKN100 25/23 A2988=
201209060000 METAR MRLB 060000Z 08004KT 9999 -RA SCT020 BKN100 25/23 A2988=
201209060100 METAR MRLB 060100Z 06003KT 9000 SCT020 OVC100 25/23 A2991 RERA=
201209060200 METAR MRLB 060200Z 16003KT 9000 SCT020 OVC100 24/23 A2994=
201209060300 METAR MRLB NIL=
201209060400 METAR MRLB NIL=
201209060500 METAR MRLB NIL=
201209060600 METAR MRLB NIL=
201209060700 METAR MRLB NIL=
201209060800 METAR MRLB NIL=
201209060900 METAR MRLB NIL=
201209061000 METAR MRLB NIL=
201209061100 METAR MRLB NIL=
201209061200 METAR MRLB 061200Z 00000KT 9000 VCFG FEW005 SCT100 22/22 A2989=
201209061300 METAR MRLB 061300Z 10003KT 0200 FG BKN001 23/22 A2990=
201209061400 METAR MRLB 061400Z 19003KT 9999 FEW010 SCT100 25/23 A2991=
201209061500 METAR MRLB 061500Z 21005KT CAVOK 27/25 A2991 SCT250=
201209061600 METAR MRLB 061600Z 07008KT CAVOK 30/25 A2991 SCT250=
201209061700 METAR MRLB 061700Z 13009KT 9999 FEW025 SCT250 32/23 A2990=
201209061800 METAR MRLB 061800Z 24004KT 9999 SCT025TCU BKN250 32/22 A2989=
201209061900 METAR MRLB 061900Z 26008KT 9999 SCT025 BKN250 30/24 A2986=
201209062000 METAR MRLB 062000Z 27010KT 9999 SCT030 BKN250 30/24 A2984=
201209062100 METAR MRLB 062100Z 28010KT 9999 SCT025 BKN250 30/24 A2982=
201209062200 METAR MRLB 062200Z 26009KT 9999 4000E -RA FEW020CB SCT030 BKN140 29/23 A2982=
201209062300 METAR MRLB 062300Z 24006KT 9999 4000E -TSRA FEW010CB SCT025 BKN120 25/22 A2986=
201209062351 METAR MRLB 070000Z 32005KT 9999 SCT025 BKN140 24/21 A2986 RETSRA=
201209070000 METAR MRLB 070000Z 32005KT 9999 SCT025 BKN140 24/21 A2986 RETSRA=
201209070100 METAR MRLB 070100Z 03005KT 9999 SCT030 BKN130 24/22 A2987=
201209070200 METAR MRLB 070200Z 06005KT 9999 SCT025 BKN120 24/22 A2988=
201209070300 METAR MRLB NIL=
201209070400 METAR MRLB NIL=
201209070500 METAR MRLB NIL=
201209070600 METAR MRLB NIL=
201209070700 METAR MRLB NIL=
201209070800 METAR MRLB NIL=
201209070900 METAR MRLB NIL=
201209071000 METAR MRLB NIL=
201209071100 METAR MRLB NIL=
201209071200 METAR MRLB 071200Z 06004KT 9999 SCT020 BKN140 23/22 A2988=
201209071300 METAR MRLB 071300Z 03006KT 9999 SCT025 BKN140 24/23 A2989=
201209071400 METAR MRLB 071400Z 07005KT 9999 FEW025 BKN140 26/24 A2991=
201209071500 METAR MRLB 071500Z 18006KT 9999 SCT030 BKN140 27/25 A2992=
201209071600 METAR MRLB 071600Z 17006KT 9999 SCT030 BKN140 28/25 A2991=
201209071700 METAR MRLB 071700Z 16005KT 9999 SCT030 BKN140 30/25 A2990=
201209071800 METAR MRLB 071800Z 15005KT 9999 SCT035 BKN250 31/25 A2986=
201209071900 METAR MRLB 071900Z 12003KT 9999 FEW020TCU SCT030 BKN200 32/24 A2984=
201209072000 METAR MRLB 072000Z 10005KT 9999 -RA SCT025TCU BKN200 32/23 A2981=
201209072100 METAR MRLB 072100Z 29011KT 9999 SCT025 BKN130 29/24 A2980=
201209072200 METAR MRLB 072200Z 27009KT 9999 FEW020TCU BKN130 29/24 A2979=
201209072300 METAR MRLB 072300Z 27008KT 9999 FEW010TCU SCT020 BKN120 28/24 A2981=
201209072349 METAR MRLB 080000Z 17008KT 1000 SHRA OVC015 25/22 A2986=
201209080000 METAR MRLB 080000Z 17008KT 1000 SHRA OVC015 25/22 A2986=
201209080100 METAR MRLB 080100Z 21005KT 9999 VCSH SCT015 BKN100 23/22 A2987=
201209080200 METAR MRLB 080200Z 15002KT 9999 FEW005 SCT015 BKN100 24/23 A2988=
201209080300 METAR MRLB NIL=
201209080400 METAR MRLB NIL=
201209080500 METAR MRLB NIL=
201209080600 METAR MRLB NIL=
201209080700 METAR MRLB NIL=
201209080800 METAR MRLB NIL=
201209080900 METAR MRLB NIL=
201209081000 METAR MRLB NIL=
201209081100 METAR MRLB NIL=
201209081200 METAR MRLB 081200Z 14004KT 9999 FEW005 OVC250 23/22 A2985=
201209081240 METAR MRLB 081240Z 18006KT 0200 FG VV/// 23/22 A2986=
201209081300 METAR MRLB 081300Z 17006KT 0200 FG VV/// 23/23 A2987=
201209081400 METAR MRLB 081400Z 16004KT 9999 FEW010 BKN250 25/24 A2990=
201209081500 METAR MRLB 081500Z 19002KT 9999 SCT020 BKN140 25/25 A2991=
201209081600 METAR MRLB 081600Z 29005KT 9999 SCT025 BKN250 27/25 A2990=
201209081700 METAR MRLB 081700Z 13005KT 9999 SCT030 BKN250 29/25 A2989=
201209081800 METAR MRLB 081800Z 21006KT 9999 BKN030 SCT250 30/24 A2986=
201209081900 METAR MRLB 081900Z 17004KT 9999 BKN025 31/23 A2982=
201209082000 METAR MRLB 082000Z 28012KT 9999 TS VCSH SCT020CB BKN100 26/23 A2980 RERA=
201209082100 METAR MRLB 082100Z 26008KT 9999 SCT025TCU BKN100 24/22 A2981=
201209082200 METAR MRLB 082200Z 22004KT 9999 SCT030TCU BKN100 24/22 A2982=
201209082300 METAR MRLB 082300Z 35004KT 9999 SCT020TCU BKN100 25/23 A2983=
201209082352 METAR MRLB 090000Z 06010KT 1000 TSRA SCT015CB OVC100 23/23 A2987=
201209090000 METAR MRLB 090000Z 06010KT 1000 TSRA SCT015CB OVC100 23/23 A2987=
201209090100 METAR MRLB 090100Z 15005KT 9000 FEW015 SCT030 OVC100 23/23 A2988 RETSRA=
201209090200 METAR MRLB 090200Z 11007KT 8000 DZ FEW015 OVC100 23/22 A2993=
201209090300 METAR MRLB NIL=
201209090400 METAR MRLB NIL=
201209090500 METAR MRLB NIL=
201209090600 METAR MRLB NIL=
201209090700 METAR MRLB NIL=
201209090800 METAR MRLB NIL=
201209090900 METAR MRLB NIL=
201209091000 METAR MRLB NIL=
201209091100 METAR MRLB NIL=
201209091200 METAR MRLB 091200Z 00000KT 9999 0500W FEW001 SCT100 23/22 A2993 W RED FG=
201209091300 METAR MRLB 091300Z 00000KT 6000 2000W BR FEW001 SCT015 23/22 A2995=
201209091400 METAR MRLB 091400Z 00000KT 9999 FEW012 SCT250 26/24 A2997=
201209091500 METAR MRLB 091500Z 00000KT 9999 FEW015 SCT100 BKN250 26/24 A2997=
201209091600 METAR MRLB 091600Z 32003KT 9999 SCT018 BKN140 27/24 A2996=
201209091700 METAR MRLB 091700Z 32005KT 9999 SCT015 BKN120 27/23 A2996=
201209091800 METAR MRLB 091800Z 33004KT 9999 FEW015 BKN120 27/23 A2994=
201209091900 METAR MRLB 091900Z 27006KT 9999 FEW015 BKN140 28/23 A2992=
201209092000 METAR MRLB 092000Z 29007KT 9999 SCT025 BKN140 28/23 A2989=
201209092100 METAR MRLB 092100Z 26007KT 9999 SCT030 BKN140 28/23 A2988=
201209092200 METAR MRLB 092200Z 26007KT 9999 SCT030 BKN140 28/23 A2988=
201209092300 METAR MRLB 092300Z 28006KT 9999 SCT025 BKN140 27/23 A2988=
201209092352 METAR MRLB 100000Z 29003KT 9999 SCT030 BKN130 26/23 A2993=
201209100000 METAR MRLB 100000Z 29003KT 9999 SCT030 BKN130 26/23 A2993=
201209100100 METAR MRLB 100100Z 35003KT 9999 DZ SCT025 BKN120 26/23 A2994=
201209100200 METAR MRLB 100200Z 18003KT 9999 -RA SCT020 BKN100 23/22 A2996 RETSRA=
201209100300 METAR MRLB NIL=
201209100400 METAR MRLB NIL=
201209100500 METAR MRLB NIL=
201209100600 METAR MRLB NIL=
201209100700 METAR MRLB NIL=
201209100800 METAR MRLB NIL=
201209100900 METAR MRLB NIL=
201209101000 METAR MRLB NIL=
201209101100 METAR MRLB NIL=
201209101200 METAR MRLB 101200Z 00000KT 0500 FG SCT002 SCT010 22/21 A2990=
201209101300 METAR MRLB 101300Z 16003KT 9999 FEW025 SCT250 23/22 A2991=
201209101400 METAR MRLB 101400Z 15003KT 9999 FEW030 SCT250 26/24 A2993=
201209101500 METAR MRLB 101500Z 20003KT 9999 FEW030 SCT250 28/25 A2994=
201209101600 METAR MRLB 101600Z 10003KT 9999 SCT030 SCT250 29/25 A2993=
201209101700 METAR MRLB 101700Z 08009KT 9999 SCT030 SCT250 32/24 A2991=
201209101800 METAR MRLB 101800Z 10008KT 9999 SCT030 SCT250 32/23 A2988=
201209101900 METAR MRLB 101900Z 08009KT 9999 SCT030 BKN250 32/23 A2986=
201209102000 METAR MRLB 102000Z 09006KT 9999 FEW030 BKN250 33/22 A2987=
201209102100 METAR MRLB 102100Z 06009KT 9999 FEW030 SCT140 BKN250 32/22 A2983=
201209102200 METAR MRLB 102200Z 12005KT 9999 SCT030 BKN130 31/23 A2985=
201209102300 METAR MRLB 102300Z 13002KT 9999 FEW030 OVC130 29/23 A2987=
201209102349 METAR MRLB 110000Z 09004KT 9999 FEW035 OVC130 28/22 A2988=
201209110000 METAR MRLB 110000Z 09004KT 9999 FEW035 OVC130 28/22 A2988=
201209110100 METAR MRLB 110100Z 09002KT 9999 FEW035 OVC130 27/22 A2989=
201209110200 METAR MRLB 110200Z 05004KT 9999 FEW035 OVC130 26/21 A2991=
201209110300 METAR MRLB NIL=
201209110400 METAR MRLB NIL=
201209110500 METAR MRLB NIL=
201209110600 METAR MRLB NIL=
201209110700 METAR MRLB NIL=
201209110800 METAR MRLB NIL=
201209110900 METAR MRLB NIL=
201209111000 METAR MRLB NIL=
201209111100 METAR MRLB NIL=
201209111200 METAR MRLB 111200Z 12005KT 9999 FEW035 OVC130 24/21 A2989=
201209111300 METAR MRLB 111300Z 11004KT 9999 FEW035 OVC130 25/22 A2991=
201209111400 METAR MRLB 111400Z 12005KT 9999 FEW035 OVC250 28/23 A2992=
201209111500 METAR MRLB 111500Z 06003KT 9999 FEW035 OVC250 29/23 A2992=
201209111600 METAR MRLB 111600Z 07011KT 9999 FEW035 SCT130 BKN250 30/22 A2992=
201209111700 METAR MRLB 111700Z 08012KT 9999 FEW035 OVC250 31/22 A2991=
201209111800 METAR MRLB 111800Z 06011KT 9999 -RA SCT030 BKN120 28/22 A2992=
201209111900 METAR MRLB 111900Z 08018KT 8000 -RA SCT020 BKN100 25/19 A2990=
201209112000 METAR MRLB 112000Z 09006KT 9999 FEW035 BKN100 27/22 A2986=
201209112100 METAR MRLB 112100Z 11007KT 9999 FEW035 BKN100 27/21 A2984=
201209112200 METAR MRLB 112200Z 10013KT 9999 FEW030 BKN100 27/21 A2981=
201209112300 METAR MRLB 112300Z 08012 9999 FEW030 BKN100 27/21 2981=
201209112352 METAR MRLB 120000Z 08013KT CAVOK 28/20 A2983 BKN090=
201209120000 METAR MRLB 120000Z 08013KT CAVOK 28/20 A2983 BKN090=
201209120100 METAR MRLB 120100Z 09015KT CAVOK 28/20 A2984 BKN100=
201209120200 METAR MRLB 120200Z 07018KT CAVOK 27/21 A2987 BKN100=
201209120300 METAR MRLB NIL=
201209120400 METAR MRLB NIL=
201209120500 METAR MRLB NIL=
201209120600 METAR MRLB NIL=
201209120700 METAR MRLB NIL=
201209120800 METAR MRLB NIL=
201209120900 METAR MRLB NIL=
201209121000 METAR MRLB NIL=
201209121100 METAR MRLB NIL=
201209121200 METAR MRLB 121200Z 08012KT 9999 FEW025 SCT250 26/20 A2985=
201209121300 METAR MRLB 121300Z 06015KT CAVOK 29/21 A2988=
201209121317 METAR MRLB 121317Z 08013KT 9999 FEW020 SCT250 27/20 A2987=
201209121400 METAR MRLB 121400Z 07013KT CAVOK 28/20 A2988 SCT250=
201209121500 METAR MRLB 121500Z 06015KT CAVOK 29/21 A2988=
201209121600 METAR MRLB 121600Z 06017KT 9999 FEW025 SCT250 30/20 A2988=
201209121700 METAR MRLB 121700Z 04017KT 9999 FEW025 SCT250 31/20 A2986=
201209121800 METAR MRLB 121800Z 04016KT 9999 FEW025 SCT250 32/20 A2982=
201209121900 METAR COR MRLB 121900Z 05018KT CAVOK 32/20 A2979=
201209122000 METAR MRLB 122000Z 06014KT CAVOK 33/20 A2977=
201209122100 METAR MRLB 122100Z 05014KT 9999 FEW030 SCT250 33/19 A2976=
201209122200 METAR MRLB 122200Z 05015KT 9999 FEW030 SCT250 32/19 A2975=
201209122300 METAR MRLB 122300Z 06011KT 9999 FEW030 SCT250 31/20 A2976=
201209122352 METAR MRLB 130000Z 06009KT 9999 FEW030 BKN250 29/18 A2979=
201209130000 METAR MRLB 130000Z 06009KT 9999 FEW030 BKN250 29/18 A2979=
201209130100 METAR MRLB 130100Z 07010KT 9999 FEW030 SCT250 28/18 A2981=
201209130200 METAR MRLB 130200Z 09008KT 9999 FEW030 BKN250 27/18 A2983=
201209130300 METAR MRLB NIL=
201209130400 METAR MRLB NIL=
201209130500 METAR MRLB NIL=
201209130600 METAR MRLB NIL=
201209130700 METAR MRLB NIL=
201209130800 METAR MRLB NIL=
201209130900 METAR MRLB NIL=
201209131000 METAR MRLB NIL=
201209131100 METAR MRLB NIL=
201209131200 METAR MRLB 131200Z 20004KT 9999 FEW030 BKN250 22/19 A2981=
201209131300 METAR MRLB 131300Z 22004KT 9999 FEW030 BKN250 23/20 A2983=
201209131400 METAR MRLB 131400Z 19003KT 9999 FEW030 BKN200 25/22 A2986=
201209131500 METAR MRLB 131500Z 07004KT 9999 FEW030 BKN200 27/22 A2988=
201209131600 METAR MRLB 131600Z 25004KT 9999 FEW030 BKN200 28/23 A2988=
201209131700 METAR MRLB 131700Z 23003KT 9999 SCT035 BKN250 30/23 A2987=
201209131800 METAR MRLB 131800Z 09008KT 9999 SCT035 BKN250 32/22 A2984=
201209131900 METAR MRLB 131900Z 07009KT 9999 FEW030 BKN250 32/21 A2981=
201209132000 METAR MRLB 132000Z 08011KT 9999 VCTS VCSH FEW025 FEW030 BKN120 30/21 A2980=
201209132100 METAR MRLB 132100Z 10008KT 9999 FEW035 BKN120 28/21 A2980=
201209132200 METAR MRLB 132200Z 11008KT 9999 FEW035 OVC120 27/21 A2978=
201209132300 METAR MRLB 132300Z 11007KT 9999 FEW040 OVC120 27/21 A2980=
201209132350 METAR MRLB 140000Z 11005KT 9999 FEW040 OVC120 26/21 A2981=
201209140000 METAR MRLB 140000Z 11005KT 9999 FEW040 OVC120 26/21 A2981=
201209140100 METAR MRLB 140100Z 13005KT 9999 FEW040 OVC120 25/21 A2982=
201209140200 METAR MRLB 140200Z 17005KT 9999 FEW040 OVC120 25/22 A2983=
201209140300 METAR MRLB NIL=
201209140400 METAR MRLB NIL=
201209140500 METAR MRLB NIL=
201209140600 METAR MRLB NIL=
201209140700 METAR MRLB NIL=
201209140800 METAR MRLB NIL=
201209140900 METAR MRLB NIL=
201209141000 METAR MRLB NIL=
201209141100 METAR MRLB NIL=
201209141200 METAR MRLB 141200Z 17006KT 9999 FEW035 BKN250 23/21 A2983=
201209141300 METAR MRLB 141300Z 10003KT 9999 FEW035 BKN250 24/22 A2986=
201209141400 METAR MRLB 141400Z 08008KT CAVOK 28/23 A2986=
201209141500 METAR MRLB 141500Z 15005KT 9999 FEW035 BKN250 28/22 A2988=
201209141600 METAR MRLB 141600Z 30005KT 9999 FEW035 OVC250 30/22 A2988=
201209141700 METAR MRLB 141700Z 09011KT 9999 FEW035 BKN250 31/20A2987=
201209141800 METAR MRLB 141800Z 10008KT 9999 FEW035 BKN130 32/21 A2986=
201209141900 METAR MRLB 141900Z 10008KT 9999 SCT035 BKN130 33/21 A2983=
201209142000 METAR MRLB 142000Z 07020KT 9999 SCT030 BKN130 31/20 A2980=
201209142100 METAR MRLB 142100Z 07012KT 9999 FEW030 SCT140 30/20 A2980=
201209142200 METAR MRLB 142200Z 10006KT 9999 FEW020 SCT120 29/21 A2979=
201209142300 METAR MRLB 142300Z 11006KT CAVOK 28/21 A2980 SCT100=
201209142349 METAR MRLB 150000Z 08007KT CAVOK 27/20 A2983 SCT100=
201209150000 METAR MRLB 150000Z 08007KT CAVOK 27/20 A2983 SCT100=
201209150100 METAR MRLB 150100Z 08009KT CAVOK 26/21 A2985 SCT100=
201209150200 METAR MRLB 150200Z 09008KT CAVOK 26/21 A2986 SCT100=
201209150300 METAR MRLB NIL=
201209150400 METAR MRLB NIL=
201209150500 METAR MRLB NIL=
201209150600 METAR MRLB NIL=
201209150700 METAR MRLB NIL=
201209150800 METAR MRLB NIL=
201209150900 METAR MRLB NIL=
201209151000 METAR MRLB NIL=
201209151100 METAR MRLB NIL=
201209151200 METAR MRLB 151200Z 23004KT 9999 FEW025 SCT120 22/21 A2988=
201209151300 METAR MRLB 151300Z 00000KT CAVOK 25/23 A2991 FEW100 SCT250=
201209151400 METAR MRLB 151400Z 00000KT CAVOK 27/23 A2992 FEW100 SCT250=
201209151500 METAR MRLB 151500Z 11003KT CAVOK 29/24 A2992 SCT250=
201209151600 METAR MRLB 151600Z 08010KT CAVOK 31/22 A2990 SCT250=
201209151700 METAR MRLB 151700Z 08008KT 9999 SCT020 BKN250 32/22 A2989=
201209151800 METAR MRLB 151800Z 08007KT 9999 SCT020 BKN250 32/22 A2986=
201209151900 METAR MRLB 151900Z 10010KT 9999 SCT020 BKN250 32/22 A2985=
201209152000 METAR MRLB 152000Z 09010KT 9999 SCT025TCU BKN220 32/22 A2982=
201209152100 METAR MRLB 152100Z 26003KT 9999 FEW030 BKN200 31/23 A2981=
201209152200 METAR MRLB 152200Z 25006KT 9999 FEW030 BKN200 29/23 A2983=
201209152300 METAR MRLB 152300Z 23005KT 9999 FEW030 BKN140 28/24 A2985=
201209152351 METAR MRLB 160000Z 23003KT 9999 FEW030 BKN140 27/23 A2984=
201209160000 METAR MRLB 160000Z 23003KT 9999 FEW030 BKN140 27/23 A2984=
201209160100 METAR MRLB 160100Z 16004KT 9999 SCT030 BKN140 26/23 A2986=
201209160200 METAR MRLB 160200Z 22004KT 9999 SCT030 BKN130 25/22 A2987=
201209160300 METAR MRLB NIL=
201209160400 METAR MRLB NIL=
201209160500 METAR MRLB NIL=
201209160600 METAR MRLB NIL=
201209160700 METAR MRLB NIL=
201209160800 METAR MRLB NIL=
201209160900 METAR MRLB NIL=
201209161000 METAR MRLB NIL=
201209161100 METAR MRLB NIL=
201209161200 METAR MRLB 161200Z 00000KT 9999 FEW030 BKN130 24/22 A2988=
201209161300 METAR MRLB 161300Z 24003KT 9999 FEW030 BKN130 24/23 A2989=
201209161400 METAR MRLB 161400Z 21005KT 9999 FEW035 BKN130 25/23 A2992=
201209161500 METAR MRLB 161500Z 18003KT 9999 FEW035 BKN140 28/24 A2994=
201209161600 METAR MRLB 161600Z 31005KT 9999 FEW035 BKN250 29/24 A2994=
201209161700 METAR MRLB 161700Z 10008KT 9999 FEW035 BKN140 30/23 A2992=
201209161800 METAR MRLB 161800Z 08009KT 9999 FEW035 BKN250 31/22 A2989=
201209161900 METAR MRLB 161900Z 08010KT 9999 FEW035 BKN250 32/22 A2986=
201209162000 METAR MRLB 162000Z 05009KT 9999 FEW035 BKN250 32/21 A2984=
201209162100 METAR MRLB 162100Z 08008KT 9999 FEW035 BKN250 32/21 A2981=
201209162200 METAR MRLB 162200Z 24003KT 9999 SCT035 BKN120 31/23 A2981=
201209162300 METAR MRLB 162300Z 00000KT 9999 FEW035 SCT120 BKN250 31/23 A2982=
201209162352 METAR MRLB 170000Z 11007KT 9999 FEW035 BKN250 29/22 A2983=
201209170000 METAR MRLB 170000Z 11007KT 9999 FEW035 BKN250 29/22 A2983=
201209170100 METAR MRLB 170100Z 11006KT 9999 FEW035 BKN250 28/22 A2987=
201209170200 METAR MRLB 170200Z 15005KT 9999 FEW035 BKN250 27/22 A2990=
201209170300 METAR MRLB NIL=
201209170400 METAR MRLB NIL=
201209170500 METAR MRLB NIL=
201209170600 METAR MRLB NIL=
201209170700 METAR MRLB NIL=
201209170800 METAR MRLB NIL=
201209170900 METAR MRLB NIL=
201209171000 METAR MRLB NIL=
201209171100 METAR MRLB NIL=
201209171200 METAR MRLB 171200Z 29003KT 9999 FEW010 SCT025 BKN120 23/22 A2992=
201209171300 METAR MRLB 171300Z 22002KT 9999 SCT025 BKN120 24/23 A2995=
201209171400 METAR MRLB 171400Z 00000KT 9999 SCT025 BKN120 26/24 A2997=
201209171500 METAR MRLB 171500Z 23004KT 9999 FEW020TCU SCT025 SCT120 27/24 A2997=
201209171600 METAR MRLB 171600Z 24004KT 9999 OVC020 28/24 A2998=
201209171700 METAR MRLB 171700Z 31006KT 9999 FEW020 SCT130 BKN250 28/24 A2998=
201209171800 METAR MRLB 171800Z 30010KT 9999 SCT020 BKN120 28/23 A2995=
201209171900 METAR MRLB 171900Z 29010KT 9999 FEW020 SCT120 BKN250 29/24 A2991=
201209172000 METAR MRLB 172000Z 29008KT 9999 FEW020 SCT120 BKN250 28/23 A2989=
201209172100 METAR MRLB 172100Z 34007KT CAVOK 29/23 A2986 FEW100 BKN250=
201209172200 METAR MRLB 172200Z 35005KT CAVOK 28/23 A2985 FEW100 BKN250=
201209172300 METAR MRLB 172300Z 30003KT CAVOK 27/23 A2985 SCT100 BKN250=
201209172349 METAR MRLB 180000Z 22003KT 9999 FEW020 SCT100 27/23 A2987=
201209180000 METAR MRLB 180000Z 22003KT 9999 FEW020 SCT100 27/23 A2987=
201209180100 METAR MRLB 180100Z 00000KT 9999 FEW020 SCT100 26/23 A2989 LTNG DST S=
201209180200 METAR MRLB 180200Z 16009KT 9999 SCT020 BKN120 24/22 A2993 LTNG DST W=
201209180300 METAR MRLB NIL=
201209180400 METAR MRLB NIL=
201209180500 METAR MRLB NIL=
201209180600 METAR MRLB NIL=
201209180700 METAR MRLB NIL=
201209180800 METAR MRLB NIL=
201209180900 METAR MRLB NIL=
201209181000 METAR MRLB NIL=
201209181100 METAR MRLB NIL=
201209181200 METAR MRLB 181200Z 00000KT CAVOK 22/21 A2993 FEW100 SCT250=
201209181300 METAR MRLB 181300Z 16003KT CAVOK 23/22 A2993 SCT100=
201209181400 METAR MRLB 181400Z 19004KT CAVOK 24/22 A2996 FEW100 SCT250=
201209181500 METAR MRLB 181500Z 00000KT CAVOK 26/23 A2997 SCT120=
201209181600 METAR MRLB 181600Z 00000KT 9999 FEW025 SCT250 29/25 A2997=
201209181700 METAR MRLB 181700Z 09008KT 9999 FEW030 SCT250 31/23 A2994=
201209181800 METAR MRLB 181800Z 13006KT 9999 FEW030 SCT250 32/23 A2991=
201209181900 METAR MRLB 181900Z 11006KT 9999 SCT025 BKN250 32/22 A2988=
201209182000 METAR MRLB 182000Z 09010KT 9999 SCT030 BKN250 33/21 A2985=
201209182100 METAR MRLB 182100Z 09005KT 9999 VCSH SCT025 BKN250 33/21 A2985=
201209182200 METAR MRLB 182200Z 24011KT 9999 4000E RA FEW015CB SCT025 BKN140 27/22 A2986 RETSRA=
201209182210 METAR MRLB 182210Z 14006KT 9999 FEW010CB SCT020 BKN130 26/22 A2987=
201209182221 METAR MRLB 182221Z 09005KT 1000 RA FEW008CB SCT020 BKN100 25/22 A2988=
201209182300 METAR MRLB 182300Z 33003KT 9999 -RA SCT015 BKN120 24/22 A2987 RERA=
201209182352 METAR MRLB 190000Z 18003KT 9999 SCT030 BKN120 24/22 A2987=
201209190000 METAR MRLB 190000Z 18003KT 9999 SCT030 BKN120 24/22 A2987=
201209190100 METAR MRLB 190100Z 06003KT 9999 SCT025 BKN130 24/23 A2991=
201209190200 METAR MRLB 190200Z 05003KT 9999 SCT030 BKN120 24/22 A2993=
201209190300 METAR MRLB NIL=
201209190400 METAR MRLB NIL=
201209190500 METAR MRLB NIL=
201209190600 METAR MRLB NIL=
201209190700 METAR MRLB NIL=
201209190800 METAR MRLB NIL=
201209190900 METAR MRLB NIL=
201209191000 METAR MRLB NIL=
201209191100 METAR MRLB NIL=
201209191200 METAR MRLB 191200Z 00000KT 1500 BR SCT003 SCT250 23/22 A2992=
201209191220 METAR MRLB 191220Z 00000KT 9999 3000SW BCFG SCT004 SCT250 23/22 A2993=
201209191300 METAR MRLB 191300Z 00000KT CAVOK 25/23 A2994=
201209191400 METAR MRLB 191400Z 00000KT 9999 FEW030 SCT250 27/24 A2996=
201209191500 METAR MRLB 191500Z 18003KT 9999 FEW030 SCT250 28/23 A2993=
201209191600 METAR MRLB 191600Z 12005KT 9999 SCT030 SCT250 30/24 A2996=
201209191700 METAR MRLB 191700Z 10005KT 9999 SCT030 SCT250 31/20 A2990=
201209191800 METAR MRLB 191800Z 09007KT 9999 FEW030 BKN250 31/20 A2989=
201209191900 METAR MRLB 191900Z 08007KT 9999 SCT030 SCT250 32/19 A2985=
201209192000 METAR MRLB 192000Z 11004KT 9999 SCT035 BKN250 33/19 A2983=
201209192100 METAR MRLB 192100Z COR 27006KT 9999 SCT035 BKN250 32/23 A2980=
201209192200 METAR MRLB 192200Z 27008KT 9999 BKN030 SCT250 30/24 A2980=
201209192300 METAR MRLB 192300Z 27006KT 9999 OVC030 28/23 A2982=
201209192347 METAR MRLB 200000Z 20003KT 9999 VCSH FEW015 BKN025 27/24 A2984=
201209192352 METAR MRLB 200000Z 20003KT 9999 -RA FEW015 BKN025 27/24 A2984=
201209192357 METAR MRLB COR 200000Z 20003KT 9999 -RA FEW015 BKN025 27/24 A2984=
201209200000 METAR MRLB 200000Z COR 20003KT 9999 -RA FEW015 BKN025 27/24 A2984=
201209200100 METAR MRLB 200100Z 17006KT 9999 -RA OVC020 24/22 A2987=
201209200200 METAR MRLB 200200Z 00000KT 9999 SCT020 BKN120 23/22 A2988=
201209200300 METAR MRLB NIL=
201209200400 METAR MRLB NIL=
201209200500 METAR MRLB NIL=
201209200600 METAR MRLB NIL=
201209200700 METAR MRLB NIL=
201209200800 METAR MRLB NIL=
201209200900 METAR MRLB NIL=
201209201000 METAR MRLB NIL=
201209201100 METAR MRLB NIL=
201209201200 METAR MRLB 201200Z 000000KT 0500 FG SCT002 22/22 A2986=
201209201215 METAR MRLB 201215Z 00000KT 0100 FG VV/// 22/22 A2986=
201209201300 METAR MRLB 201300Z 00000KT 0500 FG SCT002 23/22 A2987=
201209201310 METAR MRLB 201310Z 00000KT 2000 BR SCT002 23/22 A2987=
201209201325 METAR MRLB 201325Z 00000KT 9999 400NW BCFG SCT005 24/23 A2988=
201209201400 METAR MRLB 201400Z 00000KT 9999 FEW010 26/23 A2988=
201209201500 METAR MRLB 201500Z 00000KT 9999 FEW020 28/24 A2988=
201209201600 METAR MRLB 201600Z 15003KT 9999 SCT030 30/22 A2988=
201209201700 METAR MRLB 201700Z 08006KT 9999 SCT035 31/22 A2985=
201209201800 METAR MRLB 201800Z 13007KT 9999 SCT035 32/21 A2982=
201209201900 METAR MRLB 201900Z 10005KT 9999 SCT035 33/21 A2979=
201209202000 METAR COR MRLB 202000Z 27009KT 9999 SCT030 31/23 A2976=
201209202100 METAR MRLB 202100Z 27010KT 9999 SCT030 30/23 A2975=
201209202200 METAR MRLB 202200Z 28010KT 9999 FEW030 30/23 A2976=
201209202300 METAR MRLB 202300Z 28008KT 9999 FEW030 SCT250 28/23 A2977=
201209202354 METAR MRLB 210000Z 26003KT CAVOK 27/23 A2979 FEW100 TCU N S DST=
201209210000 METAR MRLB 210000Z 26003KT CAVOK 27/23 A2979 FEW100 TCU N S DST=
201209210100 METAR MRLB 210100Z 00000KT CAVOK 26/23 A2982 SCT100=
201209210200 METAR MRLB 210200Z 00000KT CAVOK 26/24 A2984 SCT100=
201209210300 METAR MRLB NIL=
201209210400 METAR MRLB NIL=
201209210500 METAR MRLB NIL=
201209210600 METAR MRLB NIL=
201209210700 METAR MRLB NIL=
201209210800 METAR MRLB NIL=
201209210900 METAR MRLB NIL=
201209211000 METAR MRLB NIL=
201209211100 METAR MRLB NIL=
201209211200 METAR MRLB 211200Z 00000KT CAVOK 23/22 A2983 FEW100 SCT250=
201209211300 METAR MRLB 211300Z 00000KT 9999 SCT025 BKN250 26/23 A2986 ST BAJOS SW W=
201209211400 METAR MRLB 211400Z 31003KT 9999 FEW015 SCT250 27/23 A2985=
201209211500 METAR MRLB 211500Z 00000KT 9999 FEW020 SCT250 28/23 A2986=
201209211600 METAR MRLB 211600Z 23004KT 9999 SCT020TCU BKN250 30/23 A2984=
201209211700 METAR MRLB 211700Z 27004KT 9999 SCT020 BKN250 32/22 A2982=
201209211800 METAR MRLB 211800Z 33004KT 9999 SCT018TCU BKN250 30/24 A2980=
201209211900 METAR MRLB 211900Z 20006KT 9999 VCSH SCT020CB BKN220 27/24 A2978=
201209212000 METAR MRLB 212000Z 24010KT 9999 SCT020TCU BKN250 29/23 A2975=
201209212100 METAR MRLB 212100Z 28011KT 9999 VCSH FEW020CB SCT030 BKN140 30/23 A2972=
201209212200 METAR MRLB 212200Z 23006KT 9999 -RA SCT020 BKN120 23/23 A2975 RETSRA=
201209212300 METAR MRLB 212300Z 14005KT 9999 SCT025 BKN110 24/23 A2978=
201209212351 METAR MRLB 220000Z 14003KT 9999 -DZ SCT030 BKN100 24/23 A2980=
201209220000 METAR MRLB 220000Z 14003KT 9999 -DZ SCT030 BKN100 24/23 A2980=
201209220100 METAR MRLB 220100Z 13003KT 9999 SCT025 BKN100 24/23 A2981=
201209220200 METAR MRLB 220200Z 15004KT 9999 SCT025 BKN110 23/22 A2982=
201209220300 METAR MRLB NIL=
201209220400 METAR MRLB NIL=
201209220500 METAR MRLB NIL=
201209220600 METAR MRLB NIL=
201209220700 METAR MRLB NIL=
201209220800 METAR MRLB NIL=
201209220900 METAR MRLB NIL=
201209221000 METAR MRLB NIL=
201209221100 METAR MRLB NIL=
201209221200 METAR MRLB 221200Z 00000KT 9999 FEW020 BKN200 22/21 A2984=
201209221300 METAR MRLB 221300Z 00000KT CAVOK 23/22 A2985=
201209221400 METAR MRLB 221400Z 17003KT 9999 FEW030 BKN250 26/23 A2988=
201209221500 METAR MRLB 221500Z 15005KT 9999 FEW035 BKN250 28/23 A2989=
201209221600 METAR MRLB 221600Z 13006KT 9999 FEW035 BKN250 29/23 A2989=
201209221700 METAR MRLB 221700Z 12007KT 9999 FEW035 BKN250 30/23 A2987=
201209221800 METAR MRLB 221800Z 17005KT 9999 SCT035 BKN250 31/23 A2985=
201209221900 METAR MRLB 221900Z 14004KT 9999 SCT025TCU BKN200 32/22 A2982=
201209222000 METAR MRLB 222000Z 29009KT 9999 VCSH FEW015CB SCT025TCU BKN130 26/23 A2982=
201209222100 METAR MRLB 222100Z 17004KT 8000 3000SW RA VCTS SCT010 SCT120 25/23 A2983=
201209222200 METAR MRLB 222200Z 23004KT 9999 -RA FEW005 SCT015 BKN120 24/23 A2982=
201209222300 METAR MRLB 222300Z 18005KT 9999 -RA FEW005 BKN020 24/23 A2985=
201209222348 METAR MRLB 230000Z 17006KT 9999 -RA0OVC020 23/22 A2988 RETS=
201209230000 METAR MRLB 230000Z 17006KT 9999 -RA0OVC020 23/22 A2988 RETS=
201209230100 METAR MRLB 230100Z 03004KT 9999 FEW002 BKN020 23/22 A2989=
201209230145 METAR MRLB COR230200Z 10002KT 9999 -RA FEW004 BKN020 23/22 A2992=
201209230200 METAR MRLB 230200Z 10002KT 9999 FEW004 BKN020 23/22 A2992=
201209230300 METAR MRLB NIL=
201209230400 METAR MRLB NIL=
201209230500 METAR MRLB NIL=
201209230600 METAR MRLB NIL=
201209230700 METAR MRLB NIL=
201209230800 METAR MRLB NIL=
201209230900 METAR MRLB NIL=
201209231000 METAR MRLB NIL=
201209231100 METAR MRLB NIL=
201209231200 METAR MRLB 231200Z 04004KT 3000 BR FEW002 BKN120 23/22 A2989=
201209231300 METAR MRLB 231300Z 07002KT 9999 4000SW BCFG FEW004 BKN120 23/23 A2990=
201209231400 METAR MRLB 231400Z 26002KT 9999 FEW010 BKN120 25/23 A2992=
201209231500 METAR MRLB 231500Z 08002KT 9999 FEW010 BKN120 26/23 A2994=
201209231600 METAR MRLB 231600Z 00000KT 9999 FEW020 BKN130 28/24 A2992=
201209231700 METAR MRLB 231700Z 25004KT 9999 SCT020 BKN120 28/24 A2992=
201209231800 METAR MRLB 231800Z 30006KT 9999 VCSH SCT020 BKN120 29/24 A2990=
201209231900 METAR MRLB 231900Z 26005KT 9999 -RA SCT020 BKN120 29/24 A2987=
201209232000 METAR MRLB 232000Z 16006KT 9999 -RA SCT010 BKN120 25/24 A2985 RERA=
201209232100 METAR MRLB 232100Z 23003KT 9999 -RA SCT025CB BKN120 26/24 A2985=
201209232200 METAR MRLB 232200Z 17005KT 9999 SCT030 BKN120 25/24 A2985=
201209232300 METAR MRLB 232300Z 17006KT 9999 FEW020 BKN100 24/23 A2986=
201209232354 METAR MRLB 240000Z 15003KT 9999 FEW030 BKN100 24/23 A2989=
201209240000 METAR MRLB 240000Z 15003KT 9999 FEW030 BKN100 24/23 A2989=
201209240100 METAR MRLB 240100Z 00000KT 9999 FEW025 BKN100 23/22 A2989=
201209240200 METAR MRLB 240200Z 00000KT 9999 FEW025 BKN120 23/22 A2990=
201209240300 METAR MRLB NIL=
201209240400 METAR MRLB NIL=
201209240500 METAR MRLB NIL=
201209240600 METAR MRLB NIL=
201209240700 METAR MRLB NIL=
201209240800 METAR MRLB NIL=
201209240900 METAR MRLB NIL=
201209241000 METAR MRLB NIL=
201209241100 METAR MRLB NIL=
201209241200 METAR MRLB 241200Z 00000KT 0500 FG SCT001 22/21 A2987 FEW100=
201209241300 METAR MRLB 241300Z 00000KT 9999 FEW003 SCT250 25/23 A2989 ST BAJOS W=
201209241400 METAR MRLB 241400Z 00000KT CAVOK 28/23 A2990 SCT250=
201209241500 METAR MRLB 241500Z 26004KT 9999 FEW020 SCT250 29/23 A2991=
201209241600 METAR MRLB 241600Z 28006KT 9999 FEW020 SCT250 30/23 A2991=
201209241700 METAR MRLB 241700Z 29005KT 9999 FEW020 SCT250 31/23 A2988=
201209241800 METAR MRLB 241800Z 26004KT 9999 SCT025 BKN250 32/23 A2985=
201209241900 METAR MRLB 241900Z 10009KT 9999 SCT025TCU BKN140 30/23 A2982=
201209242000 METAR MRLB 242000Z 09008KT 9999 FEW025 BKN100 28/21 A2981=
201209242100 METAR MRLB 242100Z 10011KT 9999 FEW030 BKN110 27/22 A2979=
201209242200 METAR MRLB 242200Z 10007KT 9999 SCT030 BKN110 28/21 A2979=
201209242300 METAR MRLB 242300Z 12004KT 9999 SCT030 BKN120 28/22 A2980=
201209242353 METAR MRLB 250000Z 09004KT 9999 FEW030 BKN120 26/21 A2982=
201209250000 METAR MRLB 250000Z 09004KT 9999 FEW030 BKN120 26/21 A2982=
201209250100 METAR MRLB 250100Z 12005KT 9999 SCT025 BKN120 25/21 A2983=
201209250200 METAR MRLB 250200Z 08006KT 9999 SCT030 BKN120 25/21 A2985=
201209250300 METAR MRLB NIL=
201209250400 METAR MRLB NIL=
201209250500 METAR MRLB NIL=
201209250600 METAR MRLB NIL=
201209250700 METAR MRLB NIL=
201209250800 METAR MRLB NIL=
201209250900 METAR MRLB NIL=
201209251000 METAR MRLB NIL=
201209251100 METAR MRLB NIL=
201209251200 METAR MRLB 251200Z 18003KT CAVOK 21/20 A2986=
201209251300 METAR MRLB 251300Z 16003KT CAVOK 24/22 A2987=
201209251400 METAR MRLB 251400Z 10007KT CAVOK 27/21 A2989=
201209251500 METAR MRLB 251500Z 09006KT CAVOK 29/21 A2990=
201209251600 METAR MRLB 251600Z 10008KT 9999 FEW035 BKN250 30/22 A2991=
201209251700 METAR MRLB 251700Z 06008KT 9999 SCT035 BKN250 31/22 A2989=
201209251800 METAR MRLB 251800Z 08008KT 9999 SCT035 BKN250 32/22 A2986=
201209251900 METAR MRLB 251900Z 09010KT 9999 SCT035 BKN250 32/21 A2982=
201209252000 METAR MRLB 252000Z 09008KT 9999 FEW035 BKN250 33/21 A2978=
201209252100 METAR MRLB 252100Z 11007KT 9999 SCT030 BKN250 33/21 A2977=
201209252200 METAR MRLB 252200Z 31008KT 9999 VCSH FEW020TCU SCT025 SCT130 29/24 A2978=
201209252300 METAR MRLB 252300Z 19004KT 9999 -RA SCT020 SCT120 25/24 A2979 RERA=
201209252348 METAR MRLB 260000Z 11003KT 9999 FEW020 BKN120 25/24 A2982=
201209260000 METAR MRLB 260000Z 11003KT 9999 FEW020 BKN120 25/24 A2982=
201209260100 METAR MRLB 260100Z 15002KT 9999 FEW020 BKN120 25/24 A2984=
201209260200 METAR MRLB 260200Z 17003KT 9999 FEW020 SCT120 25/24 A2987=
201209260300 METAR MRLB NIL=
201209260400 METAR MRLB NIL=
201209260500 METAR MRLB NIL=
201209260600 METAR MRLB NIL=
201209260700 METAR MRLB NIL=
201209260800 METAR MRLB NIL=
201209260900 METAR MRLB NIL=
201209261000 METAR MRLB NIL=
201209261100 METAR MRLB NIL=
201209261200 METAR MRLB 261200Z 00000KT 3000 BR FEW002 BKN250 23/22 A2985=
201209261300 METAR MRLB 261300Z 19005KT 9999 FEW004 BKN250 25/23 A2987=
201209261400 METAR MRLB 261400Z 17005KT 9999 FEW020 BKN250 26/23 A2990=
201209261500 METAR MRLB 261500Z 16005KT 9999 FEW020 BKN250 28/23 A2991=
201209261600 METAR MRLB 261600Z 17004KT 9999 SCT030 SCT250 30/23 A2991=
201209261700 METAR MRLB 261700Z 07002KT 9999 BKN030 SCT250 31/23 A2988=
201209261800 METAR MRLB 261800Z 16002KT 9999 BKN030 32/22 A2986=
201209261900 METAR MRLB 261900Z 27008KT 9999 SCT030 SCT250 30/24 A2983=
201209261953 METAR MRLB 272000Z 29010KT 9999 SCT025TCU SCT140 30/24 A2980=
201209262000 METAR MRLB NIL=
201209262100 METAR MRLB 262100Z 22007KT 9999 3000SW RA SCT015CB BKN100 25/24 A2981=
201209262200 METAR MRLB 262200Z 25005KT 9999 FEW020 BKN250 25/24 A2981 RERA=
201209262300 METAR MRLB 262300Z 15004KT 9999 FEW025 BKN250 25/24 A2983=
201209262353 METAR MRLB 270000Z 15005KT 9999 FEW030 SCT100 25/23 A2985=
201209270000 METAR MRLB 270000Z 15005KT 9999 FEW030 SCT100 25/23 A2985=
201209270100 METAR MRLB 270100Z 03004KT 9999 FEW035 SCT120 25/24 A2988=
201209270200 METAR MRLB 270200Z 00000KT 9999 FEW025 SCT100 25/23 A2989=
201209270300 METAR MRLB NIL=
201209270400 METAR MRLB NIL=
201209270500 METAR MRLB NIL=
201209270600 METAR MRLB NIL=
201209270700 METAR MRLB NIL=
201209270800 METAR MRLB NIL=
201209270900 METAR MRLB NIL=
201209271000 METAR MRLB NIL=
201209271100 METAR MRLB NIL=
201209271200 METAR MRLB 271200Z 07003KT 9999 2000SW BR FEW002 SCT250 23/22 A2989=
201209271300 METAR MRLB 271300Z 17003KT 9999 FEW015 SCT250 26/23 A2989=
201209271400 METAR MRLB 271400Z 25004KT 9999 FEW015 SCT250 27/24 A2991=
201209271500 METAR MRLB 271500Z 22003KT 9999 FEW020 SCT250 29/24 A2991=
201209271600 METAR MRLB 271600Z 25005KT 9999 SCT020 SCT250 30/24 A2992=
201209271700 METAR MRLB 271700Z 23006KT 9999 SCT020TCU SCT250 31/24 A2991=
201209271752 METAR MRLB 281800Z 20004KT 9999 SCT030 BKN250 30/24 A2986=
201209271800 METAR MRLB 271800Z 23005KT 9999 VCSH SCT020CB SCT250 31/24 A2987=
201209271900 METAR MRLB 271900Z 06007KT 9999 SCT025TCU SCT140 28/24 A2985=
201209272000 METAR COR MRLB 272000Z 25004KT 9999 FEW025TCU BKN250 30/25 A2983=
201209272100 METAR MRLB 272100Z 27008KT 9999 SCT025 BKN250 30/24 A2982=
201209272200 METAR MRLB 272200Z 19012KT 9999 VCSH FEW020CB SCT030 BKN130 26/22 A2984=
201209272300 METAR MRLB 272300Z 07005KT 9999 4000E -RA FEW015CB SCT025 BKN110 24/21 A2990=
201209272352 METAR MRLB 280000Z 10003KT 9999 SCT020 BKN100 23/21 A2988=
201209280000 METAR MRLB 280000Z 10003KT 9999 SCT020 BKN100 23/21 A2988=
201209280100 METAR MRLB 280100Z 26004KT 9999 -RA SCT015 BKN100 22/21 A2991=
201209280200 METAR MRLB 280200Z 15003KT 9999 -RA SCT020 BKN100 23/22 A2992=
201209280300 METAR MRLB NIL=
201209280400 METAR MRLB NIL=
201209280500 METAR MRLB NIL=
201209280600 METAR MRLB NIL=
201209280700 METAR MRLB NIL=
201209280800 METAR MRLB NIL=
201209280900 METAR MRLB NIL=
201209281000 METAR MRLB NIL=
201209281100 METAR MRLB NIL=
201209281200 METAR MRLB 281200Z 15003KT CAVOK 22/21 A2989=
201209281300 METAR MRLB 281300Z 16003KT 9999 FEW020 SCT250 24/22 A2990=
201209281400 METAR MRLB 281400Z 09003KT 9999 FEW025 SCT250 26/23 A2993=
201209281500 METAR MRLB 281500Z 00000KT 9999 FEW030 BKN250 28/23 A2992=
201209281600 METAR MRLB 281600Z 14003KT 9999 FEW030 SCT130 29/23 A2990=
201209281700 METAR MRLB 281700Z 32004KT 9999 FEW030 SCT140 28/24 A2989=
201209281800 METAR MRLB 281800Z 20004KT 9999 SCT030 BKN250 30/24 A2986=
201209281900 METAR MRLB 281900Z 18004KT 9999 SCT030 BKN250 31/23 A2983=
201209282000 METAR MRLB 282000Z 22002KT 9999 FEW030 SCT130 BKN250 32/23 A2981=
201209282100 METAR MRLB 282100Z 17004KT 9999 VCSH SCT020 SCT120 31/23 A2980=
201209282200 METAR MRLB 282200Z COR 08011KT 2000 TSSHRA FEW010CB BKN020 24/23 A2982=
201209282300 METAR MRLB 282300Z 19004KT 9999 -RA VCSH SCT020 BKN100 23/22 A2984 RETSRA=
201209282346 METAR MRLB 290000Z 00000KT 9999 FEW030 BKN100 23/23 A2985=
201209290000 METAR MRLB 290000Z 00000KT 9999 FEW030 BKN100 23/23 A2985=
201209290100 METAR MRLB 290100Z 25002KT 9999 FEW030 BKN100 23/23 A2985=
201209290200 METAR MRLB 290200Z 00000KT 9999 FEW030 BKN100 23/23 A2985=
201209290300 METAR MRLB NIL=
201209290400 METAR MRLB NIL=
201209290500 METAR MRLB NIL=
201209290600 METAR MRLB NIL=
201209290700 METAR MRLB NIL=
201209290800 METAR MRLB NIL=
201209290900 METAR MRLB NIL=
201209291000 METAR MRLB NIL=
201209291100 METAR MRLB NIL=
201209291200 METAR MRLB 291200Z 00000KT 9999 VCFG FEW005 OVC120 23/22 A2988=
201209291300 METAR MRLB 291300Z 00000KT 9999 VCFG SCT005 BKN100 23/23 A2990=
201209291400 METAR MRLB 291400Z 00000KT 9999 SCT008 BKN100 27/24 A2992=
201209291500 METAR MRLB 291500Z 30002KT 9999 SCT015 BKN120 26/24 A2992=
201209291600 METAR MRLB 291600Z 21003KT 9999 SCT020 BKN250 27/24 A2992=
201209291700 METAR MRLB 291700Z 22004KT 9999 SCT025 BKN250 29/24 A2989=
201209291800 METAR MRLB 291800Z 22003KT 9999 VCSH BKN020 SCT250 30/23 A2986=
201209291900 METAR MRLB 291900Z 20007KT 9999 4000W RA VCTS SCT020 SCT120 25/24 A2983=
201209292000 METAR MRLB 292000Z 32004KT 9999 FEW025TCU SCT120 BKN250 26/24 A2980 RERA=
201209292100 METAR MRLB 292100Z 17009KT 9999 SCT025TCU BKN100 26/24 A2981=
201209292200 METAR MRLB 292200Z 18004KT 9999 DZ SCT025CB BKN120 25/23 A2980=
201209292300 METAR MRLB 292300Z 00000KT 9999 FEW030 BKN140 25/23 A2981 REDZ=
201209292352 METAR MRLB 300000Z 09003KT 9999 FEW025 SCT120 24/23 A2983=
201209300000 METAR MRLB 300000Z 09003KT 9999 FEW025 SCT120 24/23 A2983=
201209300100 METAR MRLB 300100Z 10003KT 9999 FEW025 SCT100 24/22 A2985=
201209300200 METAR MRLB 300200Z 12003KT 9999 FEW025 BKN120 24/23 A2988=
201209300300 METAR MRLB NIL=
201209300400 METAR MRLB NIL=
201209300500 METAR MRLB NIL=
201209300600 METAR MRLB NIL=
201209300700 METAR MRLB NIL=
201209300800 METAR MRLB NIL=
201209300900 METAR MRLB NIL=
201209301000 METAR MRLB NIL=
201209301100 METAR MRLB NIL=
201209301200 METAR MRLB 301200Z 15003KT 9999 FEW002 FEW030 SCT120 22/21 A2985=
201209301300 METAR MRLB 301300Z 33003KT 6000 0200SW BCFG FEW001 SCT015 24/22 A2987=
201209301400 METAR MRLB 301400Z 00000KT 9999 FEW010 SCT100 26/23 A2989=
201209301500 METAR MRLB 301500Z 13003KT 9999 SCT020 BKN250 28/23 A2990=
201209301600 METAR MRLB 301600Z 17007KT 9999 SCT018 BKN250 28/24 A2988=
201209301700 METAR MRLB 301700Z 16007KT 9999 SCT020 BKN250 29/23 A2987=
201209301800 METAR MRLB 301800Z 17005KT 9999 FEW020 BKN140 29/23 A2984=
201209301900 METAR MRLB 301900Z 19005KT 9999 SCT018TCU BKN140 29/23 A2983=
201209302000 METAR MRLB 302000Z 17005KT 9999 SCT018 BKN140 28/24 A2980=
201209302100 METAR MRLB 302100Z 22003KT 9999 VCSH SCT020TCU BKN140 28/24 A2979=
201209302200 METAR MRLB 302200Z 14004KT 9999 2000NE RA FEW010CB SCT020 BKN120 26/23 A2979=
201209302300 METAR MRLB 302300Z 03004KT 9999 2000SW RA FEW010TCU SCT020 BKN100 25/23 A2979=
201209302353 METAR MRLB 010000Z 07004KT 9999 SCT015 BKN100 24/23 A2982 RERA=
201210010000 METAR MRLB 010000Z 07004KT 9999 SCT015 BKN100 24/23 A2982 RERA=
201210010100 METAR MRLB 010100Z 08007KT 9999 SCT020 BKN100 24/22 A2985=
201210010200 METAR MRLB 010200Z 13003KT 9999 SCT025 BKN100 23/22 A2988=
201210010300 METAR MRLB NIL=
201210010400 METAR MRLB NIL=
201210010500 METAR MRLB NIL=
201210010600 METAR MRLB NIL=
201210010700 METAR MRLB NIL=
201210010800 METAR MRLB NIL=
201210010900 METAR MRLB NIL=
201210011000 METAR MRLB NIL=
201210011100 METAR MRLB NIL=
201210011200 METAR MRLB 011200Z 06003KT 9999 SCT020 BKN100 23/22 A2984=
201210011300 METAR MRLB 011300Z 16003KT 9999 2500SW RA FEW008 BKN020 24/23 A2988=
201210011400 METAR MRLB 011400Z 09003KT 9999 SCT015 BKN100 25/23 A2989=
201210011500 METAR MRLB 011500Z 07004KT 9999 SCT010 BKN100 27/24 A2990=
201210011600 METAR MRLB 011600Z 12004KT 9999 SCT015 BKN120 29/24 A2989=
201210011700 METAR MRLB 011700Z 10004KT 9999 SCT020 BKN120 30/24 A2987=
201210011800 METAR MRLB 011800Z 17006KT 9999 SCT020 BKN130 30/24 A2985=
201210011900 METAR MRLB 011900Z 18007KT 9999 SCT025 BKN140 30/24 A2983=
201210012000 METAR MRLB 012000Z 19007KT 9999 FEW025 OVC250 30/24 A2980=
201210012100 METAR MRLB 012100Z 27009KT 9999 SCT020 BKN120 29/24 A2979=
201210012200 METAR MRLB 012200Z 26008KT 9999 FEW020 OVC140 28/24 A2979=
201210012300 METAR MRLB 012300Z 27005KT 9999 FEW020 OVC140 28/23 A2980=
201210012346 METAR MRLB 020000Z 33002KT 9999 FEW020 OVC140 26/24 A2981=
201210020000 METAR MRLB 020000Z 33002KT 9999 FEW020 OVC140 26/24 A2981=
201210020100 METAR MRLB 020100Z 30002KT 9999 FEW020 SCT140 BKN250 25/24 A2983=
201210020200 METAR MRLB 020200Z 02003KT 9999 FEW020 SCT140 BKN250 25/23 A2986=
201210020300 METAR MRLB NIL=
201210020400 METAR MRLB NIL=
201210020500 METAR MRLB NIL=
201210020600 METAR MRLB NIL=
201210020700 METAR MRLB NIL=
201210020800 METAR MRLB NIL=
201210020900 METAR MRLB NIL=
201210021000 METAR MRLB NIL=
201210021100 METAR MRLB NIL=
201210021200 METAR MRLB 021200Z 00000KT CAVOK 23/21 A2988=
201210021300 METAR MRLB 021300Z 06002KT CAVOK 25/22 A2990=
201210021400 METAR MRLB 021400Z 00000KT CAVOK 27/23 A2992=
201210021500 METAR MRLB 021500Z 25002KT 9999 FEW030 OVC250 28/23 A2993=
201210021600 METAR MRLB 021600Z 27005KT 9999 FEW030 OVC250 30/24 A2992=
201210021700 METAR MRLB 021700Z 23005KT 9999 FEW030 OVC250 30/24 A2989=
201210021800 METAR MRLB 021800Z 28006KT 9999 FEW030 BKN250 30/24 A2987=
201210021900 METAR MRLB 021900Z 26007KT 9999 FEW030 BKN250 31/24 A2984=
201210022000 METAR MRLB 022000Z 27009KT 9999 FEW030 BKN250 31/24 A2981=
201210022100 METAR MRLB 022100Z 26010KT 9999 SCT025TCU BKN250 31/24 A2980=
201210022200 METAR MRLB 022200Z 32008KT 9999 DZ SCT025CB BKN140 26/22 A2981 RERA=
201210022300 METAR MRLB 022300Z 09003KT 9999 SCT025CB SCT100 26/24 A2984 REDZ=
201210022349 METAR MRLB 030000Z 00000KT 9999 FEW030 SCT100 24/22 A2985=
201210030000 METAR MRLB 030000Z 00000KT 9999 FEW030 SCT100 24/22 A2985=
201210030100 METAR MRLB 030100Z 10004KT 9999 FEW035 FEW120 23/22 A2986=
201210030200 METAR MRLB 030200Z 00000KT 9999 FEW035 SCT140 23/22 A2990=
201210030300 METAR MRLB NIL=
201210030400 METAR MRLB NIL=
201210030500 METAR MRLB NIL=
201210030600 METAR MRLB NIL=
201210030700 METAR MRLB NIL=
201210030800 METAR MRLB NIL=
201210030900 METAR MRLB NIL=
201210031000 METAR MRLB NIL=
201210031100 METAR MRLB NIL=
201210031200 METAR MRLB 031200Z 20003KT CAVOK 23/23 A2987 SCT100=
201210031300 METAR MRLB 031300Z 24003KT CAVOK 26/23 A2988 FEW100 SCT250=
201210031400 METAR MRLB 031400Z 23003KT CAVOK 28/24 A2990=
201210031500 METAR MRLB 031500Z 29003KT CAVOK 29/23 A2990=
201210031600 METAR MRLB 031600Z 33003KT 9999 FEW020 SCT250 31/22 A2989=
201210031700 METAR MRLB 031700Z 06013KT 9999 FEW025 SCT250 32/22 A2988=
201210031800 METAR MRLB 031800Z 09010KT 9999 SCT025 BKN250 33/22 A2986=
201210031900 METAR MRLB 031900Z 06011KT 9999 VCSH FEW020TCU SCT030 SCT140 32/23 A2984=
201210032000 METAR MRLB 032000Z 07010KT 9999 BKN030 SCT130 28/23 A2984=
201210032100 METAR MRLB 032100Z 10006KT 9999 VCSH SCT030 BKN100 26/21 A2981=
201210032200 METAR MRLB 032200Z 15009KT 9999 FEW030 BKN100 25/21 A2981=
201210032300 METAR MRLB 032300Z 09004KT 9999 FEW030 BKN110 26/21 A2982=
201210032351 METAR MRLB 040000Z 03006KT 9999 FEW030 BKN120 25/22 A2986=
201210040000 METAR MRLB 040000Z 03006KT 9999 FEW030 BKN120 25/22 A2986=
201210040100 METAR MRLB 040100Z 07008KT 9999 FEW025 BKN120 26/21 A2989=
201210040200 METAR MRLB 040200Z 10005KT 9999 SCT030 BKN120 25/21 A2992=
201210040300 METAR MRLB NIL=
201210040400 METAR MRLB NIL=
201210040500 METAR MRLB NIL=
201210040600 METAR MRLB NIL=
201210040700 METAR MRLB NIL=
201210040800 METAR MRLB NIL=
201210040900 METAR MRLB NIL=
201210041000 METAR MRLB NIL=
201210041100 METAR MRLB NIL=
201210041200 METAR MRLB 041200Z 09004KT 9999 FEW030 BKN250 25/21 A2991=
201210041300 METAR MRLB 041300Z 12004KT 9999 FEW030 SCT250 27/22 A2993=
201210041400 METAR MRLB 041400Z 08007KT 9999 FEW035 BKN250 29/22 A2995=
201210041500 METAR MRLB 041500Z 08011KT 9999 FEW035 BKN250 30/22 A2996=
201210041600 METAR MRLB 041600Z 07010KT 9999 SCT035 SCT250 31/22 A2994=
201210041700 METAR MRLB 041700Z 06013KT 9999 SCT030 BKN250 32/22 A2992=
201210041800 METAR MRLB 041800Z 07015KT 9999 SCT030 BKN120 28/23 A2992=
201210041900 METAR MRLB 041900Z 07008KT 9999 FEW030 BKN120 31/22 A2986=
201210042000 METAR MRLB 042000Z 06007KT 9999 FEW035 SCT130 BKN250 31/20 A2984=
201210042100 METAR MRLB 042100Z 13005KT 9999 FEW035 SCT130 BKN250 31/20 A2983=
201210042200 METAR MRLB 042200Z 10006KT 9999 FEW035 BKN130 30/20 A2984=
201210042300 METAR MRLB 042300Z 17004KT 9999 FEW035 BKN130 30/21 A2986=
201210042346 METAR MRLB 050000Z 23003KT 9999 FEW035 BKN130 28/22 A2989=
201210050000 METAR MRLB 050000Z 23003KT 9999 FEW035 BKN130 28/22 A2989=
201210050100 METAR MRLB 050100Z 00000KT 9999 FEW035 BKN130 27/23 A2991=
201210050200 METAR MRLB 050200Z 00000KT 9999 FEW035 BKN130 26/23 A2992=
201210050300 METAR MRLB NIL=
201210050400 METAR MRLB NIL=
201210050500 METAR MRLB NIL=
201210050600 METAR MRLB NIL=
201210050700 METAR MRLB NIL=
201210050800 METAR MRLB NIL=
201210050900 METAR MRLB NIL=
201210051000 METAR MRLB NIL=
201210051100 METAR MRLB NIL=
201210051200 METAR MRLB 051200Z 02002KT 9999 FEW035 SCT250 21/21 A2987=
201210051300 METAR MRLB 051300Z 00000KT 9999 FEW035 SCT130 BKN250 26/22 A2989=
201210051400 METAR MRLB 051400Z 00000KT 9999 FEW035 BKN250 29/22 A2991=
201210051500 METAR MRLB 051500Z 26004KT 9999 FEW035 BKN250 29/22 A2992=
201210051600 METAR MRLB 051600Z 26004KT 9999 FEW035 BKN250 31/23 A2991=
201210051700 METAR MRLB 051700Z 29005KT 9999 SCT035 BKN250 30/23 A2990=
201210051800 METAR MRLB 051800Z 26004KT 9999 4000N RA OVC025 30/22 A2987=
201210051900 METAR MRLB 051900Z 18005KT 9999 -RA OVC025 27/24 A2987 RERA=
201210052000 METAR MRLB 052000Z 08008KT 9999 FEW025 SCT100 27/21 A2984=
201210052100 METAR MRLB 052100Z 10005KT 9999 FEW030 BKN140 29/22 A2980=
201210052200 METAR MRLB 052200Z 07009KT CAVOK 28/21 A2980=
201210052300 METAR MRLB 052300Z 07008KT CAVOK 27/21 A2981=
201210052350 METAR MRLB 060000Z 09005KT CAVOK 26/20 A2981 SCT100=
201210060000 METAR MRLB 060000Z 09005KT CAVOK 26/20 A2981 SCT100=
201210060100 METAR MRLB 060100Z 09005KT CAVOK 25/20 A2984=
201210060200 METAR MRLB 060200Z 11007KT CAVOK 25/20 A2986=
201210060300 METAR MRLB NIL=
201210060400 METAR MRLB NIL=
201210060500 METAR MRLB NIL=
201210060600 METAR MRLB NIL=
201210060700 METAR MRLB NIL=
201210060800 METAR MRLB NIL=
201210060900 METAR MRLB NIL=
201210061000 METAR MRLB NIL=
201210061100 METAR MRLB NIL=
201210061200 METAR MRLB 061200Z 01003KT CAVOK 21/19 A2985 SCT250=
201210061300 METAR MRLB 061300Z 05003KT CAVOK 24/20 A2986 SCT250=
201210061400 METAR MRLB 061400Z 00000KT CAVOK 27/21 A2986 SCT250=
201210061500 METAR MRLB 061500Z 23003KT CAVOK 29/21 A2986=
201210061600 METAR MRLB 061600Z 19003KT CAVOK 29/21 A2986 SCT250=
201210061700 METAR MRLB 061700Z 21004KT 9999 FEW025 SCT250 31/22 A2985=
201210061800 METAR MRLB 061800Z 15004KT 9999 SCT025 32/22 A2982=
201210061900 METAR MRLB 061900Z 09004KT 9999 SCT025 33/21 A2978=
201210062000 METAR MRLB 062000Z 11006KT 9999 FEW025 SCT250 33/21 A2975=
201210062100 METAR MRLB 062100Z 26005KT 9999 FEW030 SCT250 32/23 A2973=
201210062200 METAR MRLB 062200Z 27005KT 9999 FEW035 BKN250 31/23 A2973=
201210062300 METAR MRLB 062300Z 27003KT 9999 FEW035 BKN250 29/23 A2975=
201210062352 METAR MRLB 070000Z 17004KT 9999 FEW035 BKN250 27/23 A2977=
201210070000 METAR MRLB 070000Z 17004KT 9999 FEW035 BKN250 27/23 A2977=
201210070100 METAR MRLB 070100Z 14004KT 9999 FEW035 BKN250 26/24 A2980=
201210070200 METAR MRLB 070200Z 16005KT 9999 FEW035 BKN200 26/23 A2983=
201210070300 METAR MRLB NIL=
201210070400 METAR MRLB NIL=
201210070500 METAR MRLB NIL=
201210070600 METAR MRLB NIL=
201210070700 METAR MRLB NIL=
201210070800 METAR MRLB NIL=
201210070900 METAR MRLB NIL=
201210071000 METAR MRLB NIL=
201210071100 METAR MRLB NIL=
201210071200 METAR MRLB 071200Z 00000KT 9999 FEW020 BKN250 23/22 A2983=
201210071300 METAR MRLB 071300Z 28003KT 9999 FEW020 BKN200 24/22 A2985=
201210071400 METAR MRLB 071400Z 00000KT 9999 FEW030 BKN200 25/22 A2986=
201210071500 METAR MRLB 071500Z 00000KT 9999 FEW030 BKN200 28/22 A2987=
201210071600 METAR MRLB 071600Z 18003KT 9999 FEW035 BKN200 29/23 A2986=
201210071700 METAR MRLB 071700Z 09005KT 9999 SCT035 BKN200 30/21 A2985=
201210071800 METAR MRLB 071800Z 18005KT 9999 SCT035 BKN250 32/22 A2983=
201210071900 METAR MRLB 071900Z 10006KT 9999 SCT035 BKN250 32/21 A2981=
201210072000 METAR MRLB 072000Z 13007KT 9999 SCT030 BKN200 31/22 A2978=
201210072100 METAR MRLB 072100Z 14006KT 9999 FEW035 BKN220 30/24 A2977=
201210072200 METAR MRLB 072200Z 15006KT 9999 SCT030 BKN200 30/23 A2977=
201210072300 METAR MRLB 072300Z 12005KT 9999 SCT025 BKN150 28/23 A2979=
201210072347 METAR MRLB 080000Z 10003KT 9999 SCT025 SCT140 26/23 A2982=
201210080000 METAR MRLB 080000Z 10003KT 9999 SCT025 SCT140 26/23 A2982=
201210080100 METAR MRLB 080100Z 10005KT 9999 SCT020 SCT140 26/23 A2985=
201210080200 METAR MRLB 080200Z 10005KT 9999 SCT020 BKN140 26/23 A2987=
201210080300 METAR MRLB NIL=
201210080400 METAR MRLB NIL=
201210080500 METAR MRLB NIL=
201210080600 METAR MRLB NIL=
201210080700 METAR MRLB NIL=
201210080800 METAR MRLB NIL=
201210080900 METAR MRLB NIL=
201210081000 METAR MRLB NIL=
201210081100 METAR MRLB NIL=
201210081200 METAR MRLB 081200Z 05005KT 9999 FEW035 OVC250 23/22 A2987=
201210081300 METAR MRLB 081300Z 07003KT 9999 FEW035 OVC250 25/23 A2988=
201210081400 METAR MRLB 081400Z 18004KT 9999 FEW030 SCT140 BKN250 27/23 A2991=
201210081500 METAR MRLB 081500Z 16006KT 9999 FEW035 SCT140 BKN250 28/23 A2991=
201210081600 METAR MRLB 081600Z 15005KT 9999 FEW035 SCT140 BKN250 28/23 A2991=
201210081700 METAR MRLB 081700Z 10006KT 9999 SCT030 BKN140 30/22 A2989=
201210081800 METAR MRLB 081800Z 16007KT 9999 -RA BKN020 SCT120 28/24 A2989=
201210081900 METAR MRLB 081900Z COR 18007KT 9999 SHRA FEW010TCU SCT020 SCT120 28/24 A2986=
201210082000 METAR MRLB 082000Z 10012KT 9999 2000SW -TSRA FEW010CB SCT020 BKN100 23/22 A2987 RERA=
201210082100 METAR MRLB 082100Z 15003KT 9999 -RA SCT018 BKN100 23/22 A2987=
201210082200 METAR MRLB 082200Z 00000KT 9999 DZ FEW012 BKN070 24/23 A2987=
201210082300 METAR MRLB 082300Z 00000KT 8000 VCFG FEW008 BKN070 24/23 A2988 REDZ=
201210082350 METAR MRLB 090000Z 00000KT 9999 SCT012 BKN090 24/23 A2989=
201210090000 METAR MRLB 090000Z 00000KT 9999 SCT012 BKN090 24/23 A2989=
201210090100 METAR MRLB 090100Z 27004KT 8000 VCFG FEW002 SCT015 OVC100 24/23 A2992=
201210090200 METAR MRLB 090200Z 00000KT 9000 DZ SCT015 OVC100 24/23 A2995=
201210090300 METAR MRLB NIL=
201210090400 METAR MRLB NIL=
201210090500 METAR MRLB NIL=
201210090600 METAR MRLB NIL=
201210090700 METAR MRLB NIL=
201210090800 METAR MRLB NIL=
201210090900 METAR MRLB NIL=
201210091000 METAR MRLB NIL=
201210091100 METAR MRLB NIL=
201210091200 METAR MRLB 091200Z 00000KT 9999 FEW015 SCT045 BKN100 23/22 A2992=
201210091300 METAR MRLB 091300Z 00000KT 9999 FEW010 SCT120 27/23 A2994=
201210091400 METAR MRLB 091400Z 14003KT 9999 FEW012 SCT140 27/23 A2996=
201210091500 METAR MRLB 091500Z 15003KT 9999 SCT012 BKN140 27/23 A2996=
201210091600 METAR MRLB 091600Z 17003KT 9999 SCT018 BKN140 29/23 A2995=
201210091700 METAR MRLB 091700Z 18004KT 9999 SCT018 BKN120 28/23 A2994=
201210091800 METAR MRLB 091800Z 19006KT 9999 DZ SCT015TCU BKN100 27724 A2991=
201210091900 METAR MRLB 091900Z 24005KT 9999 DZ SCT010 SCT020 26/24 A2989=
201210092000 METAR MRLB 092000Z 20004KT 9999 -RA SCT020 OVC120 26/24 A2987 REDZ=
201210092100 METAR MRLB 092100Z 22004KT 9999 DZ SCT015 BKN110 26/24 A2985=
201210092200 METAR MRLB 092200Z 15003KT 9999 SCT025 BKN120 27/24 A2985 REDZ=
201210092300 METAR MRLB 092300Z 24004KT 9999 SCT025 BKN120 26/24 A2986=
201210092351 METAR MRLB 100000Z 22003KT 9999 FEW030 BKN120 25/24 A2988=
201210100000 METAR MRLB 100000Z 22003KT 9999 FEW030 BKN120 25/24 A2988=
201210100100 METAR MRLB 100100Z 15003KT 9999 FEW030 BKN120 25/23 A2991=
201210100200 METAR MRLB 100200Z 14003KT 9999 SCT025 BKN120 24/23 A2993=
201210100300 METAR MRLB NIL=
201210100400 METAR MRLB NIL=
201210100500 METAR MRLB NIL=
201210100600 METAR MRLB NIL=
201210100700 METAR MRLB NIL=
201210100800 METAR MRLB NIL=
201210100900 METAR MRLB NIL=
201210101000 METAR MRLB NIL=
201210101100 METAR MRLB NIL=
201210101200 METAR MRLB 101200Z 05004KT 9999 FEW010 BKN130 23/22 A2993=
201210101300 METAR MRLB 101300Z 03003KT 9999 FEW025 BKN130 24/23 A2993=
201210101400 METAR MRLB 101400Z 05003KT 9999 SCT020 BKN120 25/23 A2995=
201210101500 METAR MRLB 101500Z 12003KT 9999 SCT020 BKN120 28/23 A2997=
201210101600 METAR MRLB 101600Z 20003KT 9999 SCT025 BKN130 30/24 A2997=
201210101700 METAR MRLB 101700Z 22003KT 9999 -RA FEW010TCU SCT020 BKN120 29/24 A2995=
201210101800 METAR MRLB 101800Z 20006KT 9999 2500S RA FEW010TCU SCT020 BKN110 25/23 A2991=
201210101900 METAR MRLB 101900Z COR 18004KT 9999 VCSH VCTS SCT010 BKN100 24/22 A2988 RERA=
201210102000 METAR MRLB 102000Z 16007KT 9999 -RA FEW030 OVC100 24/22 A2986=
201210102100 METAR MRLB 102100Z 21003KT 9999 FEW010 OVC100 24/23 A2984=
201210102200 METAR MRLB 102200Z 00000KT 9999 FEW015 OVC100 25/23 A2984=
201210102300 METAR MRLB 102300Z 00000KT 9999 FEW010 OVC100 25/24 A2985=
201210102345 METAR MRLB 110000Z 15002KT 9999 FEW010 OVC120 24/24 A2987=
201210110000 METAR MRLB 110000Z 15002KT 9999 FEW010 OVC120 24/24 A2987=
201210110100 METAR MRLB 110100Z 15004KT 9999 FEW010 OVC120 24/23 A2988=
201210110200 METAR MRLB 110200Z 13003KT 9999 FEW010 OVC120 24/23 A2991=
201210110300 METAR MRLB NIL=
201210110400 METAR MRLB NIL=
201210110500 METAR MRLB NIL=
201210110600 METAR MRLB NIL=
201210110700 METAR MRLB NIL=
201210110800 METAR MRLB NIL=
201210110900 METAR MRLB NIL=
201210111000 METAR MRLB NIL=
201210111100 METAR MRLB NIL=
201210111200 METAR MRLB 111200Z 16002KT 0200 VV/// 22/22 A2986=
201210111300 METAR MRLB 111300Z COR 15002KT 0300 FG SCT002 BKN250 24/23 A2989=
201210111400 METAR MRLB 111400Z 20002KT 9999 SCT008 SCT250 25/23 A2989=
201210111500 METAR MRLB 111500Z 27003KT 9999 FEW030 BKN250 28/24 A2990=
201210111600 METAR MRLB 111600Z 25006KT 9999 FEW030 BKN250 30/23 A2990=
201210111700 METAR MRLB 111700Z 29003KT 9999 FEW030 OVC250 31/23 A2987=
201210111800 METAR MRLB 111800Z 09008KT 9999 FEW035 OVC250 32/24 A2984=
201210111900 METAR MRLB 111900Z 09015KT 9999 FEW035 SCT140 BKN250 32/21 A2983=
201210112000 METAR MRLB 112000Z 09011KT 9999 FEW030 BKN250 33/22 A2980=
201210112100 METAR MRLB 112100Z 08008KT 9999 FEW030 BKN250 32/21 A2979=
201210112200 METAR MRLB 112200Z 10008KT 9999 FEW030 FEW100 BKN250 31/21 A2980=
201210112300 METAR MRLB 112300Z 10012KT 9999 FEW025 SCT100 27/21 A2984=
201210112350 METAR MRLB 120000Z 10006KT 9999 FEW020 SCT100 26/21 A2986=
201210120000 METAR MRLB 120000Z 10006KT 9999 FEW020 SCT100 26/21 A2986=
201210120100 METAR MRLB 120100Z 14004KT CAVOK 25/23 A2989 SCT100=
201210120200 METAR MRLB 120200Z 09006KT CAVOK 26/22 A2992 SCT100=
201210120300 METAR MRLB NIL=
201210120400 METAR MRLB NIL=
201210120500 METAR MRLB NIL=
201210120600 METAR MRLB NIL=
201210120700 METAR MRLB NIL=
201210120800 METAR MRLB NIL=
201210120900 METAR MRLB NIL=
201210121000 METAR MRLB NIL=
201210121100 METAR MRLB NIL=
201210121200 METAR MRLB 121200Z 05003KT CAVOK 24/21 A2987=
201210121300 METAR MRLB 121300Z 08007KT 9999 FEW025 SCT250 27/22 A2989=
201210121400 METAR MRLB 121400Z 11006KT 9999 FEW025 SCT250 29/22 A2991=
201210121500 METAR MRLB 121500Z 09012KT 9999 FEW025 SCT250 31/22 A2992=
201210121600 METAR MRLB 121600Z 07012KT 9999 SCT025 BKN250 31/22 A2992=
201210121700 METAR MRLB 121700Z 06010KT 9999 SCT025 SCT250 32/22 A2990=
201210121800 METAR MRLB 121800Z 09006KT 9999 SCT025 SCT250 32/21 A2987=
201210121900 METAR MRLB 121900Z 10005KT 9999 SCT025 SCT250 32/22 A2983=
201210122000 METAR MRLB 122000Z 06006KT 9999 SCT025TCU SCT130 32/22 A2981=
201210122100 METAR MRLB 122100Z 08007KT 9999 SCT030TCU BKN130 30/21 A2980=
201210122200 METAR MRLB 122200Z 12006KT 9999 SCT030 BKN130 29/21 A2981=
201210122300 METAR MRLB 122300Z 09003KT 9999 FEW030 BKN140 29/22 A2983=
201210122350 METAR MRLB 130000Z 14003KT 9999 FEW030 BKN200 27/23 A2985=
201210130000 METAR MRLB 130000Z 14003KT 9999 FEW030 BKN200 27/23 A2985=
201210130100 METAR MRLB 130100Z 13004KT 9999 FEW035 BKN200 26/23 A2987=
201210130200 METAR MRLB 130200Z 15005KT 9999 SCT030 BKN200 25/23 A2989=
201210130300 METAR MRLB NIL=
201210130400 METAR MRLB NIL=
201210130500 METAR MRLB NIL=
201210130600 METAR MRLB NIL=
201210130700 METAR MRLB NIL=
201210130800 METAR MRLB NIL=
201210130900 METAR MRLB NIL=
201210131000 METAR MRLB NIL=
201210131100 METAR MRLB NIL=
201210131200 METAR MRLB 131200Z 00000KT 9999 SCT020 BKN120 23/22 A2989=
201210131300 METAR MRLB 131300Z 12004KT 9999 SCT025 BKN200 26/23 A2989=
201210131400 METAR MRLB 131400Z 13004KT 9999 SCT025 BKN200 27/23 A2991=
201210131500 METAR MRLB 131500Z 23003KT 9999 FEW030 BKN250 29/23 A2991=
201210131600 METAR MRLB 131600Z 04010KT 9999 SCT030 BKN250 31/22 A2989=
201210131700 METAR MRLB 131700Z 08009KT 9999 SCT030 BKN250 31/21 A2987=
201210131800 METAR MRLB 131800Z 09007KT 9999 SCT030 BKN250 32/22 A2984=
201210131900 METAR MRLB 131900Z 32007KT 9999 SCT030 BKN250 31/24 A2981=
201210132000 METAR MRLB 132000Z 32006KT 9999 -RA FEW020CB SCT030 BKN140 29/24 A2978=
201210132100 METAR MRLB 132100Z 26005KT 9999 -TS VCSH FEW010 SCT030 BKN100 27/23 A2978=
201210132200 METAR MRLB 132200Z 19006KT 9999 FEW020 BKN120 26/23 A2978=
201210132300 METAR MRLB 132300Z 15003KT 9999 FEW020 BKN120 26/24 A2980=
201210132346 METAR MRLB 140000Z 16006KT 9999 FEW020 BKN120 25/23 A2981=
201210140000 METAR MRLB 140000Z 16006KT 9999 FEW020 BKN120 25/23 A2981=
201210140100 METAR MRLB 140100Z 18005KT 9999 -RA FEW020 BKN100 24/23 A2983=
201210140200 METAR MRLB 140200Z 16005KT 9999 -RA FEW020 BKN100 24/23 A2986=
201210140300 METAR MRLB NIL=
201210140400 METAR MRLB NIL=
201210140500 METAR MRLB NIL=
201210140600 METAR MRLB NIL=
201210140700 METAR MRLB NIL=
201210140800 METAR MRLB NIL=
201210140900 METAR MRLB NIL=
201210141000 METAR MRLB NIL=
201210141100 METAR MRLB NIL=
201210141200 METAR MRLB 141200Z 28003KT 0300 FG VV/// 22/22 A2988=
201210141300 METAR MRLB 141300Z 00000KT 9999 3000SW BCFG FEW002 BKN140 23/22 A2990=
201210141400 METAR MRLB 141400Z 21002KT 9999 FEW008 BKN130 25/23 A2991=
201210141500 METAR MRLB 141500Z 23003KT 9999 FEW015 BKN120 25/23 A2992=
201210141600 METAR MRLB 141600Z 22004KT 9999 FEW030 OVC140 27/23 A2991=
201210141700 METAR MRLB 141700Z 27004KT 9999 SCT030 BKN140 30/24 A2989=
201210141800 METAR MRLB 141800Z 28006KT 9999 4000SW RA SCT010TCU BKN120 29/24 A2986=
201210141900 METAR MRLB 141900Z COR 19009KT 4000 -TSRA FEW010CB SCT020 BKN100 25/22 A2984=
201210142000 METAR MRLB 142000Z 01003KT 9999 -RA SCT020 BKN100 24/23 A2983=
201210142100 METAR MRLB 142100Z 21003KT 9999 VCSH SCT020 BKN100 23/23 A2983 RERA=
201210142200 METAR MRLB 142200Z 08003KT 9999 SCT030 BKN100 24/23 A2983=
201210142300 METAR MRLB 142300Z 00000KT 9999 -RA FEW010 SCT030 BKN100 24/23 A2985=
201210142353 METAR MRLB 150000Z 00000KT 9999 -RA SCT020 BKN100 24/23 A2986=
201210150000 METAR MRLB 150000Z 00000KT 9999 -RA SCT020 BKN100 24/23 A2986=
201210150100 METAR MRLB 150100Z 12003KT 9999 SCT020 OVC100 24/23 A2988=
201210150200 METAR MRLB 150200Z 00000KT 9999 SCT020 OVC100 24/23 A2991=
201210150300 METAR MRLB NIL=
201210150400 METAR MRLB NIL=
201210150500 METAR MRLB NIL=
201210150600 METAR MRLB NIL=
201210150700 METAR MRLB NIL=
201210150800 METAR MRLB NIL=
201210150900 METAR MRLB NIL=
201210151000 METAR MRLB NIL=
201210151100 METAR MRLB NIL=
201210151200 METAR MRLB 151200Z 00000KT 9999 SCT015 BKN045 23/23 A2988=
201210151300 METAR MRLB 151300Z 00000KT 9999 VCFG FEW018 BKN100 24/23 A2991=
201210151400 METAR MRLB NIL=
201210151500 METAR MRLB NIL=
201210151505 METAR MRLB 151505Z 18004KT 9999 SCT015 BKN100 26/23 A2993=
201210151600 METAR MRLB 151600Z 00000KT 9999 SCT020 BKN140 27/23 A2993=
201210151700 METAR MRLB 151700Z 00000KT 9999 SCT025 BKN140 29/23 A2990=
201210151800 METAR MRLB 151800Z 33003KT 9999 FEW030 SCT250 31/23 A2986=
201210151900 METAR MRLB 151900Z 25010KT 9999 SCT025 SCT140 30/23 A2983=
201210152000 METAR MRLB 152000Z 25005KT 9999 FEW025 SCT250 30/23 A2981=
201210152100 METAR MRLB 152100Z 27009KT 9999 SCT025 BKN140 30/23 A2980=
201210152200 METAR MRLB 152200Z 25008KT 9999 SCT030 BKN140 27/23 A2980=
201210152300 METAR MRLB 152300Z 25005KT 9999 VCSH SCT025 BKN130 27/23 A2983=
201210152352 METAR MRLB 160000Z 22004KT 9999 SCT030 BKN130 25/23 A2985=
201210160000 METAR MRLB 160000Z 22004KT 9999 SCT030 BKN130 25/23 A2985=
201210160100 METAR MRLB 160100Z 12003KT 9999 SCT025 BKN130 25/23 A2987=
201210160200 METAR MRLB 160200Z 22003KT 9999 SCT025 BKN120 25/23 A2989=
201210160300 METAR MRLB NIL=
201210160400 METAR MRLB NIL=
201210160500 METAR MRLB NIL=
201210160600 METAR MRLB NIL=
201210160700 METAR MRLB NIL=
201210160800 METAR MRLB NIL=
201210160900 METAR MRLB NIL=
201210161000 METAR MRLB NIL=
201210161100 METAR MRLB NIL=
201210161200 METAR MRLB 161200Z 09003KT 9999 -RA SCT010 BKN100 23/22 A2986=
201210161300 METAR MRLB 161300Z 00000KT 9999 SCT010 BKN100 24/22 A2989=
201210161400 METAR MRLB 161400Z 00000KT 9999 FEW008 SCT015 BKN100 25/23 A2991=
201210161500 METAR MRLB 161500Z 28004KT 9999 SCT010 BKN120 27/23 A2992=
201210161600 METAR MRLB 161600Z 27006KT 9999 SCT020 BKN120 28/23 A2991=
201210161700 METAR MRLB 161700Z 26010KT 9999 SCT025 BKN200 29/23 A2989=
201210161800 METAR MRLB 161800Z 27011KT 9999 VCSH SCT020 BKN140 29/23 A2986=
201210161900 METAR MRLB 161900Z 26008KT 9999 -RA FEW010TCU SCT020 BKN130 28/23 A2984=
201210162000 METAR MRLB 16200Z 22006KT 9999 4000NE -RA BKN025 SCT120 26/23 A2983=
201210162012 METAR MRLB 16200Z 22006KT 9999 4000NE -RA BKN025 SCT120 26/23 A2983=
201210162100 METAR MRLB 162100Z 16002KT 9999 -RA SCT020 BKN120 24/23 A2982=
201210162200 METAR MRLB 162200Z 32003KT 9999 FEW020 BKN120 25/23 A2981=
201210162300 METAR MRLB 162300Z 30002KT 9999 SCT020 BKN120 26/24 A2982=
201210162346 METAR MRLB 170000Z 10002KT 9999 BKN020 SCT120 25/23 A2984=
201210170000 METAR MRLB 170000Z 10002KT 9999 BKN020 SCT120 25/23 A2984=
201210170100 METAR MRLB 170100Z 00000KT 9999 SCT020 SCT120 25/24 A2986=
201210170200 METAR MRLB 170200Z 10002KT 9999 FEW020 SCT120 24/23 A2988=
201210170300 METAR MRLB NIL=
201210170400 METAR MRLB NIL=
201210170500 METAR MRLB NIL=
201210170600 METAR MRLB NIL=
201210170700 METAR MRLB NIL=
201210170800 METAR MRLB NIL=
201210170900 METAR MRLB NIL=
201210171000 METAR MRLB NIL=
201210171100 METAR MRLB NIL=
201210171200 METAR MRLB 171200Z 04002KT 9999 FEW020 BKN120 23/22 A2990=
201210171300 METAR MRLB 171300Z 05002KT 9999 4000SW BCFG FEW008 SCT020 25/23 A2992=
201210171400 METAR MRLB 171400Z 00000KT 9999 SCT020 28/23 A2993=
201210171500 METAR MRLB 171500Z 15002KT 9999 SCT020 BKN080 27/22 A2994=
201210171600 METAR MRLB 171600Z 22003KT 9999 SCT020 SCT120 28/23 A2994=
201210171700 METAR MRLB 171700Z 26002KT 9999 SCT020 BKN100 28/23 A2991=
201210171800 METAR MRLB 171800Z 22008KT 9999 RA FEW010TCU SCT020 SCT100 27/23 A2989=
201210171900 METAR MRLB 171900Z 26011KT 9999 VCSH FEW010TCU SCT020 SCT100 28/23 A2986=
201210172000 METAR MRLB 172000Z 30007KT 9999 -RA SCT020 BKN100 25/24 A2984=
201210172100 METAR MRLB 172100Z 27006KT 9999 -RA FEW010 OVC100 24/22 A2984=
201210172200 METAR MRLB 172200Z 30003KT 9999 -RA FEW015 OVC100 24/23 A2984=
201210172300 METAR MRLB 172300Z 00000KT 9999 DZ FEW020 BKN100 24/23 A2984=
201210172350 METAR MRLB 180000Z 00000KT 9999 FEW025 BKN100 24/23 A2986 REDZ=
201210180000 METAR MRLB 180000Z 00000KT 9999 FEW025 BKN100 24/23 A2986 REDZ=
201210180100 METAR MRLB 180100Z 00000KT 9999 FEW025 BKN100 24/23 A2990=
201210180200 METAR MRLB 180200Z 00000KT 9999 FEW025 OVC120 24/23 A2992=
201210180300 METAR MRLB NIL=
201210180400 METAR MRLB NIL=
201210180500 METAR MRLB NIL=
201210180600 METAR MRLB NIL=
201210180700 METAR MRLB NIL=
201210180800 METAR MRLB NIL=
201210180900 METAR MRLB NIL=
201210181000 METAR MRLB NIL=
201210181100 METAR MRLB NIL=
201210181200 METAR MRLB 181200Z 08003KT 9999 VCFG SCT015 BKN045 23/22 A2990=
201210181300 METAR MRLB 181300Z 15006KT 7000 BR SCT010 BKN030 24/23 A2991=
201210181400 METAR MRLB 181400Z 15003KT 9000 DZ SCT010 BKN045 25/23 A2993=
201210181500 METAR MRLB 181500Z 15004KT 9000 -RA SCT012 BKN045 25/23 A2994=
201210181600 METAR MRLB 181600Z 17006KT 4000 RA SCT010 BKN030 24/23 A2994=
201210181700 METAR MRLB 181700Z 21004KT 9000 -RA SCT010 BKN050 26/23 A2993=
201210181800 METAR MRLB 181800Z 26006KT 9000 VCSH SCT012 BKN050 26/23 A2989=
201210181900 METAR MRLB 181900Z 24008KT 9999 SCT012TCU BKN070 27/23 A2987=
201210182000 METAR MRLB 182000Z 25008KT 9999 SCT015TCU BKN100 29/23 A2984=
201210182100 METAR MRLB 182100Z 25007KT 9999 VCSH SCT020 BKN120 28/22 A2983=
201210182200 METAR MRLB 182200Z 28009KT 9999 VCSH SCT015 BKN120 26/23 A2982=
201210182300 METAR MRLB 182300Z 25004KT 9999 SCT020 BKN120 26/23 A2985=
201210182351 METAR MRLB 190000Z 24003KT 9999 SCT020 BKN120 25/23 A2987=
201210190000 METAR MRLB 190000Z 24003KT 9999 SCT020 BKN120 25/23 A2987=
201210190100 METAR MRLB 190100Z 10003KT 9999 -RA SCT015 BKN100 24/23 A2988=
201210190200 METAR MRLB 190200Z 12003KT 9999 -DZ SCT010 BKN100 24/23 A2990=
201210190300 METAR MRLB NIL=
201210190400 METAR MRLB NIL=
201210190500 METAR MRLB NIL=
201210190600 METAR MRLB NIL=
201210190700 METAR MRLB NIL=
201210190800 METAR MRLB NIL=
201210190900 METAR MRLB NIL=
201210191000 METAR MRLB NIL=
201210191100 METAR MRLB NIL=
201210191200 METAR MRLB 191200Z 00000KT 9999 FEW008 SCT015 BKN100 23/23 A2987=
201210191300 METAR MRLB 191300Z 09003KT 9999 FEW007 SCT015 BKN100 25/23 A2988=
201210191400 METAR MRLB 191400Z 12003KT 9999 FEW008 SCT015 BKN130 25/23 A2990=
201210191500 METAR MRLB 191500Z 19004KT 9999 SCT020 BKN200 26/22 A2991=
201210191600 METAR MRLB 191600Z 17004KT 9999 SCT015 BKN130 28/22 A2991=
201210191700 METAR MRLB 191700Z 16004KT 9999 -RA FEW010 SCT020 BKN120 27/22 A2990=
201210191800 METAR MRLB 191800Z 19003KT 9999 VCSH SCT015 BKN120 28/23 A2986=
201210191900 METAR MRLB 191900Z 19004KT 9999 4000SW RA FEW010TCU SCT020 BKN120 28/23 A2983=
201210192000 METAR MRLB 192000Z 17004KT 9999 VCSH SCT025 BKN120 26/23 A2981=
201210192100 METAR MRLB 192100Z 30002KT 9999 VCSH SCT020 BKN120 27/23 A2981=
201210192200 METAR MRLB 192200Z 26003KT 9999 VCSH BKN020 SCT120 27/22 A2981=
201210192300 METAR MRLB 192300Z 06004KT 9999 -RA VCSH SCT010 BKN120 26/23 A2982=
201210192346 METAR MRLB 200000Z 22004KT 9999 -RA VCSH BKN010 SCT120 24/23 A2985=
201210200000 METAR MRLB 200000Z 22004KT 9999 -RA VCSH BKN010 SCT120 24/23 A2985=
201210200100 METAR MRLB 200100Z 12002KT 9999 -RA SCT010 SCT120 24/23 A2987=
201210200200 METAR MRLB 200200Z 15004KT 9999 -RA SCT010 SCT100 23/23 A2989=
201210200300 METAR MRLB NIL=
201210200400 METAR MRLB NIL=
201210200500 METAR MRLB NIL=
201210200600 METAR MRLB NIL=
201210200700 METAR MRLB NIL=
201210200800 METAR MRLB NIL=
201210200900 METAR MRLB NIL=
201210201000 METAR MRLB NIL=
201210201100 METAR MRLB NIL=
201210201200 METAR MRLB 201200Z COR 14003KT 4000 -RA BR SCT005 BKN100 23/22 A2987=
201210201300 METAR MRLB 201300Z 10002KT 9999 4000N BCFG FEW005 BKN100 25/23 A2988=
201210201400 METAR MRLB 201400Z 00000KT 9999 BKN010 27/23 A2988=
201210201500 METAR MRLB 201500Z 18002KT 9999 BKN020 27/23 A2989=
201210201600 METAR MRLB 201600Z 19004KT 9999 BKN025 SCT120 28/22 A2989=
201210201700 METAR MRLB 201700Z 27002KT 9999 VCSH BKN025 30/23 A2986=
201210201800 METAR MRLB 201800Z 26008KT 9999 VCSH FEW010TCU FEW020 SCT120 30/23 A2982=
201210201900 METAR MRLB 201900Z 28010KT 9999 VCSH SCT020 BKN120 29/24 A2980=
201210202000 METAR MRLB 202000Z 28009KT 9999 SCT015TCU SCT140 28/23 A2978=
201210202100 METAR MRLB 202100Z 27008KT 9999 SCT020TCU SCT140 28/23 A2976=
201210202200 METAR MRLB 202200Z 28007KT 9999 SCT015TCU BKN250 28/22 A2977=
201210202300 METAR MRLB 202300Z 28005KT 9999 FEW020TCU SCT120 26/23 A2978=
201210202349 METAR MRLB 210000Z 26005KT 9999 FEW020 SCT120 25/23 A2980=
201210210000 METAR MRLB 210000Z 26005KT 9999 FEW020 SCT120 25/23 A2980=
201210210100 METAR MRLB 210100Z 00000KT 9999 FEW020 SCT100 25/23 A2982=
201210210200 METAR MRLB 210200Z 00000KT 9999 FEW020 SCT100 25/23 A2984=
201210210300 METAR MRLB NIL=
201210210400 METAR MRLB NIL=
201210210500 METAR MRLB NIL=
201210210600 METAR MRLB NIL=
201210210700 METAR MRLB NIL=
201210210800 METAR MRLB NIL=
201210210900 METAR MRLB NIL=
201210211000 METAR MRLB NIL=
201210211100 METAR MRLB NIL=
201210211200 METAR MRLB 211200Z 07003KT 9999 VCFG FEW015 SCT030 BKN100 24/23 A2986=
201210211300 METAR MRLB 211300Z 07003KT 9999 VCFG SCT015CB BKN080 25/23 A2988 CB DS W=
201210211400 METAR MRLB 211400Z 19003KT 9999 2000SW RA SCT010 BKN050 25/23 A2990=
201210211500 METAR MRLB 211500Z 27003KT 6000 DZ BR SCT010 BKN045 25/23 A2991=
201210211600 METAR MRLB 211600Z 31004KT 9999 SCT012TCU BKN100 28/24 A2989=
201210211700 METAR MRLB 211700Z 27006KT 9999 SCT015TCU BKN100 28/24 A2987=
201210211800 METAR MRLB 211800Z 28009KT 9999 SCT015TCU BKN250 29/23 A2984=
201210211900 METAR MRLB 211900Z 27008KT 9999 SCT015TCU BKN250 29/23 A2981=
201210212000 METAR MRLB 212000Z 27010KT 9999 SCT020 BKN250 29/23 A2978=
201210212100 METAR MRLB 212100Z 25009KT 9999 SCT020 BKN250 28/23 A2976=
201210212200 METAR MRLB 212200Z 27010KT 9999 SCT025 BKN250 28/23 A2976=
201210212300 METAR MRLB 212300Z 26007KT 9999 SCT025 BKN200 27/23 A2978=
201210212352 METAR MRLB 220000Z 24004KT 9999 SCT025 BKN200 25/23 A2979=
201210220000 METAR MRLB 220000Z 24004KT 9999 SCT025 BKN200 25/23 A2979=
201210220100 METAR MRLB 220100Z 25003KT 9999 SCT025 BKN200 25/23 A2981=
201210220200 METAR MRLB 220200Z 07003KT 9999 SCT020 BKN200 25/23 A2982=
201210220300 METAR MRLB NIL=
201210220400 METAR MRLB NIL=
201210220500 METAR MRLB NIL=
201210220600 METAR MRLB NIL=
201210220700 METAR MRLB NIL=
201210220800 METAR MRLB NIL=
201210220900 METAR MRLB NIL=
201210221000 METAR MRLB NIL=
201210221100 METAR MRLB NIL=
201210221200 METAR MRLB 221200Z 04003KT 9999 FEW010 SCT015 BKN120 23/22 A2981=
201210221300 METAR MRLB 221300Z 35003KT 9999 DZ FEW010 SCT020 BKN120 24/23 A2984=
201210221400 METAR MRLB 221400Z 03005KT 9999 -RA FEW010 SCT020 BKN120 25/23 A2985=
201210221500 METAR MRLB 221500Z 29003KT 9999 SCT015 BKN120 27/23 A2985=
201210221600 METAR MRLB 221600Z 34003KT 9999 SCT025 BKN120 28/23 A2985=
201210221700 METAR MRLB 221700Z 32006KT 9999 SCT020 BKN110 28/23 A2983=
201210221800 METAR MRLB 221800Z 30006KT 9999 SCT020 BKN120 28/23 A2983=
201210221900 METAR MRLB 221900Z 25006KT 9999 SCT020 BKN120 30/24 A2976=
201210222000 METAR MRLB 222000Z 26008KT 9999 FEW025 BKN 130 30/24 A2972=
201210222100 METAR MRLB 222100Z 26008KT 9999 FEW030 SCT130 BKN250 28/24 A2971=
201210222200 METAR MRLB 222200Z 26008KT 9999 VCSH FEW020 BKN120 28/24 A2972=
201210222300 METAR MRLB 222300Z 26006KT 9999 VCSH SCT020 BKN120 27/24 A2974=
201210222345 METAR MRLB 230000Z 27004KT 9999 VCSH SCT020 BKN120 26/24 A2975=
201210230000 METAR MRLB 230000Z 27004KT 9999 VCSH SCT020 BKN120 26/24 A2975=
201210230100 METAR MRLB 230100Z 25004KT 9999 SCT020 BKN120 26/24 A2979=
201210230200 METAR MRLB 230200Z 00000KT 9999 SCT020 BKN120 26/24 A2982=
201210230300 METAR MRLB NIL=
201210230400 METAR MRLB NIL=
201210230500 METAR MRLB NIL=
201210230600 METAR MRLB NIL=
201210230700 METAR MRLB NIL=
201210230800 METAR MRLB NIL=
201210230900 METAR MRLB NIL=
201210231000 METAR MRLB NIL=
201210231100 METAR MRLB NIL=
201210231200 METAR MRLB 231200Z 03005KT 9999 VCFG SCT020 BKN140 22/21 A2976=
201210231300 METAR MRLB 231300Z 01003KT 9999 VCFG FEW020 SCT140 BKN250 23/22 A2977=
201210231400 METAR MRLB 231400Z 10002KT 9999 FEW010 BKN250 26/23 A2980=
201210231500 METAR MRLB 231500Z 00000KT 9999 SCT020 BKBN250 27/23 A2982=
201210231600 METAR MRLB 231600Z 29002KT 9999 SCT020 SCT250 28/23 A2981=
201210231700 METAR MRLB 231700Z 28005KT 9999 SCT030 BKN250 28/24 A2978=
201210231800 METAR MRLB 231800Z 26007KT 9999 SCT030 BKN250 29/24 A2975=
201210231900 METAR MRLB 231900Z 27007KT 9999 -RA SCT020 BKN250 29/24 A2973=
201210232000 METAR MRLB 232000Z 27009KT 9999 FEW020 FEW100 BKN250 28/23 A2971=
201210232100 METAR MRLB 232100Z 27009KT 9999 FEW020 BKN250 28/23 A2969=
201210232200 METAR MRLB 232200Z 26006KT 9999 FEW025 BKN250 27/24 A2970=
201210232300 METAR MRLB 232300Z 25004KT 9999 FEW025 BKN250 27/24 A2972=
201210232350 METAR MRLB 240000Z 24004KT 9999 FEW035 25/23 A2975=
201210240000 METAR MRLB 240000Z 24004KT 9999 FEW035 25/23 A2975=
201210240100 METAR MRLB 240100Z 22003KT 999 FEW040 24/23 A2977=
201210240200 METAR MRLB 240200Z 14005KT 9999 FEW035 24/23 A2980=
201210240300 METAR MRLB NIL=
201210240400 METAR MRLB NIL=
201210240500 METAR MRLB NIL=
201210240600 METAR MRLB NIL=
201210240700 METAR MRLB NIL=
201210240800 METAR MRLB NIL=
201210240900 METAR MRLB NIL=
201210241000 METAR MRLB NIL=
201210241100 METAR MRLB NIL=
201210241200 METAR MRLB 241200Z 01005KT 9999 DZ SCT025 BKN100 23/22 A2977=
201210241300 METAR MRLB 241300Z 00000KT 9999 DZ SCT020 BKN100 25/23 A2982=
201210241400 METAR MRLB 241400Z 27005KT 6000 DZ BR SCT008 BKN035 24/23 A2985=
201210241500 METAR MRLB 241500Z 29007KT 5000 2000SW RA SCT010 BKN030 23/22 A2987=
201210241600 METAR MRLB 241600Z 04003KT 9000 -RA SCT020 BKN090 23/22 A2986=
201210241700 METAR MRLB 241700Z 00000KT 9000 -RA SCT010 BKN090 24/23 A2982=
201210241800 METAR MRLB 241800Z 00000KT 9000 RA FEW010 BKN100 24/23 A2981=
201210241900 METAR MRLB 241900Z 00000KT 9999 -RA SCT010 BKN100 24/23 A2978=
201210242000 METAR MRLB 242000Z 15003KT 9999 -RA SCT012 BKN100 24/23 A2977=
201210242100 METAR MRLB 242100Z 16004KT 9999 -DZ SCT010 BKN100 24/23 A2975=
201210242200 METAR MRLB 242200Z 14003KT 9999 SCT012 BKN100 25/23 A2975=
201210242300 METAR MRLB 242300Z 12003KT 9999 SCT012 BKN110 25/23 A2977=
201210242352 METAR MRLB 250000Z 00000KT 9999 SCT015 BKN120 24/23 A2980=
201210250000 METAR MRLB 250000Z 00000KT 9999 SCT015 BKN120 24/23 A2980=
201210250100 METAR MRLB 250100Z 10003KT 9999 SCT015 BKN120 24/23 A2981=
201210250200 METAR MRLB 250200Z 12003KT 9999 SCT015 BKN110 24/23 A2983=
201210250300 METAR MRLB NIL=
201210250400 METAR MRLB NIL=
201210250500 METAR MRLB NIL=
201210250600 METAR MRLB NIL=
201210250700 METAR MRLB NIL=
201210250800 METAR MRLB NIL=
201210250900 METAR MRLB NIL=
201210251000 METAR MRLB NIL=
201210251100 METAR MRLB NIL=
201210251200 METAR MRLB 251200Z 12004KT 7000 RA SCT008 BKN090 23/22 A2983=
201210251300 METAR MRLB 251300Z 13005KT 9999 -RA SCT008 BKN100 23/22 A2985 RERA=
201210251400 METAR MRLB 251400Z 14004KT 7000 RA SCT006 BKN018 23/22 A2989=
201210251500 METAR MRLB 251500Z 15005KT 7000 RA SCT008 BKN018 23/22 A2990=
201210251600 METAR MRLB 251600Z 13004KT 8000 RA SCT008 BKN020 23/23 A2989=
201210251700 METAR MRLB 251700Z 14005KT 9000 -RA SCT008 BKN020 23/22 A2987=
201210251800 METAR MRLB 251800Z 14004KT 9999 FEW008 SCT015 BKN100 23/22 A2986=
201210251900 METAR MRLB 251900Z 13004KT 9999 -DZ FEW010 SCT015 BKN100 24/23 A2984=
201210252000 METAR MRLB 252000Z 11004KT 9999 -RA BKN015 SCT100 24/22 A2981=
201210252100 METAR MRLB 252100Z 13004KT 9999 -RA SCT010 SCT100 24/23 A2980=
201210252200 METAR MRLB 252200Z 14005KT 5000 2000SW DZ FEW005 SCT010 BKN100 23/23 A2981=
201210252300 METAR MRLB 252300Z 10005KT 9999 4000E -RA BCFG SCT005 BKN100 23/22 A2982=
201210252346 METAR MRLB 260000Z 09004KT 9999 BKN010 SCT100 23/22 A2983=
201210260000 METAR MRLB 260000Z 09004KT 9999 BKN010 SCT100 23/22 A2983=
201210260100 METAR MRLB 260100Z 00000KT 5000 -RA BR BKN010 SCT100 23/23 A2985=
201210260200 METAR MRLB 260200Z 12005KT 8000 RA BKN010 SCT100 23/22 A2987=
201210260300 METAR MRLB NIL=
201210260400 METAR MRLB NIL=
201210260500 METAR MRLB NIL=
201210260600 METAR MRLB NIL=
201210260700 METAR MRLB NIL=
201210260800 METAR MRLB NIL=
201210260900 METAR MRLB NIL=
201210261000 METAR MRLB NIL=
201210261100 METAR MRLB NIL=
201210261200 METAR MRLB 261200Z 10002KT 9999 VCFG OVC020 23/22 A2985=
201210261300 METAR MRLB 261300Z 11003KT 9999 FEW010 SCT020 BKN100 24/23 A2988=
201210261400 METAR MRLB 261400Z 12003KT 9999 SCT010 BKN120 25/22 A2990=
201210261500 METAR MRLB 261500Z 14004KT 9999 SCT020 BKN120 28/23 A2991=
201210261600 METAR MRLB 261600Z 15005KT 9999 VCSH BKN020 SCT120 28/23 A2991=
201210261700 METAR MRLB 261700Z 15003KT 9999 VCSH SCT020 BKN120 28/23 A2989=
201210261800 METAR MRLB 261800Z 23006KT 9999 -RA FEW010TCU BKN120 27/24 A2987=
201210261900 METAR MRLB 261900Z 26004KT 9999 VCSH SCT010 BKN120 30/23 A2984=
201210262000 METAR MRLB 262000Z 26007KT 9999 VCSH SCT018TCU BKN140 28/23 A2981=
201210262100 METAR MRLB 262100Z 19005KT 9999 4000E -RA SCT015 BKN140 26/23 A2980=
201210262200 METAR MRLB 262200Z 12005KT 9999 3000NE RA SCT015 BKN070 25/23 A2981=
201210262300 METAR MRLB 262300Z 00000KT 9000 RA SCT020 BKN100 24/23 A2982=
201210262350 METAR MRLB 270000Z 01005KT 8000 -RA SCT015 BKN100 24/23 A2983=
201210270000 METAR MRLB 270000Z 01005KT 8000 -RA SCT015 BKN100 24/23 A2983=
201210270100 METAR MRLB 270100Z 01003KT 9000 DZ SCT015 BKN100 24/23 A2985=
201210270200 METAR MRLB NIL=
201210270300 METAR MRLB NIL=
201210270400 METAR MRLB NIL=
201210270500 METAR MRLB NIL=
201210270600 METAR MRLB NIL=
201210270700 METAR MRLB NIL=
201210270800 METAR MRLB NIL=
201210270900 METAR MRLB NIL=
201210271000 METAR MRLB NIL=
201210271100 METAR MRLB NIL=
201210271200 METAR MRLB 271200Z 34003KT 0100 FG VV/// 22/22 A2984=
201210271300 METAR MRLB 271300Z 04003KT 4000 BR FEW004 SCT015 BKN100 23/22 A2987=
201210271400 METAR MRLB 271400Z 00000KT 9999 FEW010 SCT140 26/23 A2988=
201210271500 METAR MRLB 271500Z 26004KT 9999 FEW020 SCT250 28/23 A2990=
201210271600 METAR MRLB 271600Z 00000KT 9999 SCT018 29/23 A2989=
201210271700 METAR MRLB 271700Z 27005KT 9999 SCT020 30/23 A2986=
201210271800 METAR MRLB 271800Z 26007KT 9999 FEW020TCU SCT040 30/23 A2983=
201210271900 METAR MRLB 271900Z 27007KT 9999 SCT020 SCT120 31/24 A2979=
201210272000 METAR MRLB 272000Z 28006KT 9999 -RA FEW020TCU SCT030 31/23 A2977=
201210272100 METAR MRLB 272100Z 27008KT 9999 SCT025TCU BKN250 30/23 A2975=
201210272200 METAR MRLB 272200Z 28004KT 9999 RA FEW020CB SCT030 BKN140 27/24 A2977=
201210272300 METAR MRLB 272300Z 24003KT 9999 SCT030 BKN250 26/24 A2978 RERA=
201210272351 METAR MRLB 280000Z 00000KT 9999 SCT025 BKN250 26/24 A2980=
201210280000 METAR MRLB 280000Z 00000KT 9999 SCT025 BKN250 26/24 A2980=
201210280100 METAR MRLB 280100Z 14003KT 9999 SCT025 BKN200 25/24 A2982=
201210280200 METAR MRLB 280200Z 00000KT 9999 SCT020 BKN200 25/24 A2985=
201210280300 METAR MRLB NIL=
201210280400 METAR MRLB NIL=
201210280500 METAR MRLB NIL=
201210280600 METAR MRLB NIL=
201210280700 METAR MRLB NIL=
201210280800 METAR MRLB NIL=
201210280900 METAR MRLB NIL=
201210281000 METAR MRLB NIL=
201210281100 METAR MRLB NIL=
201210281200 METAR MRLB 281200Z 29003KT 0500 FG VV/// 21/21 A2985=
201210281300 METAR MRLB 281300Z 05003KT 9999 FEW025 SCT250 24/22 A2987=
201210281400 METAR MRLB 281400Z 05003KT CAVOK 27/23 A2988=
201210281500 METAR MRLB 281500Z 35003KT 9999 FEW030 BKN250 28/22 A2989=
201210281600 METAR MRLB 281600Z 05011KT 9999 FEW030 BKN250 30/20 A2989=
201210281700 METAR MRLB 281700Z 07014KT 9999 FEW035 SCT250 31/20 A2986=
201210281800 METAR MRLB 281800Z 31006KT 9999 FEW035 SCT250 30/21 A2985=
201210281900 METAR MRLB 281900Z 09011KT 9999 FEW035 SCT250 32/19 A2981=
201210282000 METAR MRLB 282000Z 09010KT 9999 SCT030 SCT250 32/19 A2979=
201210282100 METAR MRLB 282100Z 08009KT 9999 FEW035 SCT140 32/19 A2978=
201210282200 METAR MRLB 282200Z 07009KT 9999 FEW035 SCT250 31/18 A2979=
201210282300 METAR MRLB 282300Z 10004KT 9999 FEW035 SCT250 29/20 A2980=
201210282344 METAR MRLB 290000Z 10005KT 9999 FEW040 SCT0250 27/20 A2982=
201210290000 METAR MRLB 290000Z 10005KT 9999 FEW040 SCT0250 27/20 A2982=
201210290100 METAR MRLB 290100Z 11006KT 9999 FEW040SCT250 26/20 A2984=
201210290200 METAR MRLB 290200Z 05005KT 9999 FEW040 SCT250 25/21 A2987=
201210290300 METAR MRLB NIL=
201210290400 METAR MRLB NIL=
201210290500 METAR MRLB NIL=
201210290600 METAR MRLB NIL=
201210290700 METAR MRLB NIL=
201210290800 METAR MRLB NIL=
201210290900 METAR MRLB NIL=
201210291000 METAR MRLB NIL=
201210291100 METAR MRLB NIL=
201210291200 METAR MRLB 291200Z 09004KT 9999 FEW040 BKN250 21/20 A2989=
201210291300 METAR MRLB 291300Z 30004KT 9999 FEW040 BKN250 23/21 A2989=
201210291400 METAR MRLB 291400Z 21003KT 9999 FEW040 BKN250 26/21 A2991=
201210291500 METAR MRLB 291500Z 26005KT CAVOK 28/21 A2992=
201210291600 METAR MRLB 291600Z 27003KT CAVOK 30/21 A2992=
201210291700 METAR MRLB 291700Z 26004KT 9999 FEW040 BKN250 30/21 A2990=
201210291800 METAR MRLB 291800Z 28006KT 9999 FEW035 BKN250 31/21 A2987=
201210291900 METAR MRLB 291900Z 27007KT 9999 FEW035 BKN250 32/21 A2985=
201210292000 METAR MRLB 292000Z 10008KT 9999 FEW030 SCT250 32/20 A2982=
201210292100 METAR MRLB 292100Z 32007KT CAVOK 32/21 A2981=
201210292200 METAR MRLB 292200Z 10005KT CAVOK 30/20 A2983=
201210292300 METAR MRLB 292300Z 12004KT CAVOK 28/20 A2984=
201210292348 METAR MRLB 300000Z 18003KT CAVOK 26/20 A2986 FEW100=
201210300000 METAR MRLB 300000Z 18003KT CAVOK 26/20 A2986 FEW100=
201210300100 METAR MRLB 300100Z 05003KT CAVOK 25/20 A2990=
201210300200 METAR MRLB 300200Z 08003KT CAVOK 25/21 A2992=
201210300300 METAR MRLB NIL=
201210300400 METAR MRLB NIL=
201210300500 METAR MRLB NIL=
201210300600 METAR MRLB NIL=
201210300700 METAR MRLB NIL=
201210300800 METAR MRLB NIL=
201210300900 METAR MRLB NIL=
201210301000 METAR MRLB NIL=
201210301100 METAR MRLB NIL=
201210301200 METAR MRLB 301200Z 00000KT CAVOK 21/19 A2990 SCT250=
201210301300 METAR MRLB 301300Z 33003KT CAVOK 24/21 A2992=
201210301400 METAR MRLB 301400Z 22003KT CAVOK 27/21 A2994=
201210301500 METAR MRLB 301500Z 27005KT CAVOK 28/21 A2994=
201210301600 METAR MRLB 301600Z 27003KT CAVOK 30/21 A2993=
201210301700 METAR MRLB 301700Z 08017KT CAVOK 30/19 A2990=
201210301800 METAR MRLB 301800Z 08014KT CAVOK 32/19 A2987=
201210301900 METAR MRLB 301900Z 09012KT 9999 FEW025 SCT250 32/20 A2985=
201210302000 METAR MRLB 302000Z 08009KT 9999 FEW030 BKN250 32/19 A2984=
201210302100 METAR MRLB 302100Z 07011KT 9999 FEW030 BKN250 32/20 A2983=
201210302200 METAR MRLB 302200Z 07010KT 9999 FEW030 BKN250 31/20 A2984=
201210302300 METAR MRLB 302300Z 08010KT 9999 FEW030 BKN250 29/20 A2986=
201210302351 METAR MRLB 310000Z 10011KT 9999 FEW035 BKN250 27/20 A2987=
201210310000 METAR MRLB 310000Z 10011KT 9999 FEW035 BKN250 27/20 A2987=
201210310100 METAR MRLB 310100Z 09009KT 9999 FEW035 SCT250 26/20 A2991=
201210310200 METAR MRLB 310200Z 09006KT 9999 FEW035 SCT250 26/20 A2994=
201210310300 METAR MRLB NIL=
201210310400 METAR MRLB NIL=
201210310500 METAR MRLB NIL=
201210310600 METAR MRLB NIL=
201210310700 METAR MRLB NIL=
201210310800 METAR MRLB NIL=
201210310900 METAR MRLB NIL=
201210311000 METAR MRLB NIL=
201210311100 METAR MRLB NIL=
201210311200 METAR MRLB 311200Z 32005KT 9999 FEW030 SCT250 21/19 A2991=
201210311300 METAR MRLB 311300Z 13004KT 9999 FEW030 SCT250 24/20 A2993=
201210311400 METAR MRLB 311400Z 24006KT 9999 FEW035 SCT250 26/20 A2993=
201210311500 METAR MRLB 311500Z 23005KT 9999 SCT035 28/20 A2994=
201210311600 METAR MRLB 311600Z 26007KT 9999 SCT035 30/19 A2994=
201210311700 METAR MRLB 311700Z 27006KT 9999 FEW035 31/19 A2991=
201210311800 METAR MRLB 311800Z 14006KT 9999 FEW035 SCT250 30/19 A2989=
201210311900 METAR MRLB 311900Z 10009KT 9999 SCT035 SCT250 31/19 A2987=
201210312000 METAR MRLB 312000Z 09012KT 9999 FEW035 31/18 A2984=
201210312100 METAR MRLB 312100Z 07012KT 9999 SCT035 31/19 A2985=
201210312200 METAR MRLB 312200Z 10009KT 9999 FEW035 30/19 A2985=
201210312300 METAR MRLB 312300Z 11010KT 9999 SCT035 SCT100 27/20 A2987=
201210312345 METAR MRLB 010000Z 08007KT 9999 SCT035 BKN100 27/20 A2988=
201210312353 METAR MRLB 010000Z 08007KT 9999 SCT035 BKN100 27/20 A2988=
201210312357 METAR MRLB 010000Z 08007KT 9999 SCT035 BKN100 27/20 A2988=
201211010000 METAR MRLB 010000Z 08007KT 9999 SCT035 BKN100 27/20 A2988=
201211010100 METAR MRLB 010100Z 11011KT 9999 FEW035 SCT100 26/19 A2990=
201211010200 METAR MRLB 010200Z 08007KT 9999 FEW035 SCT120 26/20 A2992=
201211010300 METAR MRLB NIL=
201211010400 METAR MRLB NIL=
201211010500 METAR MRLB NIL=
201211010600 METAR MRLB NIL=
201211010700 METAR MRLB NIL=
201211010800 METAR MRLB NIL=
201211010900 METAR MRLB NIL=
201211011000 METAR MRLB NIL=
201211011100 METAR MRLB NIL=
201211011200 METAR MRLB 011200Z 15003KT 9999 FEW035 SCT130 21/20 A2989=
201211011300 METAR MRLB 011300Z 26005KT 9999 FEW035 SCT140 24/20 A2990=
201211011400 METAR MRLB 011400Z 21005KT 9999 FEW035 SCT220 27/20 A2991=
201211011500 METAR MRLB NIL=
201211011600 METAR MRLB 011600Z 19004KT 9999 FEW035 SCT250 30/20 A2993=
201211011700 METAR MRLB 011700Z 23004KT 9999 FEW035 SCT250 30/20 A2990=
201211011800 METAR MRLB 011800Z 28006KT 9999 FEW035 SCT250 31/20 A2987=
201211011900 METAR MRLB 011900Z 23005KT 9999 FEW035 SCT250 32/20 A2985=
201211012000 METAR MRLB 012000Z 27006KT 9999 FEW030 SCT250 32/20 A2982=
201211012100 METAR MRLB 012100Z 10008KT 9999 FEW035 SCT120 31/20 A2981=
201211012200 METAR MRLB 012200Z 09008KT 9999 FEW025 SCT080 29/20 A2982=
201211012300 METAR MRLB 012300Z 00000KT 9999 FEW025 SCT090 28/20 A2984=
201211012352 METAR MRLB 020000Z 13005KT 9999 FEW030 SCT100 26/21 A2985=
201211020000 METAR MRLB 020000Z 13005KT 9999 FEW030 SCT100 26/21 A2985=
201211020100 METAR MRLB 020100Z 08006KT CAVOK 26/20 A2987=
201211020202 METAR MRLB 020202Z 13005KT CAVOK 25/21 A2990=
201211020204 METAR MRLB 020204Z 13005KT CAVOK 25/21 A2990=
201211020300 METAR MRLB NIL=
201211020400 METAR MRLB NIL=
201211020500 METAR MRLB NIL=
201211020600 METAR MRLB NIL=
201211020700 METAR MRLB NIL=
201211020800 METAR MRLB NIL=
201211020900 METAR MRLB NIL=
201211021000 METAR MRLB NIL=
201211021100 METAR MRLB NIL=
201211021200 METAR MRLB 021200Z 15003KT CAVOK 21/19 A2986=
201211021300 METAR MRLB 021300Z 00000KT CAVOK 24/21 A2988=
201211021400 METAR MRLB 021400Z 22004KT 9999 FEW030 27/21 A2990=
201211021500 METAR MRLB 021500Z 27007KT 9999 FEW035 29/22 A2991=
201211021600 METAR MRLB 021600Z 23005KT 9999 FEW030 30/21 A2990=
201211021700 METAR MRLB 021700Z 28009KT 9999 FEW025 SCT100 30/21 A2988=
201211021800 METAR MRLB 021800Z 24007KT 9999 SCT035 SCT140 31/21 A2985=
201211021900 METAR MRLB 021900Z 18005KT 9999 SCT030 BKN120 31/21 A2984=
201211022000 METAR MRLB 022000Z 16004KT 9999 SCT030 BKN120 32/21 A2980=
201211022100 METAR MRLB 022100Z 06007KT 9999 SCT035 BKN120 29/23 A2979=
201211022200 METAR MRLB 022200Z 07008KT 9999 FEW035 BKN120 29/22 A2980=
201211022300 METAR MRLB 022300Z 14003KT 9999 SCT035 SCT130 28/22 A2981=
201211022352 METAR MRLB 030000Z 10009KT 9999 SCT035 BKN130 27/21 A2983=
201211030000 METAR MRLB 030000Z 10009KT 9999 SCT035 BKN130 27/21 A2983=
201211030100 METAR MRLB 030100Z 08009KT 9999 FEW035 BKN130 26/20 A2986=
201211030200 METAR MRLB 030200Z 12006KT 9999 SCT030 BKN130 25/21 A2990=
201211030300 METAR MRLB NIL=
201211030400 METAR MRLB NIL=
201211030500 METAR MRLB NIL=
201211030700 METAR MRLB NIL=
201211030800 METAR MRLB NIL=
201211030900 METAR MRLB NIL=
201211031000 METAR MRLB NIL=
201211031100 METAR MRLB NIL=
201211031200 METAR MRLB 031200Z 05003KT 9999 FEW025 SCT250 22/21 A2988=
201211031300 METAR MRLB 031300Z 31003KT 9999 FEW030 SCT250 25/22 A2990=
201211031400 METAR MRLB 031400Z 19003KT 9999 SCT030 SCT250 26/22 A2991=
201211031500 METAR MRLB 031500Z 14006KT 9999 FEW030 SCT130 29/22 A2993=
201211031600 METAR MRLB 031600Z 08013KT 9999 SCT030 SCT130 30/21 A2992=
201211031700 METAR MRLB 031700Z 07009KT 9999 SCT030 BKN130 31/21 A2990=
201211031800 METAR MRLB 031800Z 07010KT 9999 SCT025 BKN120 30/21 A2988=
201211031900 METAR MRLB 031900Z 08011KT 9999 SCT025 BKN120 29/21 A2985=
201211032000 METAR MRLB 032000Z 05011KT 9999 SCT030 BKN120 30/21 A2982=
201211032100 METAR MRLB 032100Z 11003KT 9999 FEW030 OVC100 29/21 A2981=
201211032200 METAR MRLB 032200Z 14003KT 9999 FEW030 OVC120 28/22 A2982=
201211032300 METAR MRLB 032300Z 19003KT CAVOK 27/23 A2982=
201211032353 METAR MRLB 040000Z 23004KT CAVOK 25/23 A2984=
201211040000 METAR MRLB 040000Z 23004KT CAVOK 25/23 A2984=
201211040100 METAR MRLB 040100Z 21002KT CAVOK 25/22 A2985=
201211040200 METAR MRLB 040200Z 09004KT CAVOK 25/22 A2986=
201211040300 METAR MRLB NIL=
201211040400 METAR MRLB NIL=
201211040500 METAR MRLB NIL=
201211040600 METAR MRLB NIL=
201211040700 METAR MRLB NIL=
201211040800 METAR MRLB NIL=
201211040900 METAR MRLB NIL=
201211041000 METAR MRLB NIL=
201211041100 METAR MRLB NIL=
201211041200 METAR MRLB 041200Z 28003KT CAVOK 22/21 A2987=
201211041300 METAR MRLB 041300Z 00000KT CAVOK 27/23 A2988=
201211041400 METAR MRLB 041400Z 21004KT CAVOK 26/22 A2990=
201211041500 METAR MRLB 041500Z 10007KT CAVOK 29/22 A2990=
201211041600 METAR MRLB 041600Z 08011KT 9999 FEW040 SCT140 30/21 A2989=
201211041700 METAR MRLB 041700Z COR 06011KT 9999 FEW040 SCT130 31/21 A2987=
201211041800 METAR MRLB 041800Z 06011KT 9999 FEW040 SCT130 31/21 A2985=
201211041900 METAR MRLB 041900Z 07010KT 9999FEW040 BKN130 32/21 A2982=
201211042000 METAR MRLB 042000Z 05007KT 9999 FEW030 SCT130 32/21 A2980=
201211042100 METAR MRLB 042100Z 06010KT 9999 FEW025 SCT250 32/21 A2978=
201211042200 METAR MRLB 042200Z 11003KT 9999 FEW025 SCT250 32/21 A2977=
201211042300 METAR MRLB 042300Z 03005KT 9999 FEW035 SCT250 29/21 A2979=
201211042353 METAR MRLB 050000Z 27006KT 9999 FEW030 26/23 A2981=
201211050000 METAR MRLB 050000Z 27006KT 9999 FEW030 26/23 A2981=
201211050100 METAR MRLB 050100Z 00000KT 9999 FEW035 26/24 A2985=
201211050200 METAR MRLB 050200Z 00000KT 9999 FEW040 26/24 A2986=
201211050300 METAR MRLB NIL=
201211050400 METAR MRLB NIL=
201211050500 METAR MRLB NIL=
201211050600 METAR MRLB NIL=
201211050700 METAR MRLB NIL=
201211050800 METAR MRLB NIL=
201211050900 METAR MRLB NIL=
201211051000 METAR MRLB NIL=
201211051100 METAR MRLB NIL=
201211051200 METAR MRLB 051200Z 04004KT 9999 VCFG FEW025 22/21 A2983=
201211051300 METAR MRLB 051300Z 08003KT 9999 SCT025 25/22 A2985=
201211051400 METAR MRLB 051400Z 20003KT 9999 FEW040 SCT250 27/24 A2986=
201211051500 METAR MRLB 051500Z 07014KT 9999 FEW025 SCT250 30/2 A2987=
201211051600 METAR MRLB 051600Z 09012KT 9999 FEW025 SCT250 31/21 A2987=
201211051700 METAR MRLB 051700Z 10010KT 9999 FEW025 SCT250 32/21 A2986=
201211051800 METAR MRLB 051800Z 06010KT 9999 FEW025 SCT250 32/20 A2983=
201211051900 METAR MRLB 051900Z 07008KT 9999 SCT030 32/20 A2981=
201211052000 METAR MRLB 052000Z 08007KT 9999 FEW035 OVC220 32/20 A2978=
201211052100 METAR MRLB 052100Z 08007KT 9999 FEW035 BKN220 32/24 A2977=
201211052200 METAR MRLB 052200Z 07009KT 9999 FEW035 BKN250 32/23 A2977=
201211052300 METAR MRLB 052300Z 09007KT 9999 FEW035 BKN200 29/21 A2979=
201211052353 METAR MRLB 060000Z 07006KT 9999 FEW035 BKN200 27/20 A2982=
201211060000 METAR MRLB 060000Z 07006KT 9999 FEW035 BKN200 27/20 A2982=
201211060100 METAR MRLB 060100Z 10004KT 9999 FEW035 BKN200 26/21 A2983=
201211060152 METAR MRLB 160200Z 21004KT CAVOK 22/19 A2990=
201211060200 METAR MRLB 060200Z 12003KT 9999 FEW030 BKN200 25/21 A2986=
201211060300 METAR MRLB NIL=
201211060400 METAR MRLB NIL=
201211060500 METAR MRLB NIL=
201211060600 METAR MRLB NIL=
201211060700 METAR MRLB NIL=
201211060800 METAR MRLB NIL=
201211060900 METAR MRLB NIL=
201211061000 METAR MRLB NIL=
201211061100 METAR MRLB NIL=
201211061200 METAR MRLB 061200Z 07003KT CAVOK 21/20 A2986=
201211061300 METAR MRLB 061300Z 00000KT CAVOK 25/21 A2988=
201211061400 METAR MRLB 061400Z 18004KT CAVOK 26/22 A2988=
201211061500 METAR MRLB 061500Z 20004KT CAVOK 29/22 A2988=
201211061600 METAR MRLB 061600Z 15006KT 9999 FEW030 SCT250 30/21 A2987=
201211061700 METAR MRLB 061700Z 12010KT 9999 FEW030 SCT250 31/19 A2985=
201211061800 METAR MRLB 061800Z 07014KT 9999 FEW035 BKN250 32/18 A2982=
201211061900 METAR MRLB 061900Z 08011KT 9999 FEW035 BKN250 33/18 A2981=
201211062000 METAR MRLB 062000Z 08011KT 9999 FEW035 OVC250 31/19 A2979=
201211062100 METAR MRLB 062100Z 07009KT 9999 FEW035 OVC250 31/19 A2979=
201211062200 METAR MRLB 062200Z 06009KT 9999 FEW035 OVC250 30/20 A2979=
201211062300 METAR MRLB 062300Z 08003KT 9999 FEW040 OVC250 30/21 A2981=
201211062352 METAR MRLB 070000Z 31004KT 9999 FEW040 BKN150 26/21 A2982=
201211070000 METAR MRLB 070000Z 31004KT 9999 FEW040 BKN150 26/21 A2982=
201211070100 METAR MRLB 070100Z 17002KT 9999 FEW040 BKN150 25/21 A2984=
201211070200 METAR MRLB 070200Z 17007KT 9999 FEW040 BKN140 24/20 A2986=
201211070300 METAR MRLB NIL=
201211070400 METAR MRLB NIL=
201211070500 METAR MRLB NIL=
201211070600 METAR MRLB NIL=
201211070700 METAR MRLB NIL=
201211070800 METAR MRLB NIL=
201211070900 METAR MRLB NIL=
201211071000 METAR MRLB NIL=
201211071100 METAR MRLB NIL=
201211071200 METAR MRLB 071200Z 29005KT 9999 FEW035 BKN250 22/20 A2983=
201211071300 METAR MRLB 071300Z 00000KT 9999 FEW040 SCT130 BKN250 25/21 A2985=
201211071400 METAR MRLB 071400Z 21005KT 9999 FEW040 BKN130 27/21 A2986=
201211071500 METAR MRLB 071500Z 21007KT 9999 FEW040 SCT130 BKN250 30/20 A2986=
201211071600 METAR MRLB 071600Z 31007KT 9999 FEW040 OVC250 30/20 A2987=
201211071700 METAR MRLB 071700Z 08015KT 9999 FEW040 SCT130 BKN250 31/19 A2985=
201211071800 METAR MRLB 071800Z 07015KT 9999 FEW040 BKN130 32/19 A2983=
201211071900 METAR MRLB 071900Z 06016KT 9999 FEW040 BKN130 32/19 A2981=
201211072000 METAR MRLB 072000Z 08012KT 9999 FEW030 BKN130 30/20 A2979=
201211072100 METAR MRLB 072100Z 07013KT 9999 FEW035 BKN130 30/20 A2979=
201211072200 METAR MRLB 072200Z 09014KT 9999 SCT030 BKN130 28/20 A2980=
201211072300 METAR MRLB 072300Z 09013KT 9999 SCT025 BKN100 27/20 A2982=
201211072354 METAR MRLB 080000Z 07014KT 9999 FEW030 BKN120 26/21 A2986=
201211080000 METAR MRLB 080000Z 07014KT 9999 FEW030 BKN120 26/21 A2986=
201211080100 METAR MRLB 080100Z 08014KT 9999 FEW035 BKN130 26/20 A2987=
201211080200 METAR MRLB 080200Z 08016KT 9999 FEW035 BKN140 26/20 A2988=
201211080300 METAR MRLB NIL=
201211080400 METAR MRLB NIL=
201211080500 METAR MRLB NIL=
201211080600 METAR MRLB NIL=
201211080700 METAR MRLB NIL=
201211080800 METAR MRLB NIL=
201211080900 METAR MRLB NIL=
201211081000 METAR MRLB NIL=
201211081100 METAR MRLB NIL=
201211081200 METAR MRLB 081200Z 26006KT 9999 FEW030 BKN120 23/20 A2986=
201211081300 METAR MRLB 081300Z 17005KT 9999 FEW025 BKN120 25/21 A2988=
201211081400 METAR MRLB 081400Z 25006KT 9999 FEW030 SCT140 28/21 A2992=
201211081500 METAR MRLB 081500Z 24008KT 9999 FEW030 SCT140 28/21 A2991=
201211081600 METAR MRLB 081600Z 25007KT 9999 FEW030 SCT140 30/21 A2990=
201211081700 METAR MRLB 081700Z 28007KT 9999 FEW030 SCT140 31/20 A2988=
201211081800 METAR MRLB 081800Z 25007KT 9999 FEW030 BKN120 31/20 A2986=
201211081900 METAR COR MRLB 081900Z VRB02KT 9999 SCT030 BKN140 31/20 A2983=
201211082000 METAR MRLB 082000Z 09011KT 9999 FEW035 BKN130 31/20 A2980=
201211082100 METAR MRLB 082100Z 09010KT 9999 FEW030 BKN130 29/20 A2978=
201211082200 METAR MRLB 082200Z 10006KT 9999 FEW035 BKN130 29/21 A2980=
201211082300 METAR MRLB 082300Z 09006KT 9999 FEW035 BKN130 28/19 A2979=
201211082352 METAR MRLB 090000Z 26004KT 9999 FEW035 BKN120 27/21 A2981=
201211090000 METAR MRLB 090000Z 26004KT 9999 FEW035 BKN120 27/21 A2981=
201211090100 METAR MRLB 090100Z 13005KT 9999 FEW035 BKN120 26/20 A2983=
201211090200 METAR MRLB 090200Z 27004KT 9999 FEW030 BKN120 25/21 A2985=
201211090300 METAR MRLB NIL=
201211090400 METAR MRLB NIL=
201211090500 METAR MRLB NIL=
201211090600 METAR MRLB NIL=
201211090700 METAR MRLB NIL=
201211090800 METAR MRLB NIL=
201211091200 METAR MRLB 091200Z 20004KT 9999 SCT030 SCT250 23/18 A2984=
201211091300 METAR MRLB 091300Z 20005KT 9999 SCT030 BKN110 23/19 A2986=
201211091400 METAR MRLB 091400Z 18005KT 9999 FEW030 BKN110 24/19 A2987=
201211091500 METAR MRLB 091500Z 25009KT 9999 FEW030 BKN120 27/19 A2988=
201211091600 METAR MRLB 091600Z 24009KT 9999 FEW035 BKN120 29/19 A2987=
201211091700 METAR MRLB 091700Z 27006KT 9999 SCT030 BKN120 29/19 A2986=
201211091800 METAR MRLB 091800Z 24008KT 9999 SCT030 BKN120 29/20 A2983=
201211091900 METAR MRLB 091900Z 25008KT 9999 SCT030 BKN110 28/20 A2980=
201211092000 METAR MRLB 092000Z 20004KT 9999 FEW030 BKN120 28/20 A2977=
201211092100 METAR MRLB 092100Z 25008KT 9999 FEW030 BKN120 28/21 A2976=
201211092200 METAR MRLB 092200Z 21004KT 9999 FEW030 BKN100 27/21 A2977=
201211092300 METAR MRLB 092300Z 08009KT 9999 FEW030 BKN100 27/20 A2978=
201211092351 METAR MRLB 100000Z 26004KT 9999 FEW030 BKN100 26/20 A2982=
201211100000 METAR MRLB 100000Z 26004KT 9999 FEW030 BKN100 26/20 A2982=
201211100100 METAR MRLB 100100Z 00000KT 9999 -RA FEW030 BKN100 26/20 A2983=
201211100200 METAR MRLB 100200Z 31005KT 9999 FEW030 BKN100 24/20 A2985=
201211100300 METAR MRLB NIL=
201211100400 METAR MRLB NIL=
201211100500 METAR MRLB NIL=
201211100600 METAR MRLB NIL=
201211100700 METAR MRLB NIL=
201211100800 METAR MRLB NIL=
201211100900 METAR MRLB NIL=
201211101000 METAR MRLB NIL=
201211101100 METAR MRLB NIL=
201211101200 METAR MRLB 101200Z 23006KT 9999 FEW035 SCT130 BKN250 22/19 A2981=
201211101300 METAR MRLB 101300Z 19006KT 9999 FEW035 BKN130 23/20 A2983=
201211101400 METAR MRLB 101400Z 20007KT 9999 FEW035 BKN130 25/21 A2984=
201211101500 METAR MRLB 101500Z 25008KT 9999 FEW035 BKN130 28/20 A2985=
201211101600 METAR MRLB 101600Z 20005KT 9999 FEW035 BKN130 29/21 A2985=
201211101700 METAR MRLB 101700Z 08015KT 9999 FEW035 BKN120 29/21 A2981=
201211101800 METAR MRLB 101800Z 08018KT 9999 FEW035 BKN120 29/21 A2980=
201211101900 METAR MRLB 101900Z 08018KT 9999 FEW035 SCT120 30/20 A2978=
201211102000 METAR MRLB 102000Z 10016KT 9999 SCT025 BKN100 29/21 A2977=
201211102100 METAR MRLB 102100Z 06015KT 9999 FEW030 SCT100 30/20 A2978=
201211102200 METAR MRLB 102200Z 07012KT 9999 FEW035 SCT140 29/20 A2979=
201211102300 METAR MRLB 102300Z 06013KT 9999 FEW035 SCT250 28/20 A2980=
201211102352 METAR MRLB 110000Z 07006KT CAVOK 26/20 A2981=
201211110000 METAR MRLB 110000Z 07006KT CAVOK 26/20 A2981=
201211110100 METAR MRLB 110100Z 07010KT CAVOK 27/20 A2983=
201211110200 METAR MRLB 110200Z 08013KT CAVOK 27/20 A2986=
201211110300 METAR MRLB NIL=
201211110400 METAR MRLB NIL=
201211110500 METAR MRLB NIL=
201211110600 METAR MRLB NIL=
201211110700 METAR MRLB NIL=
201211110800 METAR MRLB NIL=
201211110900 METAR MRLB NIL=
201211111000 METAR MRLB NIL=
201211111100 METAR MRLB NIL=
201211111200 METAR MRLB 111200Z 00000KT 9999 FEW030 SCT100 25/20 A2984=
201211111300 METAR MRLB 111300Z 12005KT 9999 FEW030 SCT120 26/21 A2986=
201211111400 METAR MRLB 111400Z 05012KT 9999 FEW030 SCT120 28/20 A2989=
201211111500 METAR MRLB 111500Z 07013KT 9999 FEW025 SCT100 28/21 A2989=
201211111600 METAR MRLB 111600Z 07013KT CAVOK 30/21 A2988 SCT100=
201211111700 METAR MRLB 111700Z 08013KT CAVOK 31/22 A2986=
201211111800 METAR MRLB 111800Z 07015KT 9999 FEW030 SCT120 31/20 A2984=
201211111900 METAR MRLB 111900Z 06013KT 9999 FEW030 SCT140 32/21 A2981=
201211112000 METAR MRLB 112000Z 06011KT 9999 FEW030 SCT140 32/20 A2979=
201211112100 METAR MRLB 112100Z 07010KT 9999 SCT035 SCT130 31/21 A2978=
201211112200 METAR MRLB 112200Z 04011KT 9999 SCT035 SCT130 31/21 A2979=
201211112300 METAR MRLB 112300Z 04009KT 9999 SCT035 SCT250 29/21 A2981=
201211112352 METAR MRLB 120000Z 05007KT 9999 FEW035 SCT250 27/21 A2983=
201211120000 METAR MRLB 120000Z 05007KT 9999 FEW035 SCT250 27/21 A2983=
201211120100 METAR MRLB 120100Z 09005KT 9999 FEW030 BKN200 26/21 A2986=
201211120200 METAR MRLB 120200Z 00000KT 9999 FEW030 SCT200 25/21 A2990=
201211120300 METAR MRLB NIL=
201211120400 METAR MRLB NIL=
201211120500 METAR MRLB NIL=
201211120600 METAR MRLB NIL=
201211120700 METAR MRLB NIL=
201211120800 METAR MRLB NIL=
201211120900 METAR MRLB NIL=
201211121000 METAR MRLB NIL=
201211121100 METAR MRLB NIL=
201211121157 METAR MRLB 131200Z 25003KT 9999 FEW035 23/21 A2985=
201211121200 METAR MRLB 121200Z 23004KT 9999 FEW035 SCT250 22/21 A2986=
201211121300 METAR MRLB 121300Z 17004KT 9999 FEW035 SCT250 25/22 A2989=
201211121400 METAR MRLB 121400Z 31004KT 9999 SCT035 27/22 A2990=
201211121500 METAR MRLB 121500Z 29004KT 9999 SCT035 SCT250 29/22 A2989=
201211121600 METAR MRLB 121600Z 26006KT 9999 SCT035 31/22 A2987=
201211121700 METAR MRLB 121700Z 25008KT 9999 SCT035 31/22 A2984=
201211121800 METAR MRLB 121800Z 09011KT 9999 SCT035 SCT250 31/20 A2982=
201211121900 METAR MRLB 121900Z 10014KT 9999 SCT035 SCT130 33/20 A2978=
201211122000 METAR MRLB 122000Z 09014KT 9999 SCT035 31/21 A2978=
201211122100 METAR MRLB 122100Z 06013KT 9999 FEW035 SCT130 31/20 A2977=
201211122200 METAR MRLB 122200Z 08011KT 9999 FEW035 30/21 A2977=
201211122300 METAR MRLB 122300Z 07011KT 9999 FEW035 29/21 A2979=
201211122350 METAR MRLB 130000Z 09007KT 9999 FEW035 27/20 A2981=
201211130000 METAR MRLB 130000Z 09007KT 9999 FEW035 27/20 A2981=
201211130100 METAR MRLB 130100Z 09009KT 9999 FEW035 27/20 A2983=
201211130200 METAR MRLB 130200Z 08008KT 9999 FEW035 27/19 A2986=
201211130300 METAR MRLB NIL=
201211130400 METAR MRLB NIL=
201211130500 METAR MRLB NIL=
201211130600 METAR MRLB NIL=
201211130700 METAR MRLB NIL=
201211130800 METAR MRLB NIL=
201211130900 METAR MRLB NIL=
201211131000 METAR MRLB NIL=
201211131100 METAR MRLB NIL=
201211131200 METAR MRLB 131200Z 25003KT 9999 FEW035 23/21 A2985=
201211131300 METAR MRLB 131300Z 17005KT 9999 FEW040 25/21 A2988=
201211131400 METAR MRLB 131400Z 07013KT 9999 FEW040 28/21 A2988=
201211131500 METAR MRLB 131500Z 28006KT 9999 FEW035 29/22 A2991=
201211131600 METAR MRLB 131600Z 07018KT 9999 FEW035 30/21 A2989=
201211131700 METAR MRLB 131700Z 06017KT 9999 SCT035 31/21 A2988=
201211131800 METAR MRLB 131800Z 07017KT 9999 SCT035 31/20 A2985=
201211131900 METAR MRLB 131900Z 06016KT 9999 FEW035 SCT120 32/20 A2981=
201211132000 METAR MRLB 132000Z 33007KT 9999 FEW030 SCT120 31/22 A2980=
201211132100 METAR MRLB 132100Z 17005KT 9999 -RA VCSH SCT020 BKN100 28/22 A2980=
201211132200 METAR MRLB 132200Z 06010KT 9999 FEW025 SCT100 27/22 A2979=
201211132300 METAR MRLB 132300Z 08012KT 9999 FEW030 SCT100 27/21 A2980=
201211132352 METAR MRLB 140000Z 07015KT 9999 FEW035 SCT120 27/19 A2980=
201211140000 METAR MRLB 140000Z 07015KT 9999 FEW035 SCT120 27/19 A2980=
201211140100 METAR MRLB 140100Z 07014KT CAVOK 27/20 A2984=
201211140200 METAR MRLB 140200Z 09012KT CAVOK 26/20 A2987=
201211140300 METAR MRLB NIL=
201211140400 METAR MRLB NIL=
201211140500 METAR MRLB NIL=
201211140600 METAR MRLB NIL=
201211140700 METAR MRLB NIL=
201211140800 METAR MRLB NIL=
201211140900 METAR MRLB NIL=
201211141000 METAR MRLB NIL=
201211141100 METAR MRLB NIL=
201211141200 METAR MRLB 141200Z 00000KT CAVOK 21/19 A2986=
201211141300 METAR MRLB 141300Z 15003KT CAVOK 25/20 A2990=
201211141400 METAR MRLB 141400Z 20004KT CAVOK 26/19 A2992=
201211141500 METAR MRLB 141500Z 25005KT CAVOK 28/19 A2992=
201211141600 METAR MRLB 141600Z 28005KT CAVOK 30/19 A2990=
201211141700 METAR MRLB 141700Z 22004KT CAVOK 31/18 A2989=
201211141800 METAR MRLB 141800Z 10008KT CAVOK 31/19 A2986=
201211141900 METAR MRLB 141900Z 28005KT CAVOK 32/18 A2984=
201211142000 METAR MRLB 142000Z 28007KT CAVOK 32/19 A2982=
201211142100 METAR MRLB 142100Z 09008KT CAVOK 31/19 A2981=
201211142200 METAR MRLB 142200Z 25004KT 9999 FEW030 BKN200 30/20 A2982=
201211142300 METAR MRLB 142300Z 14004KT 9999 FEW030 BKN200 28/19 A2984=
201211142352 METAR MRLB 150000Z 24005KT 9999 FEW035 BKN200 25/20 A2986=
201211150000 METAR MRLB 150000Z 24005KT 9999 FEW035 BKN200 25/20 A2986=
201211150100 METAR MRLB 150100Z 19005KT 9999 FEW035 BKN200 25/20 A2988=
201211150200 METAR MRLB 150200Z 20003KT 9999 FEW035 BKN200 24/20 A2990=
201211150300 METAR MRLB NIL=
201211150400 METAR MRLB NIL=
201211150500 METAR MRLB NIL=
201211150600 METAR MRLB NIL=
201211150700 METAR MRLB NIL=
201211150800 METAR MRLB NIL=
201211150900 METAR MRLB NIL=
201211151000 METAR MRLB NIL=
201211151100 METAR MRLB NIL=
201211151200 METAR MRLB 151200Z 30004KT CAVOK 20/19 A2987=
201211151300 METAR MRLB 151300Z 32003KT CAVOK 22/20 A2990=
201211151400 METAR MRLB 151400Z 22003KT CAVOK 25/20 A2992=
201211151500 METAR MRLB 151500Z 27005KT CAVOK 26/20 A2992=
201211151600 METAR MRLB 151600Z 28007KT CAVOK 28/19 A2992=
201211151700 METAR MRLB 151700Z 25005KT CAVOK 30/18 A2990=
201211151800 METAR MRLB 151800Z 28006KT CAVOK 29/19 A2988=
201211151900 METAR MRLB 151900Z 28005KT CAVOK 30/19 A2985=
201211152000 METAR MRLB 152000Z 29004KT CAVOK 29/19 A2984=
201211152100 METAR MRLB 152100Z 24005KT CAVOK 29/19 A2983=
201211152200 METAR MRLB 152200Z 22002KT CAVOK 28/18 A2983=
201211152300 METAR MRLB 152300Z 00000KT CAVOK 27/20 A2985=
201211152352 METAR MRLB 160000Z 00000KT CAVOK 25/20 A2986=
201211160000 METAR MRLB 160000Z 00000KT CAVOK 25/20 A2986=
201211160100 METAR MRLB 160100Z 20003KT CAVOK 23/20 A2988=
201211160200 METAR MRLB 160200Z 21004KT CAVOK 22/19 A2990=
201211160300 METAR MRLB NIL=
201211160400 METAR MRLB NIL=
201211160500 METAR MRLB NIL=
201211160600 METAR MRLB NIL=
201211160700 METAR MRLB NIL=
201211160800 METAR MRLB NIL=
201211160900 METAR MRLB NIL=
201211161000 METAR MRLB NIL=
201211161100 METAR MRLB NIL=
201211161200 METAR MRLB 161200Z 08003KT CAVOK 17/16 A2988=
201211161300 METAR MRLB 161300Z 07003KT CAVOK 21/19 A2990=
201211161400 METAR MRLB 161400Z 00000KT CAVOK 26/20 A2992=
201211161500 METAR MRLB 161500Z 28004KT CAVOK 26/20 A2993=
201211161600 METAR MRLB 161600Z 28009KT CAVOK 29/20 A2992=
201211161700 METAR MRLB 161700Z 28005KT CAVOK 30/19 A2990=
201211161800 METAR MRLB 161800Z 30005KT CAVOK 32/19 A2987=
201211161900 METAR MRLB 161900Z 30006KT 9999 FEW040 32/17 A2986=
201211162000 METAR MRLB 162000Z 23006KT 9999 FEW035 32/17 A2983=
201211162100 METAR MRLB 162100Z 18003KT 9999 FEW030 32/17 A2982=
201211162200 METAR MRLB 162200Z 25004KT 9999 FEW030 31/20 A2982=
201211162300 METAR MRLB 162300Z 33004KT 9999 FEW025 28/20 A2983=
201211162352 METAR MRLB 170000Z 00000KT CAVOK 27/20 A2985=
201211170000 METAR MRLB 170000Z 00000KT CAVOK 27/20 A2985=
201211170100 METAR MRLB 170100Z 18004KT CAVOK 25/20 A2987=
201211170200 METAR MRLB 170200Z 19004KT CAVOK 24/20 A2988=
201211170300 METAR MRLB NIL=
201211170400 METAR MRLB NIL=
201211170500 METAR MRLB NIL=
201211170600 METAR MRLB NIL=
201211170700 METAR MRLB NIL=
201211170800 METAR MRLB NIL=
201211170900 METAR MRLB NIL=
201211171000 METAR MRLB NIL=
201211171100 METAR MRLB NIL=
201211171200 METAR MRLB 171200Z 14004KT CAVOK 21/20 A2989=
201211171300 METAR MRLB 171300Z 12004KT CAVOK 24/20 A2992=
201211171400 METAR MRLB 171400Z 27003KT CAVOK 27/21 A2994=
201211171500 METAR MRLB 171500Z 23004KT CAVOK 29/20 A2994=
201211171600 METAR MRLB 171600Z 18004KT CAVOK 30/19 A2994=
201211171700 METAR MRLB 171700Z 23005KT CAVOK 32/20 A2993=
201211171800 METAR MRLB 171800Z 25006KT CAVOK 33/19 A2989=
201211171900 METAR MRLB 171900Z 20003KT CAVOK 33/19 A2986=
201211172000 METAR MRLB 172000Z 28009KT 9999 FEW035 33/19 A2984=
201211172100 METAR MRLB 172100Z 12004KT 9999 FEW035 32/19 A2984=
201211172200 METAR MRLB 172200Z 10008KT 9999 FEW035 31/19 A2983=
201211172300 METAR MRLB 172300Z 09009KT 9999 FEW035 29/19 A2985=
201211172352 METAR MRLB 180000Z 08010KT 9999 FEW035 28/19 A2987=
201211180000 METAR MRLB 180000Z 08010KT 9999 FEW035 28/19 A2987=
201211180100 METAR MRLB 180100Z 05010KT 9999 FEW035 27/19 A2990=
201211180200 METAR MRLB 180200Z 06015KT 9999 SCT035 27/19 A2992=
201211180300 METAR MRLB NIL=
201211180400 METAR MRLB NIL=
201211180500 METAR MRLB NIL=
201211180600 METAR MRLB NIL=
201211180700 METAR MRLB NIL=
201211180800 METAR MRLB NIL=
201211180900 METAR MRLB NIL=
201211181000 METAR MRLB NIL=
201211181100 METAR MRLB NIL=
201211181200 METAR MRLB 181200Z 00000KT CAVOK 20/19 A2990=
201211181300 METAR MRLB 181300Z 19003KT CAVOK 24/20 A2993=
201211181400 METAR MRLB 181400Z 26005KT CAVOK 26/21 A2995=
201211181500 METAR MRLB 181500Z 25004KT CAVOK 29/20 A2997=
201211181600 METAR MRLB 181600Z 32005KT CAVOK 31/17 A2995=
201211181700 METAR MRLB 181700Z 10009KT CAVOK 32/17 A2994=
201211181800 METAR MRLB 181800Z 08017KT CAVOK 31/15 A2990=
201211181900 METAR MRLB 181900Z 07014G24KT CAVOK 32/15 A2988=
201211182000 METAR MRLB 182000Z 07015KT CAVOK 31/16 A2987=
201211182100 METAR MRLB 182100Z 07016KT CAVOK 31/16 A2985=
201211182200 METAR MRLB 182200Z 09013KT CAVOK 29/16 A2985=
201211182300 METAR MRLB 182300Z 07015KT CAVOK 28/16 A2986=
201211182352 METAR MRLB 190000Z 09009KT CAVOK 27/17 A2987=
201211190000 METAR MRLB 190000Z 09009KT CAVOK 27/17 A2987=
201211190100 METAR MRLB 190100Z 00000KT CAVOK 25/17 A2989=
201211190200 METAR MRLB 190200Z 12003KT CAVOK 25/18 A2991=
201211190300 METAR MRLB NIL=
201211190400 METAR MRLB NIL=
201211190500 METAR MRLB NIL=
201211190600 METAR MRLB NIL=
201211190700 METAR MRLB NIL=
201211190800 METAR MRLB NIL=
201211190900 METAR MRLB NIL=
201211191000 METAR MRLB NIL=
201211191100 METAR MRLB NIL=
201211191200 METAR MRLB 191200Z 11002KT CAVOK 21/18 A2990=
201211191300 METAR MRLB 191300Z 25004KT CAVOK 23/19 A2991=
201211191400 METAR MRLB 191400Z 25004KT CAVOK 26/20 A2993=
201211191500 METAR MRLB 191500Z 30005KT CAVOK 28/18 A2993=
201211191600 METAR MRLB 191600Z 30006KT CAVOK 30/18 A2992=
201211191700 METAR MRLB 191700Z 28008KT CAVOK 31/17 A2989=
201211191800 METAR MRLB 191800Z 08010KT CAVOK 32/14 A2987=
201211191900 METAR MRLB 191900Z 09014KT CAVOK 32/16 A2983=
201211192000 METAR MRLB 192000Z 08013KT CAVOK 31/16 A2982=
201211192100 METAR MRLB 192100Z 08013KT CAVOK 30/17 A2980=
201211192200 METAR MRLB 192200Z 08010KT CAVOK 29/18 A2980=
201211192300 METAR MRLB 192300Z 08008KT CAVOK 27/18 A2981=
201211192352 METAR MRLB 200000Z 10006KT CAVOK 26/18 A2983=
201211200000 METAR MRLB 200000Z 10006KT CAVOK 26/18 A2983=
201211200100 METAR MRLB 200100Z 21003KT CAVOK 24/18 A2985=
201211200200 METAR MRLB 200200Z 26003KT CAVOK 24/18 A2987=
201211200300 METAR MRLB NIL=
201211200400 METAR MRLB NIL=
201211200500 METAR MRLB NIL=
201211200600 METAR MRLB NIL=
201211200700 METAR MRLB NIL=
201211200800 METAR MRLB NIL=
201211200900 METAR MRLB NIL=
201211201000 METAR MRLB NIL=
201211201100 METAR MRLB NIL=
201211201200 METAR MRLB 201200Z 20003KT 9999 FEW025 SCT070 21/19 A2984=
201211201300 METAR MRLB 201300Z 20006KT 9999 FEW030 SCT100 24/19 A2984=
201211201400 METAR MRLB 201400Z 20007KT 9999 FEW030 SCT140 27/20 A2986=
201211201500 METAR MRLB 201500Z 22007KT 9999 FEW030 SCT120 29/19 A2986=
201211201600 METAR MRLB 201600Z 24006KT 9999 FEW030 SCT120 31/19 A2985=
201211201700 METAR MRLB 201700Z 21007KT 9999 FEW030 SCT120 31/19 A2983=
201211201800 METAR MRLB 201800Z 24010KT 9999 FEW030 SCT120 32/19 A2980=
201211201900 METAR MRLB 201900Z 07015KT 9999 SCT040 SCT140 32/19 A2978=
201211202000 METAR MRLB 202000Z 29003KT 9999 SCT035 32/19 A2978=
201211202100 METAR MRLB 202100Z 09013KT 9999 SCT035 SCT250 31/19 A2977=
201211202200 METAR MRLB 202200Z 05007KT 9999 SCT035 SCT250 29/19 A2978=
201211202300 METAR MRLB 202300Z 06008KT 9999 SCT035 BKN250 29/20 A2979=
201211202352 METAR MRLB 210000Z 00000KT 9999 FEW035 BKN250 27/20 A2980=
201211210000 METAR MRLB 210000Z 00000KT 9999 FEW035 BKN250 27/20 A2980=
201211210100 METAR MRLB 210100Z 09006KT 9999 FEW035 SCT250 27/20 A2984=
201211210200 METAR MRLB 210200Z 25003KT 9999 FEW035 SCT250 25/20 A2986=
201211210300 METAR MRLB NIL=
201211210400 METAR MRLB NIL=
201211210500 METAR MRLB NIL=
201211210600 METAR MRLB NIL=
201211210700 METAR MRLB NIL=
201211210800 METAR MRLB NIL=
201211210900 METAR MRLB NIL=
201211211000 METAR MRLB NIL=
201211211100 METAR MRLB NIL=
201211211200 METAR MRLB 211200Z 20006KT 9999 FEW030 BKN140 23/19 A2985=
201211211300 METAR MRLB 211300Z 20007KT 9999 FEW030 BKN140 24/20 A2987=
201211211400 METAR MRLB 211400Z 21005KT 9999 SCT030 BKN140 25/20 A2990=
201211211500 METAR MRLB 211500Z 26006KT 9999 FEW030 BKN130 26/21 A2990=
201211211600 METAR MRLB 211600Z 28009KT 9999 FEW035 BKN130 29/22 A2990=
201211211700 METAR MRLB 211700Z 25006KT 9999 FEW035 BKN200 29/20 A2986=
201211211800 METAR MRLB 211800Z 26005KT 9999 FEW035 BKN200 31/20 A2983=
201211211900 METAR MRLB 211900Z 26007KT 9999 SCT035 BKN200 30/20 A2981=
201211212000 METAR MRLB 212000Z 20007KT 9999 FEW035 OVC250 31/20 A2979=
201211212100 METAR MRLB 212100Z 05012KT 9999 SCT035 BKN250 32/18 A2976=
201211212200 METAR MRLB 212200Z 09007KT 9999 SCT035 BKN250 30/19 A2978=
201211212300 METAR MRLB 212300Z 08011KT 9999 FEW040 BKN160 28/19 A2978=
201211212353 METAR MRLB 220000Z 09011KT 9999 FEW040 BKN150 27/18 A2981=
201211220000 METAR MRLB 220000Z 09011KT 9999 FEW040 BKN150 27/18 A2981=
201211220100 METAR MRLB 220100Z 04009KT 9999 FEW040 BKN140 27/19 A2984=
201211220200 METAR MRLB 220200Z 18005KT 9999 FEW040 BKN140 26/19 A2987=
201211220300 METAR MRLB NIL=
201211220400 METAR MRLB NIL=
201211220500 METAR MRLB NIL=
201211220600 METAR MRLB NIL=
201211220700 METAR MRLB NIL=
201211220800 METAR MRLB NIL=
201211220900 METAR MRLB NIL=
201211221000 METAR MRLB NIL=
201211221100 METAR MRLB NIL=
201211221200 METAR MRLB 221200Z 19007KT CAVOK 22/19 A2988=
201211221300 METAR MRLB 221300Z 28005KT CAVOK 22/19 A2991=
201211221400 METAR MRLB 221400Z 15005KT CAVOK 25/19 A2993=
201211221500 METAR MRLB 221500Z 27007KT CAVOK 27/19 A2992=
201211221600 METAR MRLB 221600Z 22005KT CAVOK 28/17 A2992=
201211221700 METAR MRLB 221700Z 28007KT CAVOK 29/18 A2990=
201211221800 METAR MRLB 221800Z 27007KT CAVOK 30/18 A2988=
201211221900 METAR MRLB 221900Z 24003KT CAVOK 30/18 A2986=
201211222000 METAR MRLB 222000Z 15003KT CAVOK 31/18 A2984=
201211222100 METAR MRLB 222100Z 09010KT CAVOK 30/17 A2983=
201211222200 METAR MRLB 222200Z 13004KT CAVOK 29/18 A2983=
201211222300 METAR MRLB 222300Z 28003KT CAVOK 27/18 A2984=
201211222351 METAR MRLB 230000Z 16004KT CAVOK 25/18 A2987=
201211230000 METAR MRLB 230000Z 16004KT CAVOK 25/18 A2987=
201211230100 METAR MRLB 230100Z 12004KT CAVOK 25718 A2990=
201211230200 METAR MRLB 230200Z 24004KT CAVOK 23/19 A2992=
201211230300 METAR MRLB NIL=
201211230400 METAR MRLB NIL=
201211230500 METAR MRLB NIL=
201211230600 METAR MRLB NIL=
201211230700 METAR MRLB NIL=
201211230800 METAR MRLB NIL=
201211230900 METAR MRLB NIL=
201211231000 METAR MRLB NIL=
201211231100 METAR MRLB NIL=
201211231200 METAR MRLB 231200Z 03003KT CAVOK 18/17 A2988=
201211231300 METAR MRLB 231300Z 00000KT CAVOK 24/18 A2989=
201211231400 METAR MRLB 231400Z 23004KT CAVOK 26/19 A2991=
201211231500 METAR MRLB 231500Z 26003KT CAVOK 29/18 A2991=
201211231600 METAR MRLB 231600Z 03005KT CAVOK 30/17 A2989=
201211231700 METAR MRLB 231700Z 09008KT CAVOK 31/17 A2988=
201211231800 METAR MRLB 231800Z 07012KT CAVOK 32/17 A2984=
201211231900 METAR MRLB 231900Z 33004KT 9999 FEW040 31/18 A2983=
201211232000 METAR MRLB 232000Z 09012KT 9999 FEW040 31/16 A2981=
201211232100 METAR MRLB 232100Z 06010KT 9999 FEW040 30/16 A2980=
201211232200 METAR MRLB 232200Z 04006KT CAVOK 30/17 A2980=
201211232300 METAR MRLB 232300Z 31003KT CAVOK 28/18 A2982=
201211232352 METAR MRLB 240000Z 08003KT CAVOK 25/17 A2984=
201211240000 METAR MRLB 240000Z 08003KT CAVOK 25/17 A2984=
201211240100 METAR MRLB 240100Z 09005KT CAVOK 24/17 A2986=
201211240200 METAR MRLB 240200Z 30005KT CAVOK 23/18 A2988=
201211240300 METAR MRLB NIL=
201211240400 METAR MRLB NIL=
201211240500 METAR MRLB NIL=
201211240600 METAR MRLB NIL=
201211240700 METAR MRLB NIL=
201211240800 METAR MRLB NIL=
201211240900 METAR MRLB NIL=
201211241000 METAR MRLB NIL=
201211241100 METAR MRLB NIL=
201211241200 METAR MRLB 241200Z 00000KT CAVOK 20/15 A2987=
201211241300 METAR MRLB 241300Z 16003KT CAVOK 22/16 A2991=
201211241400 METAR MRLB 241400Z 24005KT CAVOK 24/16 A2992=
201211241500 METAR MRLB 241500Z 26007KT CAVOK 27/15 A2993=
201211241600 METAR MRLB 241600Z 26005KT CAVOK 28/15 A2991=
201211241700 METAR MRLB 241700Z 25006KT CAVOK 29/15 A2987=
201211241800 METAR MRLB 241800Z 10011KT CAVOK 31/15 A2985=
201211241900 METAR MRLB 241900Z 09013KT CAVOK 30/14 A2981=
201211242000 METAR MRLB 242000Z 08014KT CAVOK 30/15 A2979=
201211242100 METAR MRLB 242100Z 09013KT CAVOK 30/15 A2976=
201211242200 METAR MRLB 242200Z 08008KT CAVOK 29/16 A2978=
201211242300 METAR MRLB 242300Z 09011KT CAVOK 27/16 A2978=
201211242352 METAR MRLB 250000Z 10003KT CAVOK 27/16 A2981=
201211250000 METAR MRLB 250000Z 10003KT CAVOK 27/16 A2981=
201211250100 METAR MRLB 250100Z 13004KT CAVOK 27/15 A2981=
201211250200 METAR MRLB 250200Z 03003KT CAVOK 23/17 A2986=
201211250300 METAR MRLB NIL=
201211250400 METAR MRLB NIL=
201211250500 METAR MRLB NIL=
201211250600 METAR MRLB NIL=
201211250700 METAR MRLB NIL=
201211250800 METAR MRLB NIL=
201211250900 METAR MRLB NIL=
201211251000 METAR MRLB NIL=
201211251100 METAR MRLB NIL=
201211251200 METAR MRLB 251200Z 20003KT CAVOK 20/16 A2984=
201211251300 METAR MRLB 251300Z 24002KT CAVOK 24/17 A2986=
201211251400 METAR MRLB 251400Z 28003KT CAVOK 27/16 A2988=
201211251500 METAR MRLB 251500Z 27004KT CAVOK 28/16 A2989=
201211251600 METAR MRLB 251600Z 28006KT CAVOK 29/15 A2987=
201211251700 METAR MRLB 251700Z 22004KT CAVOK 31/16 A2985=
201211251800 METAR MRLB 251800Z 07018KT CAVOK 31/16 A2983=
201211251900 METAR MRLB 251900Z 08015KT CAVOK 31/16 A2981=
201211252000 METAR MRLB 252000Z 03016KT CAVOK 32/17 A2978=
201211252100 METAR MRLB 252100Z 10015KT CAVOK 30/15 A2978=
201211252200 METAR MRLB 252200Z 08015KT CAVOK 29/17 A2979=
201211252300 METAR MRLB 252300Z 10012KT CAVOK 27/18 A2979=
201211252353 METAR MRLB 260000Z 17003KT CAVOK 26/18 A2983=
201211260000 METAR MRLB 260000Z 17003KT CAVOK 26/18 A2983=
201211260100 METAR MRLB 260100Z 16005KT CAVOK 25/19 A2986=
201211260200 METAR MRLB 260200Z 27007KT CAVOK 24/19 A2988=
201211260300 METAR MRLB NIL=
201211260400 METAR MRLB NIL=
201211260500 METAR MRLB NIL=
201211260600 METAR MRLB NIL=
201211260700 METAR MRLB NIL=
201211260800 METAR MRLB NIL=
201211260900 METAR MRLB NIL=
201211261000 METAR MRLB NIL=
201211261100 METAR MRLB NIL=
201211261200 METAR MRLB 261200Z 21004KT 9999 FEW025 SCT100 22/19 A2985=
201211261300 METAR MRLB 261300Z 25007KT 9999 FEW025 SCT100 24/20 A2988=
201211261400 METAR MRLB 261400Z 17003KT 9999 FEW025 SCT120 27/20 A2990=
201211261500 METAR MRLB 261500Z 08008KT CAVOK 29720 A2992=
201211261600 METAR MRLB 261600Z 07018KT CAVOK 30/19 A2990=
201211261700 METAR MRLB 261700Z 07015KT 9999 FEW030 BKN250 30/19 A2988=
201211261800 METAR MRLB 261800Z 09016KT 9999 FEW030 SCT250 31/19 A2984=
201211261900 METAR MRLB 261900Z 08015KT 9999 FEW030 SCT250 32/18 A2982=
201211262000 METAR MRLB 262000Z 07016KT 9999 FEW030 BKN250 32/19 A2980=
201211262100 METAR MRLB 262100Z 08013KT 9999 SCT030 BKN250 31/19 A2979=
201211262200 METAR MRLB 262200Z 08010KT 9999 FEW035 BKN250 30/20 A2980=
201211262300 METAR MRLB 262300Z 07008KT 9999 FEW035 BKN250 29/20 A2981=
201211262353 METAR MRLB 270000Z 04009KT 9999 SCT035 BKN250 28/21 A2984=
201211270000 METAR MRLB 270000Z 04009KT 9999 SCT035 BKN250 28/21 A2984=
201211270100 METAR MRLB 270100Z 04013KT 9999 SCT035 SCT250 27/21 A2985=
201211270200 METAR MRLB 270200Z 03003KT 9999 FEW035 SCT250 26/21 A2987=
201211270300 METAR MRLB NIL=
201211270400 METAR MRLB NIL=
201211270500 METAR MRLB NIL=
201211270600 METAR MRLB NIL=
201211270700 METAR MRLB NIL=
201211270800 METAR MRLB NIL=
201211270900 METAR MRLB NIL=
201211271000 METAR MRLB NIL=
201211271100 METAR MRLB NIL=
201211271200 METAR MRLB 271200Z 15005KT 9999 SCT030 SCT250 24/21 A2985=
201211271300 METAR MRLB 271300Z 23004KT 9999 SCT030 26/21 A2987=
201211271400 METAR MRLB 271400Z 23005KT 9999 SCT030 28/22 A2988=
201211271500 METAR MRLB 271500Z 12007KT 9999 FEW030 SCT250 31/22 A2988=
201211271600 METAR MRLB 271600Z 07015KT 9999 SCT030 31/21 A2988=
201211271700 METAR MRLB 271700Z 06014G24KT 9999 SCT030 32/22 A2986=
201211271800 METAR MRLB 271800Z 08014KT 9999 SCT035 SCT250 32/21 A2983=
201211271900 METAR MRLB 271900Z 07013KT 9999 SCT035 SCT250 33/22 A2982=
201211272000 METAR MRLB 272000Z 05012KT 9999 FEW035 OVC250 32/22 A2978=
201211272100 METAR MRLB 272100Z 05014KT 9999 FEW035 OVC250 32/21 A2976=
201211272200 METAR MRLB 272200Z 05013KT 9999 SCT035 BKN250 32/21 A2977=
201211272300 METAR MRLB 272300Z 05014KT 9999 SCT035 SCT250 30/22 A2980=
201211272352 METAR MRLB 280000Z 06011KT 9999 SCT035 BKN250 28/22 A2982=
201211280000 METAR MRLB 280000Z 06011KT 9999 SCT035 BKN250 28/22 A2982=
201211280100 METAR MRLB 280100Z 04010KT 9999 FEW035 OVC250 27/22 A2984=
201211280200 METAR MRLB 280200Z 07009KT 9999 FEW035 OVC250 27/21 A2986=
201211280300 METAR MRLB NIL=
201211280400 METAR MRLB NIL=
201211280500 METAR MRLB NIL=
201211280600 METAR MRLB NIL=
201211280700 METAR MRLB NIL=
201211280800 METAR MRLB NIL=
201211280900 METAR MRLB NIL=
201211281000 METAR MRLB NIL=
201211281100 METAR MRLB NIL=
201211281200 METAR MRLB 281200Z 16006KT 9999N -RA SCT025 SCT100 24/22 A2988=
201211281300 METAR MRLB 281300Z 19003KT 9999 VCSH SCT025 SCT100 26/23 A2990=
201211281400 METAR MRLB 281400Z 09005KT 9999 -RA BKN020 SCT100 27/22 A2993=
201211281500 METAR MRLB 281500Z 26005KT 9999 -RA SCT025 SCT100 26/23 A2995=
201211281600 METAR MRLB 281600Z 08006KT 9999 SCT030 SCT250 30/22 A2994=
201211281700 METAR MRLB 281700Z 25011KT 9999 FEW030 BKN250 30/22 A2991=
201211281800 METAR MRLB 281800Z 06009KT 9999 FEW030 BKN120 31/22 A2988=
201211281900 METAR MRLB 281900Z 08015KT 9999 SCT030 BKN120 30/21 2985=
201211282000 METAR MRLB 282000Z COR 05018G29KT 9999 SCT025 BKN120 31/21 A2983=
201211282100 METAR MRLB 282100Z 06015KT 9999 FEW030 BKN250 31/21 A2981=
201211282200 METAR MRLB 282200Z 06014KT 9999 FEW025 BKN250 29/20 A2983=
201211282300 METAR MRLB 282300Z 06012KT 9999 VCSH SCT020 BKN100 27/22 A2986=
201211282352 METAR MRLB 290000Z 10008KT 9999 VCSH SCT020 BKN100 24/22 A2990 REDZ=
201211290000 METAR MRLB 290000Z 10008KT 9999 VCSH SCT020 BKN100 24/22 A2990 REDZ=
201211290100 METAR MRLB 290100Z 01007KT 9999 DZ SCT020 BKN100 24/22 A2991 RERA=
201211290200 METAR MRLB 290200Z 25003KT 9999 DZ SCT020 BKN100 23/22 A2992=
201211290300 METAR MRLB NIL=
201211290400 METAR MRLB NIL=
201211290500 METAR MRLB NIL=
201211290600 METAR MRLB NIL=
201211290700 METAR MRLB NIL=
201211290800 METAR MRLB NIL=
201211290900 METAR MRLB NIL=
201211291000 METAR MRLB NIL=
201211291100 METAR MRLB NIL=
201211291200 METAR MRLB 291200Z 29005KT 9999 FEW030 BKN100 23/20 A2984=
201211291300 METAR MRLB 291300Z 13003KT 9999 FEW020 BKN100 25/20 A2987=
201211291400 METAR MRLB 291400Z 02010KT 9999 FEW020 BKN250 27/20 A2990=
201211291500 METAR MRLB 291500Z 06018KT 9999 FEW025 SCT250 29/20 A2993=
201211291600 METAR MRLB 291600Z 07014KT 9999 SCT030 BKN250 28/20 A2992=
201211291700 METAR MRLB 291700Z 07018KT 9999 SCT030 BKN250 29/20 A2991=
201211291800 METAR MRLB 291800Z 09015KT 9999 FEW030 SCT100 BKN250 28/20 A2990=
201211291852 METAR MRLB 291852Z 06008KT 9999 FEW035 BKN140 28/20 A2988=
201211291900 METAR MRLB 291900Z 06008KT 9999 FEW035 BKN140 28/20 A2988=
201211292000 METAR MRLB 292000Z 20004KT 9999 FEW035 BKN140 28/21 A2987=
201211292100 METAR MRLB 292100Z 07010KT 9999 FEW035 BKN140 28/20 A2986=
201211292200 METAR MRLB 292200Z 09007KT 9999 SCT035 BKN140 27/20 A2987=
201211292300 METAR MRLB 292300Z 08012KT 9999 SCT035 BKN130 27/19 A2987=
201211292352 METAR MRLB 300000Z 09009KT 9999 FEW035 BKN130 26/20 A2988=
201211300000 METAR MRLB 300000Z 09009KT 9999 FEW035 BKN130 26/20 A2988=
201211300100 METAR MRLB 300100Z 08009KT 9999 FEW035 BKN130 26/20 A2989=
201211300200 METAR MRLB 300200Z 22005KT 9999 FEW030 BKN130 24/21 A2992=
201211300300 METAR MRLB NIL=
201211300400 METAR MRLB NIL=
201211300500 METAR MRLB NIL=
201211300600 METAR MRLB NIL=
201211300700 METAR MRLB NIL=
201211300800 METAR MRLB NIL=
201211300900 METAR MRLB NIL=
201211301000 METAR MRLB NIL=
201211301100 METAR MRLB NIL=
201211301200 METAR MRLB 301200Z 00000KT 9999 FEW030 BKN140 21/19 A2989=
201211301300 METAR MRLB 301300Z 34003KT 9999 DZ SCT025 BKN120 22/20 A2991=
201211301400 METAR MRLB 301400Z 16004KT 9999 FEW030 BKN110 23/21 A2992 REDZ=
201211301500 METAR MRLB 301500Z 28004KT 9999 SCT030 BKN120 24/21 A2994=
201211301600 METAR MRLB 301600Z 26006KT 9999 FEW030 BKN130 26/21 A2994=
201211301700 METAR MRLB 301700Z 25004KT 9999 FEW030 BKN140 29/20 A2992=
201211301800 METAR MRLB 301800Z 09011KT 9999 FEW035 BKN140 28/20 A2991=
201211301900 METAR MRLB 301900Z 09012KT 9999 SCT035 BKN140 29/20 A2988=
201211302000 METAR MRLB 302000Z 06010KT 9999 SCT035 BKN250 29/20 A2987=
201211302100 METAR MRLB 302100Z COR 06008KT 9999 SCT035 BKN150 29/20 A2985=
201211302200 METAR MRLB 302200Z COR 07007KT 9999 SCT035 BKN150 29/20 A2985=
201211302300 METAR MRLB 302300Z 06008KT 9999 SCT035 SCT150 27/20 A2986=
201211302352 METAR MRLB 010000Z 06008KT 9999 BKN035 SCT140 26/19 A2988=
201211302359 METAR MRLB 010000Z 06008KT 9999 BKN035 SCT140 26/19 A2988=
201212010000 METAR MRLB 010000Z 06008KT 9999 BKN035 SCT140 26/19 A2988=
201212010100 METAR MRLB 010100Z 08004KT 9999 BKN035 SCT140 25/20 A2990=
201212010200 METAR MRLB 010200Z 08004KT 9999 BKN035 SCT140 25/20 A2992=
201212010300 METAR MRLB NIL=
201212010400 METAR MRLB NIL=
201212010500 METAR MRLB NIL=
201212010600 METAR MRLB NIL=
201212010700 METAR MRLB NIL=
201212010800 METAR MRLB NIL=
201212010900 METAR MRLB NIL=
201212011000 METAR MRLB NIL=
201212011100 METAR MRLB NIL=
201212011200 METAR MRLB 011200Z 32005KT 9999 SCT035 BKN250 21/20 A2991=
201212011300 METAR MRLB 011300Z 14004KT 9999 SCT035 BKN250 22/20 A2992=
201212011400 METAR MRLB 011400Z 27003KT 9999 FEW035 SCT130 BKN250 24/21 A2995=
201212011500 METAR MRLB 011500Z 00000KT 9999 FEW035 SCT130 BKN250 28/20 A2996=
201212011600 METAR MRLB 011600Z 31006KT 9999 FEW035 SCT130 BKN250 29/21 A2994=
201212011700 METAR MRLB 011700Z 25007KT 9999 FEW035 SCT130 BKN250 28/20 A2992=
201212011800 METAR MRLB 011800Z 13010KT 9999 SCT035 SCT120 31/21 A2990=
201212011900 METAR MRLB 011900Z 32006KT 9999 SCT035 SCT130 29/20 A2988=
201212012000 METAR MRLB 012000Z 09008KT 9999 SCT035 SCT130 29/20 A2985=
201212012100 METAR MRLB 012100Z 06018KT 9999 SCT035 BKN120 28/20 A2984=
201212012200 METAR MRLB 012200Z 07015KT 9999 FEW035 BKN120 27/20 A2984=
201212012300 METAR MRLB 012300Z 08010KT 9999 FEW035 BKN120 27/20 A2985=
201212012352 METAR MRLB 020000Z 08013KT 9999 FEW035 OVC120 26/19 A2987=
201212020000 METAR MRLB 020000Z 08013KT 9999 FEW035 OVC120 26/19 A2987=
201212020100 METAR MRLB 020100Z 07014KT 9999 FEW035 OVC120 26/19 A2989=
201212020200 METAR MRLB 020200Z 08016KT 9999 FEW035 BKN120 26/19 A2990=
201212020300 METAR MRLB NIL=
201212020400 METAR MRLB NIL=
201212020500 METAR MRLB NIL=
201212020600 METAR MRLB NIL=
201212020700 METAR MRLB NIL=
201212020800 METAR MRLB NIL=
201212020900 METAR MRLB NIL=
201212021000 METAR MRLB NIL=
201212021100 METAR MRLB NIL=
201212021200 METAR MRLB 021200Z 18003KT 9999 FEW030 BKN200 21/19 A2988=
201212021300 METAR MRLB 021300Z 04004KT 9999 FEW035 BKN250 22/19 A2991=
201212021400 METAR MRLB 021400Z 05004KT CAVOK 24/20 A2993=
201212021500 METAR MRLB 021500Z 25004KT 9999 FEW035 BKN250 27/20 A2994=
201212021600 METAR MRLB 021600Z 25008KT 9999 FEW035 BKN250 28/20 A2993=
201212021700 METAR MRLB 021700Z 06005KT 9999 FEW035 BKN250 30/19 A2992=
201212021800 METAR MRLB 021800Z 18004KT 9999 FEW035 BKN250 30/19 A2989=
201212021900 METAR MRLB 021900Z 30006KT 9999 FEW035 BKN250 31/18 A2984=
201212022000 METAR MRLB 022000Z 34005KT 9999 FEW035 BKN250 32/19 A2983=
201212022100 METAR MRLB 022100Z 06011KT 9999 SCT035 BKN250 31/18 A2982=
201212022200 METAR MRLB 022200Z 07012KT 9999 SCT035 BKN250 30/17 A2982=
201212022300 METAR MRLB 022300Z 08009KT 9999 SCT035 BKN130 28/19 A2983=
201212022352 METAR MRLB 030000Z 10003KT 9999 SCT035 BKN130 27/19 A2984=
201212030000 METAR MRLB 030000Z 10003KT 9999 SCT035 BKN130 27/19 A2984=
201212030100 METAR MRLB 030100Z 07007KT 9999 FEW035 BKN130 27/18 A2987=
201212030200 METAR MRLB 030200Z 06004KT 9999 SCT030 BKN130 26/19 A2989=
201212030300 METAR MRLB NIL=
201212030400 METAR MRLB NIL=
201212030500 METAR MRLB NIL=
201212030600 METAR MRLB NIL=
201212030700 METAR MRLB NIL=
201212030800 METAR MRLB NIL=
201212030900 METAR MRLB NIL=
201212031000 METAR MRLB NIL=
201212031100 METAR MRLB NIL=
201212031200 METAR MRLB 031200Z 00000KT CAVOK 20/19 A2987=
201212031300 METAR MRLB 031300Z 07004KT CAVOK 23/19 A2989=
201212031400 METAR MRLB 031400Z 23004KT CAVOK 26/20 A2991=
201212031500 METAR MRLB 031500Z 26005KT CAVOK 28/20 A2992=
201212031600 METAR MRLB 031600Z 34005KT 9999 FEW030 SCT250 30/19 A2991=
201212031700 METAR MRLB 031700Z 30006KT 9999 FEW035 SCT250 31/19 A2989=
201212031800 METAR MRLB 031800Z 08013G23KT 9999 FEW035 SCT250 31/19 A2986=
201212031900 METAR MRLB 031900Z 07015KT 9999 FEW035 SCT250 31/19 A2984=
201212032000 METAR MRLB 032000Z 07014KT 9999 FEW035 31/19 A2982=
201212032100 METAR MRLB 032100Z 09010KT 9999 FEW035 31/19 A2981=
201212032200 METAR MRLB 032200Z 09012KT 9999 FEW035 31/18 A2980=
201212032300 METAR MRLB 032300Z 07005KT 9999 FEW040 30/19 A2982=
201212032352 METAR MRLB 040000Z 05007KT 9999 FEW040 28/19 A2984=
201212040000 METAR MRLB 040000Z 05007KT 9999 FEW040 28/19 A2984=
201212040100 METAR MRLB 040100Z 11008KT 9999 FEW040 27/20 A2986=
201212040200 METAR MRLB 040200Z 05007KT 9999 FEW040 26/20 A2990=
201212040300 METAR MRLB NIL=
201212040400 METAR MRLB NIL=
201212040500 METAR MRLB NIL=
201212040600 METAR MRLB NIL=
201212040700 METAR MRLB NIL=
201212040800 METAR MRLB NIL=
201212040900 METAR MRLB NIL=
201212041000 METAR MRLB NIL=
201212041100 METAR MRLB NIL=
201212041200 METAR MRLB 041200Z 24002KT CAVOK 20/19 A2989=
201212041300 METAR MRLB 041300Z 04003KT CAVOK 22/20 A2991=
201212041400 METAR MRLB 041400Z 22003KT CAVOK 26/21 A2994=
201212041500 METAR MRLB 041500Z 27003KT CAVOK 29/20 A2994=
201212041600 METAR MRLB 041600Z 08004KT CAVOK 30/20 A2993=
201212041700 METAR MRLB 041700Z 09013KT 9999 FEW035 31/19 A2991=
201212041800 METAR MRLB 041800Z 06013KT 9999 FEW035 31/19 A2989=
201212041900 METAR MRLB 041900Z 08010KT 9999 FEW035 31/19 A2986=
201212042000 METAR MRLB 042000Z 09008KT 9999 FEW035 31/19 A2984=
201212042100 METAR MRLB 042100Z 08012KT 9999 FEW035 31/19 A2983=
201212042200 METAR MRLB 042200Z 06013KT 9999 SCT035 31/18 A2983=
201212042300 METAR MRLB 042300Z 08007KT 9999 FEW040 SCT120 29/18 A2985=
201212042351 METAR MRLB 050000Z 11006KT 9999 FEW040 BKN120 27/19 A2986=
201212050000 METAR MRLB 050000Z 11006KT 9999 FEW040 BKN120 27/19 A2986=
201212050100 METAR MRLB 050100Z 25004KT 9999 FEW040 SCT120 26/20 A2990=
201212050200 METAR MRLB 050200Z 14002KT CAVOK 26/20 A2993=
201212050300 METAR MRLB NIL=
201212050400 METAR MRLB NIL=
201212050500 METAR MRLB NIL=
201212050600 METAR MRLB NIL=
201212050700 METAR MRLB NIL=
201212050800 METAR MRLB NIL=
201212050900 METAR MRLB NIL=
201212051000 METAR MRLB NIL=
201212051100 METAR MRLB NIL=
201212051200 METAR MRLB 051200Z 11003KT CAVOK 20/19 A2988=
201212051300 METAR MRLB 051300Z 04002KT CAVOK 22/19 A2990=
201212051355 METAR MRLB 051400 29001KT CAVOK 26/20 A2993=
201212051400 METAR MRLB 051400Z 29001KT CAVOK 26/20 A2993=
201212051500 METAR MRLB 051500Z 28002KT CAVOK 27/20 A 2994=
201212051600 METAR MRLB 051600Z 25003KT CAVOK 30/19 A2992=
201212051700 METAR MRLB 051700Z 28005KT 9999 FEW035 SCT250 31/19 A2990=
201212051800 METAR MRLB 051800Z 08010KT 9999 FEW035 32/19 A2987=
201212051900 METAR MRLB 051900Z 09013G23KT 9999 SCT035 32/18 A2983=
201212052000 METAR MRLB 052000Z 10009KT 9999 SCT035 32/19 A2982=
201212052100 METAR MRLB 052100Z 09010KT 9999 SCT035 31/19 A2980=
201212052200 METAR MRLB 052200Z 08011KT 9999 FEW035 SCT250 31/18 A2980=
201212052300 METAR MRLB 052300Z 10005KT 9999 FEW035 SCT250 29/19 A2982=
201212052352 METAR MRLB 060000Z 09006KT 9999 FEW035 BKN250 27/19 A2983=
201212060000 METAR MRLB 060000Z 09006KT 9999 FEW035 BKN250 27/19 A2983=
201212060100 METAR MRLB 060100Z 06003KT 9999 FEW035 BKN250 26/19 A2985=
201212060200 METAR MRLB 060200Z 23004KT 9999 FEW035 BKN250 25/20 A2987=
201212060300 METAR MRLB NIL=
201212060400 METAR MRLB NIL=
201212060500 METAR MRLB NIL=
201212060600 METAR MRLB NIL=
201212060700 METAR MRLB NIL=
201212060800 METAR MRLB NIL=
201212060900 METAR MRLB NIL=
201212061000 METAR MRLB NIL=
201212061100 METAR MRLB NIL=
201212061200 METAR MRLB 061200Z 06004KT CAVOK 20/19 A2983=
201212061300 METAR MRLB 061300Z 06007KT CAVOK 24/20 A2986=
201212061400 METAR MRLB 061400Z 25003KT CAVOK 26/19 A2988=
201212061500 METAR MRLB 061500Z 25004KT CAVOK 28/20 A2988=
201212061600 METAR MRLB 061600Z 19005KT CAVOK 29/19 A2986=
201212061700 METAR MRLB 061700Z 31005KT CAVOK 31/19 A2984=
201212061800 METAR MRLB 061800Z 32004KT 9999 FEW035 SCT250 31/18 A2981=
201212061900 METAR MRLB 061900Z 12010KT 9999 FEW035 SCT250 32/16 A2978=
201212062000 METAR MRLB 062000Z 11010KT 9999 FEW040 31/17 A2976=
201212062100 METAR MRLB 062100Z 09008KT 9999 FEW040 31/17 A2974=
201212062200 METAR MRLB 062200Z 08010KT 9999 FEW040 30/17 A2975=
201212062300 METAR MRLB 062300Z 09007KT 9999 FEW040 29/17 A2976=
201212062352 METAR MRLB 070000Z 05007KT 9999 FEW040 27/19 A2978=
201212070000 METAR MRLB 070000Z 05007KT 9999 FEW040 27/19 A2978=
201212070100 METAR MRLB 070100Z 16002KT 9999 FEW040 26/18 A2980=
201212070200 METAR MRLB 070200Z 18003KT 9999 FEW040 24/19 A2982=
201212070300 METAR MRLB NIL=
201212070400 METAR MRLB NIL=
201212070500 METAR MRLB NIL=
201212070600 METAR MRLB NIL=
201212070700 METAR MRLB NIL=
201212070800 METAR MRLB NIL=
201212070900 METAR MRLB NIL=
201212071000 METAR MRLB NIL=
201212071100 METAR MRLB NIL=
201212071200 METAR MRLB 071200Z 10003KT CAVOK 19/18 A2981=
201212071300 METAR MRLB 071300Z 15003KT CAVOK 22/19 A2983=
201212071400 METAR MRLB 071400Z 23004KT CAVOK 24/20 A2984=
201212071500 METAR MRLB 071500Z 31006KT CAVOK 27/19 A2985=
201212071600 METAR MRLB 071600Z 28003KT CAVOK 29/19 A2984=
201212071700 METAR MRLB 071700Z 26004KT CAVOK 30/19 A2981=
201212071800 METAR MRLB 071800Z 27004KT CAVOK 31/18 A2979=
201212071900 METAR MRLB 071900Z 11010KT 9999 FEW040 31/18 A2976=
201212072000 METAR MRLB 072000Z 10010KT 9999 FEW040 31/18 A2974=
201212072100 METAR MRLB 072100Z 08011KT 9999 FEW040 31/18 A2972=
201212072200 METAR MRLB 072200Z 09008KT 9999 FEW040 30/18 A2973=
201212072300 METAR MRLB 072300Z 10007KT CAVOK 29/18 A2974=
201212072352 METAR MRLB 080000Z 09005KT CAVOK 26/18 A2976=
201212080000 METAR MRLB 080000Z 09005KT CAVOK 26/18 A2976=
201212080100 METAR MRLB 080100Z 09003KT CAVOK 26/18 A2979=
201212080200 METAR MRLB 080200Z 12008KT CAVOK 26/20 A2980=
201212080300 METAR MRLB NIL=
201212080400 METAR MRLB NIL=
201212080500 METAR MRLB NIL=
201212080600 METAR MRLB NIL=
201212080700 METAR MRLB NIL=
201212080800 METAR MRLB NIL=
201212080900 METAR MRLB NIL=
201212081000 METAR MRLB NIL=
201212081100 METAR MRLB NIL=
201212081200 METAR MRLB 081200Z 08003KT CAVOK 19/18 A2982=
201212081300 METAR MRLB 081300Z 22002KT CAVOK 22/19 A2984=
201212081400 METAR MRLB 081400Z 18005KT CAVOK 24/20 A2986=
201212081500 METAR MRLB 081500Z 30003KT CAVOK 27/20 A2986=
201212081600 METAR MRLB 081600Z 23005KT CAVOK 30/19 A2986=
201212081700 METAR MRLB 081700Z 18004KT CAVOK 31/18 A2983=
201212081800 METAR MRLB 081800Z 14003KT CAVOK 33/18 A2980=
201212081900 METAR MRLB 081900Z 10010KT 9999 FEW040 SCT140 33/17 A2978=
201212082000 METAR MRLB 082000Z 09010KT 9999 FEW040 SCT140 32/17 A2976=
201212082100 METAR MRLB 082100Z 09012KT 9999 FEW040 BKN140 31/18 A2975=
201212082200 METAR MRLB 082200Z 08011KT 9999 FEW040 BKN140 29/19 A2976=
201212082300 METAR MRLB 082300Z 10009KT 9999 FEW040 BKN130 28/19 A2978=
201212082352 METAR MRLB 090000Z 06009KT 9999 SCT035 BKN130 28/20 A2980=
201212090000 METAR MRLB 090000Z 06009KT 9999 SCT035 BKN130 28/20 A2980=
201212090100 METAR MRLB 090100Z 10009KT 9999 SCT035 BKN130 26/20 A2982=
201212090200 METAR MRLB 090200Z 09010KT 9999 FEW035 BKN130 26/20 A2984=
201212090300 METAR MRLB NIL=
201212090400 METAR MRLB NIL=
201212090500 METAR MRLB NIL=
201212090600 METAR MRLB NIL=
201212090700 METAR MRLB NIL=
201212090800 METAR MRLB NIL=
201212090900 METAR MRLB NIL=
201212091000 METAR MRLB NIL=
201212091100 METAR MRLB NIL=
201212091200 METAR MRLB 091200Z 00000KT CAVOK 21/18 A2985=
201212091300 METAR MRLB 091300Z 09004KT CAVOK 25/19 A2987=
201212091400 METAR MRLB 091400Z 29003KT CAVOK 27/20 A2989 SCT250=
201212091500 METAR MRLB 091500Z 06011KT CAVOK 30/18 A2988=
201212091600 METAR MRLB 091600Z 06012KT CAVOK 31/18 A2987=
201212091700 METAR MRLB 091700Z 06014KT 9999 FEW035 32/18 A2985=
201212091800 METAR MRLB 091800Z 07010KT 9999 FEW035 32/19 A2983=
201212091900 METAR MRLB 091900Z 05013KT 9999 SCT035 33/19 A2980=
201212092000 METAR MRLB 092000Z 05010KT 9999 SCT035 32/19 A2977=
201212092100 METAR MRLB 092100Z 04003KT 9999 FEW035 32/18 A2976=
201212092200 METAR MRLB 092200Z 06010KT 9999 FEW035 32/20 A2977=
201212092300 METAR MRLB 092300Z 05013KT 9999 FEW040 29/21 A2978=
201212092352 METAR MRLB 100000Z 06010KT 9999 SCT040 27/21 A2980=
201212100000 METAR MRLB 100000Z 06010KT 9999 SCT040 27/21 A2980=
201212100100 METAR MRLB 100100Z 08013KT 9999 FEW040 27/20 A2981=
201212100200 METAR MRLB 100200Z 09009KT 9999 FEW040 27/20 A2983=
201212100300 METAR MRLB NIL=
201212100400 METAR MRLB NIL=
201212100500 METAR MRLB NIL=
201212100600 METAR MRLB NIL=
201212100700 METAR MRLB NIL=
201212100800 METAR MRLB NIL=
201212100900 METAR MRLB NIL=
201212101000 METAR MRLB NIL=
201212101100 METAR MRLB NIL=
201212101200 METAR MRLB 101200Z 11002KT 9999 BKN035 23/21 A2982=
201212101300 METAR MRLB 101300Z 17002KT 9999 SCT035 26/22 A2983=
201212101400 METAR MRLB 101400Z 21004KT 9999 FEW040 27/22 A2985=
201212101500 METAR MRLB 101500Z 25006KT 9999 FEW035 29/22 A2986=
201212101600 METAR MRLB 101600Z 26003KT 9999 FEW035 32/22 A2985=
201212101700 METAR MRLB 101700Z 11007KT 9999 SCT035 32/21 A2983=
201212101800 METAR MRLB 101800Z 08009KT SCT035 33/20 A2980=
201212101900 METAR MRLB 101900Z 08008KT 9999 SCT035 34/20 A2975=
201212102000 METAR MRLB 102000Z 06008KT 9999 FEW035 34/20 A2972=
201212102100 METAR MRLB 102100Z 05010KT 9999 FEW035 34/19 A2970=
201212102200 METAR MRLB 102200Z 08007KT 9999 FEW040 33/20 A2970=
201212102300 METAR MRLB 102300Z 08010KT 9999 BKN035 32/21 A2972=
201212102350 METAR MRLB 110000Z 06008KT 9999 FEW045 32/21 A2972=
201212110000 METAR MRLB 110000Z 06008KT 9999 FEW045 32/21 A2972=
201212110100 METAR MRLB 110100Z 09004 CAVOK 28/22 A2977=
201212110200 METAR MRLB 110200Z 04003KT CAVOK 27/22 A2979=
201212110300 METAR MRLB NIL=
201212110400 METAR MRLB NIL=
201212110500 METAR MRLB NIL=
201212110600 METAR MRLB NIL=
201212110700 METAR MRLB NIL=
201212110800 METAR MRLB NIL=
201212110900 METAR MRLB NIL=
201212111000 METAR MRLB NIL=
201212111100 METAR MRLB NIL=
201212111200 METAR MRLB 111200Z 19004KT 9999 FEW045 24/22 A2980=
201212111300 METAR MRLB 111300Z 00000KT CAVOK 26/23 A2981=
201212111400 METAR MRLB 111400Z 13002KT CAVOK 29/23 A2983=
201212111500 METAR MRLB 111500Z 12002KT 9999 FEW035 31/22 A2983=
201212111600 METAR MRLB 111600Z 09009KT 9999 FEW035 32/21 A2983=
201212111700 METAR MRLB 111700Z 08011KT 9999 FEW034 33/21 A2980=
201212111800 METAR MRLB 111800Z 06009KT 9999 FEW035 34/21 A2977=
201212120200 METAR MRLB 120200Z 08009KT 9999 FEW035 SCT250 28/22 A2982=
201212120300 METAR MRLB NIL=
201212120400 METAR MRLB NIL=
201212120500 METAR MRLB NIL=
201212120600 METAR MRLB NIL=
201212120700 METAR MRLB NIL=
201212120800 METAR MRLB NIL=
201212120900 METAR MRLB NIL=
201212121000 METAR MRLB NIL=
201212121100 METAR MRLB NIL=
201212121200 METAR MRLB 121200Z 23005KT 9999 FEW035 SCT250 25/21 A2983=
201212121300 METAR MRLB 121300Z 30005KT 9999 FEW035 SCT250 26/21 A2984=
201212121400 METAR MRLB 121400Z 05008KT 9999 FEW035 BKN250 29/19 A2985=
201212121500 METAR MRLB 121500Z 07017KT 9999 FEW035 BKN250 31/18 A2985=
201212121600 METAR MRLB 121600Z 07013KT 9999 FEW035 BKN250 32/18 A2984=
201212121700 METAR MRLB 121700Z 06016KT 9999 FEW035 BKN250 33/16 A2983=
201212121800 METAR MRLB 121800Z 05013KT 9999 FEW035 BKN250 34/18 A2980=
201212121900 METAR MRLB 121900Z 05012KT 9999 FEW035 BKN250 34/17 A2978=
201212122000 METAR MRLB 122000Z 10014KT 9999 FEW035 BKN250 33/19 A2976=
201212122100 METAR MRLB 122100Z 07013KT 9999 FEW035 BKN250 33/18 A2975=
201212122200 METAR MRLB 122200Z 07013KT 9999 FEW035 SCT130 BKN250 32/20 A2975=
201212122300 METAR MRLB 122300Z 06016KT 9999 FEW040 SCT130 BKN250 29/20 A2978=
201212122352 METAR MRLB 130000Z 07015KT 9999 FEW040 BKN250 27/20 A2979=
201212130000 METAR MRLB 130000Z 07015KT 9999 FEW040 BKN250 27/20 A2979=
201212130100 METAR MRLB 130100Z 08016KT 9999 FEW040 BKN250 27/19 A2980=
201212130200 METAR MRLB 130200Z 07017KT 9999 FEW040 BKN250 27/20 A2983=
201212130300 METAR MRLB NIL=
201212130400 METAR MRLB NIL=
201212130500 METAR MRLB NIL=
201212130600 METAR MRLB NIL=
201212130700 METAR MRLB NIL=
201212130800 METAR MRLB NIL=
201212130900 METAR MRLB NIL=
201212131000 METAR MRLB NIL=
201212131100 METAR MRLB NIL=
201212131200 METAR MRLB 131200Z 22003KT 9999 FEW035 OVC250 24/20 A2985=
201212131300 METAR MRLB 131300Z 26007KT 9999 FEW035 OVC250 24/20 A2987=
201212131400 METAR MRLB 131400Z 240006KT 9999 FEW035 OVC250 26/20 A2989=
201212131500 METAR MRLB 131500Z 06013KT 9999 FEW035 OVC250 30/19 A2989=
201212131600 METAR MRLB 131600Z 07012KT 9999 FEW035 BKN250 31/19 A2989=
201212131700 METAR MRLB 131700Z 07019G30KT 9999 FEW035 BKN250 32/17 A2986=
201212131800 METAR MRLB 131800Z 07018G28KT 9999 FEW035 BKN250 31/18 A2985=
201212131900 METAR MRLB 131900Z 07018G28KT 9999 FEW035 BKN250 32/19 A2984=
201212132000 METAR MRLB 132000Z 08018G28KT 9999 FEW035 BKN250 31/19 A2981=
201212132100 METAR MRLB 132100Z 06019KT 9999 FEW040 BKN250 31/18 A2981=
201212132200 METAR MRLB 132200Z 07014KT 9999 FEW040 BKN250 30/18 A2980=
201212132300 METAR MRLB 132300Z 06013KT CAVOK 28/19 A2981=
201212132355 METAR MRLB 140000Z 08009KT CAVOK 27/19 A2983=
201212140000 METAR MRLB 140000Z 08009KT CAVOK 27/19 A2983=
201212140100 METAR MRLB 140100Z 09008KT CAVOK 26/19 A2985=
201212140200 METAR MRLB 140200Z 08009KT CAVOK 29/19 A2988=
201212140300 METAR MRLB NIL=
201212140400 METAR MRLB NIL=
201212140500 METAR MRLB NIL=
201212140600 METAR MRLB NIL=
201212140700 METAR MRLB NIL=
201212140800 METAR MRLB NIL=
201212140900 METAR MRLB NIL=
201212141000 METAR MRLB NIL=
201212141100 METAR MRLB NIL=
201212141200 METAR MRLB 141200Z 16002KT 9999 SCT040 BKN250 23/20 A2987=
201212141300 METAR MRLB 141300Z 20005KT 9999 FEW040 25/20 A2988=
201212141400 METAR MRLB 141400Z 13003KT 9999 FEW040 28/19 A2990=
201212141500 METAR MRLB 141500Z COR 31004KT 9999 FEW040 30/20 A2990=
201212141600 METAR MRLB 141600Z 09014KT 9999 FEW040 30/18 A2990=
201212141700 METAR MRLB 141700Z 07018KT 9999 FEW040 31/19 A2987=
201212141800 METAR MRLB 141800Z 07017KT 9999 FEW040 32/19 A2985=
201212141900 METAR MRLB 141900Z 07019KT 9999 SCT035 32/19 A2982=
201212142000 METAR MRLB 142000Z 07015KT 9999 SCT035 33/18 A2979=
201212142100 METAR MRLB 142100Z 08015KT 9999 FEW035 SCT250 32/18 A2979=
201212142200 METAR MRLB 142200Z 07016KT 9999 FEW035 SCT250 31/19 A2979=
201212142300 METAR MRLB 142300Z 09012KT 9999 SCT035 BKN250 28/19 A2980=
201212142352 METAR MRLB 150000Z 08009KT 9999 SCT035 BKN250 27/20 A2984=
201212150000 METAR MRLB 150000Z 08009KT 9999 SCT035 BKN250 27/20 A2984=
201212150100 METAR MRLB 150100Z 08008KT 9999 FEW035 BKN250 26/20 A2986=
201212150200 METAR MRLB 150200Z 15005KT 9999 FEW035 BKN250 26/20 A2989=
201212150300 METAR MRLB NIL=
201212150400 METAR MRLB NIL=
201212150500 METAR MRLB NIL=
201212150600 METAR MRLB NIL=
201212150700 METAR MRLB NIL=
201212150800 METAR MRLB NIL=
201212150900 METAR MRLB NIL=
201212151000 METAR MRLB NIL=
201212151100 METAR MRLB NIL=
201212151200 METAR MRLB 151200Z 23004KT CAVOK 21/19 A2984=
201212151300 METAR MRLB 151300Z 17004KT CAVOK 23/20 A2985=
201212151400 METAR MRLB 151400Z 28003KT CAVOK 26/20 A2988=
201212151500 METAR MRLB 151500Z 26003KT CAVOK 29/19 A2988=
201212151600 METAR MRLB 151600Z 25004KT CAVOK 31/18 A2987=
201212151700 METAR MRLB 151700Z 28005KT CAVOK 31/18 A2984=
201212151800 METAR MRLB 151800Z 07004KT 9999 FEW035 33/17 A2981=
201212151900 METAR MRLB 151900Z 08014KT 9999 FEW035 32/18 A2978=
201212152000 METAR MRLB 152000Z 08011KT 9999 FEW040 32/18 A2976=
201212152100 METAR MRLB 152100Z 08012KT 9999 FEW040 32/18 A2975=
201212152200 METAR MRLB 152200Z 08015KT 9999 FEW040 30/17 A2975=
201212152300 METAR MRLB 152300Z 07008KT 9999 FEW040 29/17 A2976=
201212152352 METAR MRLB 160000Z 09011KT 9999 FEW040 27/18 A2979=
201212160000 METAR MRLB 160000Z 09011KT 9999 FEW040 27/18 A2979=
201212160100 METAR MRLB 160100Z 10010KT 9999 FEW040 26/18 A2981=
201212160200 METAR MRLB 160200Z 07005KT 9999 FEW040 26/18 A2983=
201212160300 METAR MRLB NIL=
201212160400 METAR MRLB NIL=
201212160500 METAR MRLB NIL=
201212160600 METAR MRLB NIL=
201212160700 METAR MRLB NIL=
201212160800 METAR MRLB NIL=
201212160900 METAR MRLB NIL=
201212161000 METAR MRLB NIL=
201212161100 METAR MRLB NIL=
201212161200 METAR MRLB 161200Z 16002KT CAVOK 20/18 A2982=
201212161300 METAR MRLB 161300Z 20004KT CAVOK 23/18 A2983=
201212161400 METAR MRLB 161400Z 25004KT CAVOK 26/19 A2986=
201212161500 METAR MRLB 161500Z 03005KT CAVOK 27/18 A2986=
201212161600 METAR MRLB 161600Z 07014KT CAVOK 30/17 A2985=
201212161700 METAR MRLB 161700Z 08013KT CAVOK 31/15 A2983=
201212161800 METAR MRLB 161800Z COR 08011KT CAVOK 32/16 A2981=
201212161900 METAR MRLB 161900Z 06013KT CAVOK 32/17 A2978=
201212162000 METAR MRLB 162000Z 08011KT CAVOK 32/18 A2976=
201212162100 METAR MRLB 162100Z 10009KT 9999 FEW040 32/17 A2975=
201212162200 METAR MRLB 162200Z 06009KT 9999 FEW040 32/18 2975=
201212162300 METAR MRLB 162300Z 07009KT CAVOK 30/18 A2976=
201212162355 METAR MRLB 170000Z 09006KT CAVOK 27/18 A2978=
201212170000 METAR MRLB 170000Z 09006KT CAVOK 27/18 A2978=
201212170100 METAR MRLB 170100Z 25003KT CAVOK 25/19 A2980=
201212170200 METAR MRLB 170200Z 00000KT CAVOK 25/18 A2982=
201212170300 METAR MRLB NIL=
201212170400 METAR MRLB NIL=
201212170500 METAR MRLB NIL=
201212170600 METAR MRLB NIL=
201212170700 METAR MRLB NIL=
201212170800 METAR MRLB NIL=
201212170900 METAR MRLB NIL=
201212171000 METAR MRLB NIL=
201212171100 METAR MRLB NIL=
201212171200 METAR MRLB 171200Z 04004KT CAVOK 21/19 A2984=
201212171300 METAR MRLB 171300Z 00000KT CAVOK 24/19 A2985=
201212171400 METAR MRLB 171400Z 18002KT CAVOK 26/19 A2987=
201212171500 METAR MRLB 171500Z 29003KT CAVOK 29/20 A2987=
201212171600 METAR MRLB 171600Z 08006KT 9999 FEW035 31/19 A2985=
201212171700 METAR MRLB 171700Z 10009KT 9999 FEW035 32/19 A2983=
201212171800 METAR MRLB 171800Z 07006KT 9999 FEW035 33/19 A2981=
201212171900 METAR MRLB 171900Z 11006KT 9999 SCT035 34/19 A2978=
201212172000 METAR MRLB 172000Z 09008KT 9999 SCT035 33/19 A2976=
201212172100 METAR MRLB 172100Z 25006KT 9999 SCT035 31/21 A2975=
201212172200 METAR MRLB 172200Z 28007KT 9999 SCT035 30/21 A2975=
201212172300 METAR MRLB 172300Z 26007KT 9999 SCT035 28/21 A2976=
201212172355 METAR MRLB 180000Z 27003KT 9999 SCT035 27/21 A2979=
201212180000 METAR MRLB 180000Z 27003KT 9999 SCT035 27/21 A2979=
201212180100 METAR MRLB 180100Z 17003KT 9999 SCT035 26/21 A2981=
201212180200 METAR MRLB 180200Z 00000KT 9999 SCT035 25/21 A2983=
201212180300 METAR MRLB NIL=
201212180400 METAR MRLB NIL=
201212180500 METAR MRLB NIL=
201212180600 METAR MRLB NIL=
201212180700 METAR MRLB NIL=
201212180800 METAR MRLB NIL=
201212180900 METAR MRLB NIL=
201212181000 METAR MRLB NIL=
201212181100 METAR MRLB NIL=
201212181200 METAR MRLB 181200Z 00000KT CAVOK 20/19 A2985=
201212181300 METAR MRLB 181300Z 00000KT CAVOK 24/20 A2986=
201212181400 METAR MRLB 181400Z 25003KT 9999 FEW035 26/21 A2988=
201212181500 METAR MRLB 181500Z 07006KT 9999 FEW035 30/21 A2989=
201212181600 METAR MRLB 181600Z 04011KT 9999 FEW035 31/19 A2988=
201212181700 METAR MRLB 181700Z 05011KT 9999 FEW035 31/18 A2985=
201212181800 METAR MRLB 181800Z 08010KT 9999 FEW035 33/17 A2982=
201212181900 METAR MRLB 181900Z 07010KT 9999 FEW035 33/16 A2979=
201212182000 METAR MRLB 182000Z 09011KT 9999 FEW035 33/16 A2976=
201212182100 METAR MRLB 182100Z 09011KT 9999 FEW035 33/16 A2975=
201212182200 METAR MRLB 182200Z 10011KT 9999 FEW040 32/16 A2975=
201212182300 METAR MRLB 182300Z 08010KT 9999 FEW040 31/17 A2976=
201212182352 METAR MRLB 190000Z 05007KT 9999 FEW040 29/19 A2978=
201212190000 METAR MRLB 190000Z 05007KT 9999 FEW040 29/19 A2978=
201212190100 METAR MRLB 190100Z 09003KT 9999 FEW040 27/20 A2980=
201212190200 METAR MRLB 190200Z 08003KT 9999 FEW040 26/20 A2982=
201212190300 METAR MRLB NIL=
201212190400 METAR MRLB NIL=
201212190500 METAR MRLB NIL=
201212190600 METAR MRLB NIL=
201212190700 METAR MRLB NIL=
201212190800 METAR MRLB NIL=
201212190900 METAR MRLB NIL=
201212191000 METAR MRLB NIL=
201212191100 METAR MRLB NIL=
201212191200 METAR MRLB 191200Z 03004KT CAVOK 24/181 A2984=
201212191300 METAR MRLB 191300Z 04004KT CAVOK 26/18 A2985=
201212191400 METAR MRLB 191400Z 06009KT CAVOK 28/19 A2987=
201212191500 METAR MRLB 191500Z 07009KT 9999 FEW035 30/18 A2987=
201212191600 METAR MRLB 191600Z 08011KT 9999 FEW035 30/19 A2986=
201212191700 METAR MRLB 191700Z 06015KT 9999 FEW035 32/18 A2984=
201212191800 METAR MRLB 191800Z 10012KT 9999 FEW035 32/17 A2982=
201212191900 METAR MRLB 191900Z 07013KT 9999 FEW035 32/18 A2979=
201212192000 METAR MRLB 192000Z 06013KT 9999 FEW035 32/18 A2977=
201212192100 METAR MRLB 192100Z 04013KT 9999 FEW035 32/18 A2975=
201212192200 METAR MRLB 192200Z 05012KT 9999 FEW040 31/18 A2976=
201212192300 METAR MRLB 192300Z 05013KT 9999 FEW040 29/19 A2977=
201212192351 METAR MRLB 200000Z 06010KT 9999 FEW040 28/19 A2979=
201212200000 METAR MRLB 200000Z 06010KT 9999 FEW040 28/19 A2979=
201212200100 METAR MRLB 200100Z 07010KT CAVOK 27/18 A2980=
201212200200 METAR MRLB 200200Z 08013KT CAVOK 27/18 A2982=
201212200300 METAR MRLB NIL=
201212200400 METAR MRLB NIL=
201212200500 METAR MRLB NIL=
201212200600 METAR MRLB NIL=
201212200700 METAR MRLB NIL=
201212200800 METAR MRLB NIL=
201212200900 METAR MRLB NIL=
201212201000 METAR MRLB NIL=
201212201100 METAR MRLB NIL=
201212201154 METAR MRLB 201200 06002KT CAVOK 20/18 A2980=
201212201200 METAR MRLB 201200Z 06002KT CAVOK 20/18 A2980=
201212201300 METAR MRLB 201300Z 24001KT CAVOK 22/19 A2981=
201212201400 METAR MRLB 201400Z 18002KT CAVOK 26/20 A2984=
201212201500 METAR MRLB 201500Z 19004KT CAVOK 28/20 A2984=
201212201600 METAR MRLB 201600Z 25005KT 9999 FEW035 31/19 A2984=
201212201700 METAR MRLB 201700Z 07006KT 9999 FEW035 BKN140 32/19 A2983=
201212201800 METAR MRLB 201800Z 27005KT 9999 SCT035 SCT140 31/20 A2981=
201212201900 METAR MRLB 201900Z 10013KT 9999 FEW035 33/19 A2978=
201212202000 METAR MRLB 202000Z 08012KT 9999 FEW035 SCT140 33/19 A2976=
201212202100 METAR MRLB 202100Z 06013KT 9999 FEW035 SCT140 32/20 A2975=
201212202200 METAR MRLB 202200Z 06015KT 9999 SCT035 SCT140 30/20 A2976=
201212202300 METAR MRLB 202300Z 05014KT 9999 SCT035 BKN140 29/19 A2978=
201212202352 METAR MRLB 210000Z 06010KT 9999 FEW035 BKN130 27/20 A2979=
201212210000 METAR MRLB 210000Z 06010KT 9999 FEW035 BKN130 27/20 A2979=
201212210100 METAR MRLB 210100Z 10009KT 9999 FEW035 SCT130 26/19 A2980=
201212210200 METAR MRLB 210200Z 08008KT 9999 FEW035 SCT140 26/19 A2983=
201212210300 METAR MRLB NIL=
201212210400 METAR MRLB NIL=
201212210500 METAR MRLB NIL=
201212210600 METAR MRLB NIL=
201212210700 METAR MRLB NIL=
201212210800 METAR MRLB NIL=
201212210900 METAR MRLB NIL=
201212211000 METAR MRLB NIL=
201212211100 METAR MRLB NIL=
201212211200 METAR MRLB 211200Z 28003KT 9999 FEW035 BKN130 22/20 A2983=
201212211300 METAR MRLB 211300Z 20004KT 9999 FEW035 BKN130 24/20 A2985=
201212211400 METAR MRLB 211400Z 26006KT 9999 FEW035 BKN130 27/21 A2987=
201212211500 METAR MRLB 211500Z 25006KT 9999 FEW035 SCT140 29/20 A2988=
201212211600 METAR MRLB 211600Z 09011KT 9999 SCT035 31/19 A2985=
201212211700 METAR MRLB 211700Z 08016G26KT 9999 SCT035 32/19 A2983=
201212211800 METAR MRLB 211800Z 08015KT 9999 FEW035 SCT250 32/19 A2980=
201212211900 METAR MRLB 211900Z 09015G25KT 9999 SCT035 SCT250 32/19 A2978=
201212212000 METAR MRLB 212000Z 07018KT 9999 BKN035 33/19 A2977=
201212212100 METAR MRLB 212100Z 06017KT 9999 SCT035 SCT130 30/19 A2976=
201212212200 METAR MRLB 212200Z 06019KT 9999 SCT035 SCT130 29/19 A2976=
201212212300 METAR MRLB 212300Z 08015KT 9999 FEW035 BKN130 28/18 A2979=
201212212352 METAR MRLB 220000Z 07016KT 9999 FEW035 BKN130 26/19 A2980=
201212220000 METAR MRLB 220000Z 07016KT 9999 FEW035 BKN130 26/19 A2980=
201212220100 METAR MRLB 220100Z 07023G36KT 9999 FEW035 BKN130 25/18 A2983=
201212220200 METAR MRLB 220200Z 08024G36KT 9999 FEW035 BKN130 26/18 A2984=
201212220300 METAR MRLB NIL=
201212220400 METAR MRLB NIL=
201212220500 METAR MRLB NIL=
201212220600 METAR MRLB NIL=
201212220700 METAR MRLB NIL=
201212220800 METAR MRLB NIL=
201212220900 METAR MRLB NIL=
201212221000 METAR MRLB NIL=
201212221100 METAR MRLB NIL=
201212221200 METAR MRLB 221200Z 250005KT 9999 FEW035 25/18 A2981=
201212221300 METAR MRLB 221300Z 16002KT 9999 FEW035 SCT130 27/19 A2983=
201212221400 METAR MRLB 221400Z 05013KT 9999 FEW035 SCT130 29/18 A2985=
201212221500 METAR MRLB 221500Z 07018KT 9999 FEW035 SCT130 30/18 A2987=
201212221600 METAR MRLB 221600Z 07025G35KT 9999 SCT035 30/18 A2986=
201212221700 METAR MRLB 221700Z 07025G36KT 9999 SCT035 30/18 A2985=
201212221800 METAR MRLB 221800Z 06024G35KT 9999 SCT035 31/18 A2984=
201212221900 METAR MRLB 221900Z 07022G33KT 9999 SCT035 31/18 A2982=
201212222000 METAR MRLB 222000Z 05026G36KT 9999 SCT035 30/19 A2980=
201212222100 METAR MRLB 222100Z 06022G34KT 9999 FEW035 31/18 A2978=
201212222200 METAR MRLB 222200Z 06023G33KT 9999 BKN035 28/19 A2981=
201212222300 METAR MRLB 222300Z 07019G30KT 9999 SCT035 27/18 A2982=
201212222352 METAR MRLB 230000Z 07017G29KT 9999 FEW035 26/18 A2983=
201212230000 METAR MRLB 230000Z 07017G29KT 9999 FEW035 26/18 A2983=
201212230100 METAR MRLB 230100Z 06022KT CAVOK 26/18 A2984=
201212230200 METAR MRLB 230200Z 08013KT 9999 FEW035 26/18 A2987=
201212230300 METAR MRLB NIL=
201212230400 METAR MRLB NIL=
201212230500 METAR MRLB NIL=
201212230600 METAR MRLB NIL=
201212230700 METAR MRLB NIL=
201212230800 METAR MRLB NIL=
201212230900 METAR MRLB NIL=
201212231000 METAR MRLB NIL=
201212231100 METAR MRLB NIL=
201212231200 METAR MRLB 231200Z 24005KT CAVOK 24/18 A2978=
201212231300 METAR MRLB 231300Z 03006KT CAVOK 25/18 A2980=
201212231400 METAR MRLB 231400Z 28004KT CAVOK 27/18 A2983=
201212231500 METAR MRLB 231500Z 24008KT CAVOK 29/17 A2983=
201212231600 METAR MRLB 231600Z 25007KT CAVOK 30/17 A2982=
201212231700 METAR MRLB 231700Z 28008KT CAVOK 31/17 A2980=
201212231800 METAR MRLB 231800Z 18005KT CAVOK 33/16 A2978=
201212231900 METAR MRLB 231900Z 10016KT CAVOK 32/17 A2976=
201212232000 METAR MRLB NIL=
201212232100 METAR MRLB 232100Z 08016KT CAVOK 31/17 A2973=
201212232200 METAR MRLB 232200Z 08016KT CAVOK 29/18 A2974=
201212232300 METAR MRLB 232300Z 08018KT 9999 FEW030 27/19 A2976=
201212232351 METAR MRLB 240000Z 08013KT CAVOK 26/19 A2977=
201212240000 METAR MRLB 240000Z 08013KT CAVOK 26/19 A2977=
201212240100 METAR MRLB 240100Z 09013KT CAVOK 26/18 A2980=
201212240200 METAR MRLB 240200Z 08016KT CAVOK 26/17 A2982=
201212240300 METAR MRLB NIL=
201212240400 METAR MRLB NIL=
201212240500 METAR MRLB NIL=
201212240600 METAR MRLB NIL=
201212240700 METAR MRLB NIL=
201212240800 METAR MRLB NIL=
201212240900 METAR MRLB NIL=
201212241000 METAR MRLB NIL=
201212241100 METAR MRLB NIL=
201212241200 METAR MRLB 241200Z 23004KT CAVOK 20/18 A2982=
201212241300 METAR MRLB 241300Z 17004KT CAVOK 22/19 A2984=
201212241400 METAR MRLB 241400Z 24006KT CAVOK 26/19 A2986=
201212241500 METAR MRLB 241500Z 22006KT CAVOK 27/19 A2986=
201212241600 METAR MRLB 241600Z 23005KT CAVOK 30/18 A2985=
201212241700 METAR MRLB 241700Z 32005KT CAVOK 31/18 A2982=
201212241800 METAR MRLB 241800Z 09013KT CAVOK 32/17 A2978=
201212241900 METAR MRLB 241900Z 08014KT 9999 FEW035 SCT250 32/18 A2976=
201212242000 METAR MRLB 242000Z 08013KT 9999 FEW035 SCT250 32/18 A2975=
201212242100 METAR MRLB 242100Z 09014KT 9999 FEW035 31/18 A2974=
201212242200 METAR MRLB 242200Z 08013KT 9999 FEW035 30/19 A2975=
201212242300 METAR MRLB 242300Z 08012KT 9999 SCT035 28/19 A2976=
201212242351 METAR MRLB 250000Z 07010KT 9999 SCT035 27/19 A2979=
201212250000 METAR MRLB 250000Z 07010KT 9999 SCT035 27/19 A2979=
201212250100 METAR MRLB 250100Z 08012KT 9999 SCT035 26/19 A2980=
201212250200 METAR MRLB 250200Z 08013KT 9999 SCT035 26/19 A2983=
201212250300 METAR MRLB NIL=
201212250400 METAR MRLB NIL=
201212250500 METAR MRLB NIL=
201212250600 METAR MRLB NIL=
201212250700 METAR MRLB NIL=
201212250800 METAR MRLB NIL=
201212250900 METAR MRLB NIL=
201212251000 METAR MRLB NIL=
201212251100 METAR MRLB NIL=
201212251200 METAR MRLB 251200Z 32005KT CAVOK 20/19 A2980=
201212251300 METAR MRLB 251300Z 14002KT CAVOK 22/20 A2983=
201212251400 METAR MRLB 251400Z 20004KT CAVOK 25/20 A2983=
201212251500 METAR MRLB 251500Z 24004KT CAVOK 27/19 A2984=
201212251600 METAR MRLB 251600Z 26005KT CAVOK 30/19 A2983=
201212251700 METAR MRLB 251700Z 18006KT 9999 FEW035 32/19 A2983=
201212251800 METAR MRLB 251800Z 08009KT 9999 FEW035 SCT130 32/19 A2981=
201212251900 METAR MRLB 251900Z 11009KT 9999 FEW035 SCT130 33/19 A2978=
201212252000 METAR MRLB 252000Z 07009KT 9999 SCT035 33/19 A2975=
201212252100 METAR MRLB 252100Z 08010KT 9999 SCT035 33/19 A2974=
201212252200 METAR MRLB 252200Z 08008KT 9999 FEW035 32/20 A2974=
201212252300 METAR MRLB 252300Z 08010KT 9999 FEW035 30/20 A2975=
201212252353 METAR MRLB 260000Z 09007KT 9999 FEW035 28/20 A2976=
201212260000 METAR MRLB 260000Z 09007KT 9999 FEW035 28/20 A2976=
201212260100 METAR MRLB 260100Z 08004KT 9999 FEW035 SCT035 27/20 A2978=
201212260200 METAR MRLB 260200Z 23004KT 9999 FEW035 BKN130 27/20 A2980=
201212260300 METAR MRLB NIL=
201212260400 METAR MRLB NIL=
201212260500 METAR MRLB NIL=
201212260600 METAR MRLB NIL=
201212260700 METAR MRLB NIL=
201212260800 METAR MRLB NIL=
201212260900 METAR MRLB NIL=
201212261000 METAR MRLB NIL=
201212261100 METAR MRLB NIL=
201212261200 METAR MRLB 261200Z 27003KT 9999 FEW030 SCT100 21/20 A2980=
201212261300 METAR MRLB 261300Z 20003KT 9999 FEW030 SCT100 23/21 A2983=
201212261400 METAR MRLB 261400Z 20003KT 9999 FEW030 SCT250 26/21 A2985=
201212261500 METAR MRLB 261500Z 22003KT 9999 FEW030 SCT250 29/21 A2985=
201212261600 METAR MRLB 261600Z 09003KT 9999 FEW030 SCT250 31/20 A2983=
201212261700 METAR MRLB 261700Z 21003KT 9999 SCT025 SCT250 31/21 A2982=
201212261800 METAR MRLB 261800Z 05008KT 9999 SCT025 BKN250 32/20 A2979=
201212261900 METAR MRLB 261900Z 05010KT 9999 SCT025 BKN250 32/20 A2976=
201212262000 METAR MRLB 262000Z 32004KT 9999 SCT025 BKN250 31/22 A2974=
201212262100 METAR MRLB 262100Z 27005KT 9999 SCT025 BKN250 32/22 A2972=
201212262200 METAR MRLB 262200Z 08010KT 9999 SCT030 BKN250 32/20 A2972=
201212262300 METAR MRLB 262300Z 06008KT 9999 FEW030 SCT250 30/21 A2972=
201212262352 METAR MRLB 270000Z 08005KT 9999 FEW035 28/21 A2974=
201212270000 METAR MRLB 270000Z 08005KT 9999 FEW035 28/21 A2974=
201212270100 METAR MRLB 270100Z 10005KT 9999 FEW040 27/21 A2977=
201212270200 METAR MRLB 270200Z 12003KT 9999 FEW045 26/21 A2979=
201212270300 METAR MRLB NIL=
201212270400 METAR MRLB NIL=
201212270500 METAR MRLB NIL=
201212270600 METAR MRLB NIL=
201212270700 METAR MRLB NIL=
201212270800 METAR MRLB NIL=
201212270900 METAR MRLB NIL=
201212271000 METAR MRLB NIL=
201212271100 METAR MRLB NIL=
201212271200 METAR MRLB 271200Z 31005KT 9999 SCT035 BKN250 22/21 A2979=
201212271300 METAR MRLB 271300Z 04007KT 9999 SCT025 BKN120 23/22 A2982 RERA=
201212271400 METAR MRLB 271400Z 05003KT 9999 SCT035 SCT250 28/23 A2983=
201212271500 METAR MRLB 271500Z 15004KT 9999 SCT035 SCT250 29/22 A2984=
201212271600 METAR MRLB 271600Z 06011KT 9999 SCT035 BKN120 29/21 A2984=
201212271700 METAR MRLB 271700Z 05015KT 9999 SCT035 SCT130 29/21 A2981=
201212271800 METAR MRLB 271800Z 07013KT 9999 SCT030 SCT130 30/21 A2980=
201212271900 METAR MRLB 271900Z 08010KT 9999 SCT030 BKN130 31/21 A2977=
201212272000 METAR MRLB 272000Z 07011KT 9999 SCT030 BKN140 31/21 A2973=
201212272100 METAR MRLB 272100Z 06010KT 9999 FEW035 BKN140 31/20 A2971=
201212272200 METAR MRLB 272200Z 07012KT 9999 SCT030 BKN130 31/21 A2971=
201212272300 METAR MRLB 272300Z 07011KT 9999 FEW030 SCT130 29/22 A2972=
201212272351 METAR MRLB 280000Z 06011KT 9999 FEW035 SCT140 28/21 A2973=
201212280000 METAR MRLB 280000Z 06011KT 9999 FEW035 SCT140 28/21 A2973=
201212280100 METAR MRLB 280100Z 06012KT 9999 FEW035 SCT140 27/21 A2974=
201212280200 METAR MRLB 280200Z 07013KT 9999 FEW035 SCT140 27/20 A2976=
201212280300 METAR MRLB NIL=
201212280400 METAR MRLB NIL=
201212280500 METAR MRLB NIL=
201212280600 METAR MRLB NIL=
201212280700 METAR MRLB NIL=
201212280800 METAR MRLB NIL=
201212280900 METAR MRLB NIL=
201212281000 METAR MRLB NIL=
201212281100 METAR MRLB NIL=
201212281200 METAR MRLB 281200Z 00000KT 9999 SCT035 25/21 A2978=
201212281300 METAR MRLB 281300Z 12005KT 9999 BKN035 26/21 A2979=
201212281400 METAR MRLB 281400Z 08003KT 9999 BKN035 27/21 A2982=
201212281500 METAR MRLB 281500Z 23004KT 9999 BKN035 28/22 A2982=
201212281600 METAR MRLB 281600Z 06014KT 9999 FEW035 SCT130 31/21 A2981=
201212281700 METAR MRLB 281700Z 07015KT 9999 SCT035 32/20 A2980=
201212281800 METAR MRLB 281800Z 06013KT 9999 FEW035 SCT250 32/20 A2977=
201212281900 METAR MRLB 281900Z 05014KT 9999 FEW035 BKN250 34/19 A2975=
201212282000 METAR MRLB 282000Z 04014KT 9999 FEW035 SCT130 BKN250 33/20 A2972=
201212282100 METAR MRLB 282100Z 06013KT 9999 FEW035 SCT130 BKN250 33/18 A2972=
201212282200 METAR MRLB 282200Z 06015KT 9999 FEW035 OVC250 31/20 A2971=
201212282300 METAR MRLB 282300Z 07013KT 9999 FEW035 SCT130 BKN250 29/20 A2972=
201212282352 METAR MRLB 290000Z 07010KT 9999 SCT035 BKN150 28/20 A2974=
201212290000 METAR MRLB 290000Z 07010KT 9999 SCT035 BKN150 28/20 A2974=
201212290100 METAR MRLB 290100Z 07011KT 9999 SCT035 BKN150 28/20 A2976=
201212290200 METAR MRLB 290200Z 07016KT 9999 FEW035 BKN150 28/20 A2977=
201212290300 METAR MRLB NIL=
201212290400 METAR MRLB NIL=
201212290500 METAR MRLB NIL=
201212290600 METAR MRLB NIL=
201212290700 METAR MRLB NIL=
201212290800 METAR MRLB NIL=
201212290900 METAR MRLB NIL=
201212291000 METAR MRLB NIL=
201212291100 METAR MRLB NIL=
201212291200 METAR MRLB 291200Z 07014KT CAVOK 27/20 A2978=
201212291300 METAR MRLB 291300Z 06016KT CAVOK 28/20 A2980=
201212291400 METAR MRLB 291400Z 07019KT CAVOK 29/19 A2982=
201212291500 METAR MRLB 291500Z 07022G33KT 9999 FEW040 SCT130 30/19 A2982=
201212291600 METAR MRLB 291600Z 08019G32 9999 FEW040 SCT130 31/18 A2981=
201212291700 METAR MRLB 291700Z 07019KT 9999 FEW040 SCT250 33/18 A2979=
201212291800 METAR MRLB 291800Z 06026G40KT 9999 FEW035 SCT250 33/18 A2977=
201212291900 METAR MRLB 291900Z 07021KT 9999 FEW035 BKN250 32/19 A2975=
201212292000 METAR MRLB 292000Z 06022G33KT CAVOK 33/19 A2972=
201212292100 METAR MRLB 292100Z 08022KT CAVOK 32/18 A2971=
201212292200 METAR MRLB 292200Z 06019G29KT CAVOK 32/17 A2971=
201212292300 METAR MRLB 292300Z 08016KT CAVOK 30/19 A2974=
201212292353 METAR MRLB 300000Z 05018KT CAVOK 29/19 A2977=
201212300000 METAR MRLB 300000Z 05018KT CAVOK 29/19 A2977=
201212300100 METAR MRLB 300100Z 08017KT CAVOK 28/19 A2979=
201212300200 METAR MRLB 300200Z 07025G37KT CAVOK 28/19 A2981=
201212300300 METAR MRLB NIL=
201212300400 METAR MRLB NIL=
201212300500 METAR MRLB NIL=
201212300600 METAR MRLB NIL=
201212300700 METAR MRLB NIL=
201212300800 METAR MRLB NIL=
201212300900 METAR MRLB NIL=
201212301000 METAR MRLB NIL=
201212301100 METAR MRLB NIL=
201212301200 METAR MRLB 301200Z 05012KT 9999 SCT030 27/19 A2983=
201212301300 METAR MRLB 301300Z 06016KT 9999 SCT035 SCT250 27/20 A2985=
201212301400 METAR MRLB 301400Z 05023G36KT 9999 SCT035 SCT130 29/18 A2988=
201212301500 METAR MRLB 301500Z 07020G30KT 9999 SCT035 SCT130 29/20 A2989=
201212301600 METAR MRLB 301600Z 06022G36KT 9999 SCT035 SCT250 30/19 A2988=
201212301700 METAR MRLB 301700Z 05018KT 9999 SCT035 SCT250 31/19 A2986=
201212301800 METAR MRLB 301800Z 05022KT 9999 SCT035 SCT250 31/19 A2984=
201212301900 METAR MRLB 301900Z 06017KT 9999 SCT035 BKN250 32/18 A2982=
201212302000 METAR MRLB 302000Z 07018KT 9999 SCT035 BKN250 31/18 A2981=
201212302100 METAR MRLB 302100Z 05016KT 9999 FEW035 SCT250 31/18 A2980=
201212302200 METAR MRLB 302200Z 05012KT 9999 FEW035 BKN250 31/19 A2979=
201212302300 METAR MRLB 302300Z 06013KT 9999 FEW035 BKN250 30/19 A2982=
201212302350 METAR MRLB 310000Z 06011KT 9999 FEW035 BKN250 28/19 A2983=
201212310000 METAR MRLB 310000Z 06011KT 9999 FEW035 BKN250 28/19 A2983=
201212310100 METAR MRLB 310100Z 07013KT 9999 FEW035 SCT250 27/19 A2986=
201212310200 METAR MRLB 310200Z 06014KT 9999 FEW035 SCT250 27/19 A2989=
201212310300 METAR MRLB NIL=
201212310400 METAR MRLB NIL=
201212310500 METAR MRLB NIL=
201212310600 METAR MRLB NIL=
201212310700 METAR MRLB NIL=
201212310800 METAR MRLB NIL=
201212310900 METAR MRLB NIL=
201212311000 METAR MRLB NIL=
201212311100 METAR MRLB NIL=
201212311200 METAR MRLB 311200Z 08009KT 9999 BKN030 25/19 A2989=
201212311300 METAR MRLB 311300Z 06008KT 9999 BKN025 SCT250 25/20 A2989=
201212311400 METAR MRLB 311400Z 05014KT 9999 FEW035 BKN250 27/20 A2989=
201212311500 METAR MRLB 311500Z 07012KT 9999 FEW035 OVC250 29/19 A2990=
201212311600 METAR MRLB 311600Z 07018KT 9999 FEW035 OVC250 31/18 A2988=
201212311700 METAR MRLB 311700Z 08018G29KT 9999 FEW035 OVC250 31/18 A2986=
201212311800 METAR MRLB 311800Z 07019G32KT 9999 FEW035 BKN250 33/16 A2983=
201212311900 METAR MRLB 311900Z 08020G33KT 9999 FEW040 BKN250 32/16 A2980=
201212312000 METAR MRLB 312000Z 08017G27KT 9999 FEW040 BKN250 32/16 A2978=
201212312100 METAR MRLB 312100Z 07016KT 9999 FEW040 BKN250 33/17 A2977=
201212312200 METAR MRLB 312200Z 07013KT 9999 FEW040 OVC250 32/17 A2977=
201212312300 METAR MRLB 312300Z 060013KT 9999 FEW040 BKN250 30/18 A2980=
201212312352 METAR MRLB 010000Z 05005KT 9999 FEW040 BKN250 28/19 A2981=
201212312356 METAR MRLB 010000Z 05005KT 9999 FEW040 BKN250 28/19 A2981=
