201503010000 METAR MRLB 010000Z 08014KT CAVOK 29/15 A2984=
201503010100 METAR MRLB 010100Z 09015KT CAVOK 28/15 A2985=
201503010200 METAR MRLB 010200Z 10015KT CAVOK 28/17 A2987=
201503010300 METAR MRLB NIL=
201503010400 METAR MRLB NIL=
201503010500 METAR MRLB NIL=
201503010600 METAR MRLB NIL=
201503010700 METAR MRLB NIL=
201503010800 METAR MRLB NIL=
201503010900 METAR MRLB NIL=
201503011000 METAR MRLB NIL=
201503011100 METAR MRLB NIL=
201503011200 METAR MRLB 011200Z 09016KT 9999 FEW040 BKN240 27/18 A2985=
201503011300 METAR MRLB 011300Z 09017KT CAVOK 28/18 A2985=
201503011400 METAR MRLB 011400Z 09016G26KT 9999 FEW040 30/17 A2988=
201503011500 METAR MRLB 011500Z 09018G28KT 9999 FEW040 31/17 A2988=
201503011600 METAR MRLB 011600Z 10016G26KT 9999 FEW040 SCT140 33/17 A2988=
201503011700 METAR MRLB 011700Z 09017G27KT 9999 SCT040 33/17 A2987=
201503011800 METAR MRLB 011800Z 09020KT 9999 SCT035 31/19 A2987=
201503011900 METAR MRLB 011900Z 09021G32KT 9999 BKN035 30/19 A2985=
201503012000 METAR MRLB 012000Z 08020G30KT 9999 SCT035 SCT120 30/19 A2985=
201503012100 METAR MRLB 012100Z 09016KT 9999 SCT035 BKN120 29/19 A2984=
201503012200 METAR MRLB 012200Z 08017KT 9999 SCT035 BKN120 30/20 A2984=
201503012300 METAR MRLB 012300Z 07019KT 9999 FEW035 SCT120 30/19 A2983=
201503012350 METAR MRLB 020000Z 09016KT 9999 FEW035 SCT120 28/19 A2985=
201503020000 METAR MRLB 020000Z 09016KT 9999 FEW035 SCT120 28/19 A2985=
201503020100 METAR MRLB 020100Z 09019G29KT 9999 FEW035 SCT130 28/17 A2986=
201503020200 METAR MRLB 020200Z 09022G32KT 9999 FEW035 SCT130 27/17 A2988=
201503020300 METAR MRLB NIL=
201503020400 METAR MRLB NIL=
201503020500 METAR MRLB NIL=
201503020600 METAR MRLB NIL=
201503020700 METAR MRLB NIL=
201503020800 METAR MRLB NIL=
201503020900 METAR MRLB NIL=
201503021000 METAR MRLB NIL=
201503021100 METAR MRLB NIL=
201503021200 METAR MRLB 021200Z 07017G27KT CAVOK 27/17 A2984=
201503021300 METAR MRLB 021300Z 09018G28KT CAVOK 27/17 A2985=
201503021400 METAR MRLB 021400Z 09019G32KT CAVOK 29/17 A2986=
201503021500 METAR MRLB 021500Z 08023G35KT 9999 FEW035 30/17 A2988=
201503021600 METAR MRLB 021600Z 08025G38KT 9999 FEW035 31/16 A2988=
201503021700 METAR MRLB 021700Z 08026G36KT 9999 FEW035 31/17 A2986=
201503021800 METAR MRLB 021800Z 08027G37KT 9999 FEW035 32/17 A2982=
201503021900 METAR MRLB 021900Z 07026G36KT 9999 FEW030 33/14 A2980=
201503022000 METAR MRLB 022000Z 09025G38KT 9999 FEW035 33/15 A2977=
201503022100 METAR MRLB 022100Z 08024KT CAVOK 33/15 A2975=
201503022200 METAR MRLB 022200Z 09021G31KT CAVOK 32/14 A2974=
201503022300 METAR MRLB 022300Z 09022G34KT CAVOK 31/14 A2975=
201503022352 METAR MRLB 030000Z 09024G34KT CAVOK 29/15 A2976=
201503030000 METAR MRLB 030000Z 09024G34KT CAVOK 29/15 A2976=
201503030100 METAR MRLB 030100Z 08021KT CAVOK 28/15 A2981=
201503030200 METAR MRLB 030200Z 09021G31KT CAVOK 27/16 A2983=
201503030300 METAR MRLB NIL=
201503030400 METAR MRLB NIL=
201503030500 METAR MRLB NIL=
201503030600 METAR MRLB NIL=
201503030700 METAR MRLB NIL=
201503030800 METAR MRLB NIL=
201503030900 METAR MRLB NIL=
201503031000 METAR MRLB NIL=
201503031100 METAR MRLB NIL=
201503031200 METAR MRLB 031200Z 10021G31KT CAVOK 26/17 A2980=
201503031300 METAR MRLB 031300Z 09022G32KT CAVOK 27/16 A2982=
201503031400 METAR MRLB 031400Z 08020G30KT CAVOK 28/17 A2986=
201503031500 METAR MRLB 031500Z 08017G27KT CAVOK 30/15 A2987=
201503031600 METAR MRLB 031600Z 07023KT CAVOK 30/15 A2987=
201503031700 METAR MRLB 031700Z 08019G29KT CAVOK 32/15 A2985=
201503031800 METAR MRLB 031800Z 07021KT 9999 FEW035 33/16 A2983=
201503031900 METAR MRLB 031900Z 06023G33KT 9999 FEW035 33/15 A2979=
201503032000 METAR MRLB 032000Z 07022G32KT 9999 FEW040 34/14 A2976=
201503032100 METAR MRLB 032100Z 06020G30KT 9999 FEW040 33/14 A2974=
201503032200 METAR MRLB 032200Z 07020KT CAVOK 33/14 A2974=
201503032300 METAR MRLB 032300Z 06021KT CAVOK 31/15 A2974=
201503032350 METAR MRLB 040000Z 07017KT 9999 FEW040 29/16 A2976=
201503040000 METAR MRLB 040000Z 07017KT 9999 FEW040 29/16 A2976=
201503040100 METAR MRLB 040100Z 07016KT CAVOK 27/17 A2979=
201503040200 METAR MRLB 040200Z 08015G25KT CAVOK 27/17 A2980=
201503040300 METAR MRLB NIL=
201503040400 METAR MRLB NIL=
201503040500 METAR MRLB NIL=
201503040600 METAR MRLB NIL=
201503040700 METAR MRLB NIL=
201503040800 METAR MRLB NIL=
201503040900 METAR MRLB NIL=
201503041000 METAR MRLB NIL=
201503041100 METAR MRLB NIL=
201503041200 METAR MRLB 041200Z 09011KT CAVOK 26/16 A2979=
201503041300 METAR MRLB 041300Z 09015KT CAVOK 27/15 A2982=
201503041400 METAR MRLB 041400Z 09012KT CAVOK 29/15 A2983=
201503041500 METAR MRLB 041500Z 07016KT CAVOK 31/15 A2985=
201503041600 METAR MRLB 041600Z 09014KT CAVOK 32/15 A2985=
201503041700 METAR MRLB 041700Z 07013KT CAVOK 33/15 A2983=
201503041800 METAR MRLB 041800Z 07015KT CAVOK 33/15 A2980=
201503041900 METAR MRLB 041900Z 09016KT 9999 FEW030 34/16 A2978=
201503042000 METAR MRLB 042000Z 08014KT 9999 FEW035 33/16 A2976=
201503042100 METAR MRLB 042100Z 08013KT 9999 FEW035 33/16 A2974=
201503042200 METAR MRLB 042200Z 07015KT 9999 FEW035 32/16 A2973=
201503042300 METAR MRLB 042300Z 07017KT 9999 FEW035 31/16 A2974=
201503042350 METAR MRLB 050000Z 08016KT CAVOK 29/16 A2976=
201503050000 METAR MRLB 050000Z 08016KT CAVOK 29/16 A2976=
201503050100 METAR MRLB 050100Z 09014KT CAVOK 28/17 A2978=
201503050200 METAR MRLB 050200Z 09016KT CAVOK 28/16 A2979=
201503050300 METAR MRLB NIL=
201503050400 METAR MRLB NIL=
201503050500 METAR MRLB NIL=
201503050600 METAR MRLB NIL=
201503050700 METAR MRLB NIL=
201503050800 METAR MRLB NIL=
201503050900 METAR MRLB NIL=
201503051000 METAR MRLB NIL=
201503051100 METAR MRLB NIL=
201503051200 METAR MRLB 051200Z 09015KT CAVOK 26/17 A2980=
201503051300 METAR MRLB 051300Z 09010KT CAVOK 27/17 A2983=
201503051400 METAR MRLB 051400Z 08014KT CAVOK 30/16 A2984=
201503051500 METAR MRLB 051500Z 09014KT CAVOK 31/16 A2985=
201503051600 METAR MRLB 051600Z 09012KT CAVOK 32/15 A2985=
201503051700 METAR MRLB 051700Z 07014KT CAVOK 34/15 A2983=
201503051800 METAR MRLB 051800Z 06014KT CAVOK 34/15 A2981=
201503051900 METAR MRLB 051900Z 08014KT CAVOK 35/15 A2977=
201503052000 METAR MRLB 052000Z 08013KT 9999 FEW035 34/15 A2975=
201503052100 METAR MRLB 052100Z 07012KT 9999 FEW035 35/16 A2972=
201503052200 METAR MRLB 052200Z 07016KT 9999 FEW035 34/16 A2973=
201503052300 METAR MRLB 052300Z 08016KT CAVOK 33/17 A2974=
201503052352 METAR MRLB 060000Z 07014KT CAVOK 31/17 A2976=
201503060000 METAR MRLB 060000Z 07014KT CAVOK 31/17 A2976=
201503060100 METAR MRLB 060100Z 07017KT CAVOK 29/17 A2979=
201503060200 METAR MRLB 060200Z 07017KT CAVOK 28/18 A2982=
201503060300 METAR MRLB NIL=
201503060400 METAR MRLB NIL=
201503060500 METAR MRLB NIL=
201503060600 METAR MRLB NIL=
201503060700 METAR MRLB NIL=
201503060800 METAR MRLB NIL=
201503060900 METAR MRLB NIL=
201503061000 METAR MRLB NIL=
201503061100 METAR MRLB NIL=
201503061200 METAR MRLB 061200Z 08017KT 9999 FEW035 26/18 A2982=
201503061300 METAR MRLB 061300Z 08016KT 9999 FEW035 28/18 A2984=
201503061400 METAR MRLB 061400Z 07022G32KT 9999 FEW035 29/18 A2985=
201503061500 METAR MRLB 061500Z 08025KT 9999 FEW035 30/17 A2985=
201503061600 METAR MRLB 061600Z 07024G34KT 9999 FEW035 32/17 A2985=
201503061700 METAR MRLB 061700Z 07022G32KT CAVOK 34/16 A2984=
201503061800 METAR MRLB 061800Z 07022KT CAVOK 34/15 A2980=
201503061900 METAR MRLB 061900Z 07023KT CAVOK 35/16 A2978=
201503062000 METAR MRLB 062000Z 07020G30KT 9999 FEW040 35/17 A2976=
201503062100 METAR MRLB 062100Z 07019KT 9999 FEW040 34/18 A2975=
201503062200 METAR MRLB 062200Z 07020G30KT 9999 FEW040 32/17 A2975=
201503062300 METAR MRLB 062300Z 08017KT 9999 FEW040 31/17 A2975=
201503062350 METAR MRLB 070000Z 07017KT 9999 FEW040 SCT250 29/18=
201503062358 METAR MRLB COR 070000Z 07017KT 9999 FEW040 SCT250 29/18 A2978=
201503070000 METAR MRLB 070000Z 07017KT 9999 FEW040 SCT250 29/18=
201503070100 METAR MRLB 070100Z COR 08014KT 9999 FEW040 28/18 A2981=
201503070200 METAR MRLB 070200Z 08021G31KT CAVOK 27/18 A2984=
201503070300 METAR MRLB 070300Z 08023G33KT CAVOK 27/18 A2986=
201503070400 METAR MRLB 070400Z 08016G26KT CAVOK 27/18 A2988=
201503070500 METAR MRLB 070500Z 08020G30KT CAVOK 27/18 A2987=
201503070600 METAR MRLB NIL=
201503070700 METAR MRLB NIL=
201503070800 METAR MRLB NIL=
201503070900 METAR MRLB NIL=
201503071000 METAR MRLB NIL=
201503071100 METAR MRLB NIL=
201503071200 METAR MRLB 071200Z 07021KT CAVOK 27/14 A2980=
201503071300 METAR MRLB 071300Z 08020G30KT CAVOK 28/14 A2981=
201503071400 METAR MRLB 071400Z 09022KT CAVOK 29/15 A2982=
201503071500 METAR MRLB 071500Z 09020G30KT 9999 FEW035 29/15 A2985=
201503071600 METAR MRLB 071600Z 09023G36KT 9999 FEW035 30/15 A2984=
201503071700 METAR MRLB 071700Z 09023G34KT CAVOK 32/15 A2982=
201503071800 METAR MRLB 071800Z 10024G36KT 9999 FEW040 32/18 A2978=
201503071900 METAR MRLB 071900Z 09025G37KT 9999 FEW040 32/16 A2978=
201503072000 METAR MRLB 072000Z 09025G35KT CAVOK 32/15 A2975 BKN250=
201503072100 METAR MRLB 072100Z 08024G34KT CAVOK 32/16 A2974=
201503072200 METAR MRLB 072200Z 09022G32KT CAVOK 32/13 A2972=
201503072300 METAR MRLB 072300Z 09023G33KT CAVOK 30/15 A2973=
201503072349 METAR MRLB 080000Z 09022G32KT CAVOK 28/15 A2974=
201503080000 METAR MRLB 080000Z 09022G32KT CAVOK 28/15 A2974=
201503080100 METAR MRLB 080100Z 09022G32KT CAVOK 27/16 A2975=
201503080200 METAR MRLB 080200Z 09023G33KT CAVOK 27/16 A2976=
201503080300 METAR MRLB 080300Z 10022G32KT CAVOK 27/15 A2977=
201503080400 METAR MRLB 080400Z 10016G26KT CAVOK 27/17 A2978=
201503080500 METAR MRLB 080500Z 10018G28KT CAVOK 27/16 A2979=
201503080600 METAR MRLB NIL=
201503080700 METAR MRLB NIL=
201503080800 METAR MRLB NIL=
201503080900 METAR MRLB NIL=
201503081000 METAR MRLB NIL=
201503081100 METAR MRLB NIL=
201503081200 METAR MRLB 081200Z 09022G32KT CAVOK 26/17 A2971=
201503081300 METAR MRLB 081300Z 09022G32KT CAVOK 28/17 A2973=
201503081400 METAR MRLB 081400Z 09018G28KT CAVOK 29/17 A2976=
201503081500 METAR MRLB 081500Z 08024G34KT CAVOK 30/16 A2976=
201503081600 METAR MRLB 081600Z 08022G32KT CAVOK 31/17 A2977=
201503081700 METAR MRLB 081700Z 09024G34KT 9999 FEW030 31/17 A2976 HZ ARND=
201503081800 METAR MRLB 081800Z 08027G37KT 9999 FEW030 31/17 A2976 HZ ARND=
201503081900 METAR MRLB 081900Z 07027G37KT 9999 FEW030 32/16 A2973=
201503082000 METAR MRLB 082000Z 08025G36KT CAVOK 32/16 A2970=
201503082100 METAR MRLB 082100Z 08026G39KT CAVOK 32/16 A2967=
201503082200 METAR MRLB 082200Z 07024KT CAVOK 31/17 A2968=
201503082300 METAR MRLB 082300Z 08024G38KT CAVOK 30/15 A2967=
201503082352 METAR MRLB 090000Z 08024G36KT CAVOK 28/17 A2969=
201503090000 METAR MRLB 090000Z 08024G36KT CAVOK 28/17 A2969=
201503090100 METAR MRLB 090100Z 08026G38KT CAVOK 27/17 A2969=
201503090200 METAR MRLB 090200Z 08020G30KT CAVOK 27/16 A2971=
201503090300 METAR MRLB NIL=
201503090400 METAR MRLB NIL=
201503090500 METAR MRLB NIL=
201503090600 METAR MRLB NIL=
201503090700 METAR MRLB NIL=
201503090800 METAR MRLB NIL=
201503090900 METAR MRLB NIL=
201503091000 METAR MRLB NIL=
201503091100 METAR MRLB NIL=
201503091200 METAR MRLB 091200Z 09016KT CAVOK 26/17 A2969=
201503091300 METAR MRLB 091300Z 04004KT CAVOK 26/17 A2974=
201503091400 METAR MRLB 091400Z 06015KT CAVOK 29/17 A2975=
201503091500 METAR MRLB 091500Z 09020G31KT CAVOK 30/18 A2976=
201503091600 METAR MRLB 091600Z 07022G33KT CAVOK 31/17 A2978=
201503091700 METAR MRLB 091700Z 08023KT CAVOK 32/17 A2976=
201503091800 METAR MRLB 091800Z 09019G29KT 9999 FEW035 32/16 A2974=
201503091900 METAR MRLB 091900Z 08020KT CAVOK 33/16 A2972=
201503092000 METAR MRLB 092000Z 08020KT CAVOK 33/17 A2969=
201503092100 METAR MRLB 092100Z 08020KT CAVOK 33/17 A2967=
201503092200 METAR MRLB 092200Z 07023KT CAVOK 31/16 A2968=
201503092300 METAR MRLB 092300Z 08018KT CAVOK 30/17 A2969=
201503092352 METAR MRLB 100000Z 09017KT CAVOK 28/17 A2970=
201503100000 METAR MRLB 100000Z 09017KT CAVOK 28/17 A2970=
201503100100 METAR MRLB 100100Z 09019KT CAVOK 27/18 A2971=
201503100150 METAR MRLB 100150Z 10020G30KT CAVOK 27/18 A2973=
201503100200 METAR MRLB 10020G30KT CAVOK 27/18 A2973=
201503100300 METAR MRLB NIL=
201503100400 METAR MRLB NIL=
201503100500 METAR MRLB NIL=
201503100600 METAR MRLB NIL=
201503100700 METAR MRLB NIL=
201503100800 METAR MRLB NIL=
201503100900 METAR MRLB NIL=
201503101000 METAR MRLB NIL=
201503101100 METAR MRLB NIL=
201503101200 METAR MRLB 101200Z 06005KT CAVOK 24/17 A2976=
201503101300 METAR MRLB 101300Z 05004KT 9999 FEW045 SCT120 26/18 A2977=
201503101400 METAR MRLB 101400Z 28003KT 9999 FEW045 SCT120 27/18 A2979=
201503101500 METAR MRLB 101500Z 08021G31KT 9999 FEW040 31/17 A2978=
201503101600 METAR MRLB 101600Z 08021G32KT CAVOK 32/17 A2979=
201503101700 METAR MRLB 101700Z 08018KT 9999 FEW040 33/17 A2976=
201503101800 METAR MRLB 101800Z 09020KT 9999 FEW040 34/17 A2975=
201503101900 METAR MRLB 101900Z 08016KT 9999 FEW040 33/18 A2973=
201503102000 METAR MRLB 102000Z 07018KT 9999 FEW035 34/18 A2971=
201503102100 METAR MRLB 102100Z 08017G28KT 9999 FEW035 33/18 A2970=
201503102200 METAR MRLB 102200Z 07021G31KT 9999 FEW035 31/19 A2970=
201503102300 METAR MRLB 102300Z 08017KT 9999 FEW035 31/18 A2971=
201503102350 METAR MRLB 110000Z 10020G30KT 9999 FEW035 SCT250 28/19 A2973=
201503110000 METAR MRLB 110000Z 10020G30KT 9999 FEW035 SCT250 28/19 A2973=
201503110100 METAR MRLB 110100Z 09019KT 9999 FEW035 SCT250 28/17 A2974=
201503110200 METAR MRLB 110200Z 10015KT 9999 FEW035 SCT250 27/18 A2976=
201503110300 METAR MRLB NIL=
201503110400 METAR MRLB NIL=
201503110500 METAR MRLB NIL=
201503110600 METAR MRLB NIL=
201503110700 METAR MRLB NIL=
201503110800 METAR MRLB NIL=
201503110900 METAR MRLB NIL=
201503111000 METAR MRLB NIL=
201503111100 METAR MRLB NIL=
201503111200 METAR MRLB 111200Z 09018KT CAVOK 27/18 A2975=
201503111300 METAR MRLB 111300Z 09017KT CAVOK 28/19 A2978=
201503111400 METAR MRLB 111400Z 08016KT CAVOK 30/19 A2980=
201503111500 METAR MRLB 111500Z 07021G31KT CAVOK 31/19 A2980=
201503111600 METAR MRLB 111600Z 08020G30KT CAVOK 32/19 A2981=
201503111700 METAR MRLB 111700Z 08025KT 9999 FEW035 32/19 A2979=
201503111800 METAR MRLB 111800Z 07024G34KT 9999 FEW035 33/19 A2976=
201503111900 METAR MRLB 111900Z 07023G33KT 9999 FEW030 34/19 A2974=
201503112000 METAR MRLB 112000Z 08022KT 9999 FEW035 33/19 A2971=
201503112100 METAR MRLB 112100Z 09020G32KT 9999 FEW035 34/18 A2969=
201503112200 METAR MRLB 112200Z 08027KT 9999 FEW035 31/19 A2969=
201503112300 METAR MRLB 112300Z 09020KT 9999 FEW035 31/19 A2970=
201503112352 METAR MRLB 120000Z 08015G25KT 9999 FEW040 29/19 A2974=
201503120000 METAR MRLB 120000Z 08015G25KT 9999 FEW040 29/19 A2974=
201503120100 METAR MRLB 120100Z 09020G30KT 9999 FEW040 28/19 A2975=
201503120200 METAR MRLB 120200Z 09022G34KT 9999 FEW040 28/19 A2977=
201503120300 METAR MRLB NIL=
201503120400 METAR MRLB NIL=
201503120500 METAR MRLB NIL=
201503120600 METAR MRLB NIL=
201503120700 METAR MRLB NIL=
201503120800 METAR MRLB NIL=
201503120900 METAR MRLB NIL=
201503121000 METAR MRLB NIL=
201503121100 METAR MRLB NIL=
201503121200 METAR MRLB 121200Z 08021G31KT CAVOK 27/19 A2976=
201503121300 METAR MRLB 121300Z 09024G35KT CAVOK 28/19 A2977=
201503121400 METAR MRLB 121400Z 08024G34KT CAVOK 29/19 A2980=
201503121500 METAR MRLB 121500Z 09025G36KT 9999 FEW035 31/19 A2981=
201503121600 METAR MRLB 121600Z 07023KT 9999 FEW035 32/19 A2981=
201503121700 METAR MRLB 121700Z 08023G34KT 9999 FEW035 33/18 A2980=
201503121800 METAR MRLB 121800Z 08020G30KT 9999 FEW030 34/17 A2977=
201503121900 METAR MRLB 121900Z 08020G30KT 9999 FEW030 35/18 A2975=
201503122000 METAR MRLB 122000Z 07019KT 9999 FEW035 35/17 A2973=
201503122100 METAR MRLB 122100Z 07022KT 9999 FEW035 34/17 A2972=
201503122200 METAR MRLB 122200Z 07020KT 9999 FEW035 33/17 A2973=
201503122300 METAR MRLB 122300Z 08020KT CAVOK 31/19 A2974=
201503122350 METAR MRLB 130000Z 08020KT CAVOK 29/18 A2976=
201503130000 METAR MRLB 130000Z 08020KT CAVOK 29/18 A2976=
201503130100 METAR MRLB 130100Z 09021G31KT CAVOK 28/18 A2977=
201503130200 METAR MRLB 130200Z 09023KT CAVOK 28/18 A2980=
201503130300 METAR MRLB NIL=
201503130400 METAR MRLB NIL=
201503130500 METAR MRLB NIL=
201503130600 METAR MRLB NIL=
201503130700 METAR MRLB NIL=
201503130800 METAR MRLB NIL=
201503130900 METAR MRLB NIL=
201503131000 METAR MRLB NIL=
201503131100 METAR MRLB NIL=
201503131200 METAR MRLB 131200Z 08016KT CAVOK 26/17 A2976=
201503131300 METAR MRLB 131300Z 08017G29KT CAVOK 28/16 A2978=
201503131400 METAR MRLB 131400Z 08022G32KT CAVOK 29/16 A2978=
201503131500 METAR MRLB 131500Z 08023G35KT CAVOK 31/16 A2980=
201503131600 METAR MRLB 131600Z 09026KT CAVOK 32/14 A2979=
201503131700 METAR MRLB 131700Z 08024G36KT CAVOK 32/16 A2977=
201503131800 METAR MRLB 131800Z 09022G33KT CAVOK 33/16 A2974=
201503131900 METAR MRLB 131900Z 08023G36KT CAVOK 34/18 A2972=
201503132000 METAR MRLB 132000Z 08022G32KT CAVOK 34/17 A2969=
201503132100 METAR MRLB 132100Z 08023G33KT CAVOK 32/17 A2968=
201503132200 METAR MRLB 132200Z 08024G34KT CAVOK 32/16 A2969=
201503132300 METAR MRLB 132300Z 08020G30KT CAVOK 30/16 A2971=
201503132352 METAR MRLB 140000Z 09016G26KT CAVOK 28/17 A2973=
201503140000 METAR MRLB 140000Z 09016G26KT CAVOK 28/17 A2973=
201503140100 METAR MRLB 140100Z 09020G30KT CAVOK 28/17 A2975=
201503140200 METAR MRLB 140200Z 09018G28KT CAVOK 27/17 A2977=
201503140300 METAR MRLB 140300Z 09014G24KT CAVOK 27/17 A2978=
201503140400 METAR MRLB 140400Z 08016KT CAVOK 27/17 A2979=
201503140500 METAR MRLB NIL=
201503140600 METAR MRLB NIL=
201503140700 METAR MRLB NIL=
201503140800 METAR MRLB NIL=
201503140900 METAR MRLB NIL=
201503141000 METAR MRLB NIL=
201503141100 METAR MRLB NIL=
201503141200 METAR MRLB 141200Z 07006KT CAVOK 21/16 A2980=
201503141300 METAR MRLB 141300Z 09019G29KT CAVOK 27/14 A2980=
201503141400 METAR MRLB 141400Z 08021G32KT CAVOK 28/15 A2982=
201503141500 METAR MRLB 141500Z 08021G31KT CAVOK 30/15 A2983=
201503141600 METAR MRLB 141600Z 08024KT CAVOK 31/14 A2982=
201503141700 METAR MRLB 141700Z 08019KT CAVOK 32/15 A2979=
201503141800 METAR MRLB 141800Z 09019KT CAVOK 33/15 A2977=
201503141900 METAR MRLB 141900Z 08019G30KT CAVOK 33/15 A2974=
201503142000 METAR MRLB 142000Z 07018G28KT CAVOK 35/14 A2972=
201503142100 METAR MRLB 142100Z 07022KT CAVOK 33/15 A2971=
201503142200 METAR MRLB 142200Z 07019KT CAVOK 32/15 A2970=
201503142300 METAR MRLB 142300Z 06018KT CAVOK 30/17 A2970=
201503142352 METAR MRLB 150000Z 08017KT CAVOK 29/16 A2971=
201503150000 METAR MRLB 150000Z 08017KT CAVOK 29/16 A2971=
201503150100 METAR MRLB 150100Z 08015KT CAVOK 28/16 A2976=
201503150200 METAR MRLB 150200Z 08015KT CAVOK 27/16 A2980=
201503150300 METAR MRLB 150300Z 10010KT CAVOK 27/16 A2981=
201503150400 METAR MRLB 150400Z 10010KT CAVOK 26/16 A2983=
201503150500 METAR MRLB 150500Z 10013KT CAVOK 26/16 A2982=
201503150600 METAR MRLB NIL=
201503150700 METAR MRLB NIL=
201503150800 METAR MRLB NIL=
201503150900 METAR MRLB NIL=
201503151000 METAR MRLB NIL=
201503151100 METAR MRLB NIL=
201503151200 METAR MRLB 151200Z 05007KT CAVOK 21/16 A2982=
201503151300 METAR MRLB 151300Z 08002KT CAVOK 23/16 A2985=
201503151400 METAR MRLB 151400Z 10014KT CAVOK 28/17 A2985=
201503151500 METAR MRLB 151500Z 06013KT CAVOK 30/16 A2987=
201503151600 METAR MRLB 151600Z 09017KT CAVOK 32/16 A2985=
201503151700 METAR MRLB 151700Z 09016KT CAVOK 33/17 A2983=
201503151800 METAR MRLB 151800Z 07020KT 9999 FEW035 BKN250 34/16 A2980=
201503151900 METAR MRLB 151900Z 07020KT 9999 FEW035 SCT250 34/16 A2978=
201503152000 METAR MRLB 152000Z 08018G28KT 9999 FEW035 SCT250 33/18 A2976=
201503152100 METAR MRLB 152100Z COR 08019KT 9999 FEW035 SCT250 33/18 A2975=
201503152200 METAR MRLB 152200Z 08020G30KT 9999 FEW035 SCT250 31/18 A2974=
201503152300 METAR MRLB 152300Z 08019KT CAVOK 30/19 A2976=
201503152354 METAR MRLB 160000Z 08020G30KT CAVOK 28/18 A2979=
201503160000 METAR MRLB 160000Z 08020G30KT CAVOK 28/18 A2979=
201503160100 METAR MRLB 160100Z 09018KT CAVOK 27/19 A2979=
201503160200 METAR MRLB 160200Z 09017G27KT CAVOK 27/18 A2982=
201503160300 METAR MRLB NIL=
201503160400 METAR MRLB NIL=
201503160500 METAR MRLB NIL=
201503160600 METAR MRLB NIL=
201503160700 METAR MRLB NIL=
201503160800 METAR MRLB NIL=
201503160900 METAR MRLB NIL=
201503161000 METAR MRLB NIL=
201503161100 METAR MRLB NIL=
201503161200 METAR MRLB 161200Z 17005KT CAVOK 24/19 A2984=
201503161300 METAR MRLB 161300Z 25003KT CAVOK 26/18 A2986=
201503161400 METAR MRLB 161400Z 22005KT CAVOK 29/19 A2987=
201503161500 METAR MRLB 161500Z 24005KT CAVOK 30/18 A2989=
201503161600 METAR MRLB 161600Z 02005KT 9999 FEW035 32/17 A2989=
201503161700 METAR MRLB 161700Z 09016KT 9999 FEW035 33/16 A2986=
201503161800 METAR MRLB 161800Z 09020KT 9999 FEW035 33/17 A2983=
201503161900 METAR MRLB 161900Z 09025G37KT CAVOK 32/18 A2980=
201503162000 METAR MRLB 162000Z 08021KT CAVOK 33/16 A2980=
201503162100 METAR MRLB 162100Z 08021G31KT CAVOK 32/17 A2978=
201503162200 METAR MRLB 162200Z 08022KT CAVOK 30/17 A2978=
201503162300 METAR MRLB 162300Z 08018KT CAVOK 30/17 A2979=
201503162350 METAR MRLB 170000Z 08018KT CAVOK 28/17 A2981=
201503170000 METAR MRLB 170000Z 08018KT CAVOK 28/17 A2981=
201503170100 METAR MRLB 170100Z 09017KT CAVOK 27/16 A2983=
201503170200 METAR MRLB 170200Z 08020KT CAVOK 27/17 A2987=
201503170300 METAR MRLB NIL=
201503170400 METAR MRLB NIL=
201503170500 METAR MRLB NIL=
201503170600 METAR MRLB NIL=
201503170700 METAR MRLB NIL=
201503170800 METAR MRLB NIL=
201503170900 METAR MRLB NIL=
201503171000 METAR MRLB NIL=
201503171100 METAR MRLB NIL=
201503171200 METAR MRLB 171200Z 10019KT CAVOK 26/15 A2983=
201503171300 METAR MRLB 171300Z 09019KT CAVOK 27/15 A2985=
201503171400 METAR MRLB 171400Z 09020G30KT CAVOK 29/13 A2988=
201503171500 METAR MRLB 171500Z 07022KT CAVOK 30/14 A2990=
201503171600 METAR MRLB 171600Z 07019KT CAVOK 32/11 A2990=
201503171700 METAR MRLB 171700Z 08015G26KT CAVOK 33/11 A2989=
201503171800 METAR MRLB 171800Z 09016G26KT CAVOK 33/12 A2986=
201503171900 METAR MRLB 171900Z 07020G30KT CAVOK 34/12 A2985=
201503172000 METAR MRLB 172000Z 08014KT CAVOK 33/12 A2984=
201503172100 METAR MRLB 172100Z 06020KT CAVOK 33/13 A2982=
201503172200 METAR MRLB 172200Z 07017KT CAVOK 33/13 A2982=
201503172300 METAR MRLB 172300Z 07021KT CAVOK 31/11 A2981=
201503172352 METAR MRLB 180000Z 08019KT CAVOK 29/12 A2982=
201503180000 METAR MRLB 180000Z 08019KT CAVOK 29/12 A2982=
201503180100 METAR MRLB 180100Z 09012KT CAVOK 28/14 A2983=
201503180200 METAR MRLB 180200Z 08016KT CAVOK 28/14 A2985=
201503180300 METAR MRLB NIL=
201503180400 METAR MRLB NIL=
201503180500 METAR MRLB NIL=
201503180600 METAR MRLB NIL=
201503180700 METAR MRLB NIL=
201503180800 METAR MRLB NIL=
201503180900 METAR MRLB NIL=
201503181000 METAR MRLB NIL=
201503181100 METAR MRLB NIL=
201503181200 METAR MRLB 181200Z 09014KT CAVOK 26/16 A2984=
201503181300 METAR MRLB 181300Z 08017KT CAVOK 27/15 A2986=
201503181400 METAR MRLB 181400Z 09018G30KT CAVOK 28/16 A2988=
201503181500 METAR MRLB 181500Z 08018G28KT CAVOK 28/16 A2991=
201503181600 METAR MRLB 181600Z 08018KT CAVOK 29/15 A2991=
201503181700 METAR MRLB 181700Z 09016KT CAVOK 31/15 A2990=
201503181800 METAR MRLB 181800Z 06015KT CAVOK 32/16 A2987=
201503181900 METAR MRLB 181900Z 08011KT CAVOK 31/15 A2984=
201503182000 METAR MRLB 182000Z 07014KT CAVOK 31/14 A2982=
201503182100 METAR MRLB 182100Z 07012KT CAVOK 32/14 A2980=
201503182200 METAR MRLB 182200Z 07013KT CAVOK 31/15 A2979=
201503182300 METAR MRLB 182300Z 08011KT CAVOK 31/16 A2980=
201503182356 METAR MRLB 190000Z 09009KT CAVOK 29/16 A2983=
201503190000 METAR MRLB 190000Z 09009KT CAVOK 29/16 A2983=
201503190100 METAR MRLB 190100Z 09009KT CAVOK 28/16 A2986=
201503190200 METAR MRLB 190200Z 09006KT CAVOK 27/16 A2989=
201503190300 METAR MRLB NIL=
201503190400 METAR MRLB NIL=
201503190500 METAR MRLB NIL=
201503190600 METAR MRLB NIL=
201503190700 METAR MRLB NIL=
201503190800 METAR MRLB NIL=
201503190900 METAR MRLB NIL=
201503191000 METAR MRLB NIL=
201503191100 METAR MRLB NIL=
201503191200 METAR MRLB 191200Z 09003KT CAVOK 20/16 A2991=
201503191300 METAR MRLB 191300Z 000000KT CAVOK 22/16 A2993=
201503191400 METAR MRLB 191400Z 00000KT 9999 FEW040 BKN250 26/16 A2995=
201503191500 METAR MRLB 191500Z 29004KT CAVOK 29/16 A2995=
201503191600 METAR MRLB 191600Z 27003KT CAVOK 32/15 A2994=
201503191700 METAR MRLB 191700Z 09008KT 9999 FEW040 BKN250 34/12 A2992=
201503191800 METAR MRLB 191800Z 10005KT 9999 FEW040 BKN240 33/12 A2988=
201503191900 METAR MRLB 191900Z 08006KT 9999 FEW040 BKN240 34/13 A2986=
201503192000 METAR MRLB 192000Z 05006KT 9999 FEW040 BKN250 33/13 A2983=
201503192100 METAR MRLB 192100Z 30007KT 9999 FEW035 BKN250 34/14 A2981=
201503192200 METAR MRLB 192200Z 32005KT 9999 FEW035 BKN250 34/14 A2980=
201503192300 METAR MRLB 192300Z 31009KT 9999 FEW035 BKN250 31/14 A2981=
201503192350 METAR MRLB 200000Z 30005KT 9999 FEW035 BKN250 30/15 A2984=
201503200000 METAR MRLB 200000Z 30005KT 9999 FEW035 BKN250 30/15 A2984=
201503200100 METAR MRLB 200100Z 19004KT 9999 FEW035 BKN250 28/15 A2986=
201503200200 METAR MRLB 200200Z 13006KT CAVOK 28/16 A2988=
201503200300 METAR MRLB 200300Z 07006KT CAVOK 26/17 A2991=
201503200400 METAR MRLB 200400Z 09006KT CAVOK 26/17 A2993=
201503200500 METAR MRLB 200500Z 10006KT CAVOK 26/16 A2993=
201503200600 METAR MRLB NIL=
201503200700 METAR MRLB NIL=
201503200800 METAR MRLB NIL=
201503200900 METAR MRLB NIL=
201503201000 METAR MRLB NIL=
201503201100 METAR MRLB NIL=
201503201200 METAR MRLB 201200Z 15003KT CAVOK 20/16 A2993=
201503201300 METAR MRLB 201300Z 07004KT CAVOK 20/16 A2996=
201503201400 METAR MRLB 201400Z 12003KT CAVOK 26/16 A2998=
201503201500 METAR MRLB 201500Z 29003KT CAVOK 30/16 A2998=
201503201600 METAR MRLB 201600Z 07007KT CAVOK 32/14 A2998=
201503201700 METAR MRLB 201700Z 10009KT CAVOK 33/15 A2996=
201503201800 METAR MRLB 201800Z 10008KT 9999 FEW035 SCT250 33/15 A2993=
201503201900 METAR MRLB 201900Z 08009KT 9999 FEW035 SCT250 34/15 A2989=
201503202000 METAR MRLB 202000Z 07009KT 9999 SCT035 33/15 A2987=
201503202100 METAR MRLB 202100Z 31010KT 9999 BKN350 33/17 A2985=
201503202200 METAR MRLB 202200Z 29009KT 9999 SCT035 32/16 A2984=
201503202300 METAR MRLB 202300Z 03008KT 9999 FEW040 33/13 A2985=
201503202352 METAR MRLB 210000Z 36006KT 9999 FEW040 30/17 A2986=
201503210000 METAR MRLB 210000Z 36006KT 9999 FEW040 30/17 A2986=
201503210100 METAR MRLB 210100Z 07003KT 9999 FEW040 29/16 A2989=
201503210200 METAR MRLB 210200Z 09008KT CAVOK 28/16 A2992=
201503210300 METAR MRLB 210300Z 10009KT CAVOK 27/15 A2994=
201503210400 METAR MRLB 210400Z 10010KT CAVOK 26/16 A2996=
201503210500 METAR MRLB 210500Z 10009KT CAVOK 26/14 A2997=
201503210600 METAR MRLB NIL=
201503210700 METAR MRLB NIL=
201503210800 METAR MRLB NIL=
201503210900 METAR MRLB NIL=
201503211000 METAR MRLB NIL=
201503211100 METAR MRLB NIL=
201503211200 METAR MRLB 211200Z 14005KT CAVOK 22/15 A2994=
201503211300 METAR MRLB 211300Z 04003KT CAVOK 21/15 A2996=
201503211400 METAR MRLB 211400Z 06003KT CAVOK 25/15 A2998=
201503211500 METAR MRLB 211500Z 28003KT CAVOK 29/15 A2998=
201503211600 METAR MRLB 211600Z 09008KT CAVOK 32/14 A2997=
201503211700 METAR MRLB 211700Z 07010KT CAVOK 33/13 A2995=
201503211800 METAR MRLB 211800Z 09011KT 9999 FEW035 35/13 A2993=
201503211900 METAR MRLB 211900Z 09011KT 9999 FEW035 35/13 A2989=
201503212000 METAR MRLB 212000Z 10005KT 9999 SCT035 35/12 A2986=
201503212100 METAR MRLB 212100Z 09009KT 9999 SCT035 33/14 A2984=
201503212200 METAR MRLB 212200Z 31009KT 9999 FEW035 32/17 A2983=
201503212300 METAR MRLB 212300Z 31008KT 9999 FEW040 31/17 A2985=
201503212353 METAR MRLB 220000Z 29006KT CAVOK 29/19 A2987=
201503220000 METAR MRLB 220000Z 29006KT CAVOK 29/19 A2987=
201503220100 METAR MRLB 220100Z 31004KT CAVOK 27/19 A2989=
201503220200 METAR MRLB 220200Z 24004KT CAVOK 26/ 19 A 2991=
201503220300 METAR MRLB 220300Z 09003KT CAVOK 26/20 A2993=
201503220353 METAR MRLB 22040Z 16003KT CAVOK 26/19 A2994=
201503220400 METAR MRLB 220400Z 16003KT CAVOK 26/19 A2994=
201503220500 METAR MRLB 220500Z 05004KT CAVOK 25/17 A2994=
201503220600 METAR MRLB NIL=
201503220700 METAR MRLB NIL=
201503220800 METAR MRLB NIL=
201503220900 METAR MRLB NIL=
201503221000 METAR MRLB NIL=
201503221100 METAR MRLB NIL=
201503221200 METAR MRLB 221200Z 17002KT CAVOK 20/17 A2993=
201503221300 METAR MRLB 221300Z 00000KT CAVOK 23/18 A2995=
201503221400 METAR MRLB 221400Z 00000KT CAVOK 26/17 A2996=
201503221500 METAR MRLB 221500Z 35004KT CAVOK 29/17 A2997=
201503221600 METAR MRLB 221600Z 33003KT CAVOK 32/15 A2995=
201503221700 METAR MRLB 221700Z 25004KT CAVOK 34/15 A2993=
201503221800 METAR MRLB 221800Z 09004KT 9999 FEW035 35/12 A2989=
201503221900 METAR MRLB 221900Z 03005KT 9999 FEW035 35/13 A2986=
201503222000 METAR MRLB 222000Z 28009KT 9999 FEW035 34/16 A2982=
201503222100 METAR MRLB 222100Z 28008KT 9999 SCT035 35/15 A2981=
201503222200 METAR MRLB 222200Z 26007KT 9999 FEW035 33/15 A2981=
201503222300 METAR MRLB 222300Z 31008KT 9999 FEW040 31/17 A2983=
201503222355 METAR MRLB 230000Z 30005KT 9999 FEW040 30/19 A2985=
201503230000 METAR MRLB 230000Z 30005KT 9999 FEW040 30/19 A2985=
201503230100 METAR MRLB 230100Z 24004KT 9999 FEW035 28/16 A2987=
201503230200 METAR MRLB 230200Z 21003KT 9999 FEW040 27/17 A2990=
201503230300 METAR MRLB 230300Z 24002KT 9999 FEW035 27/17 A2992=
201503230400 METAR MRLB 230400Z 09003KT 9999 FEW035 25/18 A2994=
201503230500 METAR MRLB 230500Z 14004KT 9999 FEW035 25/17 A2995=
201503230600 METAR MRLB NIL=
201503230700 METAR MRLB NIL=
201503230800 METAR MRLB NIL=
201503230900 METAR MRLB NIL=
201503231000 METAR MRLB NIL=
201503231100 METAR MRLB NIL=
201503231200 METAR MRLB 231200Z 19003KT CAVOK 20/17 A2992=
201503231300 METAR MRLB 231300Z 22003KT CAVOK 23/17 A2994=
201503231400 METAR MRLB 231400Z 23003KT CAVOK 26/17 A2996=
201503231500 METAR MRLB 231500Z 23003KT CAVOK 29/16 A2997=
201503231600 METAR MRLB 231600Z 04006KT CAVOK 32/15 A2995=
201503231700 METAR MRLB 231700Z 08007KT CAVOK 33/13 A2993=
201503231800 METAR MRLB 231800Z 10009KT CAVOK 35/14 A2990=
201503231900 METAR MRLB 231900Z 29007KT 9999 FEW035 35/16 A2985=
201503232000 METAR MRLB 232000Z 28010KT 9999 FEW035 34/17 A2983=
201503232100 METAR MRLB 232100Z 28012KT 9999 SCT035 33/17 A2982=
201503232200 METAR MRLB 232200Z 28010KT 9999 SCT035 33/16 A2983=
201503232300 METAR MRLB 232300Z 28007KT 9999 FEW035 32/16 A2983=
201503232352 METAR MRLB 240000Z 24005KT 9999 FEW035 31/17 A2984=
201503240000 METAR MRLB 240000Z 24005KT 9999 FEW035 31/17 A2984=
201503240100 METAR MRLB 240100Z 13005KT 9999 FEW035 30/17 A2987=
201503240200 METAR MRLB 240200Z 14009KT 9999 FEW035 29/16 A2990=
201503240300 METAR MRLB NIL=
201503240400 METAR MRLB NIL=
201503240500 METAR MRLB NIL=
201503240600 METAR MRLB NIL=
201503240700 METAR MRLB NIL=
201503240800 METAR MRLB NIL=
201503240900 METAR MRLB NIL=
201503241000 METAR MRLB NIL=
201503241100 METAR MRLB NIL=
201503241200 METAR MRLB 241200Z 07003KT CAVOK 20/17 A2984=
201503241300 METAR MRLB 241300Z 18002KT CAVOK 24/17 A2996=
201503241400 METAR MRLB 241400Z 30002KT CAVOK 26/17 A2998=
201503241500 METAR MRLB 241500Z 12007KT CAVOK 31/14 A2997=
201503241600 METAR MRLB 241600Z 10012KT CAVOK 32/14 A2996=
201503241700 METAR MRLB 241700Z 09011KT CAVOK 33/14 A2994=
201503241800 METAR MRLB 241800Z 10008KT CAVOK 34/13 A2991=
201503241900 METAR MRLB 241900Z 11008KT CAVOK 35/13 A2987=
201503242000 METAR MRLB 242000Z 09009KT CAVOK 35/13 A2984=
201503242100 METAR MRLB 242100Z 07013KT 9999 FEW040 35/13 A2983=
201503242200 METAR MRLB 242200Z 06012KT 9999 FEW040 35/14 A2983=
201503242300 METAR MRLB 242300Z 08009KT 9999 FEW040 33/15 A2984=
201503242352 METAR MRLB 250000Z 08009KT 9999 FEW040 31/17 A2986=
201503250000 METAR MRLB 250000Z 08009KT 9999 FEW040 31/17 A2986=
201503250100 METAR MRLB 250100Z 12004KT 9999 FEW040 29/17 A2989=
201503250200 METAR MRLB 250200Z 14008KT 9999 FEW040 29/17 A2990=
201503250300 METAR MRLB NIL=
201503250400 METAR MRLB NIL=
201503250500 METAR MRLB NIL=
201503250600 METAR MRLB NIL=
201503250700 METAR MRLB NIL=
201503250800 METAR MRLB NIL=
201503250900 METAR MRLB NIL=
201503251000 METAR MRLB NIL=
201503251100 METAR MRLB NIL=
201503251200 METAR MRLB 251200Z 29002KT CAVOK 20/15 A2993=
201503251300 METAR MRLB 251300Z 05004KT CAVOK 22/15 A2994=
201503251400 METAR MRLB 251400Z 00000KT CAVOK 28/14 A2994=
201503251500 METAR MRLB 251500Z 33003KT CAVOK 31/14 A2995=
201503251600 METAR MRLB 251600Z 10010KT CAVOK 33/12 A2995=
201503251700 METAR MRLB 251700Z 11010KT CAVOK 35/11 A2992=
201503251800 METAR MRLB 251800Z 11012KT CAVOK 35/12 A2990=
201503251900 METAR MRLB 251900Z 09010KT CAVOK 35/13 A2987=
201503252000 METAR MRLB 252000Z 07008KT CAVOK 35/13 A2984=
201503252100 METAR MRLB 252100Z 09008KT 9999 FEW035 36/14 A2983=
201503252200 METAR MRLB 252200Z 15006KT 9999 FEW035 35/15 A2983=
201503252300 METAR MRLB 252300Z 03006KT 9999 FEW035 33/15 A2984=
201503252350 METAR MRLB 260000Z 07011KT 9999 FEW035 31/16 A2986=
201503260000 METAR MRLB 260000Z 07011KT 9999 FEW035 31/16 A2986=
201503260100 METAR MRLB 260100Z 05008KT CAVOK 30/17 A2987=
201503260200 METAR MRLB 260200Z 09006KT CAVOK 28/18 A2989=
201503260300 METAR MRLB NIL=
201503260400 METAR MRLB NIL=
201503260500 METAR MRLB NIL=
201503260600 METAR MRLB NIL=
201503260700 METAR MRLB NIL=
201503260800 METAR MRLB NIL=
201503260900 METAR MRLB NIL=
201503261000 METAR MRLB NIL=
201503261100 METAR MRLB NIL=
201503261200 METAR MRLB 261200Z 06005KT CAVOK 20/16 A2991=
201503261300 METAR MRLB 261300Z 17003KT CAVOK 25/17 A2993=
201503261400 METAR MRLB 261400Z 20003KT CAVOK 28/17 A2994=
201503261500 METAR MRLB 261500Z 35004KT CAVOK 30/16 A2994=
201503261600 METAR MRLB 261600Z 09008KT CAVOK 33/14 A2992=
201503261700 METAR MRLB 261700Z 09012KT CAVOK 33/13 A2990=
201503261800 METAR MRLB 261800Z 08009KT CAVOK 35/13 A2987=
201503261900 METAR MRLB 261900Z 09008KT CAVOK 35/12 A2983=
201503262000 METAR MRLB 262000Z 09012KT CAVOK 35/14 A2981=
201503262100 METAR MRLB 262100Z 12005KT CAVOK 35/12 A2979=
201503262200 METAR MRLB 262200Z 07008KT CAVOK 35/13 A2978=
201503262300 METAR MRLB 262300Z 02004KT CAVOK 35/14 A2980=
201503262352 METAR MRLB 270000Z 30005KT CAVOK 32/15 A2982=
201503270000 METAR MRLB 270000Z 30005KT CAVOK 32/15 A2982=
201503270100 METAR MRLB 270100Z 11006KT CAVOK 30/15 A2982=
201503270200 METAR MRLB 270200Z 09007KT CAVOK 29/16 A2984=
201503270300 METAR MRLB 270300Z 14005KT CAVOK 28/16 A2987=
201503270400 METAR MRLB 270400Z 13006KT CAVOK 27/16 A2988=
201503270500 METAR MRLB 270500Z 12004KT CAVOK 26/16 A2990=
201503270600 METAR MRLB NIL=
201503270700 METAR MRLB NIL=
201503270800 METAR MRLB NIL=
201503270900 METAR MRLB NIL=
201503271000 METAR MRLB NIL=
201503271100 METAR MRLB NIL=
201503271200 METAR MRLB 271200Z 07005KT CAVOK 18/15 A2989=
201503271300 METAR MRLB 271300Z 06003KT CAVOK 22/16 A2992=
201503271400 METAR MRLB 271400Z 29003KT CAVOK 26/16 A2993=
201503271500 METAR MRLB 271500Z 01003KT CAVOK 30/15 A2993=
201503271600 METAR MRLB 271600Z 29004KT CAVOK 32/13 A2992=
201503271700 METAR MRLB 271700Z 26005KT CAVOK 34/14 A2990=
201503271800 METAR MRLB 271800Z 24007KT CAVOK 34/13 A2986=
201503271900 METAR MRLB 271900Z 29003KT CAVOK 33/15 A2983=
201503272000 METAR MRLB 272000Z 28011KT 9999 FEW040 33/17 A2981=
201503272100 METAR MRLB 272100Z 30011KT 9999 FEW040 34/16 A2979=
201503272200 METAR MRLB 272200Z 31012KT 9999 FEW040 34/17 A2978=
201503272300 METAR MRLB 272300Z 28009KT 9999 FEW040 32/17 A2980=
201503272355 METAR MRLB 280000Z 26005KT 9999 FEW040 31/15 A2982=
201503280000 METAR MRLB 280000Z 26005KT 9999 FEW040 31/15 A2982=
201503280100 METAR MRLB 280100Z 17005KT 9999 FEW040 30/15 A2985=
201503280200 METAR MRLB 280200Z 17006KT 9999 FEW040 29/16 A2988=
201503280300 METAR MRLB 280300Z 22003KT 9999 FEW040 28/18 A2990=
201503280400 METAR MRLB 280400Z 08002KT 9999 FEW040 26/17 A2993=
201503280500 METAR MRLB 280500Z 04005KT 9999 FEW040 27/18 A2993=
201503280600 METAR MRLB NIL=
201503280700 METAR MRLB NIL=
201503280800 METAR MRLB NIL=
201503280900 METAR MRLB NIL=
201503281000 METAR MRLB NIL=
201503281100 METAR MRLB NIL=
201503281200 METAR MRLB 281200Z 12005KT CAVOK 24/17 A2993=
201503281300 METAR MRLB 281300Z 08006KT CAVOK 25/17 A2996=
201503281400 METAR MRLB 281400Z 09011KT CAVOK 29/17 A2997=
201503281500 METAR MRLB 281500Z 10009KT CAVOK 31/16 A2998=
201503281600 METAR MRLB 281600Z 09015KT 9999 FEW035 33/14 A2996=
201503281700 METAR MRLB 281700Z 08016KT 9999 FEW040 34/14 A2993=
201503281800 METAR MRLB 281800Z 08015KT CAVOK 35/13 A2989=
201503281900 METAR MRLB 281900Z 08013KT CAVOK 36/14 A2985=
201503282000 METAR MRLB 282000Z 07016KT CAVOK 35/15 A2982=
201503282100 METAR MRLB 282100Z 08015KT CAVOK 35/15 A2980=
201503282200 METAR MRLB 282200Z 06015KT CAVOK 35/15 A2981=
201503282300 METAR MRLB 282300Z 07017KT CAVOK 33/15 A2982=
201503282350 METAR MRLB 290000Z 07016KT CAVOK 31/16 A2986=
201503290000 METAR MRLB 290000Z 07016KT CAVOK 31/16 A2986=
201503290100 METAR MRLB 290100Z 08014KT CAVOK 30/16 A2988=
201503290200 METAR MRLB 290200Z 07012KT CAVOK 29/16 A2992=
201503290300 METAR MRLB 290300Z 09011KT CAVOK 29/15 A2994=
201503290400 METAR MRLB 290400Z 10012KT CAVOK 28/14 A2995=
201503290500 METAR MRLB 290500Z 09012KT CAVOK 28/14 A2995=
201503290600 METAR MRLB NIL=
201503290700 METAR MRLB NIL=
201503290800 METAR MRLB NIL=
201503290900 METAR MRLB NIL=
201503291000 METAR MRLB NIL=
201503291100 METAR MRLB NIL=
201503291200 METAR MRLB 291200Z 09003KT CAVOK 20/16 A2995=
201503291300 METAR MRLB 291300Z 00000KT CAVOK 26/16 A2996=
201503291400 METAR MRLB 291400Z 01004KT CAVOK 28/16 A2997=
201503291500 METAR MRLB 291500Z 09017KT CAVOK 31/15 A2998=
201503291600 METAR MRLB 291600Z 09016KT CAVOK 32/15 A2997=
201503291700 METAR MRLB 291700Z 09015KT CAVOK 33/14 A2996=
201503291800 METAR MRLB 291800Z 09013KT CAVOK 35/15 A2992=
201503291900 METAR MRLB 291900Z 10010KT 9999 FEW040 OVC250 35/16 A2990=
201503292000 METAR MRLB 292000Z 10011KT 9999 FEW040 OVC250 35/15 A2986=
201503292100 METAR MRLB 292100Z 08014KT 9999 FEW040 BKN250 35/16 A2985=
201503292200 METAR MRLB 292200Z 09014KT 9999 FEW040 OVC250 34/17 A2984=
201503292300 METAR MRLB 292300Z 09016KT 9999 FEW040 OVC250 32/17 A2986=
201503292352 METAR MRLB 300000Z 09016KT CAVOK 31/17 A2988=
201503300000 METAR MRLB 300000Z 09009KT 9999 FEW040 SCT140 29/17 A2986=
201503300100 METAR MRLB 300100Z 10012KT CAVOK 29/16 A2990=
201503300200 METAR MRLB 300200Z 12010KT CAVOK 28/16 A2992=
201503300300 METAR MRLB 300300Z 10012KT CAVOK 28/15 A2994=
201503300400 METAR MRLB 300400Z 09012KT CAVOK 27/15 A2996=
201503300500 METAR MRLB NIL=
201503300600 METAR MRLB NIL=
201503300700 METAR MRLB NIL=
201503300800 METAR MRLB NIL=
201503300900 METAR MRLB NIL=
201503301000 METAR MRLB NIL=
201503301100 METAR MRLB NIL=
201503301200 METAR MRLB 301200Z 00000KT CAVOK 23/17 A2993=
201503301300 METAR MRLB 301300Z 32002KT CAVOK 24/17 A2995=
201503301400 METAR MRLB 301400Z 00000KT CAVOK 27/17 A2997=
201503301500 METAR MRLB 301500Z 25005KT CAVOK 29/17 A2998=
201503301600 METAR MRLB 301600Z 13002KT CAVOK 31/17 A2996=
201503301700 METAR MRLB 301700Z 08007KT CAVOK 32/16 A2993=
201503301800 METAR MRLB 301800Z 03006KT CAVOK 32/16 A2992=
201503301900 METAR MRLB 301900Z 09013KT CAVOK 32/16 A2987=
201503302000 METAR MRLB 302000Z 09013KT CAVOK 32/17 A2985=
201503302100 METAR MRLB 302100Z 10013KT CAVOK 32/17 A2983=
201503302200 METAR MRLB 302200Z 10011KT CAVOK 32/18 A2982=
201503302300 METAR MRLB 302300Z 09013KT CAVOK 30/17 A2983=
201503302355 METAR MRLB 310000Z 09009KT 9999 FEW040 SCT140 29/17 A2986=
201503310000 METAR MRLB 310000Z 09009KT 9999 FEW040 SCT140 29/17 A2986=
201503310100 METAR MRLB 310100Z 09008KT 9999 FEW040 SCT140 28/17 A2988=
201503310200 METAR MRLB 310200Z 09015KT 9999 FEW040 SCT140 27/18 A2989=
201503310300 METAR MRLB NIL=
201503310400 METAR MRLB NIL=
201503310500 METAR MRLB NIL=
201503310600 METAR MRLB NIL=
201503310700 METAR MRLB NIL=
201503310800 METAR MRLB NIL=
201503310900 METAR MRLB NIL=
201503311000 METAR MRLB NIL=
201503311100 METAR MRLB NIL=
201503311200 METAR MRLB 311200Z 08005KT CAVOK 21/17 A2986=
201503311300 METAR MRLB 311300Z 24005KT CAVOK 27/17 A2989=
201503311400 METAR MRLB 311400Z 36002KT CAVOK 30/17 A2990=
201503311500 METAR MRLB 311500Z 03004KT CAVOK 31/17 A2990=
201503311600 METAR MRLB 311600Z 09020G31KT 9999 FEW040 SCT240 31/18 A2990=
201503311700 METAR MRLB 311700Z 09020G30KT 9999 FEW040 SCT120 31/17 A2987=
201503311800 METAR MRLB 311800Z 09018G29KT 9999 FEW040 BKN120 33/18 A2985=
201503311900 METAR MRLB 311900Z 09018KT 9999 FEW040 BKN120 33/17 A2981=
201503312000 METAR MRLB 312000Z 09020KT 9999 FEW035 BKN200 32/17 A2978=
201503312100 METAR MRLB 312100Z 08017KT 9999 FEW035 BKN200 33/16 A2977=
201503312200 METAR MRLB 312200Z 08019KT CAVOK 32/15 A2976=
201503312300 METAR MRLB 312300Z 09019KT CAVOK 31/17 A2976=
201503312351 METAR MRLB 010000Z 09014KT CAVOK 29/16 A2980=
201504010000 METAR MRLB 010000Z 09014KT CAVOK 29/16 A2980=
201504010100 METAR MRLB 010100Z 09016KT CAVOK 28/15 A2980=
201504010200 METAR MRLB 010200Z 09014KT CAVOK 27/16 A2983=
201504010300 METAR MRLB NIL=
201504010400 METAR MRLB NIL=
201504010500 METAR MRLB NIL=
201504010600 METAR MRLB NIL=
201504010700 METAR MRLB NIL=
201504010800 METAR MRLB NIL=
201504010900 METAR MRLB NIL=
201504011000 METAR MRLB NIL=
201504011100 METAR MRLB NIL=
201504011200 METAR MRLB 011200Z 08007KT CAVOK 25/15 A2985=
201504011300 METAR MRLB 011300Z 05005KT CAVOK 24/15 A2987=
201504011400 METAR MRLB 011400Z 35006KT CAVOK 29/15 A2989=
201504011500 METAR MRLB 011500Z 05009KT CAVOK 31/14 A2990=
201504011600 METAR MRLB 011600Z 10013KT CAVOK 33/15 A2988=
201504011700 METAR MRLB 011700Z 10011KT CAVOK 34/14 A2986=
201504011800 METAR MRLB 011800Z 10012KT CAVOK 34/14 A2984=
201504011900 METAR MRLB 011900Z 10011KT CAVOK 35/15 A2981=
201504012000 METAR MRLB 012000Z 10013KT 9999 FEW040 SCT250 35/16 A2978=
201504012100 METAR MRLB 012100Z 06015KT 9999 FEW040 BKN250 35/16 A2977=
201504012200 METAR MRLB 012200Z 06014KT 9999 FEW040 BKN250 34/16 A2976=
201504012300 METAR MRLB 012300Z 08011KT CAVOK 32/16 A2977=
201504012352 METAR MRLB 020000Z 08010KT CAVOK 31/15 A2980=
201504020000 METAR MRLB 020000Z 08010KT CAVOK 31/15 A2980=
201504020100 METAR MRLB 020100Z 05004KT CAVOK 29/16 A2983=
201504020200 METAR MRLB 020200Z 16004KT CAVOK 28/17 A2985=
201504020300 METAR MRLB NIL=
201504020400 METAR MRLB NIL=
201504020500 METAR MRLB NIL=
201504020600 METAR MRLB NIL=
201504020700 METAR MRLB NIL=
201504020800 METAR MRLB NIL=
201504020900 METAR MRLB NIL=
201504021000 METAR MRLB NIL=
201504021100 METAR MRLB NIL=
201504021200 METAR MRLB 021200Z 13006KT CAVOK 24/16 A2988=
201504021300 METAR MRLB 021300Z 00000KT CAVOK 25/17 A2991=
201504021400 METAR MRLB 021400Z 32004KT CAVOK 29/16 A2991=
201504021500 METAR MRLB 021500Z 07014KT CAVOK 32/14 A2991=
201504021600 METAR MRLB 021600Z 08010KT CAVOK 33/14 A2990=
201504021700 METAR MRLB 021700Z 08011KT CAVOK 34/14 A2988=
201504021800 METAR MRLB 021800Z 09011KT CAVOK 34/15 A2986=
201504021900 METAR MRLB 021900Z 07014KT CAVOK 34/17 A2983=
201504022000 METAR MRLB 022000Z 09013KT 9999 FEW040 34/17 A2978=
201504022058 METAR MRLB 082100Z 09017KT CAVOK 34/14 A2970=
201504022100 METAR MRLB 022100Z 09012KT 9999 FEW040 35/17 A2977=
201504022200 METAR MRLB 022200Z 08015G27KT CAVOK 33/17 A2977=
201504022300 METAR MRLB 022300Z 07019KT CAVOK 32/16 A2978=
201504022357 METAR MRLB 030000Z 08015KT CAVOK 30/17 A2979=
201504030000 METAR MRLB 030000Z 08015KT CAVOK 30/17 A2979=
201504030100 METAR MRLB 030100Z 08017KT CAVOK 29/15 A2981=
201504030200 METAR MRLB 030200Z 09016KT CAVOK 28/16 A2984=
201504030300 METAR MRLB 030300Z 10018G28KT CAVOK 28/17 A2985=
201504030400 METAR MRLB 030400Z 10014KT CAVOK 27/17 A2987=
201504030500 METAR MRLB 030500Z 11012KT CAVOK 27/17 A2987=
201504030600 METAR MRLB NIL=
201504030700 METAR MRLB NIL=
201504030800 METAR MRLB NIL=
201504030900 METAR MRLB NIL=
201504031000 METAR MRLB NIL=
201504031100 METAR MRLB NIL=
201504031200 METAR MRLB 031200Z 05007KT CAVOK 24/17 A2985=
201504031300 METAR MRLB 031300Z 36005KT CAVOK 27/17 A2987=
201504031400 METAR MRLB 031400Z 08015KT CAVOK 30/17 A2987=
201504031500 METAR MRLB 031500Z 08020KT CAVOK 31/17 A2987=
201504031600 METAR MRLB 031600Z 08017KT CAVOK 33/17 A2987=
201504031700 METAR MRLB 031700Z 07021KT CAVOK 33/16 A2985=
201504031800 METAR MRLB 031800Z 07019KT CAVOK 34/16 A2982=
201504031900 METAR MRLB 031900Z 06017KT CAVOK 35/16 A2980=
201504032000 METAR MRLB 032000Z 07016KT 9999 FEW040 35/16 A2976=
201504032100 METAR MRLB 032100Z 08017G27KT CAVOK 35/15 A2974=
201504032200 METAR MRLB 032200Z 07019KT CAVOK 34/16 A2974=
201504032300 METAR MRLB 032300Z 07019KT CAVOK 32/17 A2975=
201504032355 METAR MRLB 040000Z 08016KT CAVOK 30/16 A2978=
201504040000 METAR MRLB 040000Z 08016KT CAVOK 30/16 A2978=
201504040100 METAR MRLB 040100Z 09015G25KT CAVOK 29/16 A2979=
201504040200 METAR MRLB 040200Z 09017KT CAVOK 28/17 A2981=
201504040300 METAR MRLB 040300Z 10013KT CAVOK 28/17 A2982=
201504040400 METAR MRLB 040400Z 09013KT CAVOK 27/16 A2984=
201504040450 METAR MRLB 0400500Z 08017KT CAVOK 27/16 A2983=
201504040500 METAR MRLB 0400500Z 08017KT CAVOK 27/16 A2983=
201504040600 METAR MRLB NIL=
201504040700 METAR MRLB NIL=
201504040800 METAR MRLB NIL=
201504040900 METAR MRLB NIL=
201504041000 METAR MRLB NIL=
201504041100 METAR MRLB NIL=
201504041200 METAR MRLB 041200Z 07004KT CAVOK 22/17 A2979=
201504041300 METAR MRLB 041300Z 34004KT CAVOK 26/18 A2982=
201504041400 METAR MRLB 041400Z 07014KT CAVOK 30/17 A2983=
201504041500 METAR MRLB 041500Z 08021G31KT CAVOK 31/17 A2983=
201504041600 METAR MRLB 041600Z 08019KT CAVOK 32/17 A2983=
201504041700 METAR MRLB 041700Z 08016G26KT CAVOK 33/16 A2982=
201504041800 METAR MRLB 041800Z 09016G26KT 9999 FEW035 34/17 A2980=
201504041900 METAR MRLB 041900Z 08015G25KT 9999 FEW040 35/16 A2977=
201504042000 METAR MRLB 042000Z 07020KT 9999 FEW040 36/17 A2974=
201504042100 METAR MRLB 042100Z 07021KT 9999 FEW040 35/17 A2972=
201504042200 METAR MRLB 042200Z 08020G32KT CAVOK 33/18 A2972=
201504042300 METAR MRLB 042300Z 08022G32KT CAVOK 31/17 A2972=
201504042352 METAR MRLB 050000Z 08018KT CAVOK 30/17 A2974=
201504050000 METAR MRLB 050000Z 08018KT CAVOK 30/17 A2974=
201504050100 METAR MRLB 050100Z 09017G28KT CAVOK 29/17 A2976=
201504050200 METAR MRLB 050200Z 09021G34KT CAVOK 28/18 A2977=
201504050300 METAR MRLB 050300Z 08016G26KT CAVOK 28/18 A2980=
201504050400 METAR MRLB 050400Z 08023KT CAVOK 27/18 A2980=
201504050500 METAR MRLB 050500Z 08020KT CAVOK 27/18 A2980=
201504050600 METAR MRLB NIL=
201504050700 METAR MRLB NIL=
201504050800 METAR MRLB NIL=
201504050900 METAR MRLB NIL=
201504051000 METAR MRLB NIL=
201504051100 METAR MRLB NIL=
201504051200 METAR MRLB 051200Z 10019KT CAVOK 27/17 A2975=
201504051300 METAR MRLB 051300Z 09019KT CAVOK 28/17 A2978=
201504051400 METAR MRLB 051400Z 08020G32KT CAVOK 29/17 A2981=
201504051500 METAR MRLB 051500Z 07021G32KT CAVOK 31/17 A2981=
201504051600 METAR MRLB 051600Z 07021G31KT CAVOK 32/17 A2980=
201504051700 METAR MRLB 051700Z 07020G31KT CAVOK 33/17 A2979=
201504051800 METAR MRLB 051800Z 08018G28KT 9999 FEW035 35/16 A2976=
201504051900 METAR MRLB 051900Z 07018G28KT 9999 FEW035 35/16 A2973=
201504052000 METAR MRLB 052000Z 08019KT 9999 FEW040 35/15 A2970=
201504052100 METAR MRLB 052100Z 07017KT 9999 FEW040 35/16 A2969=
201504052200 METAR MRLB 052200Z 08016KT CAVOK 34/16 A2970=
201504052300 METAR MRLB 052300Z 08019KT CAVOK 32/15 A2971=
201504052350 METAR MRLB 060000Z 07016KT CAVOK 30/17 A2973=
201504060000 METAR MRLB 060000Z 07016KT CAVOK 30/17 A2973=
201504060100 METAR MRLB 060100Z 08017KT CAVOK 29/18 A2975=
201504060200 METAR MRLB 060200Z 08014KT CAVOK 28/17 A2978=
201504060300 METAR MRLB NIL=
201504060400 METAR MRLB NIL=
201504060500 METAR MRLB NIL=
201504060600 METAR MRLB NIL=
201504060700 METAR MRLB NIL=
201504060800 METAR MRLB NIL=
201504060900 METAR MRLB NIL=
201504061000 METAR MRLB NIL=
201504061100 METAR MRLB NIL=
201504061200 METAR MRLB 061200Z 05010KT CAVOK 25/17 A2978=
201504061300 METAR MRLB 061300Z 07010KT CAVOK 28/17 A2981=
201504061400 METAR MRLB 061400Z 09019KT CAVOK 30/16 A2982=
201504061500 METAR MRLB 061500Z 08021G31KT CAVOK 31/16 A2981=
201504061600 METAR MRLB 061600Z 08021KT 9999 FEW030 32/17 A2981=
201504061700 METAR MRLB 061700Z 07023KT 9999 FEW030 34/15 A2980=
201504061800 METAR MRLB 061800Z 08017KT 9999 FEW035 35/14 A2978=
201504061900 METAR MRLB 061900Z 07020G30KT 9999 FEW030 35/15 A2975=
201504062000 METAR MRLB 062000Z 08021G32KT 9999 FEW035 34/14 A2973=
201504062100 METAR MRLB 062100Z 07022KT CAVOK 34/16 A2971=
201504062200 METAR MRLB 062200Z 07022KT CAVOK 33/16 A2971=
201504062300 METAR MRLB 062300Z 07023G33KT CAVOK 31/15 A2971=
201504062350 METAR MRLB 070000Z 08018KT CAVOK 30/15 A2973=
201504070000 METAR MRLB 070000Z 08018KT CAVOK 30/15 A2973=
201504070100 METAR MRLB 070100Z 09018KT CAVOK 28/16 A2975=
201504070200 METAR MRLB 070200Z 09018G33KT CAVOK 27/16 A2976=
201504070300 METAR MRLB NIL=
201504070400 METAR MRLB NIL=
201504070500 METAR MRLB NIL=
201504070600 METAR MRLB NIL=
201504070700 METAR MRLB NIL=
201504070800 METAR MRLB NIL=
201504070900 METAR MRLB NIL=
201504071000 METAR MRLB NIL=
201504071100 METAR MRLB NIL=
201504071200 METAR MRLB 071200Z 09014KT CAVOK 27/15 A2977=
201504071300 METAR MRLB 071300Z 08020KT CAVOK 28/16 A2979=
201504071400 METAR MRLB 071400Z 09020KT CAVOK 29/15 A2981=
201504071500 METAR MRLB 071500Z 08020G30KT CAVOK 31/13 A2982=
201504071600 METAR MRLB 071600Z 08019KT CAVOK 32/14 A2981=
201504071700 METAR MRLB 071700Z 08021KT CAVOK 33/15 A2980=
201504071800 METAR MRLB 071800Z 07020KT CAVOK 34/14 A2978=
201504071900 METAR MRLB 071900Z 07019G29KT CAVOK 35/15 A2975=
201504072000 METAR MRLB 072000Z 08022KT CAVOK 34/16 A2974=
201504072100 METAR MRLB 072100Z 08023KT CAVOK 34/15 A2973=
201504072200 METAR MRLB 072200Z 08019KT CAVOK 33/15 A2972=
201504072300 METAR MRLB 072300Z 08018G29KT CAVOK 32/15 A2973=
201504072352 METAR MRLB 080000Z 08017KT CAVOK 30/16 A2974=
201504080000 METAR MRLB 080000Z 08017KT CAVOK 30/16 A2974=
201504080100 METAR MRLB 080100Z 09019KT CAVOK 29/16 A2976=
201504080200 METAR MRLB 080200Z 09021G32KT CAVOK 28/16 A2977=
201504080300 METAR MRLB 080300Z 09022G33KT CAVOK 28/16 A2978=
201504080400 METAR MRLB 080400Z 08014KT CAVOK 27/16 A2980=
201504080500 METAR MRLB 080500Z 09009KT CAVOK 27/14 A2981=
201504080600 METAR MRLB 080600Z 10011KT CAVOK 27/14 A2979=
201504080700 METAR MRLB NIL=
201504080800 METAR MRLB NIL=
201504080900 METAR MRLB NIL=
201504081000 METAR MRLB NIL=
201504081100 METAR MRLB NIL=
201504081200 METAR MRLB 081200Z 03003KT CAVOK 22/15 A2979=
201504081300 METAR MRLB 081300Z 05003KT CAVOK 24/15 A2981=
201504081400 METAR MRLB 081400Z 09010G21KT CAVOK 30/15 A2982=
201504081500 METAR MRLB 081500Z 09020KT CAVOK 31/15 A2981=
201504081600 METAR MRLB 081600Z 08021G31KT CAVOK 33/14 A2979=
201504081700 METAR MRLB 081700Z 08024KT CAVOK 34/13 A2978=
201504081800 METAR MRLB 081800Z 08020G32KT CAVOK 35/12 A2977=
201504081900 METAR MRLB 081900Z 08019KT CAVOK 35/14 A2974=
201504082000 METAR MRLB 082000Z 07020KT FEW035 SCT250 35/16 A2971=
201504082100 METAR MRLB 082100Z 09017KT CAVOK 34/14 A2970=
201504082200 METAR MRLB 082200Z 08019G29KT CAVOK 33/13 A2970=
201504082300 METAR MRLB 082300Z 08017KT CAVOK 31/16 A2971=
201504082352 METAR MRLB 090000Z 09016KT CAVOK 29/16 A2973=
201504082353 METAR MRLB COR 090000Z 09016G30KT CAVOK 29/16 A2973=
201504090000 METAR MRLB 090000Z COR 09016G30KT CAVOK 29/16 A2973=
201504090100 METAR MRLB 090100Z 09016G27KT CAVOK 29/15 A2974=
201504090200 METAR MRLB 090200Z 09018KT CAVOK 28/16 A2976=
201504090300 METAR MRLB NIL=
201504090400 METAR MRLB NIL=
201504090500 METAR MRLB NIL=
201504090600 METAR MRLB NIL=
201504090700 METAR MRLB NIL=
201504090800 METAR MRLB NIL=
201504090900 METAR MRLB NIL=
201504091000 METAR MRLB NIL=
201504091100 METAR MRLB NIL=
201504091200 METAR MRLB 091200Z COR 09004KT CAVOK 25/17 A2978=
201504091300 METAR MRLB 091300Z 06009KT CAVOK 26/17 A2981=
201504091400 METAR MRLB 091400Z 08017KT CAVOK 30/17 A2983=
201504091500 METAR MRLB 091500Z 08019KT CAVOK 32/16 A2983=
201504091600 METAR MRLB 091600Z 07019KT CAVOK 32/16 A2982=
201504091700 METAR MRLB 091700Z 07020KT CAVOK 34/16 A2981=
201504091800 METAR MRLB 091800Z 07015KT CAVOK 35/16 A2978=
201504091900 METAR MRLB 091900Z 08017G27KT CAVOK 35/15 A2976=
201504092000 METAR MRLB 092000Z 09017KT CAVOK 35/17 A2974=
201504092100 METAR MRLB 092100Z 07021G31KT CAVOK 34/17 A2973=
201504092200 METAR MRLB 092200Z 07020KT CAVOK 33/17 A2972=
201504092300 METAR MRLB 092300Z 07021KT CAVOK 31/17 A2973=
201504092350 METAR MRLB 100000Z 08018KT CAVOK 30/17 A2974=
201504100000 METAR MRLB 100000Z 08018KT CAVOK 30/17 A2974=
201504100100 METAR MRLB 100100Z 08021G32KT CAVOK 29/18 A2976=
201504100200 METAR MRLB 100200Z 09017KT CAVOK 28/17 A2977=
201504100300 METAR MRLB NIL=
201504100400 METAR MRLB NIL=
201504100500 METAR MRLB NIL=
201504100600 METAR MRLB NIL=
201504100700 METAR MRLB NIL=
201504100800 METAR MRLB NIL=
201504100900 METAR MRLB NIL=
201504101000 METAR MRLB NIL=
201504101100 METAR MRLB NIL=
201504101200 METAR MRLB 101200Z 08015KT CAVOK 27/18 A2980=
201504101300 METAR MRLB 101300Z 07016KT CAVOK 28/18 A2982=
201504101400 METAR MRLB 101400Z 07020KT CAVOK 31/17 A2983=
201504101500 METAR MRLB 101500Z 07018KT CAVOK 32/17 A2983=
201504101600 METAR MRLB 101600Z 07014KT CAVOK 33/17 A2982=
201504101700 METAR MRLB 101700Z 08014G25KT 9999 FEW035 34/17 A2981=
201504101800 METAR MRLB 101800Z 07016KT CAVOK 34/17 A2979=
201504101900 METAR MRLB 101900Z 07016KT CAVOK 35/17 A2976=
201504102000 METAR MRLB 102000Z 08013G23KT 9999 FEW040 34/17 A2975=
201504102100 METAR MRLB 102100Z 07016KT 9999 FEW040 35/16 A2973=
201504102200 METAR MRLB 102200Z 06020KT CAVOK 34/16 A2974=
201504102300 METAR MRLB 102300Z 07008KT CAVOK 33/15 A2974=
201504102352 METAR MRLB 110000Z 08018KT 9999 FEW040 31/15 A2976=
201504110000 METAR MRLB 110000Z 08018KT 9999 FEW040 31/15 A2976=
201504110100 METAR MRLB 110100Z 07018KT 9999 FEW040 30/17 A2978=
201504110200 METAR MRLB 110200Z 07016KT 9999 FEW040 29/17 A2979=
201504110300 METAR MRLB 110300Z 08014KT 9999 FEW040 28/18 A2982=
201504110400 METAR MRLB 110400Z 10013KT 9999 FEW040 28/18 A2982=
201504110500 METAR MRLB 110500Z 10012KT 9999 FEW040 28/19 A2983=
201504110600 METAR MRLB NIL=
201504110700 METAR MRLB NIL=
201504110800 METAR MRLB NIL=
201504110900 METAR MRLB NIL=
201504111000 METAR MRLB NIL=
201504111100 METAR MRLB NIL=
201504111152 METAR MRLB 111152Z COR 10022G32KT 9999 FEW035 BKN100 31/18 A2980=
201504111200 METAR MRLB COR 10022G32KT 9999 FEW035 BKN100 31/18 A2980=
201504111300 METAR MRLB 111300Z 06016KT 9999 FEW040 30/17 A2983=
201504111400 METAR MRLB 111400Z 09017KT 9999 FEW040 31/17 A2984=
201504111500 METAR MRLB 111500Z 09017KT CAVOK 32/17 A2983=
201504111600 METAR MRLB 111600Z 09016G26KT CAVOK 34/17 A2982=
201504111700 METAR MRLB 111700Z 09022G32KT 9999 FEW035 SCT100 32/18 A2983=
201504111800 METAR MRLB 111800Z 1022G32KT 9999 FEW035 BKN100 31/18 A2980=
201504111900 METAR MRLB 111900Z 08021KT 9999 FEW035 BKN100 31/18 A2979=
201504112000 METAR MRLB 112000Z 08018KT 9999 FEW035 SCT110 31/17 A2978=
201504112100 METAR MRLB 112100Z 08022KT 9999 SCT035 SCT110 33/17 A2976=
201504112200 METAR MRLB 112200Z 08021KT 9999 SCT035 32/18 A2976=
201504112300 METAR MRLB 112300Z 07019KT 9999 FEW035 SCT100 31/18 A2978=
201504112351 METAR MRLB 120000Z 08014KT 9999 FEW035 SCT100 30/17 A2978=
201504120000 METAR MRLB 120000Z 08014KT 9999 FEW035 SCT100 30/17 A2978=
201504120100 METAR MRLB 120100Z 09017KT 9999 FEW035 29/18 A2979=
201504120200 METAR MRLB 120200Z 09017KT 9999 FEW035 29/18 A2980=
201504120300 METAR MRLB 120300Z 09016G27KT 9999 FEW035 28/19 A2982=
201504120400 METAR MRLB 120400Z 09020G30KT 9999 FEW035 28/18 A2982=
201504120500 METAR MRLB 120500Z 10016G28KT 9999 FEW035 28/18 A2981=
201504120600 METAR MRLB NIL=
201504120700 METAR MRLB NIL=
201504120800 METAR MRLB NIL=
201504120900 METAR MRLB NIL=
201504121000 METAR MRLB NIL=
201504121100 METAR MRLB NIL=
201504121200 METAR MRLB 121200Z 00000KT CAVOK 24/19 A2983=
201504121300 METAR MRLB 121300Z 22003KT CAVOK 28/19 A2985=
201504121400 METAR MRLB 121400Z 27002KT CAVOK 30/18 A2986=
201504121500 METAR MRLB 121500Z 04005KT 9999 FEW040 SCT100 32/18 A2986=
201504121600 METAR MRLB 121600Z 08013KT CAVOK 34/17 A2985=
201504121700 METAR MRLB 121700Z 10017G28KT CAVOK 34/17 A2982=
201504121800 METAR MRLB 121800Z 10016KT 9999 FEW040 35/17 A2981=
201504121900 METAR MRLB 121900Z 09016KT 9999 FEW040 35/18 A2979=
201504122000 METAR MRLB 122000Z 08017KT 9999 FEW040 35/17 A2977=
201504122100 METAR MRLB 122100Z 08019KT 9999 FEW040 34/17 A2975=
201504122200 METAR MRLB 122200Z 07014KT 9999 SCT040 33/16 A2975=
201504122300 METAR MRLB 122300Z 09015KT 9999 SCT035 32/18 A2976=
201504122350 METAR MRLB 130000Z 09014KT 9999 SCT035 30/19 A2978=
201504130000 METAR MRLB 130000Z 09014KT 9999 SCT035 30/19 A2978=
201504130100 METAR MRLB 130100Z 09014KT 9999 FEW035 30/17 A2980=
201504130200 METAR MRLB 130200Z 08014KT 9999 FEW035 29/18 A2983=
201504130300 METAR MRLB NIL=
201504130400 METAR MRLB NIL=
201504130500 METAR MRLB NIL=
201504130600 METAR MRLB NIL=
201504130700 METAR MRLB NIL=
201504130800 METAR MRLB NIL=
201504130900 METAR MRLB NIL=
201504131000 METAR MRLB NIL=
201504131100 METAR MRLB NIL=
201504131200 METAR MRLB 131200Z 18003KT CAVOK 24/20 A2987=
201504131300 METAR MRLB 131300Z 34003KT CAVOK 26/20 A2988=
201504131400 METAR MRLB 131400Z 08013KT CAVOK 31/19 A2988=
201504131500 METAR MRLB 131500Z 08017KT CAVOK 32/19 A2988=
201504131600 METAR MRLB 131600Z 09013KT CAVOK 34/18 A2988=
201504131700 METAR MRLB 131700Z 08017KT 9999 FEW035 SCT120 35/18 A2987=
201504131800 METAR MRLB 131800Z 09021KT 9999 FEW035 SCT120 34/18 A2985=
201504131900 METAR MRLB 131900Z 08018KT 9999 FEW030 SCT120 35/18 A2984=
201504132000 METAR MRLB 132000Z 07017G28KT 9999 FEW035 BKN130 35/18 A2981=
201504132100 METAR MRLB 132100Z 07017KT 9999 FEW035 BKN250 34/18 A2978=
201504132200 METAR MRLB 132200Z 09016KT CAVOK 34/18 A2979=
201504132300 METAR MRLB 132300Z 08014KT CAVOK 33/19 A2980=
201504132352 METAR MRLB 140000Z 08013KT CAVOK 31/19 A2982=
201504140000 METAR MRLB 140000Z 08013KT CAVOK 31/19 A2982=
201504140100 METAR MRLB 140100Z 09010KT CAVOK 30/19 A2985=
201504140200 METAR MRLB 140200Z 10011KT CAVOK 29/20 A2988=
201504140300 METAR MRLB 140300Z 10008KT CAVOK 29/20 A2989=
201504140400 METAR MRLB NIL=
201504140500 METAR MRLB NIL=
201504140600 METAR MRLB NIL=
201504140700 METAR MRLB NIL=
201504140800 METAR MRLB NIL=
201504140900 METAR MRLB NIL=
201504141000 METAR MRLB NIL=
201504141100 METAR MRLB NIL=
201504141200 METAR MRLB 141200Z 33002KT CAVOK 25/20 A2976=
201504141300 METAR MRLB 141300Z 05002KT CAVOK 27/20 A2990=
201504141400 METAR MRLB 141400Z 27004KT CAVOK 30/20 A2992=
201504141500 METAR MRLB 141500Z 06007KT CAVOK 32/19 A2992=
201504141600 METAR MRLB 141600Z 08017KT CAVOK 34/18 A2989=
201504141700 METAR MRLB 141700Z 08020G30KT 9999 FEW040 OVC250 34/18 A2988=
201504141800 METAR MRLB 141800Z 08024G34KT 9999 FEW040 OVC250 35/18 A2985=
201504141900 METAR MRLB 141900Z 07018G28KT 9999 FEW030 SCT140 35/17 A2982=
201504142000 METAR MRLB 142000Z 07017G27KT 9999 FEW040 SCT240 36/17 A2979=
201504142100 METAR MRLB 142100Z 07016KT 9999 FEW040 SCT140 BKN240 34/17 A2977=
201504142200 METAR MRLB 142200Z 09012KT CAVOK 34/17 A2977=
201504142300 METAR MRLB 142300Z 09012KT CAVOK 33/17 A2978=
201504142353 METAR MRLB 150000Z 09009KT CAVOK 31/17 A2980=
201504150000 METAR MRLB 150000Z 09009KT CAVOK 31/17 A2980=
201504150100 METAR MRLB 150100Z 10009KT CAVOK 30/18 A2983=
201504150200 METAR MRLB 150200Z 11008KT CAVOK 29/19 A2986=
201504150300 METAR MRLB NIL=
201504150400 METAR MRLB NIL=
201504150500 METAR MRLB NIL=
201504150600 METAR MRLB NIL=
201504150700 METAR MRLB NIL=
201504150800 METAR MRLB NIL=
201504150900 METAR MRLB NIL=
201504151000 METAR MRLB NIL=
201504151100 METAR MRLB NIL=
201504151200 METAR MRLB 151200Z 19004KT CAVOK 24/20 A2985=
201504151300 METAR MRLB 151300Z 20004KT CAVOK 26/20 A2988=
201504151400 METAR MRLB 151400Z 03004KT 9999 FEW030 SCT100 BKN240 27/20 A2989=
201504151500 METAR MRLB 151500Z 10013G23KT 9999 FEW030 SCT100 BKN240 32/19 A2989=
201504151600 METAR MRLB 151600Z 08017KT 9999 FEW035 SCT100 32/18 A2989=
201504151700 METAR MRLB 151700Z 09012KT 9999 FEW035 SCT100 33/18 A2988=
201504151800 METAR MRLB 151800Z 09009KT 9999 FEW035 BKN100 34/18 A2986=
201504151900 METAR MRLB 151900Z 08012G22KT 9999 SCT030 SCT140 34/18 A2982=
201504152000 METAR MRLB 152000Z 06019KT 9999 SCT035 BKN120 33/18 A2980=
201504152100 METAR MRLB 152100Z 08016KT 9999 SCT035 BKN120 33/18 A2979=
201504152200 METAR MRLB 152200Z 08015KT 9999 SCT035 BKN110 32/18 A2978=
201504152300 METAR MRLB 152300Z 09015KT 9999 FEW035 BKN120 31/17 A2979=
201504152350 METAR MRLB 160000Z 08015KT 9999 SCT035 BKN120 30/18 A2982=
201504160000 METAR MRLB 160000Z 08015KT 9999 SCT035 BKN120 30/18 A2982=
201504160100 METAR MRLB 160100Z 10011KT 9999 SCT035 BKN130 28/19 A2985=
201504160200 METAR MRLB 160200Z 09010KT 9999 SCT035 BKN130 28/19 A2987=
201504160300 METAR MRLB NIL=
201504160400 METAR MRLB NIL=
201504160500 METAR MRLB NIL=
201504160600 METAR MRLB NIL=
201504160700 METAR MRLB NIL=
201504160800 METAR MRLB NIL=
201504160900 METAR MRLB NIL=
201504161000 METAR MRLB NIL=
201504161100 METAR MRLB NIL=
201504161200 METAR MRLB 161200Z 35003KT CAVOK 26/19 A2983=
201504161300 METAR MRLB 161300Z 04005KT CAVOK 28/19 A2985=
201504161400 METAR MRLB 161400Z 09015KT CAVOK 31/18 A2986=
201504161500 METAR MRLB 161500Z 07019KT 9999 FEW035 SCT250 32/19 A2988=
201504161600 METAR MRLB 161600Z 09012KT 9999 FEW035 SCT250 32/18 A2988=
201504161700 METAR MRLB 161700Z 07015KT 9999 FEW035 BKN250 34/17 A2986=
201504161800 METAR MRLB 161800Z 07011KT 9999 FEW035 BKN250 35/17 A2984=
201504161900 METAR MRLB 161900Z 07012KT 9999 FEW035 SCT250 34/17 A2981=
201504162000 METAR MRLB 162000Z 10010G20KT 9999 SCT035 SCT250 35/17 A2979=
201504162100 METAR MRLB 162100Z 10013KT 9999 FEW035 SCT130 35/15 A2977=
201504162200 METAR MRLB 162200Z 09014KT 9999 FEW035 SCT130 34/16 A2976=
201504162300 METAR MRLB 162300Z 07013KT 9999 FEW035 SCT130 33/16 A2978=
201504162352 METAR MRLB 170000Z 09011KT 9999 FEW035 BKN250 31/17 A2980=
201504170000 METAR MRLB 170000Z 09011KT 9999 FEW035 BKN250 31/17 A2980=
201504170100 METAR MRLB 170100Z 12013KT 9999 FEW035 BKN250 29/18 A2984=
201504170200 METAR MRLB 170200Z 12010KT 9999 FEW035 BKN250 29/19 A2987=
201504170300 METAR MRLB NIL=
201504170400 METAR MRLB NIL=
201504170500 METAR MRLB NIL=
201504170600 METAR MRLB NIL=
201504170700 METAR MRLB NIL=
201504170800 METAR MRLB NIL=
201504170900 METAR MRLB NIL=
201504171000 METAR MRLB NIL=
201504171100 METAR MRLB NIL=
201504171200 METAR MRLB 171200Z 00000KT CAVOK 23/19 A2984=
201504171300 METAR MRLB 171300Z 00000KT CAVOK 26/19 A2988=
201504171400 METAR MRLB 171400Z 29004KT CAVOK 29/19 A2989=
201504171500 METAR MRLB 171500Z 02005KT CAVOK 31/18 A2989=
201504171600 METAR MRLB 171600Z 09013KT CAVOK 34/17 A2988=
201504171700 METAR MRLB 171700Z 08014KT 9999 FEW035 OVC250 34/18 A2987=
201504171800 METAR MRLB 171800Z 09013KT 9999 FEW035 OVC250 35/18 A2985=
201504171900 METAR MRLB 171900Z 09013G23KT 9999 SCT030 BKN250 35/18 A2982=
201504172000 METAR MRLB 172000Z 08010KT 9999 SCT035 BKN250 34/18 A2980=
201504172100 METAR MRLB 172100Z 07014KT 9999 SCT035 SCT250 34/18 A2979=
201504172200 METAR MRLB 172200Z 06015KT 9999 SCT035 SCT120 33/16 A2977=
201504172300 METAR MRLB 172300Z 08011KT 9999 SCT035 SCT120 33/16 A2978=
201504172356 METAR MRLB 180000Z 09012KT 9999 SCT035 SCT240 31/17 A2979=
201504180000 METAR MRLB 180000Z 09012KT 9999 SCT035 SCT240 31/17 A2979=
201504180100 METAR MRLB 180100Z 09011KT 9999 FEW040 30/17 A2982=
201504180200 METAR MRLB 180200Z 12006KT 9999 FEW040 29/18 A2985=
201504180300 METAR MRLB 180300Z 10009KT 9999 FEW040 28/19 A2987=
201504180400 METAR MRLB 180400Z 14007KT CAVOK 28/18 A2988=
201504180500 METAR MRLB 180500Z 06005KT CAVOK 27/18 A2987=
201504180600 METAR MRLB NIL=
201504180700 METAR MRLB NIL=
201504180800 METAR MRLB NIL=
201504180900 METAR MRLB NIL=
201504181000 METAR MRLB NIL=
201504181100 METAR MRLB NIL=
201504181200 METAR MRLB 181200Z 00000KT CAVOK 23/19 A2985=
201504181300 METAR MRLB 181300Z 00000KT CAVOK 27/19 A2987=
201504181400 METAR MRLB 181400Z 32002KT CAVOK 29/19 A2988=
201504181500 METAR MRLB 181500Z 32003KT 9999 FEW030 32/19 A2988=
201504181600 METAR MRLB 181600Z 09015KT 9999 FEW030 33/18 A2986=
201504181700 METAR MRLB 181700Z 08011G21KT 9999 FEW030 35/17 A2985=
201504181800 METAR MRLB 181800Z 10009KT 9999 FEW030 35/18 A2982=
201504181900 METAR MRLB 181900Z 10007KT 9999 FEW030 35/17 A2980=
201504182000 METAR MRLB 182000Z 29006KT 9999 SCT035 34/19 A2977=
201504182100 METAR MRLB 182100Z 28007KT 9999 SCT035 34/19 A2974=
201504182200 METAR MRLB 182200Z 30008KT 9999 SCT035 34/20 A2974=
201504182300 METAR MRLB 182300Z 21004KT 9999 FEW035 SCT250 33/19 A2974=
201504182350 METAR MRLB 190000Z 07008KT 9999 FEW035 SCT250 32/16 A2976=
201504190000 METAR MRLB 190000Z 07008KT 9999 FEW035 SCT250 32/16 A2976=
201504190100 METAR MRLB 190100Z 22004KT 9999 FEW040 30/19 A2978=
201504190200 METAR MRLB 190200Z 21002KT 9999 FEW040 29/19 A2979=
201504190300 METAR MRLB 190300Z 12003KT CAVOK 28/19 A2982=
201504190400 METAR MRLB 190400Z 24002KT 9999 FEW040 27/19 A2984=
201504190500 METAR MRLB 190500Z 26004KT 9999 FEW040 26/19 A2984=
201504190600 METAR MRLB NIL=
201504190700 METAR MRLB NIL=
201504190800 METAR MRLB NIL=
201504190900 METAR MRLB NIL=
201504191000 METAR MRLB NIL=
201504191100 METAR MRLB NIL=
201504191200 METAR MRLB 191200Z 25006KT CAVOK 23/19 A2984=
201504191300 METAR MRLB 191300Z 03003KT 9999 FEW035 SCT250 26/19 A2987=
201504191400 METAR MRLB 191400Z 15005KT 9999 FEW035 SCT250 30/20 A2988=
201504191500 METAR MRLB 191500Z 10009KT 9999 SCT035 SCT250 29/20 A2987=
201504191600 METAR MRLB 191600Z 09014KT 9999 FEW035 SCT250 31/18 A2985=
201504191700 METAR MRLB 191700Z 08014KT 9999 FEW035 SCT250 33/19 A2983=
201504191800 METAR MRLB 191800Z 09014KT 9999 FEW035 BKN250 35/17 A2980=
201504191900 METAR MRLB 191900Z 07009KT 9999 FEW035 SCT130 34/17 A2977=
201504192000 METAR MRLB 192000Z 08009KT 9999 SCT035 ACT130 36/17 A2973=
201504192001 METAR MRLB 192001Z 08009KT 9999 SCT035 SCT130 36/17 A2973=
201504192100 METAR MRLB 192100Z 08010G20KT 9999 FEW035 36/17 A2971=
201504192200 METAR MRLB 192200Z 07010KT 9999 SCT035 SCT130 35/17 A2972=
201504192300 METAR MRLB 192300Z 08010KT 9999 SCT035 SCT120 33/18 A2972=
201504192352 METAR MRLB 200000Z 07012KT 9999 SCT030 32/18 A2973=
201504200000 METAR MRLB 200000Z 07012KT 9999 SCT030 32/18 A2973=
201504200100 METAR MRLB 200100Z 10008KT 9999 FEW035 SCT120 30/19 A2975=
201504200200 METAR MRLB 200200Z 12009KT 9999 FEW035 SCT120 30/19 A2977=
201504200300 METAR MRLB NIL=
201504200400 METAR MRLB NIL=
201504200500 METAR MRLB NIL=
201504200600 METAR MRLB NIL=
201504200700 METAR MRLB NIL=
201504200800 METAR MRLB NIL=
201504200900 METAR MRLB NIL=
201504201000 METAR MRLB NIL=
201504201100 METAR MRLB NIL=
201504201200 METAR MRLB 201200Z 14003KT CAVOK 24/19 A2982=
201504201300 METAR MRLB 201300Z 18002KT CAVOK 28/19 A2985=
201504201400 METAR MRLB 201400Z 33002KT CAVOK 29/19 A2987=
201504201500 METAR MRLB 201500Z 10011KT CAVOK 32/17 A2986=
201504201600 METAR MRLB 201600Z 09008KT CAVOK 33/17 A2986=
201504201700 METAR MRLB 201700Z 14008KT 9999 FEW035 BKN130 34/16 A2984=
201504201800 METAR MRLB 201800Z 13010KT 9999 FEW035 BKN130 35/16 A2982=
201504201900 METAR MRLB 201900Z 13009KT 9999 FEW030 BKN140 36/15 A2977=
201504202000 METAR MRLB 202000Z 27014KT 9999 FEW035 BKN100 34/20 A2974=
201504202100 METAR MRLB 202100Z 28013KT 9999 FEW035 BKN110 32/21 A2974=
201504202200 METAR MRLB 202200Z 30012KT 9999 FEW035 SCT110 31/22 A2973=
201504202300 METAR MRLB 202300Z 30010KT 9999 FEW035 BKN200 30/22 A2974=
201504202356 METAR MRLB 210000Z 29006KT 9999 FEW035 BKN220 29/23 A2976=
201504210000 METAR MRLB 210000Z 29006KT 9999 FEW035 BKN220 29/23 A2976=
201504210100 METAR MRLB 210100Z 29002KT 9999 FEW035 29/23 A2978=
201504210200 METAR MRLB 210200Z 35002KT 9999 FEW040 28/23 A2979=
201504210300 METAR MRLB NIL=
201504210400 METAR MRLB NIL=
201504210500 METAR MRLB NIL=
201504210600 METAR MRLB NIL=
201504210700 METAR MRLB NIL=
201504210800 METAR MRLB NIL=
201504210900 METAR MRLB NIL=
201504211000 METAR MRLB NIL=
201504211100 METAR MRLB NIL=
201504211200 METAR MRLB 211200Z 25003KT CAVOK 24/19 A2985=
201504211300 METAR MRLB 211300Z 34002KT CAVOK 26/20 A2988=
201504211400 METAR MRLB 211400Z 16004KT CAVOK 29/18 A2989=
201504211500 METAR MRLB 211500Z 08006KT CAVOK 32/18 A2988=
201504211600 METAR MRLB 211600Z 11007KT 9999 FEW040 SCT250 34/16 A2988=
201504211700 METAR MRLB 211700Z 10008KT 9999 SCT040 SCT250 35/16 A2985=
201504211800 METAR MRLB 211800Z 06011KT 9999 FEW040 SCT250 35/16 A2982=
201504211900 METAR MRLB 211900Z 11006KT 9999 FEW030 BKN250 35/16 A2979=
201504212000 METAR MRLB 212000Z 08011KT 9999 FEW035 BKN250 35/15 A2976=
201504212100 METAR MRLB 212100Z 06012KT 9999 FEW035 BKN250 35/15 A2974=
201504212200 METAR MRLB 212200Z 07011KT 9999 FEW035 BKN250 35/16 A2972=
201504212300 METAR MRLB 212300Z 07013KT 9999 FEW035 BKN250 34/18 A2972=
201504212350 METAR MRLB 220000Z 07012KT 9999 FEW035 BKN250 32/18 A2974=
201504220000 METAR MRLB 220000Z 07012KT 9999 FEW035 BKN250 32/18 A2974=
201504220100 METAR MRLB 220100Z 12008KT 9999 FEW035 BKN250 31/17 A2976=
201504220200 METAR MRLB 220200Z 13007KT 9999 FEW035 BKN250 30/17 A2979=
201504220300 METAR MRLB NIL=
201504220400 METAR MRLB NIL=
201504220500 METAR MRLB NIL=
201504220600 METAR MRLB NIL=
201504220700 METAR MRLB NIL=
201504220800 METAR MRLB NIL=
201504220900 METAR MRLB NIL=
201504221000 METAR MRLB NIL=
201504221100 METAR MRLB NIL=
201504221200 METAR MRLB 221200Z 23007KT 9999 FEW035 BKN250 25/19 A2981=
201504221300 METAR MRLB 221300Z 26003KT 9999 FEW035 BKN250 28/20 A2983=
201504221400 METAR MRLB 221400Z 35004KT 9999 FEW035 BKN250 30/19 A2984=
201504221500 METAR MRLB 221500Z 30002KT 9999 FEW035 BKN250 31/19 A2985=
201504221600 METAR MRLB 221600Z 10019KT 9999 SCT030 BKN250 33/18 A2983=
201504221700 METAR MRLB 221700Z 07015KT 9999 SCT030 BKN250 34/18 A2982=
201504221800 METAR MRLB 221800Z 09014KT 9999 SCT030 BKN250 35/18 A2980=
201504221900 METAR MRLB 221900Z 10011KT 9999 SCT030 SCT250 36/19 A2976=
201504222000 METAR MRLB 222000Z 07017KT 9999 FEW030 BKN130 35/20 A2975=
201504222100 METAR MRLB 222100Z 08017KT 9999 FEW035 BKN130 32/19 A2974=
201504222200 METAR MRLB 222200Z 09009KT 9999 FEW035 BKN130 34/18 A2972=
201504222300 METAR MRLB 222300Z 10014KT 9999 FEW035 BKN130 32/18 A2973=
201504222352 METAR MRLB 230000Z 10015G25KT 9999 FEW035 OVC140 30/19 A2975=
201504230000 METAR MRLB 230000Z 10015G25KT 9999 FEW035 OVC140 30/19 A2975=
201504230100 METAR MRLB 230100Z 10016KT 9999 FEW035 BKN140 29/19 A2976=
201504230200 METAR MRLB 230200Z 08015KT CAVOK 29/20 A2977=
201504230300 METAR MRLB NIL=
201504230400 METAR MRLB NIL=
201504230500 METAR MRLB NIL=
201504230600 METAR MRLB NIL=
201504230700 METAR MRLB NIL=
201504230800 METAR MRLB NIL=
201504230900 METAR MRLB NIL=
201504231000 METAR MRLB NIL=
201504231100 METAR MRLB NIL=
201504231200 METAR MRLB 231200Z 09010KT 9999 FEW035 BKN130 28/19 A2982=
201504231300 METAR MRLB 231300Z 09012KT 9999 FEW035 OVC250 29/19 A2984=
201504231400 METAR MRLB 231400Z 09017KT 9999 FEW035 SCT250 30/18 A2986=
201504231500 METAR MRLB 231500Z 09016KT 9999 FEW035 32/18 A2986=
201504231600 METAR MRLB 231600Z 08018KT 9999 FEW035 SCT130 33/18 A2986=
201504231700 METAR MRLB 231700Z 07020KT 9999 FEW035 BKN130 34/18 A2984=
201504231800 METAR MRLB 231800Z 08017KT 9999 FEW035 BKN130 33/18 A2981=
201504231900 METAR MRLB 231900Z 09015KT 9999 FEW030 SCT130 34/17 A2979=
201504232000 METAR MRLB 232000Z 09015KT CAVOK 35/17 A2977=
201504232100 METAR MRLB 232100Z 07018G28KT 9999 FEW040 SCT250 35/16 A2975=
201504232200 METAR MRLB 232200Z 08018KT CAVOK 34/16 A2974=
201504232300 METAR MRLB 232300Z 08016KT CAVOK 32/17 A2975=
201504232353 METAR MRLB 240000Z 08015KT CAVOK 30/17 A2977=
201504240000 METAR MRLB 240000Z 08015KT CAVOK 30/17 A2977=
201504240100 METAR MRLB 240100Z 08015KT CAVOK 29/18 A2978=
201504240200 METAR MRLB 240200Z 09017KT CAVOK 28/18 A2979=
201504240300 METAR MRLB NIL=
201504240400 METAR MRLB NIL=
201504240500 METAR MRLB NIL=
201504240600 METAR MRLB NIL=
201504240700 METAR MRLB NIL=
201504240800 METAR MRLB NIL=
201504240900 METAR MRLB NIL=
201504241000 METAR MRLB NIL=
201504241100 METAR MRLB NIL=
201504241200 METAR MRLB 241200Z 03006KT CAVOK 23/17 A2985=
201504241300 METAR MRLB 241300Z 07015KT CAVOK 28/17 A2985=
201504241400 METAR MRLB 241400Z COR 08018KT CAVOK 30/17 A2986=
201504241500 METAR MRLB 241500Z 07019KT CAVOK 31/16 A2986=
201504241600 METAR MRLB 241600Z 08018KT CAVOK 32/16 A2985=
201504241700 METAR MRLB 241700Z 08016KT CAVOK 33/16 A2984=
201504241800 METAR MRLB 241800Z 08014G24KT CAVOK 34/16 A2982=
201504241900 METAR MRLB 241900Z 07015G25KT CAVOK 35/15 A2980=
201504242000 METAR MRLB 242000Z 09014KT CAVOK 35/15 A2978=
201504242100 METAR MRLB 242100Z 08014KT CAVOK 35/14 A2976=
201504242200 METAR MRLB 242200Z 07016KT CAVOK 34/15 A2976=
201504242300 METAR MRLB 242300Z 06020KT CAVOK 32/16 A2978=
201504242350 METAR MRLB 250000Z 07017KT CAVOK 31/16 A2980=
201504250000 METAR MRLB 250000Z 07017KT CAVOK 31/16 A2980=
201504250100 METAR MRLB 250100Z 08013KT CAVOK 29/17 A2982=
201504250200 METAR MRLB 250200Z 09011KT CAVOK 28/17 A2984=
201504250300 METAR MRLB NIL=
201504250400 METAR MRLB NIL=
201504250500 METAR MRLB NIL=
201504250600 METAR MRLB NIL=
201504250700 METAR MRLB NIL=
201504250800 METAR MRLB NIL=
201504250900 METAR MRLB NIL=
201504251000 METAR MRLB NIL=
201504251100 METAR MRLB NIL=
201504251200 METAR MRLB 251200Z 15003KT 9999 FEW035 BKN140 22/17 A2985=
201504251300 METAR MRLB 251300Z 03002KT 9999 FEW035 BKN130 25/17 A2987=
201504251400 METAR MRLB 251400Z 23003KT 9999 FEW035 BKN130 27/18 A2988=
201504251500 METAR MRLB 251500Z 35002KT 9999 FEW035 BKN200 31/16 A2988=
201504251600 METAR MRLB 251600Z 05005KT 9999 FEW035 BKN200 33/15 A2986=
201504251700 METAR MRLB 251700Z 04006KT 9999 FEW035 BKN200 34/15 A2984=
201504251800 METAR MRLB 251800Z 12006KT 9999 FEW035 BKN140 34/15 A2982=
201504251900 METAR MRLB 251900Z 10011KT 9999 FEW035 BKN140 33/15 A2980=
201504252000 METAR MRLB 252000Z 08009KT 9999 FEW040 OVC140 34/15 A2978=
201504252100 METAR MRLB 252100Z 08011KT 9999 FEW035 OVC140 34/16 A2976=
201504252200 METAR MRLB 252200Z 08011KT 9999 FEW040 OVC140 33/16 A2976=
201504252300 METAR MRLB 252300Z 08009KT CAVOK 32/16 A2977=
201504252352 METAR MRLB 260000Z 07007KT CAVOK 31/17 A2978=
201504260000 METAR MRLB 260000Z 07007KT CAVOK 31/17 A2978=
201504260100 METAR MRLB 260100Z 09002KT CAVOK 29/18 A2979=
201504260200 METAR MRLB 260200Z 00000KT CAVOK 29/18 A2981=
201504260300 METAR MRLB 260300Z 00000KT CAVOK 28/18 A2983=
201504260400 METAR MRLB 260400Z 13004KT CAVOK 27/18 A2984=
201504260500 METAR MRLB 260500Z 14002KT CAVOK 26/18 A2983=
201504260600 METAR MRLB NIL=
201504260700 METAR MRLB NIL=
201504260800 METAR MRLB NIL=
201504260900 METAR MRLB NIL=
201504261000 METAR MRLB NIL=
201504261100 METAR MRLB NIL=
201504261200 METAR MRLB 261200Z 00000KT CAVOK 22/18 A2979=
201504261300 METAR MRLB 261300Z 06003KT CAVOK 24/18 A2982=
201504261400 METAR MRLB 261400Z 07004KT CAVOK 27/18 A2983=
201504261500 METAR MRLB 261500Z 12003KT CAVOK 31/18 A2984=
201504261600 METAR MRLB 261600Z 12008KT CAVOK 33/17 A2983=
201504261700 METAR MRLB 261700Z 10008KT CAVOK 34/15 A2981=
201504261800 METAR MRLB 261800Z 12008KT 9999 FEW035 OVC250 35/15 A2979=
201504261900 METAR MRLB 261900Z 06006KT 9999 FEW035 OVC250 35/15 A2976=
201504262000 METAR MRLB 262000Z 11007KT 9999 FEW035 OVC250 36/14 A2973=
201504262100 METAR MRLB NIL=
201504262200 METAR MRLB NIL=
201504262300 METAR MRLB NIL=
201504270000 METAR MRLB NIL=
201504270100 METAR MRLB NIL=
201504270200 METAR MRLB NIL=
201504270300 METAR MRLB NIL=
201504270400 METAR MRLB NIL=
201504270500 METAR MRLB NIL=
201504270600 METAR MRLB NIL=
201504270700 METAR MRLB NIL=
201504270800 METAR MRLB NIL=
201504270900 METAR MRLB NIL=
201504271000 METAR MRLB NIL=
201504271100 METAR MRLB NIL=
201504271200 METAR MRLB 271200Z 10003KT CAVOK 24/19 A2978=
201504271300 METAR MRLB 271300Z 00000KT CAVOK 28/20 A2980=
201504271400 METAR MRLB 271400Z 19002KT CAVOK 30/20 A2982=
201504271500 METAR MRLB 271500Z 25004KT CAVOK 31/20 A2982=
201504271600 METAR MRLB 271600Z 33004KT 9999 FEW040 33/19 A2980=
201504271700 METAR MRLB 271700Z 22003KT 9999 SCT040 34/19 A2979=
201504271800 METAR MRLB 271800Z 28005KT 9999 SCT035 36/18 A2976=
201504271900 METAR MRLB 271900Z 29010KT 9999 SCT030 35/20 A2972=
201504272000 METAR MRLB 272000Z 30011KT 9999 SCT030 34/20 A2970=
201504272100 METAR MRLB 272100Z 29012KT 9999 SCT035 33/21 A2969=
201504272200 METAR MRLB 272200Z 28012KT 9999 SCT035 SCT250 32/21 A2969=
201504272300 METAR MRLB 272300Z 27012KT 9999 SCT035 SCT250 30/23 A2971=
201504272350 METAR MRLB 280000Z 25008KT 9999 SCT035 BKN140 29/22 A2973=
201504280000 METAR MRLB 280000Z 25008KT 9999 SCT035 BKN140 29/22 A2973=
201504280100 METAR MRLB 280100Z 27007KT 9999 SCT035 BKN140 29/22 A2976=
201504280200 METAR MRLB 280200Z 27005KT 9999 FEW035 BKN140 29/23 A2977=
201504280300 METAR MRLB NIL=
201504280400 METAR MRLB NIL=
201504280500 METAR MRLB NIL=
201504280600 METAR MRLB NIL=
201504280700 METAR MRLB NIL=
201504280800 METAR MRLB NIL=
201504280900 METAR MRLB NIL=
201504281000 METAR MRLB NIL=
201504281100 METAR MRLB NIL=
201504281200 METAR MRLB 281200Z 04005KT CAVOK 26/23 A2977=
201504281300 METAR MRLB 281300Z 03004KT CAVOK 28/23 A2978=
201504281400 METAR MRLB 281400Z 03003KT CAVOK 30/22 A2980=
201504281500 METAR MRLB 281500Z 22003KT 9999 FEW035 SCT250 31/22 A2980=
201504281600 METAR MRLB 281600Z 26004KT 9999 SCT035 SCT250 33/22 A2978=
201504281700 METAR MRLB 281700Z 35004KT 9999 SCT035 SCT250 35/21 A2976=
201504281800 METAR MRLB 281800Z 29008KT 9999 SCT035 SCT250 34/21 A2973=
201504281900 METAR MRLB 281900Z 28008KT 9999 SCT030 SCT250 35/22 A2969=
201504282000 METAR MRLB 282000Z 28012KT 9999 SCT030 SCT250 34/23 A2967=
201504282100 METAR MRLB 282100Z 29013KT 9999 FEW030 BKN250 33/23 A2965=
201504282200 METAR MRLB 282200Z 30013KT 9999 FEW030TCU BKN250 33/22 A2964=
201504282300 METAR MRLB 282300Z 28012KT 9999 SCT030 SCT130 31/23 A2965=
201504290000 METAR MRLB 290000Z 27009KT 9999 SCT030 SCT130 30/24 A2967=
201504290100 METAR MRLB 290100Z 27008KT 9999 SCT030 SCT130 29/25 A2971=
201504290200 METAR MRLB 290200Z 28007KT 9999 SCT030 SCT130 29/25 A2974=
201504290300 METAR MRLB NIL=
201504290400 METAR MRLB NIL=
201504290500 METAR MRLB NIL=
201504290600 METAR MRLB NIL=
201504290700 METAR MRLB NIL=
201504290800 METAR MRLB NIL=
201504290900 METAR MRLB NIL=
201504291000 METAR MRLB NIL=
201504291100 METAR MRLB NIL=
201504291200 METAR MRLB 291200Z 36003KT 9999 FEW025 BKN130 27/24 A2978=
201504291300 METAR MRLB 291300Z 12002KT 9999 FEW025 OVC130 26/23 A2979=
201504291400 METAR MRLB 291400Z 18002KT CAVOK 27/24 A2980=
201504291500 METAR MRLB 291500Z 15004KT CAVOK 28/23 A2982=
201504291600 METAR MRLB 291600Z 34003KT 9999 SCT025 BKN130 31/23 A2980=
201504291700 METAR MRLB 291700Z 29005KT 9999 SCT025 BKN140 31/23 A2979=
201504291800 METAR MRLB 291800Z 30007KT 9999 SCT025 BKN140 32/23 A2976=
201504291900 METAR MRLB NIL=
201504292000 METAR MRLB 292000Z 28012KT 9999 FEW025 BKN130 32/24 A2970=
201504292100 METAR MRLB 292100Z 29011KT 9999 FEW025 SCT130 32/24 A2968=
201504292200 METAR MRLB 292200Z 29011KT 9999 FEW025 SCT140 31/24 A2967=
201504292300 METAR MRLB 292300Z 28009KT 9999 FEW025 BKN140 31/24 A2969=
201504292353 METAR MRLB 300000Z 00000KT 9999 -RA VCSH FEW020TCU SCT030 30/24 A2975=
201504300000 METAR MRLB 300000Z 00000KT 9999 -RA VCSH FEW020TCU SCT030 30/24 A2975=
201504300100 METAR MRLB 300100Z 11003KT 9999 FEW025TCU FEW035 SCT130 28/22 A2977=
201504300200 METAR MRLB 300200Z 04004KT 9999 FEW030 SCT130 28/22 A2979=
201504300300 METAR MRLB NIL=
201504300400 METAR MRLB NIL=
201504300500 METAR MRLB NIL=
201504300600 METAR MRLB NIL=
201504300700 METAR MRLB NIL=
201504300800 METAR MRLB NIL=
201504300900 METAR MRLB NIL=
201504301000 METAR MRLB NIL=
201504301100 METAR MRLB NIL=
201504301200 METAR MRLB 301200Z 24008KT 9999 BKN025 25/21 A2982=
201504301300 METAR MRLB 301300Z 18003KT 9999 SCT025 SCT035 26/21 A2983=
201504301400 METAR MRLB 301400Z 06002KT 9999 SCT025 SCT035 27/22 A2986=
201504301500 METAR MRLB 301500Z 27003KT 9999 SCT025 SCT035 28/22 A2989=
201504301600 METAR MRLB 301600Z 29004KT 9999 SCT025 SCT040 27/24 A2989=
201504301700 METAR MRLB 301700Z 30007KT 9999 SCT030 SCT100 27/22 A2990=
201504301800 METAR MRLB 301800Z 33007KT 9999 SCT020TCU FEW035 SCT100 28/22 A2989=
201504301900 METAR MRLB 301900Z 33007KT 9999 SCT030 BKN120 28/21 A2985=
201504302000 METAR MRLB 302000Z 28004KT 9999 FEW030 BKN120 29/22 A2981=
201504302100 METAR MRLB 302100Z 34002KT 9999 FEW035 BKN120 29/21 A2977=
201504302200 METAR MRLB 302200Z 27003KT 9999 FEW035 BKN120 30/21 A2975=
201504302300 METAR MRLB 302300Z 29005KT 9999 FEW035 BKN120 30/22 A2975=
201504302351 METAR MRLB 010000Z 30003KT 9999 FEW035 BKN130 29/22 A2978=
201505010000 METAR MRLB 010000Z 30003KT 9999 FEW035 BKN130 29/22 A2978=
201505010100 METAR MRLB 010100Z 27005KT 9999 FEW035 BKN130 27/23 A2980=
201505010200 METAR MRLB 010200Z 27003KT 9999 FEW035 BKN130 27/23 A2984=
201505010300 METAR MRLB NIL=
201505010400 METAR MRLB NIL=
201505010500 METAR MRLB NIL=
201505010600 METAR MRLB NIL=
201505010700 METAR MRLB NIL=
201505010800 METAR MRLB NIL=
201505010900 METAR MRLB NIL=
201505011000 METAR MRLB NIL=
201505011100 METAR MRLB NIL=
201505011200 METAR MRLB 011200Z 32002KT 9999 FEW035 BKN130 25/23 A2981=
201505011300 METAR MRLB 011300Z 22003KT CAVOK 26/22 A2983=
201505011400 METAR MRLB 011400Z 20004KT CAVOK 29/21 A2986=
201505011500 METAR MRLB 011500Z 23003KT 9999 FEW035 BKN200 31/20 A2987=
201505011600 METAR MRLB 011600Z 08012KT 9999 SCT035 BKN200 34/19 A2985=
201505011700 METAR MRLB 011700Z 09006KT 9999 SCT035 BKN200 33/18 A2984=
201505011800 METAR MRLB 011800Z 10009KT 9999 SCT035 BKN200 35/18 A2982=
201505011900 METAR MRLB 011900Z 08011KT 9999 FEW035 SCT140 BKN250 36/17 A2978=
201505012000 METAR MRLB 012000Z 10008KT 9999 SCT035 BKN140 37/17 A2975=
201505012100 METAR MRLB 012100Z 11008KT 9999 SCT035 SCT140 36/18 A2972=
201505012200 METAR MRLB 012200Z 11018KT 9999 FEW030TCU BKN140 32/20 A2970=
201505012300 METAR MRLB 012300Z 14010KT 9999 SCT040 SCT130 30/20 A2976=
201505012352 METAR MRLB 020000Z 18007KT 9999 FEW040 BKN130 27/21 A2979=
201505020000 METAR MRLB 020000Z 18007KT 9999 FEW040 BKN130 27/21 A2979=
201505020100 METAR MRLB 020100Z 16006KT 9999 FEW040 BKN130 27/21 A2982=
201505020200 METAR MRLB 020200Z 18005KT CAVOK 27/22 A2984=
201505020300 METAR MRLB NIL=
201505020400 METAR MRLB NIL=
201505020500 METAR MRLB NIL=
201505020600 METAR MRLB NIL=
201505020700 METAR MRLB NIL=
201505020800 METAR MRLB NIL=
201505020900 METAR MRLB NIL=
201505021000 METAR MRLB NIL=
201505021100 METAR MRLB NIL=
201505021200 METAR MRLB 021200Z 05004KT CAVOK 23/21 A2978=
201505021300 METAR MRLB 021300Z 00000KT CAVOK 26/21 A2981=
201505021400 METAR MRLB 021400Z 27005KT CAVOK 28/21 A2982=
201505021500 METAR MRLB 021500Z 09015KT CAVOK 33/18 A2982=
201505021600 METAR MRLB 021600Z 11012KT 9999 FEW035 BKN250 34/18 A2981=
201505021700 METAR MRLB 021700Z 09017KT 9999 SCT035 BKN250 34/17 A2981=
201505021800 METAR MRLB 021800Z 10012KT 9999 FEW035 BKN250 35/17 A2980=
201505021900 METAR MRLB 021900Z 11011KT 9999 SCT035 BKN250 36/17 A2976=
201505022000 METAR MRLB 022000Z 12009KT 9999 FEW035 SCT120 36/16 A2973=
201505022100 METAR MRLB 022100Z 13008KT 9999 FEW040 SCT120 36/15 A2972=
201505022200 METAR MRLB 022200Z 09010KT 9999 FEW040 SCT120 34/16 A2970=
201505022300 METAR MRLB 022300Z 08010KT CAVOK 34/16 A2971=
201505022355 METAR MRLB 030000Z 11009KT CAVOK 32/17 A2975=
201505030000 METAR MRLB 030000Z 11009KT CAVOK 32/17 A2975=
201505030100 METAR MRLB 030100Z 12007KT CAVOK 31/17 A2978=
201505030200 METAR MRLB 030200Z 11008KT CAVOK 30/18 A2981=
201505030300 METAR MRLB NIL=
201505030400 METAR MRLB NIL=
201505030500 METAR MRLB NIL=
201505030600 METAR MRLB NIL=
201505030700 METAR MRLB NIL=
201505030800 METAR MRLB NIL=
201505030900 METAR MRLB NIL=
201505031000 METAR MRLB NIL=
201505031100 METAR MRLB NIL=
201505031200 METAR MRLB 031200Z 35002KT CAVOK 22/18 A2980=
201505031300 METAR MRLB 031300Z 06004KT CAVOK 26/18 A2983=
201505031400 METAR MRLB 031400Z 32002KT CAVOK 29/18 A2984=
201505031500 METAR MRLB 031500Z 30004KT CAVOK 31/16 A2984=
201505031600 METAR MRLB 031600Z 22002KT CAVOK 33/16 A2983=
201505031700 METAR MRLB 031700Z 26005KT CAVOK 34/16 A2980=
201505031800 METAR MRLB 031800Z 09016KT 9999 FEW040 SCT250 36/14 2978=
201505031900 METAR MRLB 031900Z 10012KT 9999 FEW040 SCT250 35/15 A2976=
201505032000 METAR MRLB 032000Z 08011KT 9999 FEW035 SCT250 36/16 A2974=
201505032100 METAR MRLB 032100Z 07010KT 9999 SCT035 SCT250 36/16 A2973=
201505032200 METAR MRLB 032200Z 08012KT 9999 SCT035 SCT250 35/17 A2972=
201505032300 METAR MRLB 032300Z 07014KT 9999 FEW035 SCT250 34/16 A2972=
201505032350 METAR MRLB 040000Z 08011KT 9999 FEW035 SCT250 32/17 A2976=
201505040000 METAR MRLB 040000Z 08011KT 9999 FEW035 SCT250 32/17 A2976=
201505040100 METAR MRLB 040100Z 09009KT 9999 FEW035 SCT250 30/19 A2978=
201505040200 METAR MRLB 040200Z 10009KT 9999 FEW035 SCT250 29/19 A2981=
201505040300 METAR MRLB NIL=
201505040400 METAR MRLB NIL=
201505040500 METAR MRLB NIL=
201505040600 METAR MRLB NIL=
201505040700 METAR MRLB NIL=
201505040800 METAR MRLB NIL=
201505040900 METAR MRLB NIL=
201505041000 METAR MRLB NIL=
201505041100 METAR MRLB NIL=
201505041200 METAR MRLB 041200Z 15005KT CAVOK 24/19 A2982=
201505041300 METAR MRLB 041300Z 03006KT CAVOK 26/19 A2983=
201505041400 METAR MRLB 041400Z 04006KT CAVOK 29/19 A2986=
201505041500 METAR MRLB 041500Z 32004KT CAVOK 31/19 A2985=
201505041600 METAR MRLB 041600Z 29008KT 9999 SCT035 SCT250 32/19 A2986=
201505041700 METAR MRLB 041700Z 26004KT 9999 SCT035 BKN250 32/19 A2986=
201505041800 METAR MRLB 041800Z 10011KT 9999 SCT035 BKN250 34/19 A2983=
201505041900 METAR MRLB 041900Z 09012G22KT 9999 SCT030 SCT140 34/18 A2980=
201505042000 METAR MRLB 042000Z 08012KT 9999 BKN030 SCT120 33/18 A2978=
201505042100 METAR MRLB 042100Z 09014KT 9999 SCT030 SCT100 32/18 A2976=
201505042200 METAR MRLB 042200Z 07013KT 9999 FEW035 BKN100 32/17 A2977=
201505042300 METAR MRLB 042300Z 08012KT 9999 SCT035 BKN100 31/16 A2979=
201505042352 METAR MRLB 050000Z 09011KT 9999 SCT035 BKN100 30/17 A2980=
201505050000 METAR MRLB 050000Z 09011KT 9999 SCT035 BKN100 30/17 A2980=
201505050100 METAR MRLB 050100Z 12007KT 9999 FEW035 SCT100 30/17 A2982=
201505050200 METAR MRLB 050200Z 13010KT 9999 FEW035 BKN120 29/18 A2983=
201505050300 METAR MRLB NIL=
201505050400 METAR MRLB NIL=
201505050500 METAR MRLB NIL=
201505050600 METAR MRLB NIL=
201505050700 METAR MRLB NIL=
201505050800 METAR MRLB NIL=
201505050900 METAR MRLB NIL=
201505051000 METAR MRLB NIL=
201505051100 METAR MRLB NIL=
201505051200 METAR MRLB 051200Z 24003KT CAVOK 22/16 A2985=
201505051300 METAR MRLB 051300Z 05003KT CAVOK 24/16 A2987=
201505051400 METAR MRLB 051400Z 34002KT CAVOK 28/17 A2989=
201505051500 METAR MRLB 051500Z 09013KT CAVOK 32/18 A2988=
201505051600 METAR MRLB 051600Z 09014KT 9999 FEW035 BKN140 33/18 A2987=
201505051700 METAR MRLB 051700Z 07012KT 9999 FEW035 SCT140 34/18 A2986=
201505051800 METAR MRLB 051800Z 12010KT 9999 SCT035 SCT250 34/18 A2984=
201505051900 METAR MRLB 051900Z 06010KT 9999 FEW035 BKN250 35/18 A2979=
201505052000 METAR MRLB 052000Z 07011KT 9999 FEW035 SCT250 35/18 A2976=
201505052100 METAR MRLB 052100Z 07009KT 9999 FEW030 SCT250 35/17 A2973=
201505052200 METAR MRLB 052200Z 07012KT 9999 FEW040 SCT250 35/16 A2973=
201505052300 METAR MRLB 052300Z 08009KT 9999 SCT040 34/17 A2975=
201505052352 METAR MRLB 060000Z 09004KT 9999 BKN035 32/17 A2978=
201505060000 METAR MRLB 060000Z 09004KT 9999 BKN035 32/17 A2978=
201505060100 METAR MRLB 060100Z 14005KT 9999 BKN040 31/17 A2981=
201505060200 METAR MRLB 060200Z 15006KT 9999 SCT040 31/17 A2983=
201505060300 METAR MRLB NIL=
201505060400 METAR MRLB NIL=
201505060500 METAR MRLB NIL=
201505060600 METAR MRLB NIL=
201505060700 METAR MRLB NIL=
201505060800 METAR MRLB NIL=
201505060900 METAR MRLB NIL=
201505061000 METAR MRLB NIL=
201505061100 METAR MRLB NIL=
201505061200 METAR MRLB 061200Z 00000KT CAVOK 23/19 A2983=
201505061300 METAR MRLB 061300Z 32004KT CAVOK 26/19 A2984=
201505061400 METAR MRLB 061400Z 28002KT CAVOK 29/19 A2986=
201505061500 METAR MRLB 061500Z 24006KT CAVOK 31/19 A2987=
201505061600 METAR MRLB 061600Z 29003KT 9999 FEW035 33/18 A2984=
201505061700 METAR MRLB 061700Z 10009KT 9999 FEW035 35/17 A2981=
201505061800 METAR MRLB 061800Z 08005KT 9999 SCT035 36/17 A2980=
201505061850 METAR MRLB 081900Z 28009KT 9999 SCT030 33/19 A2977=
201505061900 METAR MRLB NIL=
201505062000 METAR MRLB 062000Z 29010KT 9999 FEW020TCU SCT030 BKN250 33/20 A2975=
201505062100 METAR MRLB 062100Z 28010KT 9999 SCT030 BKN200 32/20 A2974=
201505062200 METAR MRLB 062200Z 29008KT 9999 SCT030 BKN200 32/19 A2973=
201505062300 METAR MRLB 062300Z 28007KT 9999 SCT035 BKN250 32/19 A2973=
201505062351 METAR MRLB 070000Z 15010KT 9999 VCSH SCT030 BKN130 28/22 A2977=
201505070000 METAR MRLB 070000Z 15010KT 9999 VCSH SCT030 BKN130 28/22 A2977=
201505070100 METAR MRLB 070100Z 17004KT 9999 SCT030 BKN130 26/23 A2979=
201505070200 METAR MRLB 070200Z 20003KT 9999 SCT030 BKN120 26/23 A2982=
201505070300 METAR MRLB NIL=
201505070400 METAR MRLB NIL=
201505070500 METAR MRLB NIL=
201505070600 METAR MRLB NIL=
201505070700 METAR MRLB NIL=
201505070800 METAR MRLB NIL=
201505070900 METAR MRLB NIL=
201505071000 METAR MRLB NIL=
201505071100 METAR MRLB NIL=
201505071200 METAR MRLB 071200Z 22003KT CAVOK 25/20 A2981=
201505071300 METAR MRLB 071300Z 05005KT CAVOK 27/20 A2983=
201505071400 METAR MRLB 071400Z 32003KT CAVOK 30/20 A2984=
201505071500 METAR MRLB 071500Z 24003KT CAVOK 31/19 A2984=
201505071600 METAR MRLB 071600Z 09003KT CAVOK 33/18 A2981=
201505071700 METAR MRLB 071700Z 29008KT 9999 SCT035 SCT250 35/19 A2980=
201505071800 METAR MRLB 071800Z 28007KT 9999 SCT035 SCT250 35/18 A2977=
201505071900 METAR MRLB 071900Z 30003KT 9999 SCT030 SCT250 35/18 A2975=
201505072000 METAR MRLB 072000Z 13006KT 9999 BKN030 35/18 A2973=
201505072100 METAR MRLB 072100Z 03004KT 9999 BKN030 36/18 A2971=
201505072200 METAR MRLB 072200Z 13002KT 9999 FEW025TCU SCT030 36/19 A2970=
201505072300 METAR MRLB 072300Z 09009KT 9999 SCT025 34/18 A2971=
201505072352 METAR MRLB 08000Z 09011KT 9999 FEW035 SCT250 33/20 A2974=
201505080000 METAR MRLB 08000Z 09011KT 9999 FEW035 SCT250 33/20 A2974=
201505080100 METAR MRLB 080100Z 09009KT CAVOK 31/20 A2977=
201505080200 METAR MRLB 080200Z 10013KT CAVOK 30/20 A2978=
201505080300 METAR MRLB NIL=
201505080400 METAR MRLB NIL=
201505080500 METAR MRLB NIL=
201505080600 METAR MRLB NIL=
201505080700 METAR MRLB NIL=
201505080800 METAR MRLB NIL=
201505080900 METAR MRLB NIL=
201505081000 METAR MRLB NIL=
201505081100 METAR MRLB NIL=
201505081200 METAR MRLB 081200Z 00000KT CAVOK 27/19 A2978=
201505081300 METAR MRLB 081300Z 33003KT CAVOK 27/20 A2981=
201505081400 METAR MRLB 081400Z 27002KT CAVOK 31/19 A2980=
201505081500 METAR MRLB 081500Z 10016KT 9999 FEW035 32/19 A2981=
201505081600 METAR MRLB 081600Z 08014KT 9999 FEW035 34/19 A2980=
201505081700 METAR MRLB 081700Z 11011KT 9999 SCT035 34/19 A2979=
201505081800 METAR MRLB 081800Z 11011KT 9999 SCT035 35/19 A2978=
201505081900 METAR MRLB 081900Z 11007KT 9999 FEW030 SCT045 34/19 A2975=
201505082000 METAR MRLB 082000Z COR 08010KT 9999 SCT035 35/18 A2973=
201505082100 METAR MRLB 082100Z 07010KT 9999 FEW035 36/18 A2971=
201505082200 METAR MRLB 082200Z 06010KT 9999 FEW035 36/18 A2970=
201505082251 METAR MRLB 08230Z 07013KT 9999 FEW040 34/19 A2972=
201505082300 METAR MRLB 082300Z COR 07013KT 9999 FEW040 34/19 A2972=
201505082350 METAR MRLB 090000Z 10013KT CAVOK 32/19 A2973=
201505090000 METAR MRLB 090000Z 10013KT CAVOK 32/19 A2973=
201505090100 METAR MRLB 090100Z 09010KT CAVOK 31/19 A2976=
201505090200 METAR MRLB 090200Z 10013KT CAVOK 30/19 A2979=
201505090300 METAR MRLB NIL=
201505090400 METAR MRLB NIL=
201505090500 METAR MRLB NIL=
201505090600 METAR MRLB NIL=
201505090700 METAR MRLB NIL=
201505090800 METAR MRLB NIL=
201505090900 METAR MRLB NIL=
201505091000 METAR MRLB NIL=
201505091100 METAR MRLB NIL=
201505091200 METAR MRLB 091200Z 23005KT CAVOK 26/19 A2978=
201505091300 METAR MRLB 091300Z 25008KT CAVOK 27/19 A2980=
201505091400 METAR MRLB 091400Z 27007KT CAVOK 30/18 A2981=
201505091500 METAR MRLB 091500Z 20004KT CAVOK 32/19 A2981=
201505091600 METAR MRLB 091600Z 12008KT 9999 FEW035 35/18 A2980=
201505091700 METAR MRLB 091700Z COR 07026G36KT 9999 FEW035 SCT100 34/18 A2979=
201505091800 METAR MRLB 091800Z 10017KT 9999 FEW040 SCT100 36/16 A2975=
201505091900 METAR MRLB 091900Z 09017G27KT CAVOK 35/18 A2973=
201505092000 METAR MRLB 092000Z 09019KT 9999 FEW035 SCT250 35/18 A2970=
201505092100 METAR MRLB 092100Z 08018KT 9999 FEW035 SCT250 35/18 A2969=
201505092200 METAR MRLB 092200Z 07017KT 9999 FEW035 SCT250 35/18 A2969=
201505092300 METAR MRLB 092300Z 08015KT CAVOK 33/19 A2970=
201505092350 METAR MRLB 100000Z 09016KT CAVOK 31/19 A2972=
201505100000 METAR MRLB 100000Z 09016KT CAVOK 31/19 A2972=
201505100100 METAR MRLB 100100Z 09017KT CAVOK 30/19 A2973=
201505100200 METAR MRLB 100200Z 09014KT CAVOK 29/20 A2976=
201505100300 METAR MRLB NIL=
201505100400 METAR MRLB NIL=
201505100500 METAR MRLB NIL=
201505100600 METAR MRLB NIL=
201505100700 METAR MRLB NIL=
201505100800 METAR MRLB NIL=
201505100900 METAR MRLB NIL=
201505101000 METAR MRLB NIL=
201505101100 METAR MRLB NIL=
201505101200 METAR MRLB 101200Z 07005KT CAVOK 25/19 A2975=
201505101300 METAR MRLB 101300Z 32003KT CAVOK 29/19 A2976=
201505101400 METAR MRLB 101400Z 09016KT CAVOK 31/20 A2976=
201505101500 METAR MRLB 101500Z 08016KT 9999 FEW035 SCT250 32/19 A2977=
201505101600 METAR MRLB 101600Z 08022KT 9999 FEW035 SCT250 33/19 A2976=
201505101700 METAR MRLB 101700Z 09015KT 9999 FEW035 SCT250 34/18 A2976=
201505101800 METAR MRLB 101800Z 08014KT 9999 FEW035 SCT250 35/18 A2975=
201505101900 METAR MRLB 101900Z 07013KT 9999 FEW035 SCT250 36/18 A2973=
201505102000 METAR MRLB 102000Z 08012KT 9999 SCT035 36/18 A2972=
201505102100 METAR MRLB 102100Z 08011KT 9999 SCT035 36/19 A2971=
201505102200 METAR MRLB 102200Z 09013KT 9999 FEW035 35/18 A2970=
201505102300 METAR MRLB 102300Z 07016KT 9999 FEW035 SCT250 33/18 A2971=
201505102352 METAR MRLB 110000Z 08016KT 9999 SCT035 SCT250 32/19 A2974=
201505110000 METAR MRLB 110000Z 08016KT 9999 SCT035 SCT250 32/19 A2974=
201505110100 METAR MRLB 110100Z 09010KT 9999 FEW035 SCT250 30/20 A2977=
201505110200 METAR MRLB 110200Z 11010KT 9999 FEW035 SCT250 29/20 A2979=
201505110300 METAR MRLB NIL=
201505110400 METAR MRLB NIL=
201505110500 METAR MRLB NIL=
201505110600 METAR MRLB NIL=
201505110700 METAR MRLB NIL=
201505110800 METAR MRLB NIL=
201505110900 METAR MRLB NIL=
201505111000 METAR MRLB NIL=
201505111100 METAR MRLB NIL=
201505111200 METAR MRLB 111200Z 30002KT CAVOK 25/20 A2975=
201505111300 METAR MRLB 111300Z 20002KT CAVOK 29/20 A2978=
201505111400 METAR MRLB 111400Z 08014KT CAVOK 32/19 A2977=
201505111500 METAR MRLB 111500Z 04011KT CAVOK 33/19 A2978=
201505111600 METAR MRLB 111600Z 09020KT 9999 FEW035 SCT250 34/19 A2976=
201505111700 METAR MRLB 111700Z 09016KT 9999 FEW035 35/18 A2975=
201505111800 METAR MRLB 111800Z 08019KT 9999 FEW035 35/19 A2973=
201505111900 METAR MRLB 111900Z 09015G25KT 9999 FEW035 35/18 A2971=
201505112000 METAR MRLB 112000Z 08016KT 9999 FEW035 36/18 A2970=
201505112100 METAR MRLB 112100Z 08017KT 9999 FEW035 SCT240 35/20 A2969=
201505112200 METAR MRLB 112200Z 09019KT CAVOK 34/18 A2970=
201505112300 METAR MRLB 112300Z 08015KT CAVOK 33/19 A2971=
201505112351 METAR MRLB 120000Z 09015KT CAVOK 31/19 A2973=
201505120000 METAR MRLB 120000Z 09015KT CAVOK 31/19 A2973=
201505120100 METAR MRLB 120100Z 09022G33KT CAVOK 30/19 A2976=
201505120200 METAR MRLB 120200Z 08015KT CAVOK 29/19 A2980=
201505120300 METAR MRLB NIL=
201505120400 METAR MRLB NIL=
201505120500 METAR MRLB NIL=
201505120600 METAR MRLB NIL=
201505120700 METAR MRLB NIL=
201505120800 METAR MRLB NIL=
201505120900 METAR MRLB NIL=
201505121000 METAR MRLB NIL=
201505121100 METAR MRLB NIL=
201505121200 METAR MRLB 121200Z 21004KT CAVOK 25/20 A2973=
201505121300 METAR MRLB 121300Z 00000KT CAVOK 29/20 A2976=
201505121400 METAR MRLB 121400Z 09016KT CAVOK 32/19 A2977=
201505121500 METAR MRLB 121500Z 09017KT CAVOK 34/19 A2977=
201505121600 METAR MRLB 121600Z 09016G27KT 9999 FEW035 BKN240 34/19 A2977=
201505121700 METAR MRLB 121700Z 09017G28KT 9999 FEW035 BKN240 35/19 A2976=
201505121800 METAR MRLB 121800Z 09016KT 9999 FEW035 BKN220 37/19 A2975=
201505121900 METAR MRLB 121900Z 08015G25KT 9999 FEW035 SCT250 36/18 A2973=
201505122000 METAR MRLB 122000Z 08017KT 9999 FEW035 SCT250 36/19 A2972=
201505122100 METAR MRLB 122100Z 08019KT 9999 FEW035 SCT250 36/18 A2971=
201505122200 METAR MRLB 122200Z 08018KT 9999 FEW035 BKN250 34/18 A2970=
201505122300 METAR MRLB 122300Z 09017KT 9999 FEW035 BKN250 32/19 A2972=
201505122350 METAR MRLB 130000Z 09014KT CAVOK 30/20 A2975=
201505130000 METAR MRLB 130000Z 09014KT CAVOK 30/20 A2975=
201505130100 METAR MRLB 130100Z 08018KT CAVOK 29/20 A2976=
201505130200 METAR MRLB 130200Z 09018KT CAVOK 29/19 A2980=
201505130300 METAR MRLB NIL=
201505130400 METAR MRLB NIL=
201505130500 METAR MRLB NIL=
201505130600 METAR MRLB NIL=
201505130700 METAR MRLB NIL=
201505130800 METAR MRLB NIL=
201505130900 METAR MRLB NIL=
201505131000 METAR MRLB NIL=
201505131100 METAR MRLB NIL=
201505131200 METAR MRLB 131200Z 07012KT 9999 FEW035 SCT250 28/19 A2980=
201505131300 METAR MRLB 131300Z 07019KT 9999 FEW035 BKN250 30/19 A2981=
201505131400 METAR MRLB 131400Z 08022G32KT 9999 FEW035 BKN250 31/19 A2980=
201505131500 METAR MRLB 131500Z 09020KT 9999 FEW035 BKN250 31/19 A2980=
201505131600 METAR MRLB 131600Z 08021G31KT 9999 FEW035 BKN250 33/19 A2979=
201505131700 METAR MRLB 131700Z 07023KT 9999 FEW035 BKN250 33/19 A2977=
201505131800 METAR MRLB 131800Z 07021KT 9999 FEW035 BKN250 35/19 A2976=
201505131900 METAR MRLB 131900Z 06020G30KT 9999 FEW035 SCT250 36/19 A2973=
201505132000 METAR MRLB 132000Z 07019KT 9999 FEW035 OVC160 35/19 A2973=
201505132100 METAR MRLB 132100Z 06024KT 9999 FEW035 OVC160 35/18 A2971=
201505132200 METAR MRLB 132200Z 07019KT 9999 FEW035 OVC160 34/17 A2972=
201505132300 METAR MRLB 132300Z 06022KT CAVOK 32/18 A2973=
201505132352 METAR MRLB 140000Z 07025KT CAVOK 30/18 A2975=
201505140000 METAR MRLB 140000Z 07025KT CAVOK 30/18 A2975=
201505140100 METAR MRLB 140100Z 07020KT CAVOK 29/18 A2977=
201505140200 METAR MRLB 140200Z 09021KT CAVOK 29/19 A2978=
201505140300 METAR MRLB NIL=
201505140400 METAR MRLB NIL=
201505140500 METAR MRLB NIL=
201505140600 METAR MRLB NIL=
201505140700 METAR MRLB NIL=
201505140800 METAR MRLB NIL=
201505140900 METAR MRLB NIL=
201505141000 METAR MRLB NIL=
201505141100 METAR MRLB NIL=
201505141200 METAR MRLB 141200Z 06010G21KT CAVOK 28/19 A2977=
201505141300 METAR MRLB 141300Z 06016G27KT CAVOK 30/18 A2977=
201505141400 METAR MRLB 141400Z 09015KT CAVOK 31/18 A2977=
201505141500 METAR MRLB 141500Z 08020KT 9999 FEW035 BKN250 32/18 A2979=
201505141600 METAR MRLB 141600Z 09021G31KT 9999 FEW035 SCT250 33/18 A2979=
201505141700 METAR MRLB 141700Z 07026KT 9999 FEW035 SCT250 34/17 A2979=
201505141800 METAR MRLB 141800Z 08023KT 9999 FEW035 SCT250 35/17 A2978=
201505141900 METAR MRLB 141900Z 07020G30KT 9999 FEW035 SCT250 36/17 A2975=
201505142000 METAR MRLB 142000Z 08024KT 9999 FEW035 SCT240 36/16 A2974=
201505142100 METAR MRLB 142100Z 07020KT 9999 FEW040 SCT140 BKN240 35/17 A2974=
201505142200 METAR MRLB 142200Z 08019KT CAVOK 33/17 A2974=
201505142300 METAR MRLB 142300Z 08020G30KT CAVOK 33/18 A2975=
201505142351 METAR MRLB 150000Z 08020KT CAVOK 31/18 A2976=
201505150000 METAR MRLB 150000Z 08020KT CAVOK 31/18 A2976=
201505150100 METAR MRLB 150100Z COR 08020KT CAVOK 30/18 A2978=
201505150200 METAR MRLB 150200Z 09019G31KT CAVOK 29/18 A2981=
201505150300 METAR MRLB NIL=
201505150400 METAR MRLB NIL=
201505150500 METAR MRLB NIL=
201505150600 METAR MRLB NIL=
201505150700 METAR MRLB NIL=
201505150800 METAR MRLB NIL=
201505150900 METAR MRLB NIL=
201505151000 METAR MRLB NIL=
201505151100 METAR MRLB NIL=
201505151200 METAR MRLB 151200Z 06008KT CAVOK 27/19 A2979=
201505151300 METAR MRLB 151300Z 06009KT CAVOK 29/19 A2979=
201505151400 METAR MRLB 151400Z 01005KT CAVOK 30/19 A2982=
201505151500 METAR MRLB 151500Z 09017KT 9999 FEW035 BKN140 31/20 A2983=
201505151600 METAR MRLB 151600Z 07019KT 9999 FEW030 BKN140 32/19 A2983=
201505151700 METAR MRLB 151700Z 07018KT 9999 FEW030 BKN140 33/19 A2984=
201505151800 METAR MRLB 151800Z 07016KT 9999 FEW035 SCT140 34/19 A2982=
201505151900 METAR MRLB 151900Z 08015G25KT 9999 SCT030 SCT120 33/18 A2982=
201505152000 METAR MRLB 152000Z 09021KT 9999 SCT035 BKN120 32/18 A2980=
201505152100 METAR MRLB 152100Z 09015KT 9999 SCT035 BKN120 32/18 A2979=
201505152200 METAR MRLB 152200Z 09014KT 9999 FEW035 BKN120 30/18 A2978=
201505152300 METAR MRLB 152300Z 09016KT 9999 FEW035 BKN130 29/18 A2980=
201505152350 METAR MRLB 160000Z 09018KT 9999 FEW035 BKN130 29/18 A2980=
201505160000 METAR MRLB 160000Z 09018KT 9999 FEW035 BKN130 29/18 A2980=
201505160100 METAR MRLB 160100Z 10014KT 9999 FEW035 BKN130 28/17 A2982=
201505160200 METAR MRLB 160200Z 09016KT 9999 FEW035 BKN140 28/17 A2985=
201505160300 METAR MRLB NIL=
201505160400 METAR MRLB NIL=
201505160500 METAR MRLB NIL=
201505160600 METAR MRLB NIL=
201505160700 METAR MRLB NIL=
201505160800 METAR MRLB NIL=
201505160900 METAR MRLB NIL=
201505161000 METAR MRLB NIL=
201505161100 METAR MRLB NIL=
201505161200 METAR MRLB 161200Z 16003KT 9999 FEW035 BKN130 24/18 A2984=
201505161300 METAR MRLB 161300Z 28003KT 9999 FEW035 BKN130 25/18 A2986=
201505161400 METAR MRLB 161400Z 32004KT 9999 FEW035 BKN140 27/18 A2987=
201505161500 METAR MRLB 161500Z 23003KT CAVOK 31/17 A2987=
201505161600 METAR MRLB 161600Z 09008KT 9999 FEW035 BKN250 33/18 A2987=
201505161700 METAR MRLB 161700Z 09016KT 9999 FEW035 BKN250 33/19 A2985=
201505161800 METAR MRLB 161800Z 10015KT 9999 FEW035 BKN200 34/18 A2984=
201505161900 METAR MRLB 161900Z 10014KT 9999 SCT035 BKN200 35/18 A2982=
201505162000 METAR MRLB 162000Z 09016KT 9999 FEW030 BKN100 33/18 A2981=
201505162100 METAR MRLB 162100Z 08019KT 9999 SCT035 BKN100 31/18 A2982=
201505162200 METAR MRLB 162200Z 08021KT 9999 VCSH BKN035 SCT100 29/19 A2985=
201505162300 METAR MRLB 162300Z 14007KT 9999 -RA FEW030 OVC100 25/21 A2987=
201505162352 METAR MRLB 170000Z 12010KT 9999 FEW035 OVC100 26/20 A2986=
201505170000 METAR MRLB 170000Z 12010KT 9999 FEW035 OVC100 26/20 A2986=
201505170100 METAR MRLB 170100Z 11007KT 9999 FEW035 OVC100 26/20 A2989=
201505170200 METAR MRLB 170200Z 17007KT 9999 FEW035 OVC100 26/19 A2990=
201505170300 METAR MRLB NIL=
201505170400 METAR MRLB NIL=
201505170500 METAR MRLB NIL=
201505170600 METAR MRLB NIL=
201505170700 METAR MRLB NIL=
201505170800 METAR MRLB NIL=
201505170900 METAR MRLB NIL=
201505171000 METAR MRLB NIL=
201505171100 METAR MRLB NIL=
201505171200 METAR MRLB 171200Z 00000KT CAVOK 22/20 A2984=
201505171300 METAR MRLB 171300Z 18004KT CAVOK 24/20 A2986=
201505171400 METAR MRLB 171400Z 21003KT CAVOK 26/20 A2987=
201505171500 METAR MRLB 171500Z 15002KT CAVOK 29/20 A2988=
201505171600 METAR MRLB 171600Z 09015KT CAVOK 33/18 A2986=
201505171700 METAR MRLB 171700Z 09015KT CAVOK 34/17 A2986=
201505171800 METAR MRLB 171800Z 08014KT 9999 FEW035 SCT140 35/18 A2985=
201505171900 METAR MRLB 171900Z 07017KT 9999 FEW035 BKN140 34/18 A2984=
201505172000 METAR MRLB 172000Z 09012G23KT 9999 FEW035 BKN140 35/18 A2982=
201505172100 METAR MRLB 172100Z 09009KT 9999 SCT035 SCT140 35/18 A2981=
201505172200 METAR MRLB 172200Z 28011KT 9999 VCSH FEW020TCU SCT030 29/22 A2982=
201505172300 METAR MRLB 172300Z 20002KT 9999 SCT025 SCT100 31/20 A2984=
201505172355 METAR MRLB 180000Z 07009KT 9999 SCT030 SCT100 30/18 A2986=
201505180000 METAR MRLB 180000Z 07009KT 9999 SCT030 SCT100 30/18 A2986=
201505180100 METAR MRLB 180100Z 07012KT 9999 FEW035 SCT120 29/20 A2990=
201505180200 METAR MRLB 180200Z 07011KT 9999 FEW035 SCT120 28/19 A2992=
201505180300 METAR MRLB NIL=
201505180400 METAR MRLB NIL=
201505180500 METAR MRLB NIL=
201505180600 METAR MRLB NIL=
201505180700 METAR MRLB NIL=
201505180800 METAR MRLB NIL=
201505180900 METAR MRLB NIL=
201505181000 METAR MRLB NIL=
201505181100 METAR MRLB NIL=
201505181200 METAR MRLB 181200Z 31002KT CAVOK 26/19 A2987=
201505181300 METAR MRLB 181300Z 01006KT CAVOK 27/20 A2988=
201505181400 METAR MRLB 181400Z 04004KT CAVOK 28/18 A2989=
201505181500 METAR MRLB 181500Z 09015KT CAVOK 30/18 A2989=
201505181600 METAR MRLB 181600Z 09015KT CAVOK 33/16 A2989=
201505181700 METAR MRLB 181700Z 07018KT CAVOK 34/17 A2989=
201505181800 METAR MRLB 181800Z COR 07014G26KT 9999 FEW040 BKN240 35/18 A2987=
201505181900 METAR MRLB 181900Z 11012KT 9999 FEW030 BKN250 34/17 A2985=
201505182000 METAR MRLB 182000Z 06014KT 9999 FEW035 BKN250 34/18 A2983=
201505182100 METAR MRLB 182100Z 08013KT 9999 FEW035 BKN200 34/18 A2981=
201505182200 METAR MRLB 182200Z 07014KT 9999 FEW035 BKN200 33/18 A2981=
201505182300 METAR MRLB 182300Z 06012KT 9999 FEW035 BKN200 32/18 A2982=
201505182350 METAR MRLB 190000Z 08011KT 9999 FEW035 BKN200 31/18 A2985=
201505190000 METAR MRLB 190000Z 08011KT 9999 FEW035 BKN200 31/18 A2985=
201505190100 METAR MRLB 190100Z 09011KT 9999 FEW035 BKN200 29/19 A2987=
201505190200 METAR MRLB 190200Z 08003KT 9999 FEW035 BKN200 29/19 A2989=
201505190300 METAR MRLB NIL=
201505190400 METAR MRLB NIL=
201505190500 METAR MRLB NIL=
201505190600 METAR MRLB NIL=
201505190700 METAR MRLB NIL=
201505190800 METAR MRLB NIL=
201505190900 METAR MRLB NIL=
201505191000 METAR MRLB NIL=
201505191100 METAR MRLB NIL=
201505191200 METAR MRLB 191200Z 10011KT 9999 FEW035 BKN120 27/19 A2983=
201505191300 METAR MRLB 191300Z 05004KT 9999 FEW035 BKN120 27/20 A2986=
201505191400 METAR MRLB 191400Z 10012KT 9999 FEW035 BKN120 30/18 A2987=
201505191500 METAR MRLB 191500Z 09013KT 9999 FEW035 BKN130 31/18 A2988=
201505191600 METAR MRLB 191600Z 09016KT 9999 FEW035 BKN130 33/19 A2989=
201505191700 METAR MRLB 191700Z 09012KT 9999 FEW035 BKN130 32/19 A2987=
201505191800 METAR MRLB 191800Z 10012KT 9999 FEW035 BKN130 32/19 A2986=
201505191900 METAR MRLB 191900Z 10014KT 9999 FEW035 BKN130 32/19 A2984=
201505192000 METAR MRLB 192000Z 10010KT 9999 -RA FEW030 BKN130 33/20 A2983=
201505192100 METAR MRLB 192100Z 07017KT 9999 SCT035 BKN120 33/19 A2981=
201505192200 METAR MRLB 192200Z 07014KT 9999 FEW035 OVC120 31/18 A2980=
201505192300 METAR MRLB 192300Z 11008KT CAVOK 30/19 A2980=
201505192352 METAR MRLB 200000Z 10014KT CAVOK 29/18 A2981=
201505200000 METAR MRLB 200000Z 10014KT CAVOK 29/18 A2981=
201505200100 METAR MRLB 200100Z 09011KT CAVOK 28/19 A2985=
201505200200 METAR MRLB 200200Z 09012KT CAVOK 28/19 A2986=
201505200300 METAR MRLB NIL=
201505200400 METAR MRLB NIL=
201505200500 METAR MRLB NIL=
201505200600 METAR MRLB NIL=
201505200700 METAR MRLB NIL=
201505200800 METAR MRLB NIL=
201505200900 METAR MRLB NIL=
201505201000 METAR MRLB NIL=
201505201100 METAR MRLB NIL=
201505201200 METAR MRLB 201200Z 00000KT CAVOK 24/19 A2983=
201505201300 METAR MRLB 201300Z 25002KT CAVOK 27/20 A2985=
201505201400 METAR MRLB 201400Z 26004KT CAVOK 28/20 A2987=
201505201500 METAR MRLB 201500Z 08003KT 9999 FEW035 OVC250 32/20 A2987=
201505201600 METAR MRLB 201600Z 11012KT 9999 FEW035 SCT130 BKN250 35/17 A2985=
201505201700 METAR MRLB 201700Z 11010G21KT 9999 FEW035 BKN130 33/19 A2984=
201505201800 METAR MRLB 201800Z 10016KT 9999 FEW035 BKN130 34/19 A2982=
201505201900 METAR MRLB 201900Z 09016KT 9999 FEW035 BKN130 32/18 A2982=
201505202000 METAR MRLB 202000Z 06004KT 9999 FEW045 BKN130 33/18 A2979=
201505202100 METAR MRLB 202100Z 11010KT CAVOK 33/17 A2977=
201505202200 METAR MRLB 202200Z 10015KT CAVOK 32/17 A2977=
201505202300 METAR MRLB 202300Z 10011KT CAVOK 31/18 A2979=
201505202353 METAR MRLB 210000Z 10012KT CAVOK 30/18 A2981=
201505210000 METAR MRLB 210000Z 10012KT CAVOK 30/18 A2981=
201505210100 METAR MRLB 210100Z 11011KT CAVOK 29/19 A2983=
201505210200 METAR MRLB 210200Z 09010KT CAVOK 29/19 A2986=
201505210300 METAR MRLB NIL=
201505210400 METAR MRLB NIL=
201505210500 METAR MRLB NIL=
201505210600 METAR MRLB NIL=
201505210700 METAR MRLB NIL=
201505210800 METAR MRLB NIL=
201505210900 METAR MRLB NIL=
201505211000 METAR MRLB NIL=
201505211100 METAR MRLB NIL=
201505211200 METAR MRLB 211200Z 34002KT CAVOK 24/19 A2983=
201505211300 METAR MRLB 211300Z 00000KT CAVOK 27/19 A2985=
201505211400 METAR MRLB 211400Z 35004KT CAVOK 28/19 A2986=
201505211500 METAR MRLB 211500Z 10008KT CAVOK 32/18 A2987=
201505211600 METAR MRLB 211600Z 11012KT 9999 FEW040 SCT130 BKN250 32/19 A2988=
201505211700 METAR MRLB 211700Z 08014KT 9999 SCT035 SCT130 34/19 A2987=
201505211800 METAR MRLB 211800Z 11012KT 9999 SCT030 SCT120 34/19 A2985=
201505211900 METAR MRLB 211900Z 08012G22KT 9999 SCT030 SCT120 34/19 A2982=
201505212000 METAR MRLB 212000Z 08010KT 9999 SCT030 SCT 130 35/19 A2980=
201505212100 METAR MRLB 212100Z 08010KT 9999 SCT030 BKN120 34/19 A2979=
201505212200 METAR MRLB 212200Z 31005KT 9999 SCT025 BKN120 32/21 A2980=
201505212300 METAR MRLB 212300Z 25005KT 9999 SCT030 BKN120 30/21 A2982=
201505212350 METAR MRLB 220000Z 13006KT 9999 FEW030 BKN120 30/20 A2983=
201505220000 METAR MRLB 220000Z 13006KT 9999 FEW030 BKN120 30/20 A2983=
201505220100 METAR MRLB 220100Z 28004KT 9999 FEW035 BKN120 28/23 A2984=
201505220200 METAR MRLB 220200Z 22004KT 9999 FEW035 BKN130 28/19 A2987=
201505220300 METAR MRLB NIL=
201505220400 METAR MRLB NIL=
201505220500 METAR MRLB NIL=
201505220600 METAR MRLB NIL=
201505220700 METAR MRLB NIL=
201505220800 METAR MRLB NIL=
201505220900 METAR MRLB NIL=
201505221000 METAR MRLB NIL=
201505221100 METAR MRLB NIL=
201505221200 METAR MRLB 221200Z 35003KT CAVOK 25/20 A2984=
201505221300 METAR MRLB 221300Z 16003KT CAVOK 28/20 A2986=
201505221400 METAR MRLB 221400Z 17003KT CAVOK 30/19 A2986=
201505221500 METAR MRLB 221500Z 08012KT CAVOK 32/18 A2986=
201505221600 METAR MRLB 221600Z 09016KT 9999 FEW035 SCT250 33/19 A2986=
201505221700 METAR MRLB 221700Z 08012KT 9999 FEW030 SCT250 34/19 A2986=
201505221800 METAR MRLB 221800Z 11014KT 9999 FEW030 SCT250 34/19 A2985=
201505221900 METAR MRLB 221900Z 10013KT 9999 FEW030 SCT250 35/18 A2983=
201505222000 METAR MRLB 222000Z 11010KT 9999 SCT030 SCT250 36/18 A2980=
201505222100 METAR MRLB 222100Z 07019KT 9999 SCT030 SCT100 34/19 A2980=
201505222200 METAR MRLB 222200Z 08011KT 9999 FEW020TCU SCT030 SCT100 33/19 A2981=
201505222300 METAR MRLB 222300Z 07013KT 9999 SCT025 BKN100 31/18 A2984=
201505222352 METAR MRLB 230000Z 09012KT 9999 BKN030 SCT100 30/18 A2985=
201505230000 METAR MRLB 230000Z 09012KT 9999 BKN030 SCT100 30/18 A2985=
201505230100 METAR MRLB 230100Z 10014KT 9999 SCT030 SCT100 29/18 A2985=
201505230200 METAR MRLB 230200Z 08011KT 9999 FEW030 SCT100 29/19 A2988=
201505230300 METAR MRLB NIL=
201505230400 METAR MRLB NIL=
201505230500 METAR MRLB NIL=
201505230600 METAR MRLB NIL=
201505230700 METAR MRLB NIL=
201505230800 METAR MRLB NIL=
201505230900 METAR MRLB NIL=
201505231000 METAR MRLB NIL=
201505231100 METAR MRLB NIL=
201505231200 METAR MRLB 231200Z 07005KT 9999 FEW035 BKN130 27/20 A2987=
201505231300 METAR MRLB 231300Z 04004KT 9999 FEW035 BKN130 28/20 A2990=
201505231400 METAR MRLB 231400Z 04007KT 9999 SCT035 BKN130 30/19 A2992=
201505231500 METAR MRLB 231500Z 09022KT 9999 FEW035 BKN130 32/19 A2989=
201505231600 METAR MRLB 231600Z 09019KT 9999 FEW035 SCT130 32/19 A2989=
201505231700 METAR MRLB 231700Z 08018KT 9999 FEW035 BKN130 33/18 A2989=
201505231800 METAR MRLB 231800Z 08017KT 9999 FEW035 BKN130 34/18 A2986=
201505231900 METAR MRLB 231900Z 07016KT 9999 FEW035 SCT130 BKN250 34/18 A2984=
201505232000 METAR MRLB 232000Z 08017KT 9999 FEW035 SCT250 35/18 A2981=
201505232100 METAR MRLB 232100Z 06022KT 9999 FEW035 SCT250 35/16 A2979=
201505232200 METAR MRLB 232200Z 07019KT 9999 FEW040 BKN250 34/17 A2979=
201505232300 METAR MRLB 232300Z 09015KT CAVOK 32/17 A2981=
201505232350 METAR MRLB 240000Z 08017KT CAVOK 31/19 A2981=
201505240000 METAR MRLB 240000Z 08017KT CAVOK 31/19 A2981=
201505240100 METAR MRLB 240100Z 09017G27KT CAVOK 30/19 A2985=
201505240200 METAR MRLB 240200Z COR 09017KT 9999 -RA FEW030 28/20 A2986=
201505240300 METAR MRLB NIL=
201505240400 METAR MRLB NIL=
201505240500 METAR MRLB NIL=
201505240600 METAR MRLB NIL=
201505240700 METAR MRLB NIL=
201505240800 METAR MRLB NIL=
201505240900 METAR MRLB NIL=
201505241000 METAR MRLB NIL=
201505241100 METAR MRLB NIL=
201505241200 METAR MRLB 241200Z 20005KT CAVOK 27/20 A2983=
201505241300 METAR MRLB 241300Z COR 28002KT CAVOK 28/20 A2985=
201505241400 METAR MRLB 241400Z 29006KT CAVOK 29/20 A2986=
201505241500 METAR MRLB 241500Z 26005KT CAVOK 31/20 A2986=
201505241600 METAR MRLB 241600Z 35005KT 9999 FEW040 BKN110 32/18 A2986=
201505241700 METAR MRLB 241700Z 09015KT 9999 FEW035 BKN110 33/19 A2985=
201505241800 METAR MRLB 241800Z 09021KT 9999 SCT035 SCT110 32/19 A2985=
201505241900 METAR MRLB 241900Z COR 09015KT 9999 BKN030 32/19 A2985=
201505242000 METAR MRLB 242000Z 07014KT 9999 BKN030 32/19 A2984=
201505242100 METAR MRLB 242100Z 09011KT 9999 VCSH SCT030 BKN120 27/22 A2982 RERA=
201505242200 METAR MRLB 242200Z 10009KT 9999 FEW035 BKN120 29/20 A2981=
201505242300 METAR MRLB 242300Z 12010KT 9999 FEW035 BKN120 29/20 A2979=
201505242351 METAR MRLB 250000Z 13006KT 9999 FEW035 BKN130 29/19 A2981=
201505250000 METAR MRLB 250000Z 13006KT 9999 FEW035 BKN130 29/19 A2981=
201505250100 METAR MRLB 250100Z 10007KT 9999 FEW035 BKN140 29/19 A2981=
201505250200 METAR MRLB 250200Z 06010KT 9999 FEW035 BKN140 28/19 A2983=
201505250300 METAR MRLB NIL=
201505250400 METAR MRLB NIL=
201505250500 METAR MRLB NIL=
201505250600 METAR MRLB NIL=
201505250700 METAR MRLB NIL=
201505250800 METAR MRLB NIL=
201505250900 METAR MRLB NIL=
201505251000 METAR MRLB NIL=
201505251100 METAR MRLB NIL=
201505251200 METAR MRLB 251200Z 20003KT 9999 FEW035 BKN140 25/19 A2983=
201505251300 METAR MRLB 251300Z 03003KT 9999 FEW035 BKN120 26/19 A2985=
201505251400 METAR MRLB 251400Z 28003KT 9999 FEW035 SCT130 30/19 A2985=
201505251500 METAR MRLB 251500Z 06007KT 9999 FEW035 BKN130 32/19 A2985=
201505251600 METAR MRLB 251600Z 09008KT 9999 FEW035 SCT130 34/18 A2983=
201505251700 METAR MRLB 251700Z 10011KT 9999 FEW035 BKN200 35/18 A2982=
201505251800 METAR MRLB 251800Z 12010KT 9999 FEW035 SCT130 35/18 A2981=
201505251900 METAR MRLB 251900Z 09015KT 9999 SCT025 SCT120 34/18 A2981=
201505252000 METAR MRLB 252000Z 08015KT 9999 FEW02CB FEW025 SCT130 34/18 A2978=
201505252100 METAR MRLB 252100Z 09012KT 9999 SCT025 BKN100 33/19 A2993=
201505252200 METAR MRLB 252200Z 12008KT 9999 SCT020 BKN100 32/19 A2978=
201505252300 METAR MRLB 252300Z 14008KT 9999 FEW030 OVC120 30/20 A2981=
201505252351 METAR MRLB 260000Z 09013KT 9999 FEW030 OVC120 30/19 A2983=
201505260000 METAR MRLB 260000Z 09013KT 9999 FEW030 OVC120 30/19 A2983=
201505260100 METAR MRLB 260100Z 10007KT 9999 FEW030 OVC120 29/20 A2984=
201505260200 METAR MRLB 260200Z 13007KT 9999 FEW030 OVC120 29/20 A2986=
201505260300 METAR MRLB NIL=
201505260400 METAR MRLB NIL=
201505260500 METAR MRLB NIL=
201505260600 METAR MRLB NIL=
201505260700 METAR MRLB NIL=
201505260800 METAR MRLB NIL=
201505260900 METAR MRLB NIL=
201505261000 METAR MRLB NIL=
201505261100 METAR MRLB NIL=
201505261200 METAR MRLB 261200Z 10009KT 9999 OVC025 27/20 A2984=
201505261300 METAR MRLB 261300Z 07010KT SCT030 BKN120 28/19 A2987=
201505261400 METAR MRLB 261400Z 09017KT 9999 FEW030 BKN250 30/19 A2987=
201505261500 METAR MRLB 261500Z 10017KT 9999 FEW035 BKN250 31/18 A2988=
201505261600 METAR MRLB 261600Z 09017KT 9999 SCT035 BKN250 33/17 A2987=
201505261700 METAR MRLB 261700Z 10015KT 9999 SCT035 SCT120 32/17 A2987=
201505261800 METAR MRLB 261800Z 11013KT 9999 FEW035 BKN120 33/18 A2985=
201505261900 METAR MRLB 261900Z 10014KT 9999 SCT030 SCT130 34/18 A2981=
201505262000 METAR MRLB 262000Z 09012KT 9999 SCT030 SCT120 33/19 A2981=
201505262100 METAR MRLB 262100Z 08015KT 9999 BKN025 32/19 A2980=
201505262200 METAR MRLB 262200Z 07018KT 9999 SCT025 SCT080 30/18 A2980=
201505262300 METAR MRLB 262300Z 08014KT 9999 -DZ SCT025 SCT100 27/21 A2982=
201505262350 METAR MRLB 270000Z 11012KT 9999 SCT030 SCT120 28/20 A2983=
201505270000 METAR MRLB 270000Z 11012KT 9999 SCT030 SCT120 28/20 A2983=
201505270100 METAR MRLB 270100Z 12007KT 9999 FEW030 SCT120 27/20 A2987=
201505270200 METAR MRLB 270200Z 13011KT 9999 FEW030 SCT120 27/19 A2988=
201505270300 METAR MRLB NIL=
201505270400 METAR MRLB NIL=
201505270500 METAR MRLB NIL=
201505270600 METAR MRLB NIL=
201505270700 METAR MRLB NIL=
201505270800 METAR MRLB NIL=
201505270900 METAR MRLB NIL=
201505271000 METAR MRLB NIL=
201505271100 METAR MRLB NIL=
201505271200 METAR MRLB 271200Z 31004KT CAVOK 26/20 A2986=
201505271300 METAR MRLB 271300Z 23006KT CAVOK 28/19 A2988=
201505271400 METAR MRLB 271400Z 04003KT CAVOK 30/18 A2989=
201505271500 METAR MRLB 271500Z 09002KT CAVOK 32/18 2987=
201505271600 METAR MRLB 271600Z 09008KT CAVOK 33/20 A2985=
201505271700 METAR MRLB 271700Z 05007KT CAVOK 34/17 A2983=
201505271800 METAR MRLB 271800Z 08018KT 9999 FEW035 BKN250 35/16 A2980=
201505271900 METAR MRLB 271900Z 10018KT 9999 FEW035 SCT120 BKN250 34/16 A2978=
201505272000 METAR MRLB 272000Z 08017KT 9999 FEW035 BKN200 34/18 A2976=
201505272100 METAR MRLB 272100Z 08019KT 9999 FEW035 BKN200 33/17 A2975=
201505272200 METAR MRLB 272200Z 09015KT 9999 FEW035 BKN200 32/18 A2973=
201505272300 METAR MRLB 272300Z 09017KT CAVOK 32/17 A2977=
201505272351 METAR MRLB 280000Z 09015KT CAVOK 30/17 A2979=
201505280000 METAR MRLB 280000Z 09015KT CAVOK 30/17 A2979=
201505280100 METAR MRLB 280100Z 09014KT CAVOK 29/16 A2981=
201505280200 METAR MRLB 280200Z 08015KT CAVOK 28/17 A2984=
201505280300 METAR MRLB NIL=
201505280400 METAR MRLB NIL=
201505280500 METAR MRLB NIL=
201505280600 METAR MRLB NIL=
201505280700 METAR MRLB NIL=
201505280800 METAR MRLB NIL=
201505280900 METAR MRLB NIL=
201505281000 METAR MRLB NIL=
201505281100 METAR MRLB NIL=
201505281200 METAR MRLB 281200Z 09003KT CAVOK 21/16 A2986=
201505281300 METAR MRLB 281300Z 04005KT CAVOK 26/17 A2987=
201505281400 METAR MRLB 281400Z 03005KT CAVOK 28/17 A2988=
201505281500 METAR MRLB 281500Z 05008KT CAVOK 31/16 A2987=
201505281600 METAR MRLB 281600Z 10012KT CAVOK 34/13 A2987=
201505281700 METAR MRLB 281700Z 10010KT CAVOK 34/14 A2985=
201505281800 METAR MRLB 281800Z 11008KT 9999 FEW035 BKN200 34/13 A2984=
201505281900 METAR MRLB 281900Z 09007KT 9999 FEW035 BKN220 34/13 A2982=
201505282000 METAR MRLB 282000Z 08012KT 9999 FEW035 OVC220 35/13 A2979=
201505282100 METAR MRLB 282100Z 09012KT 9999 FEW035 OVC240 34/13 A2977=
201505282200 METAR MRLB 282200Z COR 09012KT CAVOK 33/14 A2977=
201505282300 METAR MRLB 282300Z 09013KT CAVOK 32/16 A2978=
201505282352 METAR MRLB 290000Z 08014KT CAVOK 30/17 A2980=
201505290000 METAR MRLB 290000Z 08014KT CAVOK 30/17 A2980=
201505290100 METAR MRLB 290100Z 10013KT CAVOK 29/16 A2982=
201505290200 METAR MRLB 290200Z 09015KT CAVOK 29/15 A2985=
201505290300 METAR MRLB NIL=
201505290400 METAR MRLB NIL=
201505290500 METAR MRLB NIL=
201505290600 METAR MRLB NIL=
201505290700 METAR MRLB NIL=
201505290800 METAR MRLB NIL=
201505290900 METAR MRLB NIL=
201505291000 METAR MRLB NIL=
201505291100 METAR MRLB NIL=
201505291200 METAR MRLB 291200Z 18004KT CAVOK 23/15 A2986=
201505291300 METAR MRLB 291300Z 04003KT CAVOK 24/16 A2987=
201505291400 METAR MRLB 291400Z 00000KT CAVOK 27/16 A2989=
201505291500 METAR MRLB 291500Z 07005KT CAVOK 31/15 A2989=
201505291600 METAR MRLB 291600Z 09009KT CAVOK 33/14 A2988=
201505291700 METAR MRLB 291700Z 05009KT CAVOK 34/14 A2986=
201505291800 METAR MRLB 291800Z 08007KT 9999 FEW035 OVC250 34/13 A2985=
201505291900 METAR MRLB 291900Z 13004KT 9999 FEW035 BKN250 35/12 A2982=
201505292000 METAR MRLB 292000Z 08006KT 9999 FEW035 BKN120 35/13 A2980=
201505292100 METAR MRLB 292100Z 30008KT 9999 FEW035 BKN140 34/17 A2978=
201505292200 METAR MRLB 292200Z 14006KT 9999 FEW035 BKN140 34/13 A2978=
201505292300 METAR MRLB 292300Z 06009KT CAVOK 33/14 A2979=
201505292350 METAR MRLB 300000Z 10005KT CAVOK 36/21 A2981=
201505300000 METAR MRLB 300000Z 10005KT CAVOK 36/21 A2981=
201505300100 METAR MRLB 300100Z 11007KT CAVOK 30/16 A2983=
201505300200 METAR MRLB 300200Z 12005KT CAVOK 29/17 A2985=
201505300300 METAR MRLB NIL=
201505300400 METAR MRLB NIL=
201505300500 METAR MRLB NIL=
201505300600 METAR MRLB NIL=
201505300700 METAR MRLB NIL=
201505300800 METAR MRLB NIL=
201505300900 METAR MRLB NIL=
201505301000 METAR MRLB NIL=
201505301100 METAR MRLB NIL=
201505301200 METAR MRLB 301200Z 05002KT CAVOK 22/16 A2985=
201505301300 METAR MRLB 301300Z 35003KT CAVOK 24/17 A2987=
201505301400 METAR MRLB 301400Z 03003KT CAVOK 28/16 A2987=
201505301500 METAR MRLB 301500Z 30003KT CAVOK 30/16 A2987=
201505301600 METAR MRLB 301600Z 36005KT 9999 FEW035 BKN250 32/17 A2985=
201505301700 METAR MRLB 301700Z 11009KT 9999 SCT035 SCT250 34/17 A2983=
201505301800 METAR MRLB 301800Z 12006KT 9999 SCT035 SCT250 34/18 A2981=
201505301900 METAR MRLB 301900Z 10008KT 9999 SCT035 SCT250 34/17 A2978=
201505302000 METAR MRLB 302000Z 29009KT 9999 SCT035 BKN250 34/19 A2976=
201505302100 METAR MRLB 302100Z 24008KT 9999 VCSH SCT030 BKN250 30/22 A2975=
201505302200 METAR MRLB 302200Z 27008KT 9999 SCT030 BKN200 31/21 A2974=
201505302300 METAR MRLB 302300Z 23006KT 9999 FEW035 BKN200 31/21 A2975=
201505302350 METAR MRLB 310000Z 23006KT 9999 SCT030 BKN200 30/19 A2978=
201505310000 METAR MRLB 310000Z 23006KT 9999 SCT030 BKN200 30/19 A2978=
201505310100 METAR MRLB 310100Z 17008KT 9999 SCT030 BKN200 27/21 A2981=
201505310200 METAR MRLB 310200Z 18008KT 9999 SCT030 BKN200 26/21 A2984=
201505310300 METAR MRLB NIL=
201505310400 METAR MRLB NIL=
201505310500 METAR MRLB NIL=
201505310600 METAR MRLB NIL=
201505310700 METAR MRLB NIL=
201505310800 METAR MRLB NIL=
201505310900 METAR MRLB NIL=
201505311000 METAR MRLB NIL=
201505311100 METAR MRLB NIL=
201505311200 METAR MRLB 311200Z 08003KT 9999 FEW035 BKN250 24/21 A2984=
201505311300 METAR MRLB 311300Z 06003KT 9999 FEW035 BKN250 27/21 A2984=
201505311400 METAR MRLB 311400Z 09005KT 9999 FEW035 BKN250 29/20 A2985=
201505311500 METAR MRLB 311500Z 10009KT 9999 SCT035 BKN200 32/19 A2986=
201505311600 METAR MRLB 311600Z 12010KT 9999 SCT035 BKN200 32/19 A2985=
201505311700 METAR MRLB 311700Z 29006KT 9999 SCT030 BKN200 33/19 A2984=
201505311800 METAR MRLB 311800Z 29010KT 9999 SCT030 BKN200 32/20 A2983=
201505311900 METAR MRLB 311900Z 35007KT VCSH 9999 BKN025 SCT130 30/20 A2981=
201505312000 METAR MRLB 312000Z 34004KT 9999 BKN025 SCT130 32/20 A2979=
201505312100 METAR MRLB 312100Z 31004KT 9999 BKN025 33/20 A2977=
201505312200 METAR MRLB 312200Z 09003KT 9999 SCT030 BKN130 33/19 A2975=
201505312300 METAR MRLB 312300Z 18007KT 9999 FEW030 BKN130 30/22 A2975=
201505312352 METAR MRLB 010000Z 19006KT 9999 FEW030 OVC140 29/22 A2976=
201505312356 METAR MRLB 010000Z 19006KT 9999 FEW030 OVC140 29/22 A2976=
201506010000 METAR MRLB 010000Z 19006KT 9999 FEW030 OVC140 29/22 A2976=
201506010100 METAR MRLB 010100Z 18006KT CAVOK 28/22 A29/79=
201506010200 METAR MRLB 010200Z 13007KT CAVOK 29/19 A2982=
201506010300 METAR MRLB NIL=
201506010400 METAR MRLB NIL=
201506010500 METAR MRLB NIL=
201506010600 METAR MRLB NIL=
201506010700 METAR MRLB NIL=
201506010800 METAR MRLB NIL=
201506010900 METAR MRLB NIL=
201506011000 METAR MRLB NIL=
201506011100 METAR MRLB NIL=
201506011200 METAR MRLB 011200Z 25004KT CAVOK 25/20 A2983=
201506011300 METAR MRLB 011300Z 23004KT CAVOK 28/20 A2985=
201506011400 METAR MRLB 011400Z 22005KT CAVOK 30/20 A2985=
201506011500 METAR MRLB 011500Z 10006KT 9999 FEW035 OVC250 33/19 A2985=
201506011600 METAR MRLB 011600Z 08012KT 9999 FEW035 OVC250 33/19 A2985=
201506011700 METAR MRLB 011700Z 11010KT 9999 SCT035 BKN250 34/19 A2982=
201506011800 METAR MRLB 011800Z 09005KT 9999 SCT035 BKN250 34/19 A2980=
201506011900 METAR MRLB 011900Z 29006KT 9999 SCT025 SCT250 33/21 A2978=
201506012000 METAR MRLB 012000Z 30009KT 9999 BKN025 32/21 A2976=
201506012100 METAR MRLB 012100Z 30007KT 9999 BKN030 32/21 A2974=
201506012200 METAR MRLB 012200Z 30007KT 9999 SCT030 SCT040 32/22 A2974=
201506012300 METAR MRLB 012300Z 30007KT 9999 SCT030 SCT040 31/22 A2975=
201506012350 METAR MRLB 020000Z 31006KT 9999 SCT035 SCT250 30/22 A2977=
201506020000 METAR MRLB 020000Z 31006KT 9999 SCT035 SCT250 30/22 A2977=
201506020100 METAR MRLB 020100Z 32005KT 9999 FEW045 SCT120 29/23 A2979=
201506020200 METAR MRLB 020200Z 30004KT 9999 FEW045 SCT120 29/23 A2983=
201506020300 METAR MRLB NIL=
201506020400 METAR MRLB NIL=
201506020500 METAR MRLB NIL=
201506020600 METAR MRLB NIL=
201506020700 METAR MRLB NIL=
201506020800 METAR MRLB NIL=
201506020900 METAR MRLB NIL=
201506021000 METAR MRLB NIL=
201506021100 METAR MRLB NIL=
201506021200 METAR MRLB 021200Z 31002KT CAVOK 26/22 A2982=
201506021300 METAR MRLB 021300Z 31003KT CAVOK 27/22 A2983=
201506021350 METAR MRLB 021350Z 27003KT 9999 FEW040 BKN250 29/22 A2984=
201506021400 METAR MRLB 021400Z COR 27003KT 9999 FEW040 BKN250 29/22 A2984=
201506021500 METAR MRLB 021500Z 26004KT 9999 FEW035 BKN250 31/22 A2984=
201506021600 METAR MRLB 021600Z 16004KT 9999 FEW035 BKN250 34/20 A2982=
201506021700 METAR MRLB 021700Z 14005KT 9999 SCT035 SCT250 35/19 A2982=
201506021800 METAR MRLB 021800Z 30011KT 9999 SCT035 SCT250 34/21 A2979=
201506021900 METAR MRLB 021900Z 29012KT 9999 SCT030 SCT250 34/21 A2976=
201506022000 METAR MRLB 022000Z 30011KT 9999 SCT030 BKN250 34/21 A2973=
201506022100 METAR MRLB 022100Z 28012KT 9999 SCT030 BKN250 33/21 A2971=
201506022200 METAR MRLB 022200Z 28010KT 9999 VCSH SCT030 BKN200 32/21 A2970=
201506022300 METAR MRLB 022300Z 24009KT 9999 VCSH SCT025 BKN140 30/22 A2972=
201506022350 METAR MRLB 030000Z 22004KT 9999 SCT035 BKN140 28/24 A2973=
201506030000 METAR MRLB 030000Z 22004KT 9999 SCT035 BKN140 28/24 A2973=
201506030100 METAR MRLB 030100Z 16003KT 9999 SCT035 BKN140 29/24 A2976=
201506030200 METAR MRLB 030200Z 15004KT 9999 SCT030 BKN140 28/24 A2978=
201506030300 METAR MRLB NIL=
201506030400 METAR MRLB NIL=
201506030500 METAR MRLB NIL=
201506030600 METAR MRLB NIL=
201506030700 METAR MRLB NIL=
201506030800 METAR MRLB NIL=
201506030900 METAR MRLB NIL=
201506031000 METAR MRLB NIL=
201506031100 METAR MRLB NIL=
201506031200 METAR MRLB 031200Z 16007KT 9999 FEW030 BKN120 24/22 A2977=
201506031300 METAR MRLB 031300Z 18006KT 9999 FEW025 BKN120 24/23 A2978=
201506031400 METAR MRLB 031400Z 20005KT 9999 FEW030 BKN130 27/23 A2978=
201506031500 METAR MRLB 031500Z 22005KT 9999 SCT030 BKN250 30/22 A2979=
201506031600 METAR MRLB 031600Z 27003KT 9999 SCT030 BKN250 31/22 A2978=
201506031700 METAR MRLB 031700Z 29007KT 9999 SCT030 BKN250 33/21 A2976=
201506031800 METAR MRLB 031800Z 26007KT 9999 SCT030 BKN140 33/23 A2977=
201506031900 METAR MRLB 031900Z 29010KT 9999 SCT030 BKN130 32/23 A2976=
201506031910 METAR MRLB 031910Z 29010KT 9999 TS VCSH FEW015CB SCT025 BKN130 32/23 A2976=
201506032000 METAR MRLB 032000Z 30008KT 9999 TSRA FEW020CB BKN120 28/25 A2975=
201506032100 METAR MRLB 032100Z 28009KT 9999 -RA VCSH FEW020 BKN120 28/25 A2972 RETS=
201506032200 METAR MRLB 032200Z COR 19011KT 9999 1000SE TSRA FEW010CB BKN020 2623 A2974=
201506032235 METAR MRLB 032235Z 19009KT 9999 RA FEW010 BKN120 24/22 A2976 RETS=
201506032300 METAR MRLB 032300Z 17008KT 9999 -RA FEW010 OVC120 24/22 A2977 RERA=
201506032352 METAR MRLB 040000Z 07006KT 9999 FEW020 OVC120 24/23 A2979=
201506040000 METAR MRLB 040000Z 07006KT 9999 FEW020 OVC120 24/23 A2979=
201506040100 METAR MRLB 040100Z 16003KT 9999 RA SCT020 BKN120 24/23 A2981=
201506040200 METAR MRLB 040200Z 18004KT 9999 -RA SCT020 BKN120 24/23 A2981=
201506040300 METAR MRLB NIL=
201506040400 METAR MRLB NIL=
201506040500 METAR MRLB NIL=
201506040600 METAR MRLB NIL=
201506040700 METAR MRLB NIL=
201506040800 METAR MRLB NIL=
201506040900 METAR MRLB NIL=
201506041000 METAR MRLB NIL=
201506041100 METAR MRLB NIL=
201506041200 METAR MRLB 041200Z 09004KT 9999 FEW035 OVC140 24/23 A2984=
201506041300 METAR MRLB 041300Z 06002KT 9999 FEW035 OVC140 26/23 A2986=
201506041400 METAR MRLB 041400Z 00000KT 9999 FEW035 OVC140 28/23 A2986=
201506041500 METAR MRLB 041500Z 35002KT CAVOK 29/23 A2987=
201506041600 METAR MRLB 041600Z 24005KT 9999 FEW030 OVC250 30/23 A2987=
201506041700 METAR MRLB 041700Z 25007KT 9999 FEW030 SCT130 BKN250 32/21 A2987=
201506041800 METAR MRLB 041800Z 30009KT 9999 SCT030 BKN250 31/22 A2985=
201506041900 METAR MRLB 041900Z 29014KT 9999 VCSH FEW020TCU SCT035 BKN140 30/23 A2984=
201506042000 METAR MRLB 042000Z 30009KT FEW020 SCT030 BKN100 30/22 A2981 RERA=
201506042100 METAR MRLB 042100Z 03005KT 9999 -DZ FEW020TCU SCT030 BKN100 29/24 A2979=
201506042200 METAR MRLB 042200Z 30007KT 9999 FEW025 BKN100 29/23 A2979=
201506042300 METAR MRLB 042300Z 32005KT 9999 FEW030 BKN100 28/23 A2980=
201506042350 METAR MRLB 050000Z 31003KT 9999 SCT030 SCT100 28/23 A2983=
201506050000 METAR MRLB 050000Z 31003KT 9999 SCT030 SCT100 28/23 A2983=
201506050100 METAR MRLB 050100Z 15004KT 9999 SCT030 SCT100 27/24 A2984=
201506050200 METAR MRLB 050200Z 17006KT 9999 FEW030 SCT120 26/23 A2987=
201506050300 METAR MRLB NIL=
201506050400 METAR MRLB NIL=
201506050500 METAR MRLB NIL=
201506050600 METAR MRLB NIL=
201506050700 METAR MRLB NIL=
201506050800 METAR MRLB NIL=
201506050900 METAR MRLB NIL=
201506051000 METAR MRLB NIL=
201506051100 METAR MRLB NIL=
201506051200 METAR MRLB 051200Z 00000KT CAVOK 25/23 A2985=
201506051300 METAR MRLB 051300Z 00000KT CAVOK 26/23 A2986=
201506051400 METAR MRLB 051400Z 28002KT 9999 FEW035 BKN120 27/23 A2987=
201506051500 METAR MRLB 051500Z 01003KT 9999 FEW030 SCT120 30/22 A2987=
201506051550 METAR MRLB 0501600Z 01006KT 9999 SCT030 31/21 A2987=
201506051555 METAR MRLB 081600Z 18002KT 9999 BKN030 26/22 A2991=
201506051600 METAR MRLB 0501600Z 01006KT 9999 SCT030 31/21 A2987=
201506051700 METAR MRLB 051700Z 12003KT 9999 SCT030 SCT250 32/21 A2985=
201506051800 METAR MRLB 051800Z 27006KT 9999 BKN030 32/22 A2985=
201506051900 METAR MRLB 051900Z 23008KT 9999 FEW020CB SCT030 BKN120 31/23 A2982=
201506052000 METAR MRLB 052000Z 29011KT 9999 VCSH FEW020CB SCT030 BKN120 30/23 A2979=
201506052100 METAR MRLB 052100Z 04005KT 9999 4500SW -RA SCT025 BKN120 24/22 A2979 RERA=
201506052200 METAR MRLB 052200Z 20003KT 9999 FEW030 BKN120 25/24 A2979=
201506052300 METAR MRLB 052300Z 13007KT 9999 FEW030 BKN120 25/23 A2981=
201506052351 METAR MRLB 060000Z 15004KT 9999 -DZ SCT025 BKN100 25/23 A2983=
201506060000 METAR MRLB 060000Z 15004KT 9999 -DZ SCT025 BKN100 25/23 A2983=
201506060100 METAR MRLB 060100Z 19006KT 9999 SCT030 BKN100 24/22 A2984=
201506060200 METAR MRLB 060200Z 14003KT 9999 SCT030 BKN120 24/23 A2985=
201506060300 METAR MRLB NIL=
201506060400 METAR MRLB NIL=
201506060500 METAR MRLB NIL=
201506060600 METAR MRLB NIL=
201506060700 METAR MRLB NIL=
201506060800 METAR MRLB NIL=
201506060900 METAR MRLB NIL=
201506061000 METAR MRLB NIL=
201506061100 METAR MRLB NIL=
201506061200 METAR MRLB 061200Z 07003KT 0600 FG VV/// 24/23 A2983=
201506061300 METAR MRLB 061300Z 28003KT 9999 2000E BCFG SCT010 SCT250 24/23 A2984=
201506061400 METAR MRLB 061400Z 36005KT 9999 SCT025 BKN250 26/24 A2985=
201506061500 METAR MRLB 061500Z 16003KT 9999 FEW030 BKN250 29/23 A2985=
201506061600 METAR MRLB 061600Z 13004KT 9999 FEW035 BKN250 31/23 A2984=
201506061700 METAR MRLB 061700Z 12005KT 9999 SCT035 BKN250 32/20 A2984=
201506061800 METAR MRLB 061800Z 19007KT 9999 SCT030 BKN250 31/22 A2983=
201506061900 METAR MRLB 061900Z 19006KT 9999 VCSH FEW020TCU SCT030 BKN250 33/21 A2979=
201506062000 METAR MRLB 062000Z 26009KT 9999 3000N TSRA FEW015CB BKN025 30/23 A2979=
201506062100 METAR MRLB 062100Z 06008KT 5000 1000E TSRA FEW010CB BKN025 26/23 A2980=
201506062200 METAR MRLB 062200Z 04003KT 9999 -RA SCT020 BKN120 25/23 A2979 RETS=
201506062300 METAR MRLB 062300Z 04007KT 9999 -RA FEW020 OVC120 24/23 A2981=
201506062352 METAR MRLB 070000Z 02005KT 9999 -RA FEW020 OVC100 24/23 A2983=
201506070000 METAR MRLB 070000Z 02005KT 9999 -RA FEW020 OVC100 24/23 A2983=
201506070100 METAR MRLB 070100Z 00000KT 9999 -RA FEW020 OVC100 24/23 A2984=
201506070200 METAR MRLB 070200Z 04002KT 9999 -RA FEW020 OVC100 24/23 A2986=
201506070300 METAR MRLB NIL=
201506070400 METAR MRLB NIL=
201506070500 METAR MRLB NIL=
201506070600 METAR MRLB NIL=
201506070700 METAR MRLB NIL=
201506070800 METAR MRLB NIL=
201506070900 METAR MRLB NIL=
201506071000 METAR MRLB NIL=
201506071100 METAR MRLB NIL=
201506071200 METAR MRLB 071200Z 00000KT 9999 -RA FEW010 OVC100 24/23 A2986=
201506071300 METAR MRLB 071300Z 36003KT 9999 2000E -RA PRFG FEW005 OVC100 24/23 A2989=
201506071400 METAR MRLB 071400Z 02003KT 9999 -RA VCFG FEW005 OVC100 24/23 A2990=
201506071500 METAR MRLB 071500Z 36004KT 9999 SCT008 SCT100 25/24 A2991=
201506071600 METAR MRLB 071600Z 32005KT 9999 SCT010 SCT100 26/23 A2991=
201506071700 METAR MRLB 071700Z 35005KT 9999 FEW020 SCT120 BKN250 28/23 A2989=
201506071800 METAR MRLB 071800Z 35003KT 9999 FEW010 BKN03028/21 A2991=
201506071900 METAR MRLB 071900Z 07003KT 9999 FEW030 OVC250 32/22 A2981=
201506072000 METAR MRLB 072000Z 32004KT 9999 FEW030 BKN250 33/21 A2977=
201506072100 METAR MRLB 072100Z 35004KT 9999 FEW030 SCT140 33/21 A2976=
201506072200 METAR MRLB 072200Z 29010KT 9999 FEW030 SCT140 30/24 A2976=
201506072300 METAR MRLB 072300Z 30009KT 9999 FEW030 SCT140 29/23 A2977=
201506072350 METAR MRLB 080000Z 29006KT 9999 FEW020TCU FEW030 SCT140 28/24 A2980=
201506080000 METAR MRLB 080000Z 29006KT 9999 FEW020TCU FEW030 SCT140 28/24 A2980=
201506080100 METAR MRLB 080100Z 30004KT 9999 FEW020TCU FEW030 SCT140 28/24 A2983=
201506080200 METAR MRLB 080200Z 00000KT 9999 VCTS FEW020TCU SCT030 27/24 A2984=
201506080300 METAR MRLB NIL=
201506080400 METAR MRLB NIL=
201506080500 METAR MRLB NIL=
201506080600 METAR MRLB NIL=
201506080700 METAR MRLB NIL=
201506080800 METAR MRLB NIL=
201506080900 METAR MRLB NIL=
201506081000 METAR MRLB NIL=
201506081100 METAR MRLB NIL=
201506081200 METAR MRLB 081200Z 00000KT 9999 DZ OVC030 24/22 A2988=
201506081300 METAR MRLB 081300Z 09003KT 9999 FEW020 BKN120 24/22 A2990=
201506081400 METAR MRLB 081400Z 12004KT CAVOK 24/23 A2992=
201506081500 METAR MRLB 081500Z 12005KT CAVOK 25/23 A2993=
201506081600 METAR MRLB 081600Z 18002KT 9999 BKN030 26/22 A2991=
201506081700 METAR MRLB 081700Z 20003KT 9999 DZ FEW010 BKN030 26/23 A2992=
201506081800 METAR MRLB 081800Z COR 35003KT 9999 FEW010 BKN030 28/21 A2991=
201506081900 METAR MRLB 081900Z 12005KT 9999 FEW020 BKN120 29/20 A2986=
201506082000 METAR MRLB 082000Z 18004KT 9999 FEW030 BKN120 29/21 A2984=
201506082100 METAR MRLB 082100Z 16003KT 9999 FEW035 BKN120 29/21 A2982=
201506082200 METAR MRLB 082200Z 19004KT 9999 FEW035 BKN120 29/20 A2982=
201506082300 METAR MRLB 082300Z 19005KT 9999 FEW035 BKN130 29/21 A2983=
201506082350 METAR MRLB 090000Z 18003KT 9999 FEW035 BKN130 28/22 A2984=
201506090000 METAR MRLB 090000Z 18003KT 9999 FEW035 BKN130 28/22 A2984=
201506090100 METAR MRLB 090100Z 19003KT 9999 FEW035 BKN130 27/23 A2986=
201506090200 METAR MRLB 090200Z 18004KT 9999 FEW035 BKN120 27/23 A2988=
201506090300 METAR MRLB NIL=
201506090400 METAR MRLB NIL=
201506090500 METAR MRLB NIL=
201506090600 METAR MRLB NIL=
201506090700 METAR MRLB NIL=
201506090800 METAR MRLB NIL=
201506090900 METAR MRLB NIL=
201506091000 METAR MRLB NIL=
201506091100 METAR MRLB NIL=
201506091200 METAR MRLB 091200Z 12006KT 9999 FEW025 BKN120 23/22 A2984=
201506091300 METAR MRLB 091300Z 16003KT 9999 FEW030 BKN120 24/22 A2986=
201506091400 METAR MRLB 091400Z 14003KT 9999 FEW035 BKN130 25/22 A2987=
201506091500 METAR MRLB 091500Z 19003KT 9999 FEW035 BKN130 26/22 A2987=
201506091600 METAR MRLB 091600Z 19004KT 9999 FEW035 BKN130 28/22 A2986=
201506091700 METAR MRLB 091700Z 24005KT 9999 FEW035 BKN130 30/22 A2985=
201506091800 METAR MRLB 091800Z 20005KT 9999 SCT030 BKN130 31/21 A2983=
201506091900 METAR MRLB 091900Z 27009KT 9999 SCT030TCU SCT130 32/21 A2981=
201506092000 METAR MRLB 092000Z 31008KT 9999 VCSH FEW020TCU SCT025 SCT130 32/21 A2980=
201506092100 METAR MRLB 092100Z 31009KT 9999 VCSH SCT015TCU SCT025 32/20 A2977=
201506092200 METAR MRLB 092200Z 12007KT 9999 VCSH BKN020 29/20 A2979=
201506092300 METAR MRLB 092300Z 16008KT 9999 VCSH BKN020 SCT130 26/22 A2981=
201506092352 METAR MRLB 100000Z 19005KT 9999 BKN020 SCT130 25/22 A2983=
201506100000 METAR MRLB 100000Z 19005KT 9999 BKN020 SCT130 25/22 A2983=
201506100100 METAR MRLB 100100Z 16005KT 9999 SCT025 SCT130 25/23 A2986=
201506100200 METAR MRLB 100200Z 17007KT 9999 SCT025 SCT130 24/22 A2987=
201506100300 METAR MRLB NIL=
201506100400 METAR MRLB NIL=
201506100500 METAR MRLB NIL=
201506100600 METAR MRLB NIL=
201506100700 METAR MRLB NIL=
201506100800 METAR MRLB NIL=
201506100900 METAR MRLB NIL=
201506101000 METAR MRLB NIL=
201506101100 METAR MRLB NIL=
201506101200 METAR MRLB 101200Z 00000KT 9999 FEW005 OVC140 23/23 A2985=
201506101300 METAR MRLB 101300Z 15002KT 9999 FEW008 OVC140 25/23 A2987=
201506101400 METAR MRLB 101400Z 13005KT 9999 SCT010 BKN140 27/23 A2988=
201506101500 METAR MRLB 101500Z 19003KT 9999 SCT020 BKN140 28/23 A2990=
201506101600 METAR MRLB 101600Z 20003KT 9999 SCT025 SCT140 30/22 A2988=
201506101700 METAR MRLB 101700Z 20004KT 9999 SCT025 BKN130 31/22 A2986=
201506101800 METAR MRLB 101800Z 34003KT 9999 RA FEW020TCU SCT025 SCT120 30/22 A2984=
201506101900 METAR MRLB 101900Z 17005KT 9999 -RA SCT020TCU BKN100 26/23 A2981 RERA=
201506102000 METAR MRLB 102000Z 24006KT 9999 -RA SCT020TCU BKN080 25/23 A2981=
201506102100 METAR MRLB 102100Z 00000KT 9999 FEW020TCU BKN100 26/23 A2980=
201506102200 METAR MRLB 102200Z 06005KT 9999 FEW025 BKN100 26/23 A2979=
201506102300 METAR MRLB 102300Z 07005KT 9999 -RA FEW025 BKN110 25/23 A2980=
201506102351 METAR MRLB 110000Z 17004KT 9999 FEW025 BKN120 25/23 A2982=
201506110000 METAR MRLB 110000Z 17004KT 9999 FEW025 BKN120 25/23 A2982=
201506110100 METAR MRLB 110100Z COR 00000KT 9999 FEW025 BKN120 25/22 A2984=
201506110200 METAR MRLB 110200Z 12002KT 9999 FEW030 BKN120 25/22 A2985=
201506110300 METAR MRLB NIL=
201506110400 METAR MRLB NIL=
201506110500 METAR MRLB NIL=
201506110600 METAR MRLB NIL=
201506110700 METAR MRLB NIL=
201506110800 METAR MRLB NIL=
201506110900 METAR MRLB NIL=
201506111000 METAR MRLB NIL=
201506111100 METAR MRLB NIL=
201506111200 METAR MRLB 111200Z 11002KT 9999 -DZ FEW020 OVC120 24/23 A2986=
201506111300 METAR MRLB 111300Z 00000KT 9999 FEW010 BKN120 25/23 A2986=
201506111400 METAR MRLB 111400Z 01006KT 9999 SCT020 SCT120 26/23 A2985=
201506111500 METAR MRLB 111500Z 33002KT 9999 FEW025 SCT120 26/22 A2985=
201506111600 METAR MRLB 111600Z 14004KT 9999 FEW030 SCT130 28/23 A2983=
201506111700 METAR MRLB 111700Z 08013KT 9999 FEW030 SCT120 32/21 A2981=
201506111800 METAR MRLB 111800Z 12008KT 9999 FEW030 SCT120 32/21 A2980=
201506111900 METAR MRLB 111900Z 15007KT 9999 SCT030 SCT120 32/20 A2980=
201506112000 METAR MRLB 112000Z 29011KT 9999 SCT030 BKN250 31/22 A2977=
201506112100 METAR MRLB 112100Z 28013KT 9999 VCSH SCT025 BKN250 31/23 A2974=
201506112200 METAR MRLB 112200Z 22009KT 9999 VCSH FEW020TCU SCT030 BKN130 27/21 A2977=
201506112300 METAR MRLB 112300Z 14005KT 9999 2000E RA FEW015CB SCT025 BKN100 26/22 A2982=
201506112350 METAR MRLB 120000Z 12003KT 9999 -RA SCT020 BKN100 24/23 A2983 RERA=
201506120000 METAR MRLB 120000Z 12003KT 9999 -RA SCT020 BKN100 24/23 A2983 RERA=
201506120100 METAR MRLB 120100Z 03005KT 9999 -RA SCT025 BKN100 24/23 A2984=
201506120200 METAR MRLB 120200Z 08003KT 9999 SCT025 BKN100 24/23 A2984=
201506120300 METAR MRLB NIL=
201506120400 METAR MRLB NIL=
201506120500 METAR MRLB NIL=
201506120600 METAR MRLB NIL=
201506120700 METAR MRLB NIL=
201506120800 METAR MRLB NIL=
201506120900 METAR MRLB NIL=
201506121000 METAR MRLB NIL=
201506121100 METAR MRLB NIL=
201506121200 METAR MRLB 121200Z 23004KT 9999 FEW030 BKN120 23/22 A2984=
201506121300 METAR MRLB 121300Z 15003KT 9999 FEW030 BKN120 24/23 A2985=
201506121400 METAR MRLB 121400Z 15005KT 9999 FEW025 BKN120 25/23 A2987=
201506121500 METAR MRLB 121500Z 24005KT 9999 FEW030 BKN130 27/22 A2986=
201506121600 METAR MRLB 121600Z 19003KT 9999 SCT030 BKN130 29/22 A2986=
201506121700 METAR MRLB 121700Z 15003KT 9999 FEW030 BKN130 30/22 A2984=
201506121800 METAR MRLB 121800Z 25003KT 9999 FEW035 BKN250 31/22 A2983=
201506121900 METAR MRLB 121900Z 06006KT 9999 SCT035 BKN250 33/21 A2979=
201506122000 METAR MRLB 122000Z 09007KT 9999 SCT030 BKN140 33/21 A2977=
201506122100 METAR MRLB 122100Z 14006KT 9999 FEW020TCU FEW030 BKN140 33/23 A2976=
201506122200 METAR MRLB 122200Z 13004KT 9999 FEW030 BKN140 33/23 A2974=
201506122300 METAR MRLB 122300Z 27006KT 9999 SCT030 BKN140 31/24 A2976=
201506122352 METAR MRLB 130000Z 30006KT 9999 -RA OVC025 30/23 A2978=
201506130000 METAR MRLB 130000Z 30006KT 9999 -RA OVC025 30/23 A2978=
201506130100 METAR MRLB 130100Z COR 15002KT 9999 -RA SCT025 SCT120 28/22 A2981=
201506130200 METAR MRLB 130200Z 25005KT 9999 SCT025 SCT120 27/23 A2983=
201506130300 METAR MRLB NIL=
201506130400 METAR MRLB NIL=
201506130500 METAR MRLB NIL=
201506130600 METAR MRLB NIL=
201506130700 METAR MRLB NIL=
201506130800 METAR MRLB NIL=
201506130900 METAR MRLB NIL=
201506131000 METAR MRLB NIL=
201506131100 METAR MRLB NIL=
201506131200 METAR MRLB 131200Z 19003KT CAVOK 24/23 A2983=
201506131300 METAR MRLB 131300Z 18003KT CAVOK 26/23 A2984=
201506131400 METAR MRLB 131400Z 00000KT CAVOK 29/22 A2986=
201506131500 METAR MRLB 131500Z 27002KT 9999 FEW030 BKN250 29/22 A2987=
201506131600 METAR MRLB 131600Z 22003KT 9999 SCT030 SCT250 31/22 A2985=
201506131700 METAR MRLB 131700Z 22005KT 9999 BKN030 32/22 A2985=
201506131800 METAR MRLB 131800Z 19006KT 9999 BKN030 33/22 A2983=
201506131900 METAR MRLB 131900Z 27004KT 9999 BKN030 33/22 A2979=
201506132000 METAR MRLB 132000Z 28013KT 9999 BKN030 32/22 A2976=
201506132100 METAR MRLB 132100Z 29012KT 9999 FEW020TCU SCT030 32/23 A2975=
201506132200 METAR MRLB 132200Z 25007KT 9999 VCSH -TSRA FEW010 FEW020TCU SCT030 25/24 A2978=
201506132300 METAR MRLB 132300Z 36004KT 9999 TS DZ FEW020 BKN080 25/24 A2979=
201506132350 METAR MRLB 140000Z 07007KT 9999 DZ FEW020 BKN100 25/23 A2980 RETS=
201506140000 METAR MRLB 140000Z 07007KT 9999 DZ FEW020 BKN100 25/23 A2980 RETS=
201506140100 METAR MRLB 140100Z 02005KT 9999 TSRA FEW020 BKN100 24/23 A2983=
201506140200 METAR MRLB 140200Z 03004KT 9999 TSRA FEW020 BKN100 25/23 A2985=
201506140300 METAR MRLB 140300Z 02004KT 9999 TSRA FEW025 BKN100 25/23 A2985=
201506140400 METAR MRLB NIL=
201506140500 METAR MRLB NIL=
201506140600 METAR MRLB NIL=
201506140700 METAR MRLB NIL=
201506140800 METAR MRLB NIL=
201506140900 METAR MRLB NIL=
201506141000 METAR MRLB NIL=
201506141100 METAR MRLB NIL=
201506141200 METAR MRLB 141200Z 10002KT CAVOK 24/23 A2981=
201506141300 METAR MRLB 141300Z 28005KT CAVOK 25/24 A2982=
201506141400 METAR MRLB 141400Z 04004KT CAVOK 28/24 A2982=
201506141500 METAR MRLB 141500Z 02003KT CAVOK 30/23 A2981=
201506141600 METAR MRLB 141600Z COR 09007KT 9999 FEW040 SCT140 32/22 A2980=
201506141700 METAR MRLB 141700Z 09015KT 9999 FEW040 SCT140 33/20 A2979=
201506141751 METAR MRLB 171800Z 08017KT 9999 FEW040 SCT120 34/20 A2978=
201506141800 METAR MRLB 141800Z 08017KT 9999 FEW040 SCT120 34/20 A2978=
201506141900 METAR MRLB 141900Z 09015KT 9999 FEW040 SCT240 34/21 A2976=
201506142000 METAR MRLB 142000Z 08013KT 9999 FEW040 SCT240 34/20 A2974=
201506142100 METAR MRLB 142100Z 09014KT 9999 FEW035 BKN250 34/20 A2972=
201506142200 METAR MRLB 142200Z 10010KT 9999 FEW035 BKN250 34/20 A2971=
201506142300 METAR MRLB 142300Z 09015KT 9999 FEW035 BKN250 33/20 A2972=
201506142350 METAR MRLB 150000Z 08013KT 9999 FEW035 BKN250 31/20 A2976=
201506150000 METAR MRLB 150000Z 08013KT 9999 FEW035 BKN250 31/20 A2976=
201506150100 METAR MRLB 150100Z 10008KT 9999 FEW035 BKN250 30/21 A2978=
201506150200 METAR MRLB 150200Z 09011KT 9999 FEW035 BKN250 29/20 A2980=
201506150300 METAR MRLB NIL=
201506150400 METAR MRLB NIL=
201506150500 METAR MRLB NIL=
201506150600 METAR MRLB NIL=
201506150700 METAR MRLB NIL=
201506150800 METAR MRLB NIL=
201506150900 METAR MRLB NIL=
201506151000 METAR MRLB NIL=
201506151100 METAR MRLB NIL=
201506151200 METAR MRLB 151200Z 17003KT CAVOK 24/21 A2978=
201506151300 METAR MRLB 151300Z 03004KT CAVOK 25/21 A2980=
201506151400 METAR MRLB 151400Z 30003KT CAVOK 28/21 A2981=
201506151500 METAR MRLB 151500Z 14003KT CAVOK 30/21 A2981=
201506151600 METAR MRLB 151600Z 10012KT 9999 FEW035 SCT250 32/21 A2981=
201506151700 METAR MRLB 151700Z 08011KT 9999 SCT035 SCT250 32/21 A2981=
201506151800 METAR MRLB 151800Z 09012KT 9999 FEW035 SCT250 33/21 A2979=
201506151900 METAR MRLB 151900Z 09012KT 9999 FEW035 SCT250 33/21 A2977=
201506152000 METAR MRLB 152000Z 07016KT 9999 SCT035 SCT250 33/21 A2974=
201506152100 METAR MRLB 152100Z 08014KT 9999 FEW035 SCT130 BKN250 33/21 A2972=
201506152200 METAR MRLB 152200Z 08017KT 9999 BKN035 SCT250 31/21 A2972=
201506152300 METAR MRLB 152300Z 08016KT 9999 FEW035 SCT130 BKN250 31/20 A2972=
201506152352 METAR MRLB 160000Z 09015KT 9999 FEW035 BKN250 30/20 A2972=
201506160000 METAR MRLB 160000Z 09015KT 9999 FEW035 BKN250 30/20 A2972=
201506160100 METAR MRLB 160100Z 10015KT 9999 FEW035 BKN250 29/20 A2975=
201506160200 METAR MRLB 160200Z 07011KT 9999 FEW035 SCT250 29/21 A2977=
201506160300 METAR MRLB NIL=
201506160400 METAR MRLB NIL=
201506160500 METAR MRLB NIL=
201506160600 METAR MRLB NIL=
201506160700 METAR MRLB NIL=
201506160800 METAR MRLB NIL=
201506160900 METAR MRLB NIL=
201506161000 METAR MRLB NIL=
201506161100 METAR MRLB NIL=
201506161200 METAR MRLB 161200Z 15003KT 9999 FEW035 OVC250 25/22 A2976=
201506161300 METAR MRLB 161300Z 24004KT 9999 FEW035 BKN250 28/22 A2977=
201506161400 METAR MRLB 161400Z 09016KT 9999 FEW035 BKN250 31/20 A2979=
201506161500 METAR MRLB 161500Z 09018KT 9999 FEW035 OVC250 32/20 A2979=
201506161600 METAR MRLB 161600Z 09016KT 9999 SCT035 BKN250 32/21 A2981=
201506161700 METAR MRLB 161700Z 09015KT 9999 SCT035 BKN250 33/21 A2979=
201506161800 METAR MRLB 161800Z 08017KT 9999 SCT035 BKN250 34/21 A2978=
201506161900 METAR MRLB 161900Z 08011KT 9999 SCT030 SCT220 33/22 A2976=
201506162000 METAR MRLB 162000Z 07019G29KT 9999 FEW035 SCT120 33/21 A2973=
201506162100 METAR MRLB 162100Z 07022KT 9999 FEW040 33/20 A2971=
201506162200 METAR MRLB 162200Z 08020G30KT 9999 FEW035 SCT110 32/20 A2971=
201506162300 METAR MRLB 162300Z 08017G27KT 9999 SCT035 32/21 A2974=
201506162351 METAR MRLB 170000Z 08016G26KT 9999 SCT040 30/21 A2975=
201506170000 METAR MRLB 170000Z 08016G26KT 9999 SCT040 30/21 A2975=
201506170100 METAR MRLB 170100Z 09018G28KT 9999 FEW040 29/20 A2976=
201506170200 METAR MRLB 170200Z 09016KT 9999 FEW040 29/20 A2978=
201506170300 METAR MRLB NIL=
201506170400 METAR MRLB NIL=
201506170700 METAR MRLB NIL=
201506170800 METAR MRLB NIL=
201506171000 METAR MRLB NIL=
201506171100 METAR MRLB NIL=
201506171200 METAR MRLB 171200Z 11005KT 9999 SCT045 SCT250 28/21 A2978=
201506171300 METAR MRLB 171300Z 09006KT 9999 BKN040 29/21 A2979=
201506171400 METAR MRLB 171400Z 32004KT 9999 FEW040 BKN220 30/21 A2980=
201506171500 METAR MRLB 171500Z 09018KT 9999 FEW035 BKN220 31/20 A2980=
201506171600 METAR MRLB 171600Z 08019KT 9999 FEW035 BKN200 31/20 A2978=
201506171700 METAR MRLB 171700Z 08020KT 9999 FEW035 BKN200 32/20 A2977=
201506171800 METAR MRLB 171800Z 08017G27KT 9999 FEW035 BKN200 33/20 A2976=
201506171900 METAR MRLB 171900Z 08017G27KT 9999 FEW030 BKN200 33/20 A2974=
201506172000 METAR MRLB 172000Z 07017KT 9999 FEW035 BKN200 33/20 A2972=
201506172100 METAR MRLB 172100Z 08020KT 9999 FEW035 BKN200 33/20 A2970=
201506172200 METAR MRLB 172200Z 08016KT 9999 FEW035 BKN200 33/20 A2971=
201506172300 METAR MRLB 172300Z 08013KT 9999 FEW035 BKN250 31/20 A2973=
201506172350 METAR MRLB 180000Z 09010KT 9999 FEW035 SCT250 30/21 A2975=
201506180000 METAR MRLB 180000Z 09010KT 9999 FEW035 SCT250 30/21 A2975=
201506180100 METAR MRLB 180100Z 10010KT 9999 FEW035 SCT250 29/20 A2976=
201506180200 METAR MRLB 180200Z 12006KT 9999 FEW035 SCT250 28/21 A2980=
201506180300 METAR MRLB NIL=
201506180400 METAR MRLB NIL=
201506180500 METAR MRLB NIL=
201506180600 METAR MRLB NIL=
201506180700 METAR MRLB NIL=
201506180800 METAR MRLB NIL=
201506180900 METAR MRLB NIL=
201506181000 METAR MRLB NIL=
201506181100 METAR MRLB NIL=
201506181200 METAR MRLB 181200Z 18005KT CAVOK 25/22 A2974=
201506181300 METAR MRLB 181300Z 25005KT CAVOK 26/22 A2974=
201506181400 METAR MRLB 181400Z 34003KT CAVOK 27/22 A2976=
201506181500 METAR MRLB 181500Z 25003KT 9999 FEW035 BKN120 28/22 A2977=
201506181600 METAR MRLB 181600Z 17003KT 9999 FEW035 BKN120 30/22 A2975=
201506181700 METAR MRLB 181700Z 22003KT 9999 FEW035 BKN120 31/21 A2973=
201506181800 METAR MRLB 181800Z 09007KT 9999 FEW035 BKN120 33/21 A2972=
201506181900 METAR MRLB 181900Z 08015G25KT CAVOK 34/21 A2972=
201506182000 METAR MRLB 182000Z 09013KT 9999 FEW035 OVC250 34/21 A2972=
201506182100 METAR MRLB 182100Z 07021KT 9999 FEW035 BKN130 33/21 A2971=
201506182200 METAR MRLB 182200Z 08014KT 9999 FEW035 BKN130 31/21 A2970=
201506182300 METAR MRLB 182300Z 07014KT CAVOK 31/21 A2970=
201506182352 METAR MRLB 190000Z 10016KT 9999 FEW035 OVC140 30/21 A2971=
201506190000 METAR MRLB 190000Z 10016KT 9999 FEW035 OVC140 30/21 A2971=
201506190100 METAR MRLB 190100Z 09015KT 9999 FEW035 BKN140 29/21 A2975=
201506190200 METAR MRLB 190200Z 08013KT 9999 SCT035 BKN140 29/22 A2978=
201506190300 METAR MRLB NIL=
201506190400 METAR MRLB NIL=
201506190500 METAR MRLB NIL=
201506190600 METAR MRLB NIL=
201506190700 METAR MRLB NIL=
201506190800 METAR MRLB NIL=
201506190900 METAR MRLB NIL=
201506191000 METAR MRLB NIL=
201506191100 METAR MRLB NIL=
201506191200 METAR MRLB 191200Z 10014KT 9999 FEW035 OVC250 28/21 A2974=
201506191300 METAR MRLB 191300Z 09017KT 9999 SCT035 BKN250 29/21 A2978=
201506191400 METAR MRLB 191400Z 07017KT 9999 FEW035 OVC250 30/21 A2979=
201506191500 METAR MRLB 191500Z 08018KT 9999 FEW035 OVC250 31/21 A2977=
201506191600 METAR MRLB 191600Z 09020KT 9999 FEW035 SCT130 BKN250 32/20 A2976=
201506191700 METAR MRLB 191700Z 07023KT 9999 FEW035 SCT130 BKN250 33/20 A2976=
201506191800 METAR MRLB 191800Z 08017KT 9999 FEW035 SCT130 BKN250 33/20 A2975=
201506191900 METAR MRLB 191900Z 08018KT 9999 FEW030 SCT120 BKN250 33/20 A2975=
201506192000 METAR MRLB 192000Z 11014KT 9999 BKN030 31/21 A2974=
201506192100 METAR MRLB 192100Z 08014G25KT 9999 SCT035 32/21 A2973=
201506192200 METAR MRLB 192200Z 09015KT 9999 FEW035 SCT045 32/21 A2973=
201506192300 METAR MRLB 192300Z COR 08014KT 9999 SCT040 SCT130 31/21 A2974=
201506192354 METAR MRLB 200000Z 09010KT CAVOK 30/21 A2975=
201506200000 METAR MRLB 200000Z 09010KT CAVOK 30/21 A2975=
201506200100 METAR MRLB 200100Z 09014KT CAVOK 29/21 A2976=
201506200200 METAR MRLB 200200Z 10013KT CAVOK 29/21 A2978=
201506200300 METAR MRLB NIL=
201506200400 METAR MRLB NIL=
201506200500 METAR MRLB NIL=
201506200600 METAR MRLB NIL=
201506200700 METAR MRLB NIL=
201506200800 METAR MRLB NIL=
201506200900 METAR MRLB NIL=
201506201000 METAR MRLB NIL=
201506201100 METAR MRLB NIL=
201506201200 METAR MRLB 201200Z 00000KT 9999 FEW035 SCT120 27/21 A2979=
201506201300 METAR MRLB 201300Z 26004KT 9999 FEW035 SCT120 28/21 A2981=
201506201400 METAR MRLB 201400Z 28004KT 9999 SCT040 SCT120 30/21 A2982=
201506201455 METAR MRLB COR 201500201500Z 06017KT CAVOK 32/21 A2982=
201506201500 METAR MRLB 201500Z 06017KT CAVOK 32/21 A2982 RMK SCT060 BKN140=
201506201502 METAR MRLB 201500201500Z 06017KT CAVOK 32/21 A2982=
201506201600 METAR MRLB 201600Z 09015KT 9999 FEW040 SCT120 32/21 A2982=
201506201700 METAR MRLB 201700Z 09018G31KT 9999 FEW040 SCT140 34/20 A2982=
201506201800 METAR MRLB 201800Z 07016KT 9999 FEW040 SCT250 34/19 A2978=
201506201900 METAR MRLB 201900Z 09017KT 9999 FEW040 SCT250 34/19 A2978=
201506202000 METAR MRLB 202000Z 08019G29KT 9999 FEW040 SCT200 34/20 A2977=
201506202100 METAR MRLB 202100Z 09019KT 9999 FEW040 SCT200 33/20 A2976=
201506202200 METAR MRLB 202200Z 08020G30KT 9999 FEW040 SCT140 33/21 A2976=
201506202300 METAR MRLB 202300Z 08015G25KT 9999 FEW040 SCT130 31/21 A2978=
201506202354 METAR MRLB 210000Z 08015KT 9999 FEW040 30/21 A2980=
201506210000 METAR MRLB 210000Z 08015KT 9999 FEW040 30/21 A2980=
201506210100 METAR MRLB 210100Z 09009KT 9999 FEW040 SCT250 29/21 A2982=
201506210200 METAR MRLB 210200Z 08011KT 9999 FEW035 SCT250 29/21 A2982=
201506210300 METAR MRLB 210300Z 09013KT 9999 FEW040 SCT250 28/21 A2985=
201506210400 METAR MRLB 210400Z 10009KT 9999 FEW035 SCT250 28/21 A2988=
201506210500 METAR MRLB NIL=
201506210600 METAR MRLB NIL=
201506210700 METAR MRLB NIL=
201506210800 METAR MRLB NIL=
201506210900 METAR MRLB NIL=
201506211000 METAR MRLB NIL=
201506211100 METAR MRLB NIL=
201506211200 METAR MRLB 211200Z 05011KT 9999 FEW030 BKN120 27/21 A2983=
201506211300 METAR MRLB 211300Z 04009KT 9999 FEW035 BKN120 28/20 A2983=
201506211400 METAR MRLB 211400Z 28006KT 9999 FEW035 BKN120 28/21 A2985=
201506211500 METAR MRLB 211500Z 28008KT 9999 FEW035 BKN120 30/21 A2985=
201506211600 METAR MRLB 211600Z 28007KT 9999 FEW035 BKN120 30/20 A2986=
201506211700 METAR MRLB 211700Z 15006KT 9999 FEW035 BKN130 33/20 A2985=
201506211800 METAR MRLB 211800Z 08017KT 9999 FEW035 BKN130 33/20 A2983=
201506211900 METAR MRLB 211900Z 10016KT 9999 SCT030 BKN120 31/21 A2984=
201506212000 METAR MRLB 212000Z 06018KT 9999 VCSH SCT030 BKN100 30/21 A2986=
201506212100 METAR MRLB 212100Z 07012KT 9999 -RA SCT030 BKN100 27/22 A2983=
201506212200 METAR MRLB 212200Z 05012KT 9999 FEW030 OVC100 29/21 A2982=
201506212300 METAR MRLB 212300Z 07010KT 9999 FEW030 OVC110 28/19 A2984=
201506212352 METAR MRLB 220000Z 09011KT 9999 FEW030 OVC120 28/18 A2983=
201506220000 METAR MRLB 220000Z 09011KT 9999 FEW030 OVC120 28/18 A2983=
201506220100 METAR MRLB 220100Z 09010KT 9999 FEW030 OVC120 27/19 A2985=
201506220200 METAR MRLB 220200Z 08018KT 9999 FEW030 OVC120 27/20 A2986=
201506220300 METAR MRLB NIL=
201506220400 METAR MRLB NIL=
201506220500 METAR MRLB NIL=
201506220600 METAR MRLB NIL=
201506220700 METAR MRLB NIL=
201506220800 METAR MRLB NIL=
201506220900 METAR MRLB NIL=
201506221000 METAR MRLB NIL=
201506221100 METAR MRLB NIL=
201506221200 METAR MRLB 221200Z 10015KT CAVOK 28/19 A2977=
201506221300 METAR MRLB 221300Z 11013KT CAVOK 29/19 A2978=
201506221400 METAR MRLB 221400Z 11016KT CAVOK 30/19 A2979=
201506221500 METAR MRLB 221500Z 09018KT CAVOK 31/18 A2979=
201506221600 METAR MRLB 221600Z 09019G29KT CAVOK 32/18 A2979=
201506221700 METAR MRLB 221700Z 10019KT CAVOK 33/19 A2978=
201506221800 METAR MRLB 221800Z 09021KT CAVOK 34/18 A2978=
201506221900 METAR MRLB 221900Z 08020G30KT CAVOK 34/19 A2979=
201506222000 METAR MRLB 222000Z 08019KT 9999 FEW040 SCT140 BKN250 34/17 A2978=
201506222100 METAR MRLB 222100Z 07020KT 9999 FEW045 SCT060 BKN250 34/18 A2978=
201506222200 METAR MRLB 222200Z 08019KT CAVOK 32/19 A2977=
201506222300 METAR MRLB 222300Z 10015G25KT CAVOK 30/18 A2977=
201506222352 METAR MRLB 230000Z 09016KT CAVOK 29/19 A2977=
201506230000 METAR MRLB 230000Z 09016KT CAVOK 29/19 A2977=
201506230100 METAR MRLB 230100Z 11018G28KT CAVOK 29/19 A2976=
201506230200 METAR MRLB 230200Z 10016KT CAVOK 29/19 A2979=
201506230300 METAR MRLB NIL=
201506230400 METAR MRLB NIL=
201506230500 METAR MRLB NIL=
201506230600 METAR MRLB NIL=
201506230700 METAR MRLB NIL=
201506230800 METAR MRLB NIL=
201506230900 METAR MRLB NIL=
201506231000 METAR MRLB NIL=
201506231100 METAR MRLB NIL=
201506231200 METAR MRLB 231200Z 23004KT 9999 FEW040 BKN250 27/20 A2981=
201506231300 METAR MRLB 231300Z 33004KT 9999 FEW040 SCT250 29/21 A2983=
201506231400 METAR MRLB 231400Z 08017KT 9999 FEW040 SCT250 31/20 A2981=
201506231500 METAR MRLB 231520 08022G32KT 9999 FEW035 SCT250 32/20 A2982=
201506231520 METAR MRLB 231520Z COR 08022G32KT 9999 FEW035 SCT250 32/20 A2982=
201506231524 METAR MRLB 231520 08022G32KT 9999 FEW035 SCT250 32/20 A2982=
201506231600 METAR MRLB 231600Z 09018KT 9999 FEW035 SCT120 32/20 A2983=
201506231700 METAR MRLB 231700Z 08020G32KT 9999 FEW035 SCT110 33/20 A2981=
201506231800 METAR MRLB 231800Z 09022G32KT 9999 FEW035 SCT110 33/19 A2977=
201506231900 METAR MRLB 231900Z 08022G32KT 9999 FEW035 SCT100 BKN250 33/20 A2977=
201506232000 METAR MRLB 232000Z 09020G30KT 9999 FEW035 BKN120 31/20 A2976=
201506232100 METAR MRLB 232100Z 08022KT 9999 FEW035 BKN250 32/20 A2973=
201506232200 METAR MRLB 232200Z 10020G30KT 9999 FEW035 SCT250 31/20 A2971=
201506232300 METAR MRLB 232300Z 09015KT 9999 FEW035 SCT250 31/21 A2973=
201506232353 METAR MRLB 240000Z 10020KT 9999 FEW035 SCT250 29/20 A2973=
201506240000 METAR MRLB 240000Z 10020KT 9999 FEW035 SCT250 29/20 A2973=
201506240100 METAR MRLB 240100Z 09014KT 9999 FEW035 SCT250 29/21 A2975=
201506240200 METAR MRLB 240200Z 07013KT 9999 FEW035 SCT250 29/20 A2977=
201506240300 METAR MRLB NIL=
201506240400 METAR MRLB NIL=
201506240500 METAR MRLB NIL=
201506240600 METAR MRLB NIL=
201506240700 METAR MRLB NIL=
201506240800 METAR MRLB NIL=
201506240900 METAR MRLB NIL=
201506241000 METAR MRLB NIL=
201506241100 METAR MRLB NIL=
201506241200 METAR MRLB 241200Z 10019KT 9999 FEW035 28/21 A2976=
201506241300 METAR MRLB 241300Z 09017KT 9999 FEW035 SCT250 29/21 A2978=
201506241400 METAR MRLB 241400Z 09015KT 9999 FEW035 SCT250 31/20 A2979=
201506241500 METAR MRLB 241500Z 09018KT 9999 FEW035 SCT250 32/20 A2980=
201506241600 METAR MRLB 241600Z 08016KT 9999 SCT035 33/21 A2980=
201506241700 METAR MRLB 241700Z 08016KT 9999 SCT035 34/21 A2979=
201506241800 METAR MRLB 241800Z 07016KT 9999 SCT035 35/21 A2978=
201506241900 METAR MRLB 241900Z 07014KT 9999 SCT035 34/21 A2978=
201506242000 METAR MRLB 242000Z 08016KT 9999 SCT030 34/21 A2976=
201506242100 METAR MRLB 242100Z 07016KT 9999 FEW035 34/21 A2975=
201506242200 METAR MRLB 242200Z 07017KT 9999 FEW035 SCT140 33/21 A2974=
201506242300 METAR MRLB 242300Z 06018KT 9999 FEW035 SCT140 32/21 A2975=
201506242352 METAR MRLB 250000Z 08014KT 9999 SCT030 SCT120 31/21 A2977=
201506250000 METAR MRLB 250000Z 08014KT 9999 SCT030 SCT120 31/21 A2977=
201506250100 METAR MRLB 250100Z 08018KT 9999 FEW030 SCT250 30/21 A2979=
201506250200 METAR MRLB 250200Z 08020KT 9999 FEW030 SCT250 29/20 A2980=
201506250300 METAR MRLB NIL=
201506250400 METAR MRLB NIL=
201506250500 METAR MRLB NIL=
201506250600 METAR MRLB NIL=
201506250700 METAR MRLB NIL=
201506250800 METAR MRLB NIL=
201506250900 METAR MRLB NIL=
201506251000 METAR MRLB NIL=
201506251100 METAR MRLB NIL=
201506251200 METAR MRLB 251200Z 08004KT CAVOK 26/21 A2977=
201506251300 METAR MRLB 251300Z 08013KT CAVOK 30/20 A2978=
201506251400 METAR MRLB 251400Z 09018KT 9999 FEW035 OVC250 31/21 A2979=
201506251500 METAR MRLB 251500Z 09019KT 9999 FEW035 OVC250 32/21 A2981=
201506251600 METAR MRLB 251600Z 08019KT 9999 FEW035 OVC250 33/21 A2981=
201506251700 METAR MRLB 251700Z 08018KT 9999 FEW035 OVC250 34/20 A2980=
201506251800 METAR MRLB 251800Z 07021KT 9999 FEW035 OVC250 34/20 A2979=
201506251900 METAR MRLB 251900Z 07016KT 9999 FEW030 BKN250 35/20 A2977=
201506251952 METAR MRLB 272000Z 09018KT 9999 FEW035 OVC250 35/18 A2975=
201506252000 METAR MRLB 252000Z 07019KT 9999 FEW040 BKN250 35/20 A2974=
201506252100 METAR MRLB 252100Z 07016KT 9999 FEW035 BKN250 35/20 A2973=
201506252200 METAR MRLB 252200Z 06019KT 9999 FEW040 BKN240 34/20 A2973=
201506252300 METAR MRLB 252300Z 07020KT CAVOK 33/20 A2974=
201506252354 METAR MRLB 260000Z 07020KT CAVOK 31/21 A2976=
201506252355 METAR MRLB COR 260000Z 07020G30KT CAVOK 31/21 A2976=
201506260000 METAR MRLB 260000Z COR 07020G30KT CAVOK 31/21 A2976=
201506260100 METAR MRLB 260100Z 08019KT CAVOK 30/20 A2976=
201506260200 METAR MRLB 260200Z 08019G29KT CAVOK 30/20 A2979=
201506260300 METAR MRLB NIL=
201506260400 METAR MRLB NIL=
201506260500 METAR MRLB NIL=
201506260600 METAR MRLB NIL=
201506260700 METAR MRLB NIL=
201506260800 METAR MRLB NIL=
201506260900 METAR MRLB NIL=
201506261000 METAR MRLB NIL=
201506261100 METAR MRLB NIL=
201506261200 METAR MRLB 261200Z 03003KT CAVOK 27/21 A2979=
201506261300 METAR MRLB 261300Z 04007KT CAVOK 30/21 A2981=
201506261400 METAR MRLB 261400Z 08016KT CAVOK 31/20 A2979=
201506261500 METAR MRLB 261500Z 09018G31KT CAVOK 32/20 A2981=
201506261600 METAR MRLB 261600Z 08020KT 9999 FEW040 BKN250 34/20 A2980=
201506261700 METAR MRLB 261700Z 09017KT 9999 FEW040 BKN250 34/20 A2977=
201506261800 METAR MRLB 261800Z 08020G30KT 9999 FEW035 SCT250 35/20 A2976=
201506261900 METAR MRLB 261900Z 09020G30KT 9999 FEW035 SCT250 35/20 A2975=
201506262000 METAR MRLB 262000Z 08018KT 9999 FEW035 SCT250 35/20 A2974=
201506262100 METAR MRLB 262100Z 07021KT 9999 FEW035 SCT250 34/20 A2974=
201506262200 METAR MRLB 262200Z 08018KT 9999 FEW035 BKN250 34/20 A2973=
201506262300 METAR MRLB 262300Z 09022KT 9999 SCT035 SCT250 32/20 A2974=
201506262352 METAR MRLB 270000Z 09018G28KT 9999 FEW035 BKN250 31/21 A2976=
201506270000 METAR MRLB 270000Z 09018G28KT 9999 FEW035 BKN250 31/21 A2976=
201506270100 METAR MRLB 270100Z 08021KT 9999 FEW035 SCT250 29/20 A2977=
201506270200 METAR MRLB 270200Z 09018KT 9999 FEW035 SCT250 29/20 A2981=
201506270300 METAR MRLB NIL=
201506270400 METAR MRLB NIL=
201506270500 METAR MRLB NIL=
201506270600 METAR MRLB NIL=
201506270700 METAR MRLB NIL=
201506270800 METAR MRLB NIL=
201506270900 METAR MRLB NIL=
201506271000 METAR MRLB NIL=
201506271100 METAR MRLB NIL=
201506271200 METAR MRLB 271200Z 08017KT 9999 FEW035 SCT250 28/17 A2980=
201506271300 METAR MRLB 271300Z 09018KT 9999 FEW035 BKN250 29/17 A2980=
201506271400 METAR MRLB 271400Z 08013KT 9999 FEW035 BKN250 31/18 A2980=
201506271500 METAR MRLB 271500Z 09024G34KT 9999 FEW035 BKN250 31/18 A2981=
201506271600 METAR MRLB 271600Z 08026KT 9999 FEW035 BKN250 32/17 A2980=
201506271700 METAR MRLB 271700Z 08020G30KT 9999 FEW035 BKN250 33/18 A2981=
201506271800 METAR MRLB 271800Z 08020KT 9999 FEW035 BKN250 34/18 A2980=
201506271900 METAR MRLB 271900Z 07019KT 9999 FEW035 BKN250 34/18 A2978=
201506272000 METAR MRLB 272000Z 09018KT 9999 FEW035 OVC250 35/18 A2975=
201506272100 METAR MRLB 272100Z 09017KT 9999 FEW035 BKN100 34/19 A2974=
201506272200 METAR MRLB 272200Z 09016KT 9999 FEW035 BKN100 32/20 A2975=
201506272300 METAR MRLB 272300Z 08015KT 9999 FEW035 BKN100 32/19 A2975=
201506272352 METAR MRLB 280000Z 09012KT 9999 FEW035 BKN250 31/19 A2977=
201506280000 METAR MRLB 280000Z 09012KT 9999 FEW035 BKN250 31/19 A2977=
201506280100 METAR MRLB 280100Z 10014KT 9999 FEW035 BKN250 29/19 A2980=
201506280200 METAR MRLB 280200Z 08014KT 9999 FEW035 BKN250 29/19 A2982=
201506280300 METAR MRLB 280300Z 10008KT 9999 FEW035 SCT250 29/19 A2984=
201506280400 METAR MRLB NIL=
201506280500 METAR MRLB NIL=
201506280600 METAR MRLB NIL=
201506280700 METAR MRLB NIL=
201506280800 METAR MRLB NIL=
201506280900 METAR MRLB NIL=
201506281000 METAR MRLB NIL=
201506281100 METAR MRLB NIL=
201506281200 METAR MRLB 281200Z 09010KT 9999 FEW035 BKN120 28/20 A2982=
201506281300 METAR MRLB 281300Z 31003KT 9999 FEW035 BKN120 28/21 A2984=
201506281400 METAR MRLB 281400Z 08018KT 9999 FEW035 BKN120 30/21 A2986=
201506281500 METAR MRLB 281500Z 10015KT 9999 FEW035 BKN120 30/21 A2985=
201506281600 METAR MRLB 281600Z 09017KT 9999 FEW035 SCT130 BKN250 33/20 A2984=
201506281700 METAR MRLB 281700Z 09015G25KT 9999 SCT035 BKN250 33/20 A2982=
201506281800 METAR MRLB 281800Z 09015KT 9999 SCT035 BKN250 34/21 A2981=
201506281900 METAR MRLB 281900Z 09016KT 9999 SCT035 BKN250 35/20 A2978=
201506282000 METAR MRLB 282000Z 09015KT 9999 FEW035 BKN250 33/20 A2977=
201506282100 METAR MRLB 282100Z 08015KT 9999 FEW035 BKN250 34/20 A2975=
201506282200 METAR MRLB 282200Z 10015KT 9999 SCT040 SCT100 33/20 A2975=
201506282300 METAR MRLB 282300Z 08018KT 9999 VCSH DZ FEW035 BKN100 30/21 A2979=
201506282352 METAR MRLB 290000Z 12007KT CAVOK 28/22 A2980=
201506290000 METAR MRLB 290000Z 12007KT CAVOK 28/22 A2980=
201506290100 METAR MRLB 290100Z 15008KT CAVOK 28/22 A2983=
201506290200 METAR MRLB 290200Z 14008KT CAVOK 28/22 A2985=
201506290300 METAR MRLB NIL=
201506290400 METAR MRLB NIL=
201506290500 METAR MRLB NIL=
201506290600 METAR MRLB NIL=
201506290700 METAR MRLB NIL=
201506290800 METAR MRLB NIL=
201506290900 METAR MRLB NIL=
201506291000 METAR MRLB NIL=
201506291100 METAR MRLB NIL=
201506291200 METAR MRLB 291200Z 00000KT 9999 FEW045 SCT100 BKN250 25/22 A2982=
201506291300 METAR MRLB 291300Z 21003KT 9999 FEW045 SCT100 BKN250 27/22 A2985=
201506291400 METAR MRLB 291400Z 19003KT 9999 FEW045 SCT100 BKN240 30/22 A2987=
201506291500 METAR MRLB 291500Z 05008KT CAVOK 31/21 A2986=
201506291600 METAR MRLB 291600Z 09017G27KT 9999 FEW035 SCT100 BKN240 31/21 A2986=
201506291700 METAR MRLB 291700Z 08015G25KT 9999 FEW035 SCT100 BKN240 32/21 A2985=
201506291800 METAR MRLB 291800Z 07017KT 9999 FEW035 SCT100 BKN240 32/21 A2984=
201506291900 METAR MRLB 291900Z 09014KT 9999 FEW030 BKN140 33/20 A2981=
201506292000 METAR MRLB 292000Z 08013KT 9999 FEW035 BKN120 32/21 A2981=
201506292100 METAR MRLB 292100Z 05011KT 9999 FEW035 BKN120 32/20 A2980=
201506292200 METAR MRLB 292200Z 07014KT 9999 FEW035 BKN130 32/21 A2978=
201506292300 METAR MRLB 292300Z 07012KT 9999 FEW035 BKN130 32/20 A2979=
201506292352 METAR MRLB 300000Z 08009KT 9999 FEW035 BKN120 30/21 A2980=
201506300000 METAR MRLB 300000Z 08009KT 9999 FEW035 BKN120 30/21 A2980=
201506300100 METAR MRLB 0100Z 09020KT CAVOK 30/17 A2976=
201506300200 METAR MRLB 300200Z 09009KT 9999 FEW035 BKN120 29/21 A2986=
201506300300 METAR MRLB NIL=
201506300400 METAR MRLB NIL=
201506300500 METAR MRLB NIL=
201506300600 METAR MRLB NIL=
201506300700 METAR MRLB NIL=
201506300800 METAR MRLB NIL=
201506300900 METAR MRLB NIL=
201506301000 METAR MRLB NIL=
201506301100 METAR MRLB NIL=
201506301200 METAR MRLB 301200Z 20003KT 9999 FEW030 BKN120 24/22 A2982=
201506301300 METAR MRLB 301300Z 35005KT 9999 FEW030 BKN120 26/22 A2984=
201506301400 METAR MRLB 301400Z 09016KT 9999 FEW035 BKN120 29/19 A2982=
201506301500 METAR MRLB 301500Z 08023G36KT 9999 FEW035 BKN130 30/19 A2982=
201506301600 METAR MRLB 301600Z 08023G34KT 9999 FEW035 BKN130 31/19 A2981=
201506301700 METAR MRLB 301700Z 09025G37KT 9999 FEW035 BKN140 31/19 A2979=
201506301800 METAR MRLB 301800Z 08026G38KT 9999 FEW035 BKN200 33/19 A2980=
201506301900 METAR MRLB 301900Z 09023G33KT 9999 FEW030 BKN250 33/19 A2980=
201506302000 METAR MRLB 302000Z 09024G34KT 9999 FEW035 OVC250 32/19 A2977=
201506302100 METAR MRLB 302100Z 09022G32KT 9999 FEW035 OVC250 32/18 A2975=
201506302200 METAR MRLB 302200Z 09023KT 9999 FEW035 OVC250 32/18 A2975=
201506302300 METAR MRLB 302300Z 09020G32KT CAVOK 31/18 A2975=
201506302359 METAR MRLB 0100Z 09020KT CAVOK 30/17 A2976=
201507010000 METAR MRLB 010000Z 09020KT CAVOK 30/17 A2976=
201507010100 METAR MRLB 010100Z 10017G30KT CAVOK 28/18 A2978=
201507010200 METAR MRLB 010200Z 08016KT CAVOK 29/16 A2983=
201507010300 METAR MRLB NIL=
201507010400 METAR MRLB NIL=
201507010500 METAR MRLB NIL=
201507010600 METAR MRLB NIL=
201507010700 METAR MRLB NIL=
201507010800 METAR MRLB NIL=
201507010900 METAR MRLB NIL=
201507011000 METAR MRLB NIL=
201507011100 METAR MRLB NIL=
201507011200 METAR MRLB 011200Z 0708KT CAVOK 27/18 A2980=
201507011300 METAR MRLB 011300Z 09017G27KT CAVOK 28/18 A2981=
201507011400 METAR MRLB 011400Z 09016G27KT CAVOK 30/18 A2983=
201507011500 METAR MRLB 011500Z 08021G32KT CAVOK 31/18 A2982=
201507011552 METAR MRLB 011552Z 011600Z07023KT CAVOK 32/17 A2982=
201507011600 METAR MRLB 011600Z COR 07023KT CAVOK 32/17 A2982=
201507011700 METAR MRLB 011700Z 08017KT CAVOK 34/17 A2980=
201507011800 METAR MRLB 011800Z 08017KT CAVOK 34/18 A2979=
201507011900 METAR MRLB NIL=
201507012000 METAR MRLB 012000Z 08015KT 9999 FEW040 BKN250 35/17 A2975=
201507012100 METAR MRLB 012100Z 07015KT 9999 FEW040 BKN250 33/18 A2974=
201507012200 METAR MRLB 012200Z 08015KT 9999 FEW040 BKN250 33/18 A2974=
201507012300 METAR MRLB 012300Z 08015KT CAVOK 32/19 A2974=
201507012352 METAR MRLB 020000Z 08014KT CAVOK 30/19 A2976=
201507020000 METAR MRLB 020000Z 08014KT CAVOK 30/19 A2976=
201507020100 METAR MRLB 020100Z 10014G24KT CAVOK 29/18 A2977=
201507020200 METAR MRLB 020200Z 09012KT CAVOK 29/18 A2981=
201507020300 METAR MRLB NIL=
201507020400 METAR MRLB NIL=
201507020500 METAR MRLB NIL=
201507020600 METAR MRLB NIL=
201507020700 METAR MRLB NIL=
201507020800 METAR MRLB NIL=
201507020900 METAR MRLB NIL=
201507021000 METAR MRLB NIL=
201507021100 METAR MRLB NIL=
201507021200 METAR MRLB 021200Z 10007KT CAVOK 27/19 A2978=
201507021300 METAR MRLB 021300Z 06004KT CAVOK 28/19 A2980=
201507021400 METAR MRLB 021400Z 03005KT CAVOK 30/19 A2980=
201507021500 METAR MRLB 021500Z 08009KT 9999 FEW040 SCT250 32/20 A2979=
201507021600 METAR MRLB 021600Z 09018G29KT 9999 FEW040 SCT250 33/20 A2978=
201507021700 METAR MRLB 021700Z 09017KT 9999 FEW040 SCT250 33/20 A2976=
201507021800 METAR MRLB 021800Z 07022G32KT 9999 FEW035 34/20 A2976=
201507021900 METAR MRLB 021900Z 07020G30KT 9999 FEW030 34/19 A2973=
201507022000 METAR MRLB 022000Z 08022KT 9999 FEW035 34/20 A2970=
201507022100 METAR MRLB 022100Z 08018KT 9999 FEW035 34/19 A2970=
201507022200 METAR MRLB 022200Z 07020KT 9999 FEW035 33/20 A2970=
201507022300 METAR MRLB 022300Z 08014KT 9999 FEW035 33/20 A2972=
201507022352 METAR MRLB 030000Z 08014KT 9999 FEW035 31/20 A2974=
201507030000 METAR MRLB 030000Z 08014KT 9999 FEW035 31/20 A2974=
201507030100 METAR MRLB 030100Z 08013KT 9999 FEW035 SCT250 29/20 A2975=
201507030200 METAR MRLB 030200Z 08015KT 9999 FEW035 SCT250 29/20 A2976=
201507030300 METAR MRLB NIL=
201507030400 METAR MRLB NIL=
201507030500 METAR MRLB NIL=
201507030600 METAR MRLB NIL=
201507030700 METAR MRLB NIL=
201507030800 METAR MRLB NIL=
201507030900 METAR MRLB NIL=
201507031000 METAR MRLB NIL=
201507031100 METAR MRLB NIL=
201507031200 METAR MRLB 031200Z 07017G28KT 9999 FEW035 SCT250 28/20 A2974=
201507031300 METAR MRLB 031300Z 09018G28KT 9999 FEW035 SCT250 29/19 A2975=
201507031400 METAR MRLB 031400Z 07019KT 9999 FEW035 SCT250 31/19 A2977=
201507031500 METAR MRLB 031500Z 07023KT 9999 FEW035 SCT250 31/20 A2978=
201507031600 METAR MRLB 031600Z 07022KT 9999 FEW035 SCT250 33/19 A2976=
201507031700 METAR MRLB 031700Z 08024KT 9999 FEW035 SCT250 33/19 A2974=
201507031800 METAR MRLB 031800Z 08021KT 9999 FEW035 BKN250 33/19 A2976=
201507031900 METAR MRLB 031900Z 08018KT 9999 FEW030 BKN250 34/19 A2972=
201507032000 METAR MRLB 032000Z 07022KT 9999 FEW035 OVC250 33/19 A2971=
201507032100 METAR MRLB 032100Z 08021KT 9999 FEW035 OVC250 33/19 A2969=
201507032200 METAR MRLB 032200Z 07022KT 9999 FEW035 OVC250 33/19 A2971=
201507032300 METAR MRLB 032300Z 07021KT 9999 FEW035 OVC250 32/20 A2971=
201507032358 METAR MRLB 040000Z 08018KT 9999 FEW035 OVC250 30/20 A2971=
201507040000 METAR MRLB 040000Z 08018KT 9999 FEW035 OVC250 30/20 A2971=
201507040100 METAR MRLB 040100Z 08019KT 9999 FEW035 BKN250 29/20 A2973=
201507040200 METAR MRLB 040200Z 08019KT 9999 FEW035 BKN250 28/19 A2974=
201507040300 METAR MRLB NIL=
201507040400 METAR MRLB NIL=
201507040500 METAR MRLB NIL=
201507040600 METAR MRLB NIL=
201507040700 METAR MRLB NIL=
201507040800 METAR MRLB NIL=
201507040900 METAR MRLB NIL=
201507041000 METAR MRLB NIL=
201507041100 METAR MRLB NIL=
201507041200 METAR MRLB 041200Z 07015KT 9999 FEW035 OVC250 28/19 A2975=
201507041300 METAR MRLB 041300Z 09018KT 9999 FEW035 OVC250 29/18 A2975=
201507041400 METAR MRLB 041400Z 10019G31KT 9999 FEW035 OVC250 30/18 A2974=
201507041500 METAR MRLB 041500Z 10022G32KT CAVOK 31/18 A2975=
201507041600 METAR MRLB 041600Z 09022G32KT CAVOK 32/18 A2973=
201507041700 METAR MRLB 041700Z COR 10022G34KT CAVOK 33/18 A2972=
201507041800 METAR MRLB 041800Z 08023KT CAVOK 34/18 A2971=
201507041900 METAR MRLB 041900Z 09023KT CAVOK 34/18 A2970=
201507042000 METAR MRLB 042000Z 08023KT 9999 FEW035 BKN250 34/18 A2969=
201507042100 METAR MRLB 042100Z 08022KT 9999 FEW035 OVC250 34/18 A2970=
201507042200 METAR MRLB 042200Z 08020KT CAVOK 32/19 A2971=
201507042300 METAR MRLB 042300Z 09017KT CAVOK 31/19 A2972=
201507042350 METAR MRLB 050000Z 08017KT CAVOK 30/19 A2973=
201507050000 METAR MRLB 050000Z 08017KT CAVOK 30/19 A2973=
201507050100 METAR MRLB 050100Z 10016KT CAVOK 29/19 A2974=
201507050200 METAR MRLB 050200Z 08016KT CAVOK 29/19 A2977=
201507050300 METAR MRLB 050300Z 10017KT CAVOK 29/19 A2978=
201507050400 METAR MRLB 050400Z 09011KT CAVOK 28/20 A2980=
201507050500 METAR MRLB 050500Z 08013KT CAVOK 28/19 A2978=
201507050600 METAR MRLB NIL=
201507050700 METAR MRLB NIL=
201507050800 METAR MRLB NIL=
201507050900 METAR MRLB NIL=
201507051000 METAR MRLB NIL=
201507051100 METAR MRLB NIL=
201507051200 METAR MRLB 051200Z 03003KT CAVOK 27/20 A2982=
201507051300 METAR MRLB 051300Z 06002KT CAVOK 29/21 A2983=
201507051400 METAR MRLB 051400Z 09015KT CAVOK 31/20 A2982=
201507051500 METAR MRLB 051500Z 04010KT 9999 FEW035 BKN250 32/20 A2982=
201507051600 METAR MRLB 051600Z 09019G30KT 9999 FEW035 BKN250 33/20 A2981=
201507051700 METAR MRLB 051700Z 09019KT 9999 FEW040 BKN250 34/19 A2981=
201507051800 METAR MRLB 051800Z 08019KT 9999 FEW040 BKN250 35/20 A2981=
201507051900 METAR MRLB 051900Z 08016G26KT 9999 SCT040 BKN250 35/20 A2979=
201507052000 METAR MRLB 052000Z 08018G29KT 9999 FEW040 SCT250 35/20 A2977=
201507052100 METAR MRLB 052100Z 07017KT 9999 SCT035 35/20 A2977=
201507052200 METAR MRLB 052200Z 08019KT 9999 FEW035 SCT250 33/20 A2978=
201507052300 METAR MRLB 052300Z 08017G27KT 9999 SCT035 SCT080 31/20 A2981=
201507052355 METAR MRLB 060000Z 09015KT 9999 FEW040 BKN250 30/20 A2979=
201507060000 METAR MRLB 060000Z 09015KT 9999 FEW040 BKN250 30/20 A2979=
201507060100 METAR MRLB 060100Z 10015KT CAVOK 29/20 A2982=
201507060200 METAR MRLB 060200Z 09015KT CAVOK 29/21 A2983=
201507060300 METAR MRLB NIL=
201507060400 METAR MRLB NIL=
201507060500 METAR MRLB NIL=
201507060600 METAR MRLB NIL=
201507060700 METAR MRLB NIL=
201507060800 METAR MRLB NIL=
201507060900 METAR MRLB NIL=
201507061000 METAR MRLB NIL=
201507061100 METAR MRLB NIL=
201507061200 METAR MRLB 061200Z 07014KT CAVOK 28/19 A2979=
201507061300 METAR MRLB 061300Z 06003KT CAVOK 28/20 A2983=
201507061400 METAR MRLB 061400Z 10017G32KT CAVOK 29/20 A2982=
201507061500 METAR MRLB 061500Z 08020KT 9999 FEW035 SCT100 BKN220 31/19 A2986=
201507061600 METAR MRLB 061600Z 09019KT 9999 FEW035 SCT120 BKN220 32/20 A2985=
201507061700 METAR MRLB 061700Z 07019KT 9999 FEW035 SCT120 BKN220 33/20 A2985=
201507061800 METAR MRLB 061800Z 07021KT 9999 FEW035 SCT120 BKN220 33/19 A2984=
201507061900 METAR MRLB 061900Z 08018G28KT 9999 FEW030 BKN250 34/18 A2980=
201507062000 METAR MRLB 062000Z 08021KT 9999 FEW035 OVC250 35/19 A2979=
201507062100 METAR MRLB 062100Z 08017KT 9999 FEW035 OVC250 34/19 A2978=
201507062200 METAR MRLB 062200Z 08016KT 9999 FEW035 OVC250 33/19 A2979=
201507062300 METAR MRLB 062300Z 08017KT 9999 FEW035 OVC250 32/19 A2981=
201507062352 METAR MRLB 070000Z 08018KT 9999 FEW035 OVC150 30/20 A2982=
201507070000 METAR MRLB 070000Z 08018KT 9999 FEW035 OVC150 30/20 A2982=
201507070100 METAR MRLB 070100Z 09010KT 9999 FEW035 BKN140 29/20 A2985=
201507070200 METAR MRLB 070200Z 10007KT 9999 FEW035 BKN140 28/20 A2989=
201507070300 METAR MRLB NIL=
201507070400 METAR MRLB NIL=
201507070500 METAR MRLB NIL=
201507070600 METAR MRLB NIL=
201507070700 METAR MRLB NIL=
201507070800 METAR MRLB NIL=
201507070900 METAR MRLB NIL=
201507071000 METAR MRLB NIL=
201507071100 METAR MRLB NIL=
201507071200 METAR MRLB 071200Z 10006KT 9999 -RA FEW030 OVC100 25/22 A2986=
201507071300 METAR MRLB 071300Z 36003KT 9999 FEW025 OVC100 25/22 A2986=
201507071400 METAR MRLB 071400Z 21004KT 9999 FEW025 OVC120 26/22 A2986=
201507071500 METAR MRLB 071500Z 10015KT 9999 FEW030 OVC120 29/19 A2984=
201507071600 METAR MRLB 071600Z 09016KT 9999 FEW030 BKN130 30/19 A2984=
201507071652 METAR MRLB 071652Z 071700Z08017KT 9999 FEW030 BKN130 32/19 A2984=
201507071700 METAR MRLB 071700Z08017KT 9999 FEW030 BKN130 32/19 A2984=
201507071800 METAR MRLB 071800Z 10013KT 9999 FEW030 OVC130 31/19 A2984=
201507071900 METAR MRLB 071900Z 07016KT 9999 FEW030 BKN130 31/19 A2983=
201507072000 METAR MRLB 072000Z 09015G26KT 9999 FEW030 BKN120 31/20 A2981=
201507072100 METAR MRLB 072100Z 08019KT 9999 FEW035 BKN130 31/19 A2981=
201507072200 METAR MRLB 072200Z 05010KT 9999 FEW025TCU SCT035 BKN130 30/21 A2982=
201507072300 METAR MRLB 072300Z 07012KT 9999 -RA OVC030 25/22 A2983=
201507072350 METAR MRLB 080000Z 08014G25KT 9999 FEW020 SCT030 BKN100 26/20 A2984=
201507080000 METAR MRLB 080000Z 08014G25KT 9999 FEW020 SCT030 BKN100 26/20 A2984=
201507080100 METAR MRLB 080100Z 09012KT 9999 SCT030 SCT100 26/21 A2987=
201507080200 METAR MRLB 080200Z 13006KT 9999 FEW035 SCT100 24/21 A2988=
201507080300 METAR MRLB NIL=
201507080400 METAR MRLB NIL=
201507080500 METAR MRLB NIL=
201507080600 METAR MRLB NIL=
201507080700 METAR MRLB NIL=
201507080800 METAR MRLB NIL=
201507080900 METAR MRLB NIL=
201507081000 METAR MRLB NIL=
201507081100 METAR MRLB NIL=
201507081200 METAR MRLB 081200Z 00000KT CAVOK 23/21 A2986=
201507081300 METAR MRLB 081300Z 22002KT CAVOK 24/22 A2987=
201507081400 METAR MRLB 081400Z COR 33003KT CAVOK 28/21 2987=
201507081500 METAR MRLB 081500Z 05007KT CAVOK 29/21 A2986=
201507081553 METAR MRLB 81600Z 09014KT 9999 FEW040 SCT130 BKN240 31/19 A2984=
201507081600 METAR MRLB 081600Z COR 09014KT 9999 FEW040 SCT130 BKN240 31/19 A2984=
201507081700 METAR MRLB 081700Z 11012KT 9999 FEW040 SCT100 BKN220 32/18 A2984=
201507081800 METAR MRLB 081800Z 07018KT 9999 FEW040 BKN100 32/19 A2983=
201507081900 METAR MRLB 081900Z 07014KT 9999 FEW030 BKN120 31/19 A2982=
201507082000 METAR MRLB 082000Z 08013KT 9999 FEW035 BKN120 32/19 A2979=
201507082100 METAR MRLB 082100Z 09013KT 9999 SCT035 BKN120 31/19 A2977=
201507082200 METAR MRLB 082200Z 09011KT 9999 SCT035 BKN120 30/19 A2978=
201507082300 METAR MRLB 082300Z 09010KT 9999 FEW035 BKN120 30/19 A2979=
201507082350 METAR MRLB 090000Z 09008KT 9999 SCT035 BKN120 29/20 A2980=
201507090000 METAR MRLB 090000Z 09008KT 9999 SCT035 BKN120 29/20 A2980=
201507090100 METAR MRLB 090100Z 12005KT 9999 SCT035 BKN120 28/20 A2982=
201507090200 METAR MRLB 090200Z 12006KT 9999 SCT030 BKN120 27/21 A2985=
201507090300 METAR MRLB NIL=
201507090400 METAR MRLB NIL=
201507090500 METAR MRLB NIL=
201507090600 METAR MRLB NIL=
201507090700 METAR MRLB NIL=
201507090800 METAR MRLB NIL=
201507090900 METAR MRLB NIL=
201507091000 METAR MRLB NIL=
201507091100 METAR MRLB NIL=
201507091200 METAR MRLB 091200Z 06007KT 9999 FEW035 BKN100 24/21 A2984=
201507091300 METAR MRLB 091300Z 09004KT 9999 FEW035 BKN110 25/20 A2985=
201507091400 METAR MRLB 091400Z 10003KT 9999 FEW035 BKN120 28/19 A2987=
201507091500 METAR MRLB 091500Z 19006KT 9999 FEW035 BKN120 28/20 A2989=
201507091600 METAR MRLB 091600Z 20005KT 9999 FEW035 BKN120 28/21 A2988=
201507091700 METAR MRLB 091700Z 18004KT 9999 SCT035 BKN120 31/20 A2986=
201507091800 METAR MRLB 091800Z 18007KT 9999 SCT035 BKN120 31/20 A2984=
201507091900 METAR MRLB 091900Z 20003KT 9999 SCT025 BKN120 32/18 A2981=
201507092000 METAR MRLB 092000Z 30010KT 9999 RA BKN025 SCT120 29/21 A2981=
201507092100 METAR MRLB 092100Z 04006KT 9999 3000E RA BKN020 SCT120 26/23 A2979=
201507092200 METAR MRLB 092200Z 05004KT 9999 -RA FEW025 BKN120 26/23 A2979 RERA=
201507092300 METAR MRLB 092300Z 13005KT 9999 FEW025 OVC120 26/22 A2979=
201507092352 METAR MRLB 100000Z 16003KT CAVOK 25/20 A2979=
201507100000 METAR MRLB 100000Z 16003KT CAVOK 25/20 A2979=
201507100100 METAR MRLB 100100Z 12002KT CAVOK 25/21 A2980=
201507100200 METAR MRLB 100200Z 16002KT CAVOK 24/21 A2983=
201507100300 METAR MRLB NIL=
201507100400 METAR MRLB NIL=
201507100500 METAR MRLB NIL=
201507100600 METAR MRLB NIL=
201507100700 METAR MRLB NIL=
201507100800 METAR MRLB NIL=
201507100900 METAR MRLB NIL=
201507101000 METAR MRLB NIL=
201507101100 METAR MRLB NIL=
201507101200 METAR MRLB 101200Z 27002KT CAVOK 23/21 A2981=
201507101300 METAR MRLB 101300Z 26002KT CAVOK 25/22 A2983=
201507101400 METAR MRLB 101400Z 27002KT 9999 FEW035 BKN130 27/21 A2984=
201507101500 METAR MRLB 101500Z 11011KT 9999 FEW030 BKN130 30/21 A2986=
201507101600 METAR MRLB 101600Z 08012KT 9999 FEW030 BKN130 32/20 A2986=
201507101700 METAR MRLB 101700Z 14008KT 9999 BKN030 SCT120 31/20 A2987=
201507101800 METAR MRLB 101800Z 11007KT 9999 SCT030 BKN120 32/20 A2985=
201507101900 METAR MRLB 101900Z 09006KT 9999 SCT030 SCT120 32/20 A2981=
201507102000 METAR MRLB 102000Z 10005KT 9999 SCT030 SCT120 32/19 A2978=
201507102100 METAR MRLB 102100Z 36004KT 9999 SCT030 BKN120 32/20 A2978=
201507102200 METAR MRLB 102200Z 26009KT 9999 VCSH SCT025 BKN120 28/22 A2978=
201507102300 METAR MRLB 102300Z COR 21007KT 9999 VCSH FEW020 SCT030 BKN100 27/23 A2981=
201507102354 METAR MRLB 110000Z 21005KT 9999 TS VCSH FEW015 SCT030 BKN120 24/22 A2985=
201507110000 METAR MRLB 110000Z 21005KT 9999 TS VCSH FEW015 SCT030 BKN120 24/22 A2985=
201507110100 METAR MRLB 110100Z 16005KT 9999 -RA BKN030 24/22 A2989=
201507110200 METAR MRLB 110200Z 36003KT 9999 -TSRA SCT025 24/22 A2990=
201507110300 METAR MRLB NIL=
201507110400 METAR MRLB NIL=
201507110500 METAR MRLB NIL=
201507110600 METAR MRLB NIL=
201507110700 METAR MRLB NIL=
201507110800 METAR MRLB NIL=
201507110900 METAR MRLB NIL=
201507111000 METAR MRLB NIL=
201507111100 METAR MRLB NIL=
201507111200 METAR MRLB 111200Z 14002KT 9999 FEW020 BKN120 23/22 A2983=
201507111300 METAR MRLB 111300Z 02003KT 9999 FEW020 BKN120 23/22 A2986=
201507111400 METAR MRLB 111400Z 23003KT 9999 FEW020 BKN120 25/23 A2988=
201507111500 METAR MRLB 111500Z 23005KT CAVOK 27/22 A2988=
201507111600 METAR MRLB 111600Z 23003KT CAVOK 29/23 A2989=
201507111700 METAR MRLB 111700Z 06002KT 9999 FEW030 BKN120 30/21 A2988=
201507111800 METAR MRLB 111800Z 09009KT 9999 FEW030 BKN140 31/21 A2986=
201507111900 METAR MRLB 111900Z 10013KT 9999 FEW035 BKN130 31/21 A2984=
201507112000 METAR MRLB 112000Z 09015KT 9999 SCT035 BKN130 31/20 A2984=
201507112100 METAR MRLB 112100Z 08020KT 9999 FEW035 BKN130 30/19 A2982=
201507112200 METAR MRLB 112200Z 09018KT 9999 FEW035 BKN130 31/19 A2981=
201507112300 METAR MRLB 112300Z 10012KT 9999 FEW035 BKN130 29/19 A2982=
201507112350 METAR MRLB 120000Z 10013KT 9999 SCT035 BKN120 28/18 A2984=
201507120000 METAR MRLB 120000Z 10013KT 9999 SCT035 BKN120 28/18 A2984=
201507120100 METAR MRLB 120100Z 10014KT 9999 FEW035 BKN120 28/18 A2985=
201507120200 METAR MRLB 120200Z 10015KT 9999 FEW035 BKN120 28/18 A2989=
201507120300 METAR MRLB 120300Z 10013KT 9999 FEW035 BKN120 28/19 A2991=
201507120400 METAR MRLB 120400Z 09015KT 9999 FEW035 BKN120 28/19 A2992=
201507120500 METAR MRLB 120500Z 10013KT 9999 FEW030 BKN130 28/19 A2992=
201507120600 METAR MRLB NIL=
201507120700 METAR MRLB NIL=
201507120800 METAR MRLB NIL=
201507120900 METAR MRLB NIL=
201507121000 METAR MRLB NIL=
201507121100 METAR MRLB NIL=
201507121200 METAR MRLB 121200Z 22004KT 9999 FEW030 BKN100 25/20 A2988=
201507121300 METAR MRLB 121300Z 10007KT 9999 FEW035 BKN100 26/18 A2991=
201507121400 METAR MRLB 121400Z 11009KT 9999 FEW035 BKN120 27/18 A2991=
201507121500 METAR MRLB 121500Z 12011KT 9999 FEW035 BKN120 29/18 A2991=
201507121600 METAR MRLB 121600Z 08013KT 9999 FEW035 BKN120 31/17 A2989=
201507121700 METAR MRLB 121700Z 09015KT 9999 FEW035 BKN120 32/17 A2988=
201507121800 METAR MRLB 121800Z 08018G28KT 9999 SCT035 BKN120 31/18 A2987=
201507121900 METAR MRLB 121900Z 08016KT 9999 FEW035 BKN120 31/18 A2986=
201507122000 METAR MRLB 122000Z 07017KT 9999 FEW035 OVC120 32/17 A2984=
201507122100 METAR MRLB 122100Z 09012KT 9999 FEW035 OVC120 30/18 A2983=
201507122200 METAR MRLB 122200Z 09011KT 9999 FEW035 OVC120 30/18 A2982=
201507122300 METAR MRLB 122300Z 09009KT 9999 FEW035 OVC120 30/18 A2982=
201507122352 METAR MRLB 130000Z 12009KT 9999 FEW035 OVC120 29/19 A2983=
201507130000 METAR MRLB 130000Z 12009KT 9999 FEW035 OVC120 29/19 A2983=
201507130100 METAR MRLB 130100Z 11009KT 9999 FEW035 OVC120 29/19 A2985=
201507130200 METAR MRLB 130200Z 09010KT 9999 FEW035 BKN120 28/18 A2987=
201507130300 METAR MRLB NIL=
201507130400 METAR MRLB NIL=
201507130500 METAR MRLB NIL=
201507130600 METAR MRLB NIL=
201507130700 METAR MRLB NIL=
201507130800 METAR MRLB NIL=
201507130900 METAR MRLB NIL=
201507131000 METAR MRLB NIL=
201507131100 METAR MRLB NIL=
201507131200 METAR MRLB 131200Z 22003KT 9999 FEW035 BKN120 24/19 A2988=
201507131300 METAR MRLB 131300Z 28003KT 9999 FEW035 BKN130 26/19 A2988=
201507131400 METAR MRLB 131400Z 05004KT 9999 FEW035 BKN130 27/20 A2989=
201507131500 METAR MRLB 131500Z 10003KT 9999 FEW035 BKN130 29/18 A2989=
201507131600 METAR MRLB 131600Z 11010KT 9999 FEW035 BKN130 31/18 A2987=
201507131700 METAR MRLB 131700Z 27005KT 9999 FEW035 BKN130 32/18 A2987=
201507131800 METAR MRLB 131800Z 12012KT 9999 FEW035 BKN130 33/18 A2985=
201507131900 METAR MRLB 131900Z 12009KT 9999 FEW035 BKN130 32/19 A2985=
201507132000 METAR MRLB 132000Z 13009KT 9999 FEW035 BKN120 30/19 A2982=
201507132100 METAR MRLB 132100Z 11010KT 9999 FEW030 BKN130 31/19 A2981=
201507132200 METAR MRLB 132200Z 11009KT 9999 FEW030 BKN110 31/19 A2980=
201507132300 METAR MRLB 132300Z 11008KT 9999 FEW030 SCT110 BKN220 30/20 A2981=
201507132350 METAR MRLB 140000Z 10007KT 9999 FEW035 BKN240 29/19 A2982=
201507140000 METAR MRLB 140000Z 10007KT 9999 FEW035 BKN240 29/19 A2982=
201507140100 METAR MRLB 140100Z 09006KT 9999 FEW035 27/19 A2984=
201507140200 METAR MRLB 140200Z 11002KT 9999 FEW040 27/19 A2986=
201507140300 METAR MRLB NIL=
201507140400 METAR MRLB NIL=
201507140500 METAR MRLB NIL=
201507140600 METAR MRLB NIL=
201507140700 METAR MRLB NIL=
201507140800 METAR MRLB NIL=
201507140900 METAR MRLB NIL=
201507141000 METAR MRLB NIL=
201507141100 METAR MRLB NIL=
201507141200 METAR MRLB 141200Z 18003KT CAVOK 23/20 A2989=
201507141300 METAR MRLB 141300Z 00000KT CAVOK 25/20 A2989=
201507141400 METAR MRLB 141400Z 00000KT CAVOK 25/21 A2991=
201507141500 METAR MRLB 141500Z 00000KT CAVOK 28/20 A2992=
201507141600 METAR MRLB 141600Z COR 04003KT 9999 FEW030 SCT110 BKN220 31/20 A2991=
201507141700 METAR MRLB 141700Z 10005KT 9999 FEW030 BKN110 32/19 A2989=
201507141800 METAR MRLB 141800Z 15008KT 9999 FEW035 BKN100 33/19 A2989=
201507141900 METAR MRLB 141900Z 10006KT 9999 FEW030 BKN100 32/19 A2987=
201507142000 METAR MRLB 142000Z 29005KT 9999 FEW035 BKN100 31/20 A2985=
201507142100 METAR MRLB 142100Z 29007KT 9999 FEW035 BKN120 30/22 A2983=
201507142200 METAR MRLB 142200Z 28004KT 9999 FEW035 BKN120 29/22 A2983=
201507142300 METAR MRLB 142300Z 32005KT 9999 FEW035 BKN120 29/21 A2982=
201507142350 METAR MRLB 150000Z 29003KT 9999 FEW035 BKN120 29/21 A2983=
201507150000 METAR MRLB 150000Z 29003KT 9999 FEW035 BKN120 29/21 A2983=
201507150100 METAR MRLB 150100Z 14003KT 9999 FEW035 BKN130 28/19 A2987=
201507150200 METAR MRLB 150200Z 14007KT 9999 FEW035 BKN130 28/18 A2989=
201507150300 METAR MRLB NIL=
201507150400 METAR MRLB NIL=
201507150500 METAR MRLB NIL=
201507150600 METAR MRLB NIL=
201507150700 METAR MRLB NIL=
201507150800 METAR MRLB NIL=
201507150900 METAR MRLB NIL=
201507151000 METAR MRLB NIL=
201507151100 METAR MRLB NIL=
201507151200 METAR MRLB 151200Z 08003KT 9999 FEW035 BKN120 23/20 A2984=
201507151300 METAR MRLB 151300Z 23003KT 9999 FEW035 SCT130 25/20 A2985=
201507151400 METAR MRLB 151400Z 36003KT CAVOK 28/20 A2985=
201507151500 METAR MRLB 151500Z 34004KT CAVOK 31/19 A2985=
201507151600 METAR MRLB 151600Z 08010KT CAVOK 33/17 A2984=
201507151700 METAR MRLB 151700Z 08020G30KT CAVOK 34/16 A2982=
201507151800 METAR MRLB 151800Z 09021KT CAVOK 34/16 A2980=
201507151900 METAR MRLB 151900Z 09017G27KT CAVOK 34/17 A2977=
201507152000 METAR MRLB 152000Z 08015KT CAVOK 35/17 A2977=
201507152100 METAR MRLB 152100Z 09011KT 9999 FEW035 BKN250 34/19 A2977=
201507152200 METAR MRLB 152200Z 09014KT CAVOK 34/19 A2977=
201507152300 METAR MRLB 152300Z 09014KT CAVOK 32/20 A2978=
201507152352 METAR MRLB 160000Z 08013KT 9999 FEW035 SCT140 BKN250 30/20 A2981=
201507160000 METAR MRLB 160000Z 08013KT 9999 FEW035 SCT140 BKN250 30/20 A2981=
201507160100 METAR MRLB 160100Z 10013KT 9999 FEW035 SCT140 29/20 A2984=
201507160200 METAR MRLB 160200Z 07012KT 9999 FEW035 SCT140 29/20 A2986=
201507160300 METAR MRLB NIL=
201507160400 METAR MRLB NIL=
201507160500 METAR MRLB NIL=
201507160600 METAR MRLB NIL=
201507160700 METAR MRLB NIL=
201507160800 METAR MRLB NIL=
201507160900 METAR MRLB NIL=
201507161000 METAR MRLB NIL=
201507161100 METAR MRLB NIL=
201507161200 METAR MRLB 161200Z 22004KT CAVOK 24/22 A2985=
201507161300 METAR MRLB 161300Z 22004KT CAVOK 25/22 A2987=
201507161400 METAR MRLB 161400Z 17004KT CAVOK 27/20 A2989=
201507161500 METAR MRLB 161500Z 06006KT 9999 FEW030 OVC250 30/20 A2989=
201507161600 METAR MRLB 161600Z 08010KT 9999 FEW030 BKN250 32/19 A2987=
201507161700 METAR MRLB 161700Z 11011KT 9999 SCT035 BKN250 33/18 A2985=
201507161800 METAR MRLB 161800Z 10010KT 9999 SCT035 BKN250 33/19 A2985=
201507161900 METAR MRLB 161900Z 11014KT 9999 SCT035 BKN250 34/19 A2980=
201507162000 METAR MRLB 162000Z 10011KT 9999 FEW035 BKN200 33/20 A2978=
201507162100 METAR MRLB 162100Z 11010KT 9999 FEW035 BKN220 34/19 A2977=
201507162200 METAR MRLB 162200Z 11010G20KT 9999 FEW035 BKN220 34/20 2978=
201507162300 METAR MRLB 162300Z 06010KT 9999 FEW035 BKN220 33/20 A2978=
201507162350 METAR MRLB 170000Z 10008KT CAVOK 31/19 A2979=
201507170000 METAR MRLB 170000Z 10008KT CAVOK 31/19 A2979=
201507170100 METAR MRLB 170100Z 11011KT CAVOK 30/19 A2981=
201507170200 METAR MRLB 170200Z 09004KT CAVOK 29/20 A2984=
201507170300 METAR MRLB NIL=
201507170400 METAR MRLB NIL=
201507170500 METAR MRLB NIL=
201507170600 METAR MRLB NIL=
201507170700 METAR MRLB NIL=
201507170800 METAR MRLB NIL=
201507170900 METAR MRLB NIL=
201507171000 METAR MRLB NIL=
201507171100 METAR MRLB NIL=
201507171200 METAR MRLB 171200Z 17003KT CAVOK 24/21 A2985=
201507171300 METAR MRLB 171300Z 01003KT CAVOK 25/21 A2985=
201507171400 METAR MRLB 171400Z 21006KT CAVOK 27/21 A2986=
201507171500 METAR MRLB 171500Z 10013KT 9999 FEW030 SCT120 29/20 A2986=
201507171600 METAR MRLB 171600Z 09015KT 9999 FEW030 BKN120 32/20 A2987=
201507171700 METAR MRLB 171700Z 10012KT 9999 FEW030 BKN120 33/19 A2987=
201507171800 METAR MRLB 171800Z 11012KT 9999 FEW035 SCT120 32/19 A2985=
201507171900 METAR MRLB 171900Z 10010KT 9999 FEW035 SCT120 32/19 A2983=
201507172000 METAR MRLB 172000Z 08011KT 9999 FEW035 BKN200 33/19 A2982=
201507172100 METAR MRLB 172100Z 12010KT 9999 FEW035 BKN200 33/19 A2980=
201507172200 METAR MRLB 172200Z 08013KT 9999 FEW035 BKN200 33/18 A2979=
201507172300 METAR MRLB 172300Z 12010KT 9999 FEW030 BKN140 31/19 A2979=
201507172350 METAR MRLB 180000Z 10011KT 9999 FEW030 BKN140 30/18 A2981=
201507180000 METAR MRLB 180000Z 10011KT 9999 FEW030 BKN140 30/18 A2981=
201507180100 METAR MRLB 180100Z 12008KT 9999 SCT030 BKN140 29/19 A2983=
201507180200 METAR MRLB 180200Z 20004KT 9999 FEW030 BKN140 28/20 A2986=
201507180300 METAR MRLB NIL=
201507180400 METAR MRLB NIL=
201507180500 METAR MRLB NIL=
201507180600 METAR MRLB NIL=
201507180700 METAR MRLB NIL=
201507180800 METAR MRLB NIL=
201507180900 METAR MRLB NIL=
201507181000 METAR MRLB NIL=
201507181100 METAR MRLB NIL=
201507181200 METAR MRLB 181200Z 00000KT CAVOK 22/20 A2991=
201507181300 METAR MRLB 181300Z 04003KT CAVOK 24/20 A2992=
201507181400 METAR MRLB 181400Z 00000KT CAVOK 27/20 A2993=
201507181500 METAR MRLB 181500Z 23004KT 9999 FEW025 SCT120 BKN200 28/20 A2994=
201507181600 METAR MRLB 181600Z 22004KT 9999 FEW025 SCT120 BKN200 29/20 A2994=
201507181700 METAR MRLB 181700Z 28004KT 9999 SCT030 BKN200 31/20 A2993=
201507181800 METAR MRLB 181800Z 26006KT 9999 BKN030 31/20 A2992=
201507181900 METAR MRLB 181900Z 29008KT 9999 VCSH SCT030 BKN200 31/21 A2989=
201507182000 METAR MRLB 182000Z 31007KT 9999 VCSH SCT025 SCT120 31/20 A2987=
201507182100 METAR MRLB 182100Z 32008KT 9999 VCSH SCT020 BKN120 29/21 A2986=
201507182200 METAR MRLB 182200Z 01008KT 9999 FEW020 OVC120 29/22 A2987=
201507182300 METAR MRLB 182300Z 06003KT CAVOK 29/21 A2986=
201507182352 METAR MRLB 190000Z 12005KT CAVOK 28/22 A2987=
201507190000 METAR MRLB 190000Z 12005KT CAVOK 28/22 A2987=
201507190100 METAR MRLB 190100Z 10004KT CAVOK 27/21 A2988=
201507190200 METAR MRLB 190200Z 09002KT CAVOK 27/22 A2989=
201507190300 METAR MRLB 190300Z 00000KT CAVOK 27/21 A2990=
201507190400 METAR MRLB 190400Z 18004KT CAVOK 26/21 A2990=
201507190500 METAR MRLB 190500Z 17004KT CAVOK 25/21 A2990=
201507190600 METAR MRLB NIL=
201507190700 METAR MRLB NIL=
201507190800 METAR MRLB NIL=
201507190900 METAR MRLB NIL=
201507191000 METAR MRLB NIL=
201507191100 METAR MRLB NIL=
201507191200 METAR MRLB 191200Z 09002KT CAVOK 24/21 A2987=
201507191300 METAR MRLB 191300Z 17005KT CAVOK 26/21 A2988=
201507191400 METAR MRLB 191400Z 09003KT CAVOK 27/21 A2988=
201507191500 METAR MRLB 191500Z 32002KT CAVOK 30/21 A2990=
201507191600 METAR MRLB 191600Z 07005KT 9999 FEW030 SCT130 32/20 A2989=
201507191700 METAR MRLB 191700Z 11013KT 9999 FEW030 SCT130 34/19 A2987=
201507191800 METAR MRLB 191800Z 09010KT 9999 SCT030 SCT250 34/20 A2987=
201507191900 METAR MRLB 191900Z 09011KT 9999 VCSH SCT030 SCT250 33/19 A2986=
201507192000 METAR MRLB 192000Z 07023KT 9999 FEW025TCU SCT030 SCT250 33/18 A2986=
201507192100 METAR MRLB 192100Z 08011KT 9999 FEW040 SCT100 34/17 A2983=
201507192200 METAR MRLB 192200Z 11010KT 9999 FEW045 BKN100 30/18 A2983=
201507192300 METAR MRLB 192300Z 12011KT 9999 FEW045 BKN120 29/19 A2986=
201507192350 METAR MRLB 200000Z 08014KT 9999 +DZ FEW040 BKN120 29/19 A2987=
201507200000 METAR MRLB 200000Z 08014KT 9999 +DZ FEW040 BKN120 29/19 A2987=
201507200100 METAR MRLB 200100Z 11006KT 9999 DZ FEW040 BKN120 26/21 A2990=
201507200200 METAR MRLB 200200Z 09005KT 9999 FEW040 BKN120 26/21 A2991=
201507200300 METAR MRLB NIL=
201507200400 METAR MRLB NIL=
201507200500 METAR MRLB NIL=
201507200600 METAR MRLB NIL=
201507200700 METAR MRLB NIL=
201507200800 METAR MRLB NIL=
201507200900 METAR MRLB NIL=
201507201000 METAR MRLB NIL=
201507201100 METAR MRLB NIL=
201507201200 METAR MRLB 201200Z 08006KT 9999 FEW040 BKN220 25/20 A2991=
201507201300 METAR MRLB 201300Z 04005KT 9999 FEW040 BKN120 26/20 A2993=
201507201400 METAR MRLB 201400Z 06018KT 9999 SCT040 SCT120 29/19 A2994=
201507201500 METAR MRLB 201500Z 09011KT 9999 FEW040 SCT100 BKN220 28/19 A2994=
201507201600 METAR MRLB 201600Z 09013KT 9999 FEW045 SCT120 BKN240 30/17 A2993=
201507201700 METAR MRLB 201700Z 09017KT CAVOK 32/15 A2989=
201507201800 METAR MRLB 201800Z 08015KT CAVOK 33/16 A2987=
201507201900 METAR MRLB 201900Z 09012KT CAVOK 33/16 A2985=
201507202000 METAR MRLB 202000Z 08013KT CAVOK 34/16 A2985=
201507202100 METAR MRLB 202100Z 09015KT 9999 FEW035 BKN250 34/16 A2984=
201507202200 METAR MRLB 202200Z 08011KT 9999 FEW035 BKN250 33/17 A2984=
201507202300 METAR MRLB 202300Z 10011KT 9999 FEW035 BKN140 31/16 A2985=
201507202350 METAR MRLB 210000Z 10008KT 9999 FEW035 BKN140 29/16 A2986=
201507210000 METAR MRLB 210000Z 10008KT 9999 FEW035 BKN140 29/16 A2986=
201507210100 METAR MRLB 210100Z 09004KT 9999 FEW035 BKN140 28/19 A2988=
201507210200 METAR MRLB 210200Z 12010KT 9999 FEW035 BKN140 28/18 A2988=
201507210300 METAR MRLB NIL=
201507210400 METAR MRLB NIL=
201507210500 METAR MRLB NIL=
201507210600 METAR MRLB NIL=
201507210700 METAR MRLB NIL=
201507210800 METAR MRLB NIL=
201507210900 METAR MRLB NIL=
201507211000 METAR MRLB NIL=
201507211100 METAR MRLB NIL=
201507211200 METAR MRLB 211200Z 32003KT CAVOK 21/18 A2986=
201507211300 METAR MRLB 211300Z 23003KT CAVOK 24/18 A2988=
201507211400 METAR MRLB 211400Z 14007KT CAVOK 29/17 A2988=
201507211500 METAR MRLB 211500Z 08006KT CAVOK 30/17 A2988=
201507211600 METAR MRLB 211600Z 09009KT CAVOK 31/17 A2989=
201507211700 METAR MRLB 211700Z 06007KT 9999 FEW035 SCT250 33/17 A2988=
201507211800 METAR MRLB 211800Z 07008KT 9999 FEW035 SCT250 34/17 A2986=
201507211900 METAR MRLB 211900Z 10008KT 9999 SCT030 BKN250 33/18 A2984=
201507212000 METAR MRLB 212000Z 08009KT 9999 BKN030 SCT250 33/18 A2982=
201507212100 METAR MRLB 212100Z 07012KT 9999 SCT035 BKN120 33/19 A2981=
201507212200 METAR MRLB 212200Z 09009KT 9999 SCT035 SCT120 32/18 A2981=
201507212300 METAR MRLB 212300Z 08011KT 9999 SCT035 BKN120 31/18 A2981=
201507212352 METAR MRLB 220000Z 08010KT 9999 FEW035 OVC140 30/18 A2982=
201507220000 METAR MRLB 220000Z 08010KT 9999 FEW035 OVC140 30/18 A2982=
201507220100 METAR MRLB 220100Z 08007KT 9999 FEW035 OVC140 29/19 A2985=
201507220200 METAR MRLB 220200Z 07002KT 9999 FEW035 OVC140 28/19 A2988=
201507220300 METAR MRLB NIL=
201507220400 METAR MRLB NIL=
201507220500 METAR MRLB NIL=
201507220600 METAR MRLB NIL=
201507220700 METAR MRLB NIL=
201507220800 METAR MRLB NIL=
201507220900 METAR MRLB NIL=
201507221000 METAR MRLB NIL=
201507221100 METAR MRLB NIL=
201507221200 METAR MRLB 221200Z 00000KT 9999 FEW030 OVC120 23/20 A2987=
201507221300 METAR MRLB 221300Z 16002KT 9999 FEW030 BKN120 25/20 A2988=
201507221400 METAR MRLB 221400Z 21004KT 9999 FEW030 BKN120 28/19 A2988=
201507221500 METAR MRLB 221500Z 15002KT 9999 FEW030 BKN120 29/20 A2987=
201507221600 METAR MRLB 221600Z 03004KT CAVOK 31/19 A2987=
201507221700 METAR MRLB 221700Z 10013KT 9999 FEW035 SCT130 33/18 A2985=
201507221800 METAR MRLB 221800Z 10013KT 9999 FEW035 SCT130 34/18 A2984=
201507221900 METAR MRLB 221900Z 12008KT 9999 FEW030 SCT130 33/19 A2981=
201507222000 METAR MRLB 222000Z 09014KT 9999 FEW035 SCT130 33/19 A2979=
201507222100 METAR MRLB 222100Z 09010KT 9999 SCT030 SCT100 33/19 A2979=
201507222200 METAR MRLB 222200Z 07017KT 9999 SCT030 SCT100 32/19 A2980=
201507222300 METAR MRLB 222300Z 08010KT 9999 FEW035 SCT110 30/19 A2982=
201507222355 METAR MRLB 230000Z 11006KT 9999 SCT035 SCT110 30/20 A2985=
201507230000 METAR MRLB 230000Z 11006KT 9999 SCT035 SCT110 30/20 A2985=
201507230100 METAR MRLB 230100Z 10007KT 9999 FEW035 SCT110 29/20 A2986=
201507230200 METAR MRLB 230200Z 17005KT 9999 FEW040 SCT110 27/22 A2989=
201507230300 METAR MRLB NIL=
201507230400 METAR MRLB NIL=
201507230500 METAR MRLB NIL=
201507230600 METAR MRLB NIL=
201507230700 METAR MRLB NIL=
201507230800 METAR MRLB NIL=
201507230900 METAR MRLB NIL=
201507231000 METAR MRLB NIL=
201507231100 METAR MRLB NIL=
201507231200 METAR MRLB 231200Z 10002KT CAVOK 23/21 A2989=
201507231300 METAR MRLB 231300Z 10004KT 9999 FEW010 BKN220 25/22 A2991=
201507231400 METAR MRLB 231400Z 10003KT CAVOK 27/21 A2991=
201507231500 METAR MRLB 231500Z 33004KT CAVOK 28/21 A2991=
201507231600 METAR MRLB 231600Z 01002KT 9999 FEW045 SCT120 BKN220 30/21 A2991=
201507231700 METAR MRLB 231700Z 10013KT 9999 FEW045 BKN120 31/20 A2989=
201507231800 METAR MRLB 231800Z 11011KT 9999 FEW045 BKN120 31/19 A2986=
201507231900 METAR MRLB 231900Z 10012KT 9999 FEW040 BKN130 30/18 A2985=
201507232000 METAR MRLB 232000Z 12009KT 9999 FEW040 BKN120 31/18 A2982=
201507232100 METAR MRLB 232100Z 13005KT 9999 FEW035 BKN120 30/20 A2983=
201507232200 METAR MRLB 232200Z 12010KT 9999 FEW035 BKN120 31/19 A2982=
201507232300 METAR MRLB 232300Z 10010KT 9999 FEW035 BKN120 29/19 A2984=
201507232350 METAR MRLB 240000Z 09006KT 9999 FEW035 BKN120 29/19 A2985=
201507240000 METAR MRLB 240000Z 09006KT 9999 FEW035 BKN120 29/19 A2985=
201507240100 METAR MRLB 240100Z 13003KT 9999 FEW035 BKN120 28/19 A2987=
201507240200 METAR MRLB 240200Z 35003KT 9999 FEW035 BKN120 27/19 A2988=
201507240300 METAR MRLB NIL=
201507240400 METAR MRLB NIL=
201507240500 METAR MRLB NIL=
201507240600 METAR MRLB NIL=
201507240700 METAR MRLB NIL=
201507240800 METAR MRLB NIL=
201507240900 METAR MRLB NIL=
201507241000 METAR MRLB NIL=
201507241100 METAR MRLB NIL=
201507241200 METAR MRLB 241200Z 17003KT 9999 FEW035 BKN120 23/20 A2986=
201507241300 METAR MRLB 241300Z 13008KT 9999 FEW035 BKN120 27/20 A2989=
201507241400 METAR MRLB 241400Z 06007KT 9999 SCT035 BKN120 27/20 A2991=
201507241500 METAR MRLB 241500Z 09009KT 9999 SCT035 BKN120 30/20 A2991=
201507241600 METAR MRLB 241600Z 08009KT 9999 SCT035 BKN120 30/20 A2991=
201507241700 METAR MRLB 241700Z 08012KT 9999 FEW035 BKN130 31/20 A2990=
201507241800 METAR MRLB 241800Z 06014KT 9999 FEW035 BKN140 33/20 A2987=
201507241900 METAR MRLB 241900Z 07016KT 9999 FEW030 SCT250 33/19 A2983=
201507242000 METAR MRLB 242000Z 07015KT 9999 FEW035 SCT130 34/19 A2980=
201507242100 METAR MRLB 242100Z 08019KT 9999 FEW035 SCT130 34/19 A2979=
201507242200 METAR MRLB 242200Z 07021KT 9999 FEW035 BKN250 33/20 A2978=
201507242300 METAR MRLB 242300Z 08020KT 9999 FEW035 BKN250 32/20 A2978=
201507242352 METAR MRLB 250000Z 09016G26KT 9999 FEW035 OVC250 30/20 A2978=
201507250000 METAR MRLB 250000Z 09016G26KT 9999 FEW035 OVC250 30/20 A2978=
201507250100 METAR MRLB 250100Z 09019KT CAVOK 29/19 A2979=
201507250200 METAR MRLB 250200Z 10019G30KT CAVOK 29/20 A2980=
201507250300 METAR MRLB NIL=
201507250400 METAR MRLB NIL=
201507250500 METAR MRLB NIL=
201507250600 METAR MRLB NIL=
201507250700 METAR MRLB NIL=
201507250800 METAR MRLB NIL=
201507250900 METAR MRLB NIL=
201507251000 METAR MRLB NIL=
201507251100 METAR MRLB NIL=
201507251200 METAR MRLB 251200Z 09018KT CAVOK 29/18 A2976=
201507251300 METAR MRLB 251300Z 09019G32KT CAVOK 30/18 A2979=
201507251400 METAR MRLB 251400Z 09020KT 9999 FEW035 SCT250 31/18 A2979=
201507251500 METAR MRLB 251500Z 10019KT 9999 FEW035 SCT250 31/19 A2980=
201507251600 METAR MRLB 251600Z 08021KT 9999 SCT035 33/19 A2981=
201507251700 METAR MRLB 251700Z 08021KT 9999 SCT035 34/18 A2979=
201507251800 METAR MRLB 251800Z 09019KT 9999 SCT035 34/19 A2978=
201507251900 METAR MRLB 251900Z 09019KT 9999 SCT035 35/19 A2975=
201507252000 METAR MRLB 252000Z 08017KT 9999 SCT035 35/18 A2973=
201507252100 METAR MRLB 252100Z 08018KT 9999 FEW035 35/17 A2972=
201507252200 METAR MRLB 252200Z 07017KT 9999 FEW035 34/18 A2971=
201507252300 METAR MRLB 252300Z 08017KT 9999 FEW035 33/18 A2973=
201507252354 METAR MRLB 260000Z 10014KT CAVOK 31/19 A2974=
201507260000 METAR MRLB 260000Z 10014KT CAVOK 31/19 A2974=
201507260100 METAR MRLB 260100Z 09019KT CAVOK 30/18 A2979=
201507260200 METAR MRLB 260200Z 09017KT CAVOK 29/19 A2979=
201507260300 METAR MRLB 260300Z 09018KT CAVOK 29/19 A2980=
201507260400 METAR MRLB 260400Z 09019KT CAVOK 28/19 A2980=
201507260500 METAR MRLB 260500Z 09020G30KT CAVOK 28/19 A2979=
201507260600 METAR MRLB NIL=
201507260700 METAR MRLB NIL=
201507260800 METAR MRLB NIL=
201507260900 METAR MRLB NIL=
201507261000 METAR MRLB NIL=
201507261100 METAR MRLB NIL=
201507261200 METAR MRLB 261200Z 09014KT CAVOK 28/17 A2974=
201507261300 METAR MRLB 261300Z 11016G27KT CAVOK 29/18 A2974=
201507261400 METAR MRLB 261400Z 10015G27KT CAVOK 30/17 A2976=
201507261500 METAR MRLB 261500Z 10019G30KT CAVOK 32/17 A2976=
201507261600 METAR MRLB 261600Z 08021KT CAVOK 33/17 A2978=
201507261700 METAR MRLB 261700Z 09015KT 9999 FEW035 SCT250 34/18 A2978=
201507261800 METAR MRLB 261800Z 09014KT 9999 FEW035 SCT250 34/18 A2977=
201507261900 METAR MRLB 261900Z 08015KT 9999 FEW035 SCT250 34/18 A2975=
201507262000 METAR MRLB 262000Z 07017KT 9999 FEW035 BKN250 35/18 A2974=
201507262100 METAR MRLB 262100Z 07016KT 9999 FEW035 BKN250 35/17 A2974=
201507262200 METAR MRLB 262200Z 07015KT 9999 FEW035 BKN250 34/17 A2974=
201507262300 METAR MRLB 262300Z 06014KT 9999 FEW035 BKN250 33/18 A2975=
201507262350 METAR MRLB 270000Z 08013KT 9999 FEW035 BKN250 31/18 A2977=
201507270000 METAR MRLB 270000Z 08013KT 9999 FEW035 BKN250 31/18 A2977=
201507270100 METAR MRLB 270100Z 09011KT 9999 FEW035 BKN250 30/18 A2979=
201507270200 METAR MRLB 270200Z 09015KT 9999 FEW035 BKN250 29/19 A2981=
201507270300 METAR MRLB NIL=
201507270400 METAR MRLB NIL=
201507270500 METAR MRLB NIL=
201507270600 METAR MRLB NIL=
201507270700 METAR MRLB NIL=
201507270800 METAR MRLB NIL=
201507270900 METAR MRLB NIL=
201507271000 METAR MRLB NIL=
201507271100 METAR MRLB NIL=
201507271200 METAR MRLB 271200Z 13003KT CAVOK 25/19 A2979=
201507271300 METAR MRLB 271300Z 35006KT CAVOK 27/19 A2979=
201507271400 METAR MRLB 271400Z 09015KT CAVOK 30/19 A2980=
201507271500 METAR MRLB 271500Z 08020G30KT CAVOK 31/19 A2980=
201507271600 METAR MRLB 271600Z 09023KT 9999 FEW035 BKN250 32/18 A2979=
201507271700 METAR MRLB 271700Z 09018KT 9999 FEW035 BKN250 34/17 A2979=
201507271800 METAR MRLB 271800Z 09016KT 9999 FEW035 BKN250 34/18 A2977=
201507271900 METAR MRLB 271900Z 09017G27KT 9999 FEW035 BKN250 34/18 A2977=
201507272000 METAR MRLB 272000Z 07016KT 9999 FEW035 OVC250 34/17 A2978=
201507272100 METAR MRLB 272100Z 06015KT 9999 FEW035 OVC250 34/17 A2975=
201507272200 METAR MRLB 272200Z 07017KT CAVOK 33/18 A2974=
201507272300 METAR MRLB 272300Z 09014KT CAVOK 32/19 A2973=
201507272352 METAR MRLB 280000Z 080144KT CAVOK 31/18 A2975=
201507280000 METAR MRLB 280000Z COR 08014KT CAVOK 31/18 A2975=
201507280100 METAR MRLB 280100Z 07009KT CAVOK 30/18 A2977=
201507280200 METAR MRLB 280200Z 09009KT CAVOK 29/19 A2979=
201507280300 METAR MRLB NIL=
201507280400 METAR MRLB NIL=
201507280500 METAR MRLB NIL=
201507280600 METAR MRLB NIL=
201507280700 METAR MRLB NIL=
201507280800 METAR MRLB NIL=
201507280900 METAR MRLB NIL=
201507281000 METAR MRLB NIL=
201507281100 METAR MRLB NIL=
201507281200 METAR MRLB 281200Z 05009KT 9999 BKN030 28/21 A2980=
201507281300 METAR MRLB 281300Z 10011KT 9999 SCT030 SCT250 28/21 A2979=
201507281400 METAR MRLB 281400Z 08012KT 9999 SCT030 SCT250 30/20 A2981=
201507281500 METAR MRLB 281500Z 08018KT 9999 SCT035 BKN250 32/20 A2981=
201507281600 METAR MRLB 281600Z COR 08020KT 9999 SCT035 BKN250 33/20 A2981=
201507281700 METAR MRLB 281700Z 07021KT 9999 SCT035 SCT250 34/20 A2980=
201507281800 METAR MRLB 281800Z 07017KT 9999 SCT035 SCT250 33/20 A2979=
201507281900 METAR MRLB 281900Z 09016G26KT 9999 FEW035 BKN130 34/20 A2975=
201507282000 METAR MRLB 282000Z 06021KT 9999 SCT035 SCT130 34/19 A2973=
201507282100 METAR MRLB 282100Z 07018KT 9999 FEW035 SCT120 BKN250 34/20 A2972=
201507282200 METAR MRLB 282200Z 09020G30KT 9999 FEW035 BKN120 32/18 A2971=
201507282300 METAR MRLB 282300Z 08021KT 9999 FEW035 BKN120 31/19 A2973=
201507282350 METAR MRLB 290000Z 09019KT CAVOK 30/18 A2975=
201507290000 METAR MRLB 290000Z 09019KT CAVOK 30/18 A2975=
201507290100 METAR MRLB 290100Z COR 09021G31KT CAVOK 29/18 A2977=
201507290200 METAR MRLB 290200Z 08017KT CAVOK 28/19 A2980=
201507290300 METAR MRLB NIL=
201507290400 METAR MRLB NIL=
201507290500 METAR MRLB NIL=
201507290600 METAR MRLB NIL=
201507290700 METAR MRLB NIL=
201507290800 METAR MRLB NIL=
201507290900 METAR MRLB NIL=
201507291000 METAR MRLB NIL=
201507291100 METAR MRLB NIL=
201507291200 METAR MRLB 291200Z 07003KT CAVOK 25/18 A2981=
201507291300 METAR MRLB 291300Z 00000KT 9999 FEW040 BKN110 26/19 A2983=
201507291400 METAR MRLB 291400Z 11004KT 9999 FEW040 BKN120 29/19 A2982=
201507291500 METAR MRLB 291500Z 04006KT 9999 FEW030 BKN120 31/19 A2982=
201507291600 METAR MRLB 291600Z 09014KT 9999 FEW030 BKN110 33/19 A2982=
201507291700 METAR MRLB 291700Z 10016KT 9999 FEW035 BKN120 33/18 A2981=
201507291800 METAR MRLB 291800Z 09015KT 9999 FEW035 BKN120 31/19 A2982=
201507291900 METAR MRLB 291900Z 07013KT 9999 FEW035 BKN140 32/19 A2980=
201507292000 METAR MRLB 292000Z 07016KT 9999 FEW035 BKN140 31/19 A2979=
201507292100 METAR MRLB 292100Z 08013KT 9999 FEW035 BKN130 31/20 A2979=
201507292200 METAR MRLB 292200Z 06014KT 9999 FEW035 BKN130 32/19 A2977=
201507292300 METAR MRLB 292300Z 06014KT 9999 FEW035 BKN130 32/19 A2979=
201507292350 METAR MRLB 300000Z 08011KT 9999 SCT035 BKN140 30/19 A2980=
201507300000 METAR MRLB 300000Z 08011KT 9999 SCT035 BKN140 30/19 A2980=
201507300100 METAR MRLB 300100Z 09007KT 9999 SCT035 BKN140 29/20 A2986=
201507300200 METAR MRLB 300200Z 14008KT 9999 SCT035 BKN130 27/21 A2989=
201507300300 METAR MRLB NIL=
201507300400 METAR MRLB NIL=
201507300500 METAR MRLB NIL=
201507300600 METAR MRLB NIL=
201507300700 METAR MRLB NIL=
201507300800 METAR MRLB NIL=
201507300900 METAR MRLB NIL=
201507301000 METAR MRLB NIL=
201507301100 METAR MRLB NIL=
201507301200 METAR MRLB 301200Z 08003KT 9999 FEW035 BKN120 23/21 A2984=
201507301300 METAR MRLB 301300Z 07003KT 9999 FEW035 BKN130 24/21 A2986=
201507301400 METAR MRLB 301400Z 35003KT 9999 FEW035 BKN200 28/21 A2987=
201507301500 METAR MRLB 301500Z 05005KT 9999 FEW035 BKN250 31/21 A2987=
201507301600 METAR MRLB 301600Z 07015KT 9999 FEW035 BKN250 33/19 A2986=
201507301700 METAR MRLB 301700Z 10016KT 9999 FEW035 BKN250 34/18 A2983=
201507301800 METAR MRLB 301800Z 10021KT 9999 FEW035 BKN250 35/17 A2982=
201507301900 METAR MRLB 301900Z 08019KT 9999 FEW035 BKN250 34/18 A2982=
201507302000 METAR MRLB 302000Z 06020KT 9999 FEW035 OVC120 33/19 A2982=
201507302100 METAR MRLB 302100Z 08019G31KT 9999 SCT030 BKN100 32/18 A2982=
201507302200 METAR MRLB 302200Z 07012KT 9999 FEW035 OVC120 30/14 A2981=
201507302300 METAR MRLB 302300Z 07008KT 9999 FEW035 OVC120 31/12 A2980=
201507302352 METAR MRLB 310000Z 08013KT 9999 FEW035 OVC120 29/18 A2982=
201507310000 METAR MRLB 310000Z 08013KT 9999 FEW035 OVC120 29/18 A2982=
201507310100 METAR MRLB 310100Z 09011KT 9999 FEW035 OVC120 28/19 A2985=
201507310200 METAR MRLB 310200Z 09008KT 9999 FEW035 OVC120 28/19 A2987=
201507310300 METAR MRLB NIL=
201507310400 METAR MRLB NIL=
201507310500 METAR MRLB NIL=
201507310600 METAR MRLB NIL=
201507310700 METAR MRLB NIL=
201507310800 METAR MRLB NIL=
201507310900 METAR MRLB NIL=
201507311000 METAR MRLB NIL=
201507311100 METAR MRLB NIL=
201507311200 METAR MRLB 311200Z 06005KT 9999 FEW010 OVC120 26/18 A2982=
201507311300 METAR MRLB 311300Z 10016KT CAVOK 29/18 A2983=
201507311400 METAR MRLB 311400Z 07011KT CAVOK 30/18 A2985=
201507311500 METAR MRLB 311500Z 09018KT CAVOK 31/18 A2986=
201507311600 METAR MRLB 311600Z 09016KT CAVOK 32/17 A2985=
201507311700 METAR MRLB 311700Z 07020KT CAVOK 33/17 A2985=
201507311800 METAR MRLB 311800Z 08018KT CAVOK 33/17 A2985=
201507311900 METAR MRLB 311900Z 07020G30KT CAVOK 34/17 A2982=
201507312000 METAR MRLB 312000Z 09013KT CAVOK 34/17 A2981=
201507312100 METAR MRLB 312100Z 10012KT CAVOK 33/17 A2980=
201507312200 METAR MRLB 312200Z 07016KT 9999 FEW040 SCT120 BKN250 32/17 A2980=
201507312300 METAR MRLB 312300Z 09011KT CAVOK 31/16 A2980=
201507312350 METAR MRLB 010000Z 10014KT CAVOK 30/14 A2981=
201507312357 METAR MRLB 010000Z 10014KT CAVOK 30/14 A2981=
201508010000 METAR MRLB 010000Z 10014KT CAVOK 30/14 A2981=
201508010100 METAR MRLB 010100Z 08012KT CAVOK 29/15 A2983=
201508010200 METAR MRLB 010200Z 08006KT CAVOK 29/17 A2984=
201508010300 METAR MRLB NIL=
201508010400 METAR MRLB NIL=
201508010500 METAR MRLB NIL=
201508010600 METAR MRLB NIL=
201508010700 METAR MRLB NIL=
201508010800 METAR MRLB NIL=
201508010900 METAR MRLB NIL=
201508011000 METAR MRLB NIL=
201508011100 METAR MRLB NIL=
201508011200 METAR MRLB 011200Z 17003KT CAVOK 25/19 A2983=
201508011300 METAR MRLB 011300Z 36005KT CAVOK 26/19 A2984=
201508011400 METAR MRLB 011400Z 24002KT 9999 FEW035 SCT120 28/19 A2986=
201508011500 METAR MRLB 011500Z 08008KT 9999 FEW035 SCT250 31/19 A2986=
201508011600 METAR MRLB 011600Z 10011KT 9999 FEW035 BKN250 32/19 A2985=
201508011700 METAR MRLB 011700Z 09010KT 9999 FEW035 SCT250 33/19 A2984=
201508011800 METAR MRLB 011800Z 08011KT 9999 FEW035 SCT250 33/19 A2981=
201508011900 METAR MRLB 011900Z 11010KT 9999 SCT030 SCT250 35/17 A2979=
201508012000 METAR MRLB 012000Z 09010KT 9999 SCT030 SCT140 34/18 A2978=
201508012100 METAR MRLB 012100Z 09009KT 9999 SCT030 BKN200 33/18 A2976=
201508012200 METAR MRLB 012200Z 07016KT 9999 VCSH SCT025 BKN130 32/18 A2976=
201508012300 METAR MRLB 012300Z 10008KT 9999 SCT030 BKN130 32/18 A2977=
201508012350 METAR MRLB 020000Z 10009KT 9999 SCT030 BKN140 30/20 A2978=
201508020000 METAR MRLB 020000Z 10009KT 9999 SCT030 BKN140 30/20 A2978=
201508020100 METAR MRLB 020100Z 09009KT 9999 VCTS SCT030 SCT130 29/19 A2981=
201508020200 METAR MRLB 020200Z 13010KT 9999 FEW035 SCT130 29/20 A2981=
201508020300 METAR MRLB 020300Z 08002KT 9999 FEW035 SCT130 28/20 A2983=
201508020400 METAR MRLB 020400Z 22003KT 9999 FEW040 SCT130 27/21 A2984=
201508020500 METAR MRLB 020500Z 18003KT 9999 FEW040 SCT130 26/21 A2983=
201508020600 METAR MRLB NIL=
201508020700 METAR MRLB NIL=
201508020800 METAR MRLB NIL=
201508020900 METAR MRLB NIL=
201508021000 METAR MRLB NIL=
201508021100 METAR MRLB NIL=
201508021200 METAR MRLB 021200Z 10003KT 9999 FEW035 SCT250 26/21 A2978=
201508021300 METAR MRLB 021300Z 08011KT 9999 FEW035 SCT250 29/20 A2979=
201508021400 METAR MRLB 021400Z 07015KT 9999 FEW035 SCT250 31/20 A2980=
201508021500 METAR MRLB 021500Z 09013KT 9999 FEW035 SCT250 32/20 A2980=
201508021600 METAR MRLB 021600Z 08014KT 9999 FEW035 SCT250 33/20 A2980=
201508021700 METAR MRLB 021700Z 06015KT 9999 FEW035 SCT250 34/20 A2979=
201508021800 METAR MRLB 021800Z 06016KT 9999 FEW035 SCT250 35/20 A2977=
201508021900 METAR MRLB 021900Z COR 06017KT 9999 SCT035 SCT250 36/20 A2974=
201508022000 METAR MRLB 022000Z 07013KT 9999 SCT035 35/19 A2973=
201508022100 METAR MRLB 022100Z 09011KT 9999 SCT035 35/19 A2971=
201508022200 METAR MRLB 022200Z 07020KT 9999 BKN035 34/18 A2971=
201508022300 METAR MRLB 022300Z 07015KT 9999 FEW035 33/19 A2972=
201508022352 METAR MRLB 030000Z 07014KT 9999 FEW035 31/20 A2973=
201508030000 METAR MRLB 030000Z 07014KT 9999 FEW035 31/20 A2973=
201508030100 METAR MRLB 030100Z 08013KT CAVOK 29/20 A2974=
201508030200 METAR MRLB 030200Z 10012KT CAVOK 28/20 A2976=
201508030300 METAR MRLB NIL=
201508030400 METAR MRLB NIL=
201508030500 METAR MRLB NIL=
201508030600 METAR MRLB NIL=
201508030700 METAR MRLB NIL=
201508030800 METAR MRLB NIL=
201508030900 METAR MRLB NIL=
201508031000 METAR MRLB NIL=
201508031100 METAR MRLB NIL=
201508031200 METAR MRLB 031200Z 30003KT 9999 FEW035 OVC250 27/20 A2976=
201508031300 METAR MRLB 031300Z 33004KT 9999 FEW035 OVC250 28/21 A2978=
201508031400 METAR MRLB 031400Z 12003KT 9999 FEW035 BKN250 30/20 A2979=
201508031500 METAR MRLB 031500Z 06010G20KT 9999 SCT035 BKN250 32/20 A2978=
201508031600 METAR MRLB 031600Z 08021KT 9999 SCT035 BKN250 33/19 A2978=
201508031700 METAR MRLB 031700Z 09019KT 9999 FEW035 BKN250 33/20 A2975=
201508031800 METAR MRLB 031800Z 08018KT 9999 SCT035 BKN250 34/19 A2974=
201508031900 METAR MRLB 031900Z 09018G28KT 9999 SCT030 SCT250 34/19 A2972=
201508032000 METAR MRLB 032000Z 08022KT 9999 FEW030 BKN250 34/19 A2972=
201508032100 METAR MRLB 032100Z 08019KT 9999 FEW035 SCT250 34/19 A2971=
201508032200 METAR MRLB 032200Z 08020KT 9999 FEW035 SCT250 33/20 A2971=
201508032300 METAR MRLB 032300Z 08017KT 9999 FEW035 32/19 A2971=
201508032352 METAR MRLB 040000Z 09016KT 9999 FEW040 30/19 A2971=
201508040000 METAR MRLB 040000Z 09016KT 9999 FEW040 30/19 A2971=
201508040100 METAR MRLB 040100Z 09017KT 9999 FEW040 29/19 A2973=
201508040200 METAR MRLB 040200Z 08018KT 9999 FEW040 29/19 A2975=
201508040300 METAR MRLB NIL=
201508040400 METAR MRLB NIL=
201508040500 METAR MRLB NIL=
201508040600 METAR MRLB NIL=
201508040700 METAR MRLB NIL=
201508040800 METAR MRLB NIL=
201508040900 METAR MRLB NIL=
201508041000 METAR MRLB NIL=
201508041100 METAR MRLB NIL=
201508041200 METAR MRLB 041200Z 10013KT CAVOK 28/18 A2978=
201508041300 METAR MRLB 041300Z 08013KT CAVOK 29/18 A2979=
201508041400 METAR MRLB 041400Z 09018G28KT CAVOK 31/19 A297=
201508041500 METAR MRLB 041500Z 09017KT CAVOK 32/18 A2979=
201508041600 METAR MRLB 041600Z COR 09018KT 9999 FEW040 33/18 A2979=
201508041700 METAR MRLB 041700Z COR 08022G34KT 9999 FEW040 34/18 A2978=
201508041800 METAR MRLB 041800Z 09017KT 9999 FEW040 35/18 A2977=
201508041900 METAR MRLB 041900Z 09016G26KT 9999 FEW035 35/18 A2975=
201508042000 METAR MRLB 042000Z 08020KT 9999 FEW035 34/18 A2974=
201508042100 METAR MRLB 042100Z 07020KT 9999 FEW035 34/18 A2971=
201508042200 METAR MRLB 042200Z 09018KT 9999 FEW035 34/18 A2971=
201508042300 METAR MRLB 042300Z 09016KT 9999 FEW035 33/19 A2973=
201508042351 METAR MRLB 050000Z 09016KT CAVOK 31/19 A2974=
201508050000 METAR MRLB 050000Z 09016KT CAVOK 31/19 A2974=
201508050100 METAR MRLB 050100Z 09018KT CAVOK 30/18 A2975=
201508050200 METAR MRLB 050200Z 09016KT CAVOK 29/19 A2977=
201508050300 METAR MRLB NIL=
201508050400 METAR MRLB NIL=
201508050500 METAR MRLB NIL=
201508050600 METAR MRLB NIL=
201508050700 METAR MRLB NIL=
201508050800 METAR MRLB NIL=
201508050900 METAR MRLB NIL=
201508051000 METAR MRLB NIL=
201508051100 METAR MRLB NIL=
201508051200 METAR MRLB 051200Z 35003KT CAVOK 27/20 A2978=
201508051300 METAR MRLB 051300Z 04003KT 9999 FEW035 SCT250 30/20 A2980=
201508051400 METAR MRLB 051400Z 03003KT 9999 FEW035 BKN250 30/20 A2981=
201508051500 METAR MRLB 051500Z 09016KT 9999 FEW035 BKN250 32/20 A2976=
201508051600 METAR MRLB 051600Z 09021G32KT 9999 FEW035 BKN250 33/19 A2978=
201508051700 METAR MRLB 051700Z 09019KT 9999 FEW035 BKN250 34/19 A2976=
201508051800 METAR MRLB 051800Z 09018G28KT 9999 FEW035 BKN250 35/19 A2976=
201508051900 METAR MRLB 051900Z 08020KT 9999 FEW030 BKN250 35/19 A2975=
201508052000 METAR MRLB 052000Z 09021KT 9999 SCT035 BKN250 35/19 A2973=
201508052100 METAR MRLB 052100Z 09018KT 9999 FEW035 SCT250 35/18 A2972=
201508052200 METAR MRLB 052200Z COR 07021KT 9999 FEW035 SCT130 33/19 A2971=
201508052300 METAR MRLB 052300Z 09016G28KT 9999 FEW035 SCT130 33/19 A2972=
201508052352 METAR MRLB 060000Z 10014KT 9999 FEW035 SCT130 31/20 A2974=
201508060000 METAR MRLB 060000Z 10014KT 9999 FEW035 SCT130 31/20 A2974=
201508060100 METAR MRLB 060100Z 09018KT CAVOK 30/19 A2975=
201508060200 METAR MRLB 060200Z 09017KT CAVOK 29/20 A2977=
201508060300 METAR MRLB NIL=
201508060400 METAR MRLB NIL=
201508060500 METAR MRLB NIL=
201508060600 METAR MRLB NIL=
201508060700 METAR MRLB NIL=
201508060800 METAR MRLB NIL=
201508060900 METAR MRLB NIL=
201508061000 METAR MRLB NIL=
201508061100 METAR MRLB NIL=
201508061200 METAR MRLB 061200Z 04002KT 9999 FEW035 OVC140 27/21 A2978=
201508061300 METAR MRLB 061300Z 03003KT 9999 FEW035 OVC140 29/20 A2978=
201508061400 METAR MRLB 061400Z 09014KT 9999 FEW035 OVC140 31/19 A2978=
201508061500 METAR MRLB 061500Z 09011KT 9999 FEW035 BKN250 33/19 A2979=
201508061600 METAR MRLB 061600Z 10018G28KT 9999 FEW035 BKN250 34/19 A2978=
201508061700 METAR MRLB 061700Z 09021KT 9999 FEW035 BKN250 34/19 A2978=
201508061800 METAR MRLB 061800Z 08020KT 9999 FEW035 BKN250 35/19 A2976=
201508061900 METAR MRLB 061900Z 09021G31KT 9999 FEW030 SCT250 34/19 A2973=
201508062000 METAR MRLB 062000Z 10017G27KT 9999 FEW035 34/19 A2972=
201508062100 METAR MRLB 062100Z 10021G33KT 9999 FEW030 SCT100 33/20 A2969=
201508062200 METAR MRLB 062200Z 11020G30KT 9999 FEW030 SCT100 32/19 A2970=
201508062300 METAR MRLB 062300Z COR 07018KT 9999 FEW030 SCT110 BKN220 32/20 A2973=
201508070000 METAR MRLB 070000Z 09017G29KT 9999 FEW035 BKN110 29/20 A2973=
201508070100 METAR MRLB 070100Z 09016KT 9999 FEW035 SCT110 29/20 A2974=
201508070200 METAR MRLB 070200Z 08017KT 9999 FEW035 SCT110 29/19 A2976=
201508070300 METAR MRLB NIL=
201508070400 METAR MRLB NIL=
201508070500 METAR MRLB NIL=
201508070600 METAR MRLB NIL=
201508070700 METAR MRLB NIL=
201508070800 METAR MRLB NIL=
201508070900 METAR MRLB NIL=
201508071000 METAR MRLB NIL=
201508071100 METAR MRLB NIL=
201508071200 METAR MRLB 071200Z 12002KT CAVOK 26/21 A2979=
201508071300 METAR MRLB 071300Z 34002KT CAVOK 29/21 A2979=
201508071400 METAR MRLB 071400Z 36005KT 9999 FEW030 BKN220 30/20 A2981=
201508071500 METAR MRLB 071500Z 02004KT 9999 FEW035 BKN240 32/20 A2983=
201508071600 METAR MRLB 071600Z 12015KT 9999 FEW035 BKN240 33/20 A2980=
201508071700 METAR MRLB 071700Z 09016KT 9999 FEW035 BKN240 34/20 A2979=
201508071800 METAR MRLB 071800Z COR 11011KT 9999 FEW035 SCT120 BKN240 35/19 A2977=
201508071900 METAR MRLB 071900Z 09012KT 9999 FEW035 BKN240 36/19 A2974=
201508072000 METAR MRLB 072000Z 09014KT 9999 FEW035 BKN240 35/18 A2971=
201508072100 METAR MRLB 072100Z 10013KT 9999 SCT035 BKN200 34/19 A2971=
201508072200 METAR MRLB 072200Z 09020KT 9999 SCT035 BKN200 34/19 A2970=
201508072300 METAR MRLB 072300Z 08016KT 9999 SCT035 BKN200 33/19 A2973=
201508072355 METAR MRLB 080000Z 09014KT 9999 FEW035 BKN200 31/20 A2975=
201508080000 METAR MRLB 080000Z 09014KT 9999 FEW035 BKN200 31/20 A2975=
201508080100 METAR MRLB 080100Z 10011KT 9999 FEW035 BKN250 29/19 A2978=
201508080200 METAR MRLB 080200Z 09012KT 9999 FEW035 BKN250 29/19 A2979=
201508080300 METAR MRLB NIL=
201508080400 METAR MRLB NIL=
201508080500 METAR MRLB NIL=
201508080600 METAR MRLB NIL=
201508080700 METAR MRLB NIL=
201508080800 METAR MRLB NIL=
201508080900 METAR MRLB NIL=
201508081000 METAR MRLB NIL=
201508081100 METAR MRLB NIL=
201508081200 METAR MRLB 081200Z 30003KT 9999 FEW035 BKN140 25/20 A2983=
201508081300 METAR MRLB 081300Z 35003KT 9999 FEW035 BKN140 26/21 A2985=
201508081400 METAR MRLB 081400Z 35004KT 9999 FEW035 BKN140 28/21 A2986=
201508081500 METAR MRLB 081500Z 24005KT 9999 FEW035 BKN140 29/21 A2986=
201508081600 METAR MRLB 081600Z 08004KT 9999 FEW035 BKN140 32/20 A2985=
201508081700 METAR MRLB 081700Z 10013KT 9999 FEW035 BKN140 34/19 A2984=
201508081800 METAR MRLB 081800Z 10012KT 9999 SCT035 BKN200 34/19 A2984=
201508081900 METAR MRLB 081900Z 11009KT 9999 SCT035 BKN220 35/19 A2982=
201508082000 METAR MRLB 082000Z 11011KT 9999 FEW030TCU SCT130 35/19 A2979=
201508082100 METAR MRLB 082100Z 36008KT 9999 VCSH SCT025 SCT130 32/21 A2980=
201508082200 METAR MRLB 082200Z 25006KT 9999 FEW020TCU BKN130 30/21 A2978=
201508082300 METAR MRLB 082300Z 24006KT 9999 FEW025 SCT130 30/22 A2980=
201508082352 METAR MRLB 090000Z 27004KT 9999 FEW025 BKN130 30/22 A2982=
201508090000 METAR MRLB 090000Z 27004KT 9999 FEW025 BKN130 30/22 A2982=
201508090100 METAR MRLB 090100Z 24004KT 9999 FEW025 BKN130 29/22 A2986=
201508090200 METAR MRLB 090200Z 00000KT 9999 SCT020 BKN130 28/22 A2986=
201508090300 METAR MRLB 090300Z 19004KT 9999 SCT020 BKN130 28/23 A2988=
201508090400 METAR MRLB 090400Z 21004KT 9999 FEW025 BKN130 27/22 A2990=
201508090500 METAR MRLB 090500Z 16003KT 9999 FEW025 BKN130 27/22 A2992=
201508090600 METAR MRLB NIL=
201508090700 METAR MRLB NIL=
201508090800 METAR MRLB NIL=
201508090900 METAR MRLB NIL=
201508091000 METAR MRLB NIL=
201508091100 METAR MRLB NIL=
201508091200 METAR MRLB 091200Z 00000KT 9999 FEW030 OVC130 24/22 A2986=
201508091300 METAR MRLB 091300Z 20004KT 9999 FEW030 OVC130 25/23 A2987=
201508091400 METAR MRLB 091400Z 27004KT 9999 FEW030 BKN130 27/23 A2988=
201508091500 METAR MRLB 091500Z 32003KT 9999 SCT030 BKN250 29/22 A2988=
201508091600 METAR MRLB 091600Z 05005KT 9999 SCT030 BKN250 32/20 A2986=
201508091700 METAR MRLB 091700Z 09011KT 9999 SCT030 SCT130 34/19 A2984=
201508091800 METAR MRLB 091800Z 08011KT 9999 SCT030 BKN250 35/18 A2982=
201508091900 METAR MRLB 091900Z 07009KT 9999 FEW025TCU SCT030 SCT130 34/19 A2980=
201508092000 METAR MRLB 092000Z 31007KT 9999 FEW025TCU SCT030 33/21 A2978=
201508092100 METAR MRLB 092100Z 26008KT 9999 VCSH FEW025TCU SCT030 33/21 A2976=
201508092200 METAR MRLB 092200Z 27005KT 9999 VCSH FEW025TCU SCT035 SCT100 31/21 A2977=
201508092300 METAR MRLB 092300Z 00000KT 9999 SCT030 SCT100 30/21 A2978=
201508092352 METAR MRLB 100000Z 07011KT 9999 BKN035 30/18 A2981=
201508100000 METAR MRLB 100000Z 07011KT 9999 BKN035 30/18 A2981=
201508100100 METAR MRLB 100100Z 10007KT 9999 BKN035 27/21 A2982=
201508100200 METAR MRLB 100200Z 14003KT 9999 SCT035 SCT100 27/21 A2983=
201508100300 METAR MRLB NIL=
201508100400 METAR MRLB NIL=
201508100500 METAR MRLB NIL=
201508100600 METAR MRLB NIL=
201508100700 METAR MRLB NIL=
201508100800 METAR MRLB NIL=
201508100900 METAR MRLB NIL=
201508101000 METAR MRLB NIL=
201508101100 METAR MRLB NIL=
201508101200 METAR MRLB 101200Z 00000KT 9999 -DZ BKN030 25/22 A2984=
201508101300 METAR MRLB 101300Z 00000KT 9999 SCT030 SCT100 24/22 A2984=
201508101400 METAR MRLB 101400Z 22002KT 9999 SCT025 SCT100 27/22 A2986=
201508101500 METAR MRLB 101500Z 19003KT 9999 FEW025 BKN200 28/22 A2985=
201508101600 METAR MRLB 101600Z 04007KT 9999 SCT030 BKN200 30/22 A2984=
201508101700 METAR MRLB 101700Z 34004KT 9999 SCT030 BKN200 30/21 A2983=
201508101800 METAR MRLB 101800Z 27005KT 9999 SCT025 SCT200 29/22 A2981=
201508101900 METAR MRLB 101900Z 33002KT 9999 SCT020 SCT200 31/21 A2976=
201508102000 METAR MRLB 102000Z 24005KT 9999 SCT030 BKN200 31/21 A2974=
201508102100 METAR MRLB 102100Z 12006KT 9999 SCT030 BKN200 33/18 A2973=
201508102200 METAR MRLB 102200Z 29010KT 9999 SCT030 BKN200 29/22 A2973=
201508102300 METAR MRLB 102300Z 35007KT 9999 2000SW RA SCT020TCU BKN100 28/24 A2976=
201508102351 METAR MRLB 110000Z 25003KT 9999 SCT030 BKN130 24/22 A2976 RERA=
201508110000 METAR MRLB 110000Z 25003KT 9999 SCT030 BKN130 24/22 A2976 RERA=
201508110100 METAR MRLB 110100Z 18003KT 9999 SCT030 BKN130 24/23 A2981=
201508110200 METAR MRLB 110200Z 18004KT 9999 SCT025 BKN120 24/22 A2984=
201508110300 METAR MRLB NIL=
201508110400 METAR MRLB NIL=
201508110500 METAR MRLB NIL=
201508110600 METAR MRLB NIL=
201508110700 METAR MRLB NIL=
201508110800 METAR MRLB NIL=
201508110900 METAR MRLB NIL=
201508111000 METAR MRLB NIL=
201508111100 METAR MRLB NIL=
201508111200 METAR MRLB 111200Z 03003KT 9999 FEW030 BKN120 23/22 A2983=
201508111300 METAR MRLB 111300Z 04003KT 9999 FEW030 BKN120 24/22 A2985=
201508111400 METAR MRLB 111400Z 19004KT 9999 FEW030 BKN120 25/23 A2986=
201508111500 METAR MRLB 111500Z 20003KT 9999 FEW035 BKN130 27/22 A2987=
201508111600 METAR MRLB 111600Z 26004KT 9999 FEW035 BKN250 31/21 A2985=
201508111700 METAR MRLB 111700Z 10006KT 9999 FEW035 BKN130 31/19 A2985=
201508111800 METAR MRLB 111800Z 08007KT 9999 SCT035 BKN130 32/19 A2982=
201508111900 METAR MRLB 111900Z 10012KT 9999 FEW035 BKN120 32/19 A2980=
201508112000 METAR MRLB 112000Z 10009KT 9999 FEW035 SCT130 BKN250 33/19 A2978=
201508112100 METAR MRLB 112100Z 08010KT 9999 SCT030 SCT130 33/19 A2977=
201508112200 METAR MRLB 112200Z 09011KT 9999 VCSH SCT030 BKN130 32/19 A2978=
201508112300 METAR MRLB 112300Z 09010KT 9999 SCT025 BKN120 30/19 A2978=
201508112356 METAR MRLB 120000Z 07012KT 9999 BKN025 SCT120 9/19 A2982=
201508112359 METAR MRLB COR 120000Z 07012KT 9999 BKN025 SCT120 29/19 A2982=
201508120000 METAR MRLB 120000Z 07012KT 9999 BKN025 SCT120 9/19 A2982=
201508120100 METAR MRLB 120100Z 12009KT 9999 BKN025 28/19 A2983=
201508120200 METAR MRLB 120200Z 11006KT 9999 BKN025 27/19 A2983=
201508120300 METAR MRLB NIL=
201508120400 METAR MRLB NIL=
201508120500 METAR MRLB NIL=
201508120600 METAR MRLB NIL=
201508120700 METAR MRLB NIL=
201508120800 METAR MRLB NIL=
201508120900 METAR MRLB NIL=
201508121000 METAR MRLB NIL=
201508121100 METAR MRLB NIL=
201508121200 METAR MRLB 121200Z 13002KT CAVOK 25/20 A2981=
201508121300 METAR MRLB 121300Z 24002KT CAVOK 26/20 A2981=
201508121400 METAR MRLB 121400Z 09013KT CAVOK 30/20 A2984=
201508121500 METAR MRLB 121500Z 08016KT 9999 FEW030 BKN120 31/20 A2986=
201508121600 METAR MRLB 121600Z 08014KT 9999 FEW030 BKN120 32/19 A2986=
201508121700 METAR MRLB 121700Z 07015KT 9999 FEW030 BKN120 33/18 A2986=
201508121800 METAR MRLB 121800Z 08013KT 9999 FEW030 BKN120 32/19 A2985=
201508121900 METAR MRLB 121900Z 09012KT 9999 FEW030 BKN130 32/18 A2982=
201508122000 METAR MRLB 122000Z 09013G23KT 9999 FEW030 BKN120 35/15 A2979=
201508122100 METAR MRLB 122100Z 07018KT 9999 FEW035 BKN120 34/17 A2978=
201508122200 METAR MRLB 122200Z 08015KT 9999 FEW035 BKN110 33/18 A2978=
201508122300 METAR MRLB 122300Z 08014KT CAVOK 30/19 A2979=
201508122353 METAR MRLB 130000Z 08017KT CAVOK 29/19 A2981=
201508130000 METAR MRLB 130000Z 08017KT CAVOK 29/19 A2981=
201508130100 METAR MRLB 130100Z 09015KT CAVOK 29/19 A2982=
201508130200 METAR MRLB 130200Z 11014KT CAVOK 28/18 A2981=
201508130300 METAR MRLB NIL=
201508130400 METAR MRLB NIL=
201508130500 METAR MRLB NIL=
201508130600 METAR MRLB NIL=
201508130700 METAR MRLB NIL=
201508130800 METAR MRLB NIL=
201508130900 METAR MRLB NIL=
201508131000 METAR MRLB NIL=
201508131100 METAR MRLB NIL=
201508131200 METAR MRLB 131200Z 11003KT CAVOK 24/20 A2982=
201508131300 METAR MRLB 131300Z 00000KT CAVOK 28/19 A2984=
201508131400 METAR MRLB 131400Z 34004KT CAVOK 29/20 A2984=
201508131500 METAR MRLB 131500Z 08010KT 9999 FEW030 SCT130 32/18 A2985=
201508131600 METAR MRLB 131600Z 08012KT 9999 FEW030 SCT250 33/18 A2985=
201508131700 METAR MRLB 131700Z 10011KT 9999 FEW035 SCT250 34/17 A2983=
201508131800 METAR MRLB 131800Z 09012KT 9999 FEW035 SCT250 35/16 A2981=
201508131900 METAR MRLB 131900Z 08010KT CAVOK 35/17 A2977=
201508132000 METAR MRLB 132000Z 08012KT CAVOK 35/17 A2976=
201508132100 METAR MRLB 132100Z 09013KT CAVOK 35/16 A2975=
201508132200 METAR MRLB 132200Z 08014KT CAVOK 34/17 A2974=
201508132300 METAR MRLB 132300Z 08015KT CAVOK 33/17 A2976=
201508132351 METAR MRLB 140000Z 09014KT CAVOK 31/18 A2979=
201508132352 METAR MRLB 140000Z 08017KT 9999 FEW035 BKN130 29/20 A2981=
201508140000 METAR MRLB 140000Z 09014KT CAVOK 31/18 A2979=
201508140100 METAR MRLB 140100Z 08013KT CAVOK 30/17 A2982=
201508140200 METAR MRLB 140200Z 08016KT CAVOK 29/18 A2984=
201508140300 METAR MRLB NIL=
201508140400 METAR MRLB NIL=
201508140500 METAR MRLB NIL=
201508140600 METAR MRLB NIL=
201508140700 METAR MRLB NIL=
201508140800 METAR MRLB NIL=
201508140900 METAR MRLB NIL=
201508141000 METAR MRLB NIL=
201508141100 METAR MRLB NIL=
201508141200 METAR MRLB 141200Z 30003KT 9999 FEW035 BKN120 25/20 A2984=
201508141300 METAR MRLB 141300Z 35005KT 9999 FEW035 BKN130 27/20 A2988=
201508141400 METAR MRLB 141400Z 21006KT 9999 FEW035 BKN130 29/20 A2989=
201508141500 METAR MRLB 141500Z 24005KT 9999 FEW035 BKN130 31/20 A2990=
201508141600 METAR MRLB 141600Z 10011KT 9999 FEW035 BKN140 32/20 A2988=
201508141700 METAR MRLB 141700Z 08015KT 9999 SCT035 BKN250 33/18 A2987=
201508141800 METAR MRLB 141800Z 07014KT 9999 SCT035 BKN250 33/19 A2985=
201508141900 METAR MRLB 141900Z 10011KT 9999 SCT035 BKN250 34/19 A2980=
201508142000 METAR MRLB 142000Z 08012KT 9999 SCT030 BKN250 35/19 A2979=
201508142100 METAR MRLB 142100Z 06018KT 9999 SCT030 SCT140 33/19 A2978=
201508142200 METAR MRLB 142200Z 08015KT 9999 FEW030 BKN130 33/18 A2979=
201508142300 METAR MRLB 142300Z 10015KT 9999 FEW035 BKN130 30/20 A2979=
201508142352 METAR MRLB 142352Z 150000KT 08017KT 9999 FEW035 BKN130 29/20 A2981=
201508150000 METAR MRLB 150000KT 08017KT 9999 FEW035 BKN130 29/20 A2981=
201508150100 METAR MRLB 150100Z 08015KT 9999 FEW035 BKN130 28/18 A2984=
201508150200 METAR MRLB 150200Z 09015KT 9999 FEW035 BKN130 28/18 A2984=
201508150300 METAR MRLB NIL=
201508150400 METAR MRLB NIL=
201508150500 METAR MRLB NIL=
201508150600 METAR MRLB NIL=
201508150700 METAR MRLB NIL=
201508150800 METAR MRLB NIL=
201508150900 METAR MRLB NIL=
201508151000 METAR MRLB NIL=
201508151100 METAR MRLB NIL=
201508151200 METAR MRLB 151200Z 10006KT 9999 FEW035 OVC120 26/18 A2984=
201508151300 METAR MRLB 151300Z 05003KT 9999 FEW035 BKN120 28/18 A2987=
201508151400 METAR MRLB 151400Z 10005KT 9999 FEW035 BKN120 29/19 A2987=
201508151500 METAR MRLB 151500Z 07008KT 9999 FEW030 BKN130 31/19 A2987=
201508151600 METAR MRLB 151600Z 08013KT 9999 FEW030 BKN130 31/19 A2988=
201508151700 METAR MRLB 151700Z 07014KT 9999 FEW030 BKN130 32/19 A2987=
201508151800 METAR MRLB 151800Z 09013KT 9999 FEW030 BKN250 33/19 A2986=
201508151900 METAR MRLB 151900Z 08012KT 9999 FEW030 BKN200 34/19 A2982=
201508152000 METAR MRLB 152000Z 07013KT 9999 SCT030 BKN200 33/19 A2981=
201508152100 METAR MRLB 152100Z 08012KT 9999 FEW030 SCT120 BKN220 31/20 A2981=
201508152200 METAR MRLB 152200Z 06011KT 9999 FEW025 SCT110 BKN220 32/19 A2979=
201508152300 METAR MRLB 152300Z 07012KT 9999 FEW035 BKN110 31/19 A2981=
201508152352 METAR MRLB 160000Z 08010KT 9999 SCT035 BKN100 29/20 A2983=
201508160000 METAR MRLB 160000Z 08010KT 9999 SCT035 BKN100 29/20 A2983=
201508160100 METAR MRLB 160100Z 16006KT 9999 FEW040 BKN100 27/21 A2985=
201508160200 METAR MRLB 160200Z 19005KT 9999 -DZ SCT035 BKN100 24/22 A2986=
201508160300 METAR MRLB 160300Z 18006KT 9999 SCT035 BKN100 24/22 2988=
201508160400 METAR MRLB 160400Z 18006KT 9999 FEW035 SCT100 24/22 A2990=
201508160500 METAR MRLB 160500Z COR 35003KT 9999 FEW035 SCT100 24/22 A2989=
201508160600 METAR MRLB NIL=
201508160700 METAR MRLB NIL=
201508160800 METAR MRLB NIL=
201508160900 METAR MRLB NIL=
201508161000 METAR MRLB NIL=
201508161100 METAR MRLB NIL=
201508161200 METAR MRLB 161200Z 26002KT CAVOK 23/22 A2985=
201508161300 METAR MRLB 161300Z 23004KT 9999 FEW045 BKN110 24/22 A2985=
201508161400 METAR MRLB 161400Z 32003KT 9999 FEW030 BKN110 29/21 A2987=
201508161500 METAR MRLB 161500Z 20002KT 9999 FEW030 BKN250 30/20 A2987=
201508161600 METAR MRLB 161600Z 10015KT 9999 FEW030 BKN240 32/19 A2987=
201508161700 METAR MRLB 161700Z 09016KT 9999 FEW030 SCT120 BKN240 33/19 A2987=
201508161800 METAR MRLB 161800Z 09016KT 9999 FEW025 BKN030 32/19 A2987=
201508161900 METAR MRLB 161900Z 08016KT 9999 SCT030 BKN100 29/19 A2988=
201508162000 METAR MRLB 162000Z 09011KT 9999 SCT035 BKN120 30/18 A2984=
201508162100 METAR MRLB 162100Z 10011KT 9999 FEW035 BKN120 30/18 A2983=
201508162200 METAR MRLB 162200Z 11009KT 9999 FEW035 BKN120 30/19 A2981=
201508162300 METAR MRLB 162300Z 10008KT 9999 FEW035 BKN120 29/19 A2983=
201508162350 METAR MRLB 170000Z 08009KT 9999 FEW035 BKN120 29/19 A2983=
201508170000 METAR MRLB 170000Z 08009KT 9999 FEW035 BKN120 29/19 A2983=
201508170100 METAR MRLB 170100Z 32007KT 9999 FEW035 BKN120 28/20 A2979=
201508170200 METAR MRLB 170200Z 36004KT 9999 SCT035 BKN110 27/20 A2982=
201508170300 METAR MRLB NIL=
201508170400 METAR MRLB NIL=
201508170500 METAR MRLB NIL=
201508170600 METAR MRLB NIL=
201508170700 METAR MRLB NIL=
201508170800 METAR MRLB NIL=
201508170900 METAR MRLB NIL=
201508171000 METAR MRLB NIL=
201508171100 METAR MRLB NIL=
201508171200 METAR MRLB 171200Z 04003KT CAVOK 23/20 A2982=
201508171300 METAR MRLB 171300Z 34005KT 9999 FEW035 SCT250 27/20 A2984=
201508171400 METAR MRLB 171400Z 07012G22KT CAVOK 31/20 A2986=
201508171500 METAR MRLB 171500Z 08016KT 9999 FEW030 SCT250 33/20 A2987=
201508171600 METAR MRLB 171600Z 08019KT 9999 SCT030 BKN250 32/20 A2989=
201508171700 METAR MRLB 171700Z 08012KT 9999 FEW035 SCT250 34/20 A2987=
201508171800 METAR MRLB 171800Z 09016KT 9999 FEW035 SCT250 34/18 A2984=
201508171900 METAR MRLB 171900Z 11015KT 9999 SCT035 SCT130 34/19 A2981=
201508172000 METAR MRLB 172000Z 11010KT 9999 FEW035 BKN130 33/19 A2980=
201508172100 METAR MRLB 172100Z 09014KT 9999 FEW035 BKN130 33/18 A2980=
201508172200 METAR MRLB 172200Z 10011KT 9999 BKN030 SCT130 33/20 A2980=
201508172300 METAR MRLB 172300Z 10014KT 9999 SCT030 SCT130 31/19 A2981=
201508172352 METAR MRLB 180000Z 09011KT 9999 FEW030 OVC130 29/20 A2983=
201508180000 METAR MRLB 180000Z 09011KT 9999 FEW030 OVC130 29/20 A2983=
201508180100 METAR MRLB 180100Z 08008KT 9999 FEW030 BKN130 28/20 A2984=
201508180200 METAR MRLB 180200Z 12004KT 9999 FEW030 BKN130 28/20 A2986=
201508180300 METAR MRLB NIL=
201508180400 METAR MRLB NIL=
201508180500 METAR MRLB NIL=
201508180600 METAR MRLB NIL=
201508180700 METAR MRLB NIL=
201508180800 METAR MRLB NIL=
201508180900 METAR MRLB NIL=
201508181000 METAR MRLB NIL=
201508181100 METAR MRLB NIL=
201508181200 METAR MRLB 181200Z 29005KT 9999 SCT030 SCT120 26/21 A2984=
201508181300 METAR MRLB 181300Z 21004KT 9999 FEW030 BKN120 27/21 A2985=
201508181400 METAR MRLB 181400Z 11011KT 9999 -RA BKN030 27/21 A2986=
201508181500 METAR MRLB 181500Z 12012KT 9999 FEW030 BKN250 28/21 A2986=
201508181600 METAR MRLB 181600Z 07016KT 9999 SCT030 BKN250 32/20 A2988=
201508181700 METAR MRLB 181700Z 09010KT 9999 SCT030 BKN250 33/819 A2986=
201508181800 METAR MRLB 181800Z 11012KT 9999 SCT030 BKN250 34/18 A2983=
201508181900 METAR MRLB 181900Z 10012KT 9999 SCT030 BKN220 33/19 A2981=
201508182000 METAR MRLB 182000Z 10013KT 9999 BKN030 34/18 A2979=
201508182100 METAR MRLB 182100Z 08014KT 9999 SCT035 SCT110 32/20 A2979=
201508182200 METAR MRLB 182200Z 10009KT 9999 SCT040 SCT110 32/20 A2978=
201508182300 METAR MRLB 182300Z 10009KT 9999 FEW040 SCT110 BKN250 32/19 A2979=
201508182353 METAR MRLB 190000Z 10009KT 9999 FEW045 BKN240 30/19 A2981=
201508190000 METAR MRLB 190000Z 10009KT 9999 FEW045 BKN240 30/19 A2981=
201508190100 METAR MRLB 190100Z 10008KT 9999 FEW045 29/20 A2981=
201508190200 METAR MRLB 190200Z 11007KT CAVOK 29/20 A2982=
201508190300 METAR MRLB NIL=
201508190400 METAR MRLB NIL=
201508190500 METAR MRLB NIL=
201508190600 METAR MRLB NIL=
201508190700 METAR MRLB NIL=
201508190800 METAR MRLB NIL=
201508190900 METAR MRLB NIL=
201508191000 METAR MRLB NIL=
201508191100 METAR MRLB NIL=
201508191200 METAR MRLB 191200Z 03002KT CAVOK 25/21 A2980=
201508191220 METAR MRLB 191200 03002KT CAVOK 25/21 A2980=
201508191300 METAR MRLB 191300Z 09013KT 9999 FEW030 BKN240 28/20 A2981=
201508191400 METAR MRLB 191400Z 08017KT 9999 FEW030 BKN240 29/19 A2984=
201508191500 METAR MRLB 191500Z 09014KT 9999 FEW030 BKN240 32/19 A2984=
201508191600 METAR MRLB 191600Z 09012KT 9999 FEW030 SCT250 33/19 A2985=
201508191700 METAR MRLB 191700Z COR 10013G24KT 9999 SCT035 34/19 A2984=
201508191800 METAR MRLB 191800Z 11016KT 9999 FEW035 34/18 A2982=
201508191900 METAR MRLB 191900Z 08012G22KT 9999 FEW035 35/18 A2980=
201508192000 METAR MRLB 192000Z 10012KT 9999 SCT035 34/17 A2977=
201508192100 METAR MRLB 192100Z 07015KT 9999 SCT035 34/19 A2976=
201508192200 METAR MRLB 192200Z 06014KT 9999 SCT035 33/19 A2976=
201508192300 METAR MRLB 192300Z 07014KT 9999 FEW035 32/19 A2976=
201508192353 METAR MRLB 200000Z 08012KT 9999 FEW035 SCT250 31/19 A2979=
201508200000 METAR MRLB 200000Z 08012KT 9999 FEW035 SCT250 31/19 A2979=
201508200100 METAR MRLB 200100Z 08009KT 9999 FEW035 SCT250 29/19 A2980=
201508200200 METAR MRLB 200200Z 06016KT 9999 FEW035 SCT250 29/19 A2982=
201508200300 METAR MRLB NIL=
201508200400 METAR MRLB NIL=
201508200500 METAR MRLB NIL=
201508200600 METAR MRLB NIL=
201508200700 METAR MRLB NIL=
201508200800 METAR MRLB NIL=
201508200900 METAR MRLB NIL=
201508201000 METAR MRLB NIL=
201508201100 METAR MRLB NIL=
201508201200 METAR MRLB 201200Z 24003KT CAVOK 23/19 A2982=
201508201300 METAR MRLB 201300Z 28003KT CAVOK 27/19 A2984=
201508201400 METAR MRLB 201400Z 26003KT CAVOK 30/19 A2985=
201508201500 METAR MRLB 201500Z 10013KT 9999 FEW035 31/20 A2984=
201508201600 METAR MRLB 201600Z 07016KT 9999 SCT035 33/20 A2984=
201508201700 METAR MRLB 201700Z 09010KT 9999 SCT035 33/19 A2983=
201508201800 METAR MRLB 201800Z 08016KT 9999 SCT035 34/20 A2981=
201508201900 METAR MRLB 201900Z 09017KT 9999 SCT030 33/18 A2979=
201508202000 METAR MRLB 202000Z 09018KT 9999 SCT035 35/18 A2976=
201508202100 METAR MRLB 202100Z 09015KT 9999 SCT035 35/19 A2974=
201508202200 METAR MRLB 202200Z 08018KT CAVOK 33/18 A2974=
201508202300 METAR MRLB 202300Z 09017KT CAVOK 32/18 A2975=
201508202352 METAR MRLB 210000Z 09016KT CAVOK 30/18 A2977=
201508210000 METAR MRLB 210000Z 09016KT CAVOK 30/18 A2977=
201508210100 METAR MRLB 210100Z 09012KT CAVOK 29/19 A2978=
201508210200 METAR MRLB 210200Z 08015KT CAVOK 29/19 A2981=
201508210300 METAR MRLB NIL=
201508210400 METAR MRLB NIL=
201508210500 METAR MRLB NIL=
201508210600 METAR MRLB NIL=
201508210700 METAR MRLB NIL=
201508210800 METAR MRLB NIL=
201508210900 METAR MRLB NIL=
201508211000 METAR MRLB NIL=
201508211100 METAR MRLB NIL=
201508211200 METAR MRLB 211200Z 24004KT CAVOK 24/20 A2982=
201508211300 METAR MRLB 211300Z 23007KT CAVOK 27/20 A2982=
201508211400 METAR MRLB 211400Z 32003KT 9999 FEW035 OVC250 30/19 A2984=
201508211500 METAR MRLB 211500Z 05010KT 9999 FEW035 OVC250 32/20 A2983=
201508211600 METAR MRLB 211600Z 07017KT 9999 SCT035 BKN250 33/20 A2984=
201508211700 METAR MRLB 211700Z 07015KT 9999 SCT035 BKN100 32/20 A2983=
201508211800 METAR MRLB 211800Z 06016KT 9999 SCT035 BKN120 34/19 A2982=
201508211900 METAR MRLB 211900Z 07015KT 9999 SCT030 SCT120 34/19 A2979=
201508212000 METAR MRLB 212000Z 06019KT 9999 SCT030 BKN120 34/19 A2977=
201508212100 METAR MRLB 212100Z 07019KT 9999 FEW030 BNK120 33/18 A2976=
201508212200 METAR MRLB 212200Z 07018KT 9999 FEW035 BKN120 33/19 A2976=
201508212300 METAR MRLB 212300Z COR 07019KT 9999 FEW030 OVC110 32/19 A2976=
201508212351 METAR MRLB 220000Z 08016KT CAVOK 30/19 A2977=
201508220000 METAR MRLB 220000Z 08016KT CAVOK 30/19 A2977=
201508220100 METAR MRLB 220100Z 09018G28KT CAVOK 30/19 A2978=
201508220200 METAR MRLB 220200Z 11008KT CAVOK 29/19 A2983=
201508220300 METAR MRLB NIL=
201508220400 METAR MRLB NIL=
201508220500 METAR MRLB NIL=
201508220600 METAR MRLB NIL=
201508220700 METAR MRLB NIL=
201508220800 METAR MRLB NIL=
201508220900 METAR MRLB NIL=
201508221000 METAR MRLB NIL=
201508221100 METAR MRLB NIL=
201508221200 METAR MRLB 221200Z 00000KT 9999 FEW045 BKN200 25/21 A2982=
201508221300 METAR MRLB 221300Z 35003KT CAVOK 27/21 A2983=
201508221400 METAR MRLB 221400Z 09014KT 9999 FEW040 BKN200 31/20 A2981=
201508221500 METAR MRLB 221500Z 10017KT 9999 FEW035 BKN200 32/19 A2983=
201508221600 METAR MRLB 221600Z 09015KT 9999 FEW035 33/19 A2984=
201508221700 METAR MRLB 221700Z 10011KT 9999 SCT035 33/19 A2983=
201508221800 METAR MRLB 221800Z 10010KT 9999 BKN035 33/19 A2981=
201508221900 METAR MRLB 221900Z 06011KT 9999 SCT030 SCT100 34/19 A2979=
201508222000 METAR MRLB 222000Z 08012KT 9999 VCSH SCT030 BKN120 33/19 A2978=
201508222100 METAR MRLB 222100Z 27009KT 9999 VCSH SCT025 BKN100 30/22 A2978=
201508222200 METAR MRLB 222200Z 28007KT 9999 VCSH SCT025 BKN100 28/22 A2978=
201508222300 METAR MRLB 222300Z 24008KT 9999 VCSH SCT030 BKN100 27/22 A2981=
201508222350 METAR MRLB 230000Z 24004KT 9999 SCT030 BKN100 26/22 A2982=
201508230000 METAR MRLB 230000Z 24004KT 9999 SCT030 BKN100 26/22 A2982=
201508230100 METAR MRLB 230100Z 23003KT 9999 SCT030 BKN100 26/22 A2983=
201508230200 METAR MRLB 230200Z 19003KT 9999 SCT030 BKN110 25/22 A2984=
201508230300 METAR MRLB NIL=
201508230400 METAR MRLB NIL=
201508230500 METAR MRLB NIL=
201508230600 METAR MRLB NIL=
201508230700 METAR MRLB NIL=
201508230800 METAR MRLB NIL=
201508230900 METAR MRLB NIL=
201508231000 METAR MRLB NIL=
201508231100 METAR MRLB NIL=
201508231200 METAR MRLB 231200Z 17003KT 9999 FEW035 SCT250 23/22 A2982=
201508231300 METAR MRLB 231300Z 20003KT 9999 FEW035 SCT250 26/22 A2983=
201508231400 METAR MRLB 231400Z 06010KT 9999 FEW035 SCT250 30/21 A2984=
201508231500 METAR MRLB 231500Z 10013KT 9999 FEW035 SCT250 32/20 A2983=
201508231600 METAR MRLB 231600Z 10012KT 9999 SCT035 33/20 A2982=
201508231700 METAR MRLB 231700Z 09011KT 9999 SCT035 33/19 A2981=
201508231800 METAR MRLB 231800Z 09008KT 9999 SCT035 34/20 A2978=
201508231900 METAR MRLB 231900Z 08006KT 9999 BKN035 34/20 A2978=
201508232000 METAR MRLB 232000Z 07012KT 9999 SCT030 SCT120 34/20 A2976=
201508232100 METAR MRLB 232100Z 06014KT 9999 SCT030 SCT120 34/20 A2974=
201508232200 METAR MRLB 232200Z 08017KT 9999 SCT030 BKN120 33/20 2973=
201508232300 METAR MRLB 232300Z 08015KT 9999 FEW035 SCT130 BKN250 32/20 A2974=
201508232352 METAR MRLB 240000Z 08009KT 9999 SCT030 SCT120 30/20 A2978=
201508240000 METAR MRLB 240000Z 08009KT 9999 SCT030 SCT120 30/20 A2978=
201508240100 METAR MRLB 240100Z 09012KT 9999 FEW030 BKN250 29/21 A2979=
201508240200 METAR MRLB 240200Z 08009KT 9999 FEW030 BKN250 29/21 A2981=
201508240300 METAR MRLB NIL=
201508240400 METAR MRLB NIL=
201508240500 METAR MRLB NIL=
201508240600 METAR MRLB NIL=
201508240700 METAR MRLB NIL=
201508240800 METAR MRLB NIL=
201508240900 METAR MRLB NIL=
201508241000 METAR MRLB NIL=
201508241100 METAR MRLB NIL=
201508241200 METAR MRLB 241200Z 09013KT 9999 FEW035 OVC130 28/19 A2978=
201508241300 METAR MRLB 241300Z 02004KT 9999 FEW035 OVC140 28/20 A2980=
201508241400 METAR MRLB 241400Z 10012KT 9999 FEW035 BKN140 30/19 A2980=
201508241500 METAR MRLB 241500Z 09015KT 9999 FEW035 BKN250 31/19 A2979=
201508241600 METAR MRLB 241600Z 08019G29KT 9999 FEW035 BKN250 33/17 A2978=
201508241700 METAR MRLB 241700Z 09020KT 9999 FEW035 OVC250 33/16 A2978=
201508241800 METAR MRLB 241800Z 07023KT 9999 FEW035 OVC250 34/17 A2978=
201508241900 METAR MRLB 241900Z 07018G28KT 9999 FEW035 OVC250 35/16 A2975=
201508242000 METAR MRLB 242000Z 06020KT 9999 FEW040 BKN240 35/15 A2972=
201508242100 METAR MRLB 242100Z 07019KT 9999 FEW045 BKN240 34/15 A2972=
201508242200 METAR MRLB 242200Z 07018KT 9999 FEW045 BKN240 34/16 A2973=
201508242300 METAR MRLB 242300Z 07017KT 9999 FEW045 BKN240 33/16 A2974=
201508242355 METAR MRLB 250000Z 08011KT CAVOK 30/17 A2977=
201508250000 METAR MRLB 250000Z 08011KT CAVOK 30/17 A2977=
201508250100 METAR MRLB 250100Z 09012KT CAVOK 29/17 A2980=
201508250200 METAR MRLB 250200Z 08011KT CAVOK 28/18 A2982=
201508250300 METAR MRLB NIL=
201508250400 METAR MRLB NIL=
201508250500 METAR MRLB NIL=
201508250600 METAR MRLB NIL=
201508250700 METAR MRLB NIL=
201508250800 METAR MRLB NIL=
201508250900 METAR MRLB NIL=
201508251000 METAR MRLB NIL=
201508251100 METAR MRLB NIL=
201508251200 METAR MRLB 251200Z 03004KT CAVOK 23/18 A2987=
201508251300 METAR MRLB 251300Z 00000KT CAVOK 24/18 A2988=
201508251400 METAR MRLB 251400Z 23003KT CAVOK 27/19 A2988=
201508251500 METAR MRLB 251500Z 26004KT CAVOK 29/18 A2987=
201508251600 METAR MRLB 251600Z 07012KT 9999 FEW035 BKN240 32/17 A2984=
201508251700 METAR MRLB 251700Z 08014G26KT 9999 FEW040 BKN240 34/17 A2982=
201508251800 METAR MRLB 251800Z 09014KT 9999 FEW040 BKN240 33/17 A2979=
201508251900 METAR MRLB 251900Z 10010KT 9999 FEW040 BKN220 35/17 A2978=
201508252000 METAR MRLB 252000Z 09013KT 9999 FEW035 BKN240 34/17 A2976=
201508252100 METAR MRLB 252100Z 09009KT 9999 SCT035 BKN240 34/17 A2976=
201508252200 METAR MRLB 252200Z 10011KT 9999 SCT035 BKN200 34/17 A2977=
201508252300 METAR MRLB 252300Z 12013KT 9999 SCT035 BKN200 32/15 A2979=
201508252352 METAR MRLB 260000Z 10011KT 9999 SCT035 BKN140 31/15 A2980=
201508260000 METAR MRLB 260000Z 10011KT 9999 SCT035 BKN140 31/15 A2980=
201508260100 METAR MRLB 260100Z 17009KT 9999 SCT030 BKN140 25/21 A2985=
201508260200 METAR MRLB 260200Z 16007KT 9999 SCT030 BKN130 25/21 A2987=
201508260300 METAR MRLB NIL=
201508260400 METAR MRLB NIL=
201508260500 METAR MRLB NIL=
201508260600 METAR MRLB NIL=
201508260700 METAR MRLB NIL=
201508260800 METAR MRLB NIL=
201508260900 METAR MRLB NIL=
201508261000 METAR MRLB NIL=
201508261100 METAR MRLB NIL=
201508261200 METAR MRLB 261200Z 03003KT 9999 FEW035 BKN130 23/20 A2989=
201508261300 METAR MRLB 261300Z 04003KT 9999 FEW035 SCT130 25/20 A2990=
201508261400 METAR MRLB 261400Z 04003KT 9999 FEW035 SCT250 28/20 A2991=
201508261500 METAR MRLB 261500Z 05004KT 9999 FEW035 BKN250 30/19 A2992=
201508261600 METAR MRLB 261600Z 06005KT 9999 FEW035 BKN250 32/18 A2991=
201508261700 METAR MRLB 261700Z 10011KT 9999 FEW035 BKN250 34/18 A2988=
201508261800 METAR MRLB 261800Z 14009KT 9999 FEW035 BKN250 35/17 A2986=
201508261900 METAR MRLB 261900Z 06004KT 9999 FEW035 BKN250 35/17 A2981=
201508262000 METAR MRLB 262000Z 34003KT 9999 SCT030 BKN130 34/19 A2979=
201508262100 METAR MRLB 262100Z 08003KT 9999 SCT030 BKN130 35/18 A2977=
201508262200 METAR MRLB 262200Z 09010KT 9999 FEW030 BKN130 34/18 A2977=
201508262300 METAR MRLB 262300Z 08011KT 9999 FEW035 BKN130 33/19 A2979=
201508262352 METAR MRLB 270000Z 09011KT 9999 FEW035 BKN130 32/19 A2980=
201508270000 METAR MRLB 270000Z 09011KT 9999 FEW035 BKN130 32/19 A2980=
201508270100 METAR MRLB 270100Z 09007KT CAVOK 30/17 A2983=
201508270200 METAR MRLB 270200Z 10006KT CAVOK 30/19 A2986=
201508270300 METAR MRLB NIL=
201508270400 METAR MRLB NIL=
201508270500 METAR MRLB NIL=
201508270600 METAR MRLB NIL=
201508270700 METAR MRLB NIL=
201508270800 METAR MRLB NIL=
201508270900 METAR MRLB NIL=
201508271000 METAR MRLB NIL=
201508271100 METAR MRLB NIL=
201508271200 METAR MRLB 271200Z 02003KT CAVOK 23/21 A2983=
201508271300 METAR MRLB 271300Z 00000KT CAVOK 27/20 A2985=
201508271400 METAR MRLB 271400Z 07004KT 9999 FEW035 OVC250 29/20 A2987=
201508271500 METAR MRLB 271500Z 36007KT 9999 FEW030 BKN120 31/20 A2988=
201508271600 METAR MRLB 271600Z 07016KT 9999 SCT030 SCT120 33/20 A2989=
201508271700 METAR MRLB 271700Z 09014KT 9999 SCT030 SCT120 33/19 A2987=
201508271800 METAR MRLB 271800Z 07015KT 9999 SCT030 SCT120 34/18 A2986=
201508271900 METAR MRLB 271900Z 08013KT 9999 SCT030 SCT130 32/18 A2983=
201508272000 METAR MRLB 272000Z 10012KT 9999 FEW040 SCT120 33/17 A2979=
201508272100 METAR MRLB 272100Z 08013KT 9999 FEW040 SCT120 33/17 A2979=
201508272200 METAR MRLB 272200Z 10010KT CAVOK 34/16 A2977=
201508272300 METAR MRLB 272300Z 09011KT CAVOK 32/17 A2978=
201508272353 METAR MRLB 280000Z 09011KT CAVOK 30/17 A2979=
201508280000 METAR MRLB 280000Z 09011KT CAVOK 30/17 A2979=
201508280100 METAR MRLB 280100Z 09008KT CAVOK 29/18 A2981=
201508280200 METAR MRLB 280200Z 12005KT CAVOK 28/19 A2983=
201508280300 METAR MRLB NIL=
201508280400 METAR MRLB NIL=
201508280500 METAR MRLB NIL=
201508280600 METAR MRLB NIL=
201508280700 METAR MRLB NIL=
201508280800 METAR MRLB NIL=
201508280900 METAR MRLB NIL=
201508281000 METAR MRLB NIL=
201508281100 METAR MRLB NIL=
201508281200 METAR MRLB 281200Z 10008KT CAVOK 27/19 A2983=
201508281300 METAR MRLB 281300Z 09008KT CAVOK 28/19 A2983=
201508281400 METAR MRLB 281400Z 09009KT 9999 FEW030 SCT220 29/19 A2984=
201508281500 METAR MRLB 281500Z 06010KT 9999 FEW030 SCT240 32/18 A2985=
201508281600 METAR MRLB 281600Z 07012KT 9999 FEW030 SCT250 34/17 A2984=
201508281700 METAR MRLB 281700Z 10014KT 9999 FEW030 BKN250 34/17 A2982=
201508281800 METAR MRLB 281800Z 10013KT 9999 FEW035 BKN250 34/16 A2980=
201508281900 METAR MRLB 281900Z 11011KT 9999 FEW035 BKN250 34/16 A2977=
201508282000 METAR MRLB 282000Z 10013KT 9999 FEW035 BKN200 34/16 A2975=
201508282100 METAR MRLB 282100Z 09010KT 9999 FEW035 BKN200 35/16 A2973=
201508282200 METAR MRLB 282200Z 09008KT 9999 FEW035 BKN200 35/16 A2971=
201508282300 METAR MRLB 282300Z 07013KT 9999 FEW035 BKN250 33/18 A2972=
201508282355 METAR MRLB 290000Z 04007KT 9999 FEW035 BKN250 31/18 A2974=
201508290000 METAR MRLB 290000Z 04007KT 9999 FEW035 BKN250 31/18 A2974=
201508290100 METAR MRLB 290100Z 29004KT 9999 FEW035 BKN250 28/23 A2977=
201508290200 METAR MRLB 290200Z 29005KT 9999 FEW035 BKN250 28/23 A2979=
201508290300 METAR MRLB NIL=
201508290400 METAR MRLB NIL=
201508290500 METAR MRLB NIL=
201508290600 METAR MRLB NIL=
201508290700 METAR MRLB NIL=
201508290800 METAR MRLB NIL=
201508290900 METAR MRLB NIL=
201508291000 METAR MRLB NIL=
201508291100 METAR MRLB NIL=
201508291200 METAR MRLB 291200Z 35003KT CAVOK 24/22 A2982=
201508291300 METAR MRLB 291300Z 06003KT CAVOK 27/22 A2984=
201508291400 METAR MRLB 291400Z 03006KT CAVOK 30/20 A2985=
201508291500 METAR MRLB 291500Z 05007KT 9999 FEW035 SCT250 32/20 A2983=
201508291600 METAR MRLB 291600Z 09019KT 9999 FEW035 SCT250 33/18 A2980=
201508291700 METAR MRLB 291700Z 10018KT 9999 FEW035 SCT250 34/18 A2978=
201508291800 METAR MRLB 291800Z 08017KT 9999 FEW035 SCT250 35/18 A2977=
201508291900 METAR MRLB 291900Z 08015G25KT 9999 FEW035 SCT250 36/18 A2974=
201508292000 METAR MRLB 292000Z 07015KT 9999 FEW035 BKN250 36/18 A2972=
201508292100 METAR MRLB 292100Z 08017KT 9999 FEW035 BKN250 35/18 A2969=
201508292200 METAR MRLB 292200Z 09017KT 9999 FEW035 SCT130 BKN250 34/18 A2969=
201508292300 METAR MRLB 292300Z 09014KT 9999 FEW035 BKN130 33/18 A2972=
201508292352 METAR MRLB 300000Z 09015KT 9999 SCT035 BKN130 30/19 A2975=
201508300000 METAR MRLB 300000Z 09015KT 9999 SCT035 BKN130 30/19 A2975=
201508300100 METAR MRLB 300100Z 09011KT 9999 FEW035 BKN130 29/20 A2977=
201508300200 METAR MRLB 300200Z 11010KT 9999 FEW035 BKN130 29/20 A2981=
201508300300 METAR MRLB NIL=
201508300400 METAR MRLB NIL=
201508300500 METAR MRLB NIL=
201508300600 METAR MRLB NIL=
201508300700 METAR MRLB NIL=
201508300800 METAR MRLB NIL=
201508300900 METAR MRLB NIL=
201508301000 METAR MRLB NIL=
201508301100 METAR MRLB NIL=
201508301200 METAR MRLB 301200Z 00000KT 9999 FEW035 OVC130 25/21 A2981=
201508301300 METAR MRLB 301300Z 25002KT 9999 FEW035 OVC250 26/22 A2983=
201508301400 METAR MRLB 301400Z 25004KT 9999 FEW035 OVC250 28/21 A2983=
201508301500 METAR MRLB 301500Z 24004KT 9999 FEW030 OVC250 30/21 A2985=
201508301600 METAR MRLB 301600Z 17006KT 9999 BKN030 31/22 A2985=
201508301700 METAR MRLB 301700Z 09008KT 9999 BKN030 SCT250 34/20 A2984=
201508301800 METAR MRLB 301800Z 09006KT 9999 BKN030 SCT250 34/19 A2982=
201508301900 METAR MRLB 301900Z 30009KT 9999 SCT030 SCT250 33/22 A2980=
201508302000 METAR MRLB 302000Z 28011KT 9999 FEW025 SCT030 30/23 A2977=
201508302100 METAR MRLB 302100Z 26009KT 9999 FEW020TCU SCT030 32/22 A2976=
201508302130 METAR MRLB 302130Z 25007KT 9999 RA FEW020TCU SCT030 31/24 A2977=
201508302200 METAR MRLB 302200Z 25007KT 9999 FEW025 SCT030 28/23 A2976 RERA=
201508302300 METAR MRLB 302300Z 23005KT 9999 VCTS FEW025TCU BKN030 29/25 A2978=
201508302358 METAR MRLB 310000Z 16012KT 0100 +TSRA VV/// 23/22 A2985=
201508310000 METAR MRLB 310000Z 16012KT 0100 +TSRA VV/// 23/22 A2985=
201508310100 METAR MRLB 310100Z 16005KT 9999 VCTS FEW030 SCT100 23/22 A2984 RETSRA=
201508310200 METAR MRLB 310200Z 06004KT 9999 FEW030 SCT100 23/22 A2985=
201508310300 METAR MRLB NIL=
201508310400 METAR MRLB NIL=
201508310500 METAR MRLB NIL=
201508310600 METAR MRLB NIL=
201508310700 METAR MRLB NIL=
201508310800 METAR MRLB NIL=
201508310900 METAR MRLB NIL=
201508311000 METAR MRLB NIL=
201508311100 METAR MRLB NIL=
201508311200 METAR MRLB 311200Z 00000KT CAVOK 23/22 A2984=
201508311300 METAR MRLB 311300Z 20002KT CAVOK 25/23 A2987=
201508311400 METAR MRLB 311400Z 24005KT CAVOK 26/23 A2988=
201508311500 METAR MRLB 311500Z 21003KT 9999 FEW030 BKN240 29/23 A2988=
201508311600 METAR MRLB 311600Z 34003KT 9999 FEW030 BKN250 31/23 A2988=
201508311700 METAR MRLB 311700Z 22006KT 9999 SCT030 BKN250 32/23 A2988=
201508311800 METAR MRLB 311800Z 28006KT 9999 VCSH SCT025 32/23 A2986=
201508311900 METAR MRLB NIL=
201508312000 METAR MRLB 312000Z 29010KT 9999 3000SW RA FEW020CB SCT030 BKN140 29/24 A2982=
201508312100 METAR MRLB 312100Z 27010KT 9999 VCSH SCT020 BKN100 25/23 A2978 RERA=
201508312200 METAR MRLB 312200Z 22009KT 9999 -RA SCT020 BKN100 23/22 A2984=
201508312300 METAR MRLB 312300Z 26003KT 9999 VCSH SCT025 BKN100 24/22 A2984=
201508312356 METAR MRLB 010000Z 17010KT 9999 -RA SCT020 BKN100 23/21 A2989=
201509010000 METAR MRLB 010000Z 17010KT 9999 -RA SCT020 BKN100 23/21 A2989=
201509010100 METAR MRLB 010100Z 16005KT 9999 SCT030 BKN100 23/21 A2988=
201509010200 METAR MRLB 010200Z 10003KT 9999 SCT030 BKN120 23/22 A2990=
201509010300 METAR MRLB NIL=
201509010400 METAR MRLB NIL=
201509010500 METAR MRLB NIL=
201509010600 METAR MRLB NIL=
201509010700 METAR MRLB NIL=
201509010800 METAR MRLB NIL=
201509010900 METAR MRLB NIL=
201509011000 METAR MRLB NIL=
201509011100 METAR MRLB NIL=
201509011200 METAR MRLB 011200Z 04003KT CAVOK 22/21 A2986=
201509011300 METAR MRLB 011300Z 06003KT CAVOK 24/22 A2987=
201509011400 METAR MRLB 011400Z 18003KT CAVOK 26/22 A2988=
201509011500 METAR MRLB 011500Z 30004KT CAVOK 28/23 A2988=
201509011600 METAR MRLB 011600Z 19003KT 9999 FEW035 SCT250 30/23 A2988=
201509011700 METAR MRLB 011700Z 09013KT 9999 FEW035 BKN250 33/21 A2986=
201509011800 METAR MRLB 011800Z 09013KT 9999 SCT035 BKN250 34/20 A2984=
201509011900 METAR MRLB 011900Z 08016KT 9999 SCT030 BKN220 31/19 A2984=
201509012000 METAR MRLB 012000Z 12014KT 9999 FEW040 BKN140 30/20 A2981=
201509012100 METAR MRLB 012100Z 11010KT 9999 FEW040 BKN140 31/18 A2979=
201509012200 METAR MRLB 012200Z 07010KT CAVOK 31/17 A2980=
201509012300 METAR MRLB 012300Z 08010KT CAVOK 31/17 A2980=
201509012352 METAR MRLB 020000Z 12005KT CAVOK 30/18 A2981=
201509020000 METAR MRLB 020000Z 12005KT CAVOK 30/18 A2981=
201509020100 METAR MRLB 020100Z 11006KT CAVOK 28/18 A2985=
201509020200 METAR MRLB 020200Z 13007KT CAVOK 28/18 A2988=
201509020300 METAR MRLB NIL=
201509020400 METAR MRLB NIL=
201509020500 METAR MRLB NIL=
201509020600 METAR MRLB NIL=
201509020700 METAR MRLB NIL=
201509020800 METAR MRLB NIL=
201509020900 METAR MRLB NIL=
201509021000 METAR MRLB NIL=
201509021100 METAR MRLB NIL=
201509021200 METAR MRLB 021200Z 35003KT CAVOK 22/20 A2988=
201509021300 METAR MRLB 021300Z 00000KT CAVOK 26/20 A2989=
201509021400 METAR MRLB 021400Z 22003KT CAVOK 29/20 A2991=
201509021500 METAR MRLB 021500Z 19005KT 9999 FEW035 BKN130 29/20 A2992=
201509021600 METAR MRLB 021600Z 19004KT 9999 FEW035 OVC130 29/20 A2993=
201509021700 METAR MRLB 021700Z 28005KT 9999 SCT030 SCT130 30/21 A2991=
201509021800 METAR MRLB 021800Z 09004KT 9999 SCT030 BKN130 32/21 A2989=
201509021900 METAR MRLB 021900Z 12006KT 9999 SCT030 BKN250 33/19 A2984=
201509022000 METAR MRLB 022000Z 12007KT 9999 SCT035 SCT250 34/19 A2982=
201509022100 METAR MRLB 022100Z 11015KT 9999 SCT035 SCT100 33/20 A2981=
201509022200 METAR MRLB 022200Z 12009KT 9999 FEW025TCU FEW035 BKN100 30/20 A2983=
201509022300 METAR MRLB 022300Z 12006KT 9999 SCT040 BKN110 29/18 A2984=
201509022355 METAR MRLB 030000Z 13006KT 9999 SCT040 BKN110 28/18 A2985=
201509030000 METAR MRLB 030000Z 13006KT 9999 SCT040 BKN110 28/18 A2985=
201509030100 METAR MRLB 030100Z 17005KT 9999 SCT040 SCT110 26/21 A2987=
201509030200 METAR MRLB 030200Z 17006KT 9999 FEW040 SCT120 26/21 A2988=
201509030300 METAR MRLB NIL=
201509030400 METAR MRLB NIL=
201509030500 METAR MRLB NIL=
201509030600 METAR MRLB NIL=
201509030700 METAR MRLB NIL=
201509030800 METAR MRLB NIL=
201509030900 METAR MRLB NIL=
201509031000 METAR MRLB NIL=
201509031100 METAR MRLB NIL=
201509031200 METAR MRLB 031200Z 00000KT CAVOK 23/20 A2983=
201509031300 METAR MRLB 031300Z COR 19002KT CAVOK 26/21 A2984=
201509031400 METAR MRLB 031400Z 19003KT CAVOK 28/20 A2986=
201509031500 METAR MRLB 031500Z 17003KT CAVOK 28/20 A2989=
201509031600 METAR MRLB 031600Z 10007KT CAVOK 31/19 A2988=
201509031700 METAR MRLB 031700Z 09009KT 9999 FEW030 SCT250 33/19 A2987=
201509031800 METAR MRLB 031800Z 09007KT 9999 FEW030 SCT250 34/19 A2984=
201509031900 METAR MRLB 031900Z 10007KT 9999 SCT030 SCT220 34/19 A2981=
201509032000 METAR MRLB 032000Z 08011KT 9999 SCT035 BKN250 33/19 A2979=
201509032100 METAR MRLB 032100Z 07015KT 9999 SCT030 BKN140 32/19 A2979=
201509032200 METAR MRLB 032200Z 08010KT 9999 SCT030 BKN140 29/17 A2979=
201509032300 METAR MRLB 032300Z 07010KT 9999 FEW030 BKN140 28/18 A2979=
201509032352 METAR MRLB 040000Z 14005KT 9999 SCT030 BKN130 27/19 A2979=
201509040000 METAR MRLB 040000Z 14005KT 9999 SCT030 BKN130 27/19 A2979=
201509040100 METAR MRLB 040100Z 13004KT 9999 FEW030 BKN130 27/18 A2980=
201509040200 METAR MRLB 040200Z 09006KT 9999 FEW035 BKN130 27/18 A2983=
201509040300 METAR MRLB NIL=
201509040400 METAR MRLB NIL=
201509040500 METAR MRLB NIL=
201509040600 METAR MRLB NIL=
201509040700 METAR MRLB NIL=
201509040800 METAR MRLB NIL=
201509040900 METAR MRLB NIL=
201509041000 METAR MRLB NIL=
201509041100 METAR MRLB NIL=
201509041200 METAR MRLB 041200Z 16003KT 9999 FEW030 BKN130 22/20 A2983=
201509041300 METAR MRLB 041300Z 27003KT 9999 FEW035 BKN250 26/18 A2985=
201509041400 METAR MRLB 041400Z 22003KT 9999 FEW035 BKN250 29/18 A2989=
201509041500 METAR MRLB 041500Z 19003KT 9999 FEW035 BKN250 31/18 A2989=
201509041600 METAR MRLB 041600Z 08006KT 9999 FEW035 BKN250 32/18 A2988=
201509041700 METAR MRLB 041700Z 08004KT 9999 SCT035 BKN250 33/19 A2986=
201509041800 METAR MRLB 041800Z 19008KT 9999 SCT035 BKN250 34/19 A2982=
201509041900 METAR MRLB 041900Z 19010KT 9999 VCSH SCT030 BKN250 34/19 A2980=
201509042000 METAR MRLB 042000Z 34009KT 9999 -RA FEW02TCU BKN025 28/21 A2981=
201509042100 METAR MRLB 042100Z 34007KT 9999 -RA OVC020 24/22 A2981 RETSRA=
201509042200 METAR MRLB 042200Z 28004KT 9999 VCSH FEW020 BKN120 27/23 A2979=
201509042300 METAR MRLB 042300Z 25004KT 9999 VCSH SCT020 BKN120 27/23 A2984=
201509042352 METAR MRLB 050000Z 22004KT 9999 FEW025 BKN120 26/22 A2984=
201509050000 METAR MRLB 050000Z 22004KT 9999 FEW025 BKN120 26/22 A2984=
201509050100 METAR MRLB 050100Z 06004KT 9999 FEW025 BKN120 25/23 A2987=
201509050200 METAR MRLB 050200Z 16002KT 9999 FEW025 BKN120 25/23 A2987=
201509050300 METAR MRLB NIL=
201509050400 METAR MRLB NIL=
201509050500 METAR MRLB NIL=
201509050600 METAR MRLB NIL=
201509050700 METAR MRLB NIL=
201509050800 METAR MRLB NIL=
201509050900 METAR MRLB NIL=
201509051000 METAR MRLB NIL=
201509051100 METAR MRLB NIL=
201509051200 METAR MRLB 051200Z 16002KT CAVOK 23/22 A2986=
201509051300 METAR MRLB 051300Z 02002KT 9999 FEW005 BKN130 24/23 A2988=
201509051400 METAR MRLB 051400Z 00000KT 9999 FEW010 OVC250 26/23 A2990=
201509051500 METAR MRLB 051500Z 00000KT 9999 FEW020 OVC250 29/22 A2990=
201509051600 METAR MRLB 051600Z 03002KT 9999 FEW025 OVC250 30/22 A2988=
201509051700 METAR MRLB 051700Z 11009KT 9999 SCT030 BKN250 32/20 A2986=
201509051800 METAR MRLB 051800Z 10009KT 9999 SCT030 BKN250 33/20 A2983=
201509051900 METAR MRLB 051900Z 11011KT 9999 SCT030 BKN250 33/20 A2981=
201509052000 METAR MRLB 052000Z 09010KT 9999 FEW035 BKN250 34/20 A2978=
201509052100 METAR MRLB 052100Z 09008KT 9999 FEW035 SCT250 34/20 A2976=
201509052200 METAR MRLB 052200Z 08011KT 9999 FEW035 SCT250 34/20 A2976=
201509052300 METAR MRLB 052300Z 08010KT 9999 FEW040 SCT250 32/18 A2977=
201509052352 METAR MRLB 060000Z 08013KT 9999 FEW045 SCT250 30/20 2981=
201509060000 METAR MRLB 060000Z 08013KT 9999 FEW045 SCT250 30/20 2981=
201509060100 METAR MRLB 060100Z 14007KT 9999 FEW045 29/21 A2983=
201509060200 METAR MRLB 060200Z 12007KT 9999 FEW045 28/20 A2986=
201509060300 METAR MRLB NIL=
201509060400 METAR MRLB NIL=
201509060500 METAR MRLB NIL=
201509060600 METAR MRLB NIL=
201509060700 METAR MRLB NIL=
201509060800 METAR MRLB NIL=
201509060900 METAR MRLB NIL=
201509061000 METAR MRLB NIL=
201509061100 METAR MRLB NIL=
201509061200 METAR MRLB 061200Z 00000KT 9999 FEW035 SCT240 24/21 A2986=
201509061300 METAR MRLB 061300Z 35005KT 9999 BKN035 25/21 A2988=
201509061400 METAR MRLB 061400Z 34004KT 9999 SCT035 SCT120 28/22 A2990=
201509061500 METAR MRLB 061500Z 06009KT 9999 FEW040 BKN250 29/21 A2989=
201509061600 METAR MRLB 061600Z 09011KT 9999 FEW035 BKN140 31/20 A2989=
201509061700 METAR MRLB 061700Z 07014KT 9999 SCT035 BKN200 32/20 A2988=
201509061800 METAR MRLB 061800Z 07016KT 9999 SCT035 BKN250 33/19 A2985=
201509061900 METAR MRLB 061900Z 09015KT 9999 SCT030 BKN200 32/19 A2983=
201509062000 METAR MRLB 062000Z 09012KT 9999 SCT030 BKN200 30/19 A2981=
201509062100 METAR MRLB 062100Z 10013KT 9999 FEW045 BKN200 31/16 A2979=
201509062200 METAR MRLB 062200Z 08014KT CAVOK 31/13 A2977=
201509062300 METAR MRLB 062300Z 09009KT CAVOK 30/12 A2978=
201509062356 METAR MRLB 070000Z 10010KT CAVOK 29/14 A2981=
201509070000 METAR MRLB 070000Z 10010KT CAVOK 29/14 A2981=
201509070100 METAR MRLB 070100Z 09008KT CAVOK 28/17 A2984=
201509070200 METAR MRLB 070200Z 09005KT CAVOK 27/17 A2985=
201509070300 METAR MRLB NIL=
201509070400 METAR MRLB NIL=
201509070500 METAR MRLB NIL=
201509070600 METAR MRLB NIL=
201509070700 METAR MRLB NIL=
201509070800 METAR MRLB NIL=
201509070900 METAR MRLB NIL=
201509071000 METAR MRLB NIL=
201509071100 METAR MRLB NIL=
201509071200 METAR MRLB 071200Z 06003KT CAVOK 22/19 A2982=
201509071300 METAR MRLB 071300Z 14008KT CAVOK 27/20 A2984=
201509071400 METAR MRLB 071400Z 08009KT CAVOK 28/20 A2985=
201509071500 METAR MRLB 071500Z 09014KT 9999 FEW035 SCT250 31/19 A2985=
201509071600 METAR MRLB 071600Z 09011KT 9999 FEW035 SCT250 32/19 A2987=
201509071700 METAR MRLB 071700Z 07012KT 9999 FEW035 BKN250 32/18 A2986=
201509071800 METAR MRLB 071800Z 09011KT 9999 SCT035 BKN200 33/17 A2985=
201509071900 METAR MRLB 071900Z 07009KT 9999 FEW035 BKN200 33/17 A2982=
201509072000 METAR MRLB 072000Z 06015KT 9999 FEW035 BKN220 34/18 A2978=
201509072100 METAR MRLB 072100Z 07014KT 9999 SCT035 SCT120 34/17 A2977=
201509072200 METAR MRLB 072200Z 08011KT 9999 SCT035 BKN160 33/18 A2976=
201509072300 METAR MRLB 072300Z 09009KT 9999 SCT035 BKN140 31/19 A2979=
201509072358 METAR MRLB 080000Z 08013KT 9999 SCT030 SCT130 30/19 A2981=
201509080000 METAR MRLB 080000Z 08013KT 9999 SCT030 SCT130 30/19 A2981=
201509080100 METAR MRLB 080100Z 13005KT 9999 SCT030 SCT130 29/20 A2983=
201509080200 METAR MRLB 080200Z 29007KT 9999 SCT030 BKN130 28/22 A2984=
201509080300 METAR MRLB NIL=
201509080400 METAR MRLB NIL=
201509080500 METAR MRLB NIL=
201509080600 METAR MRLB NIL=
201509080700 METAR MRLB NIL=
201509080800 METAR MRLB NIL=
201509080900 METAR MRLB NIL=
201509081000 METAR MRLB NIL=
201509081100 METAR MRLB NIL=
201509081200 METAR MRLB 081200Z 19002KT 9999 FEW030 BKN250 26/21 A2980=
201509081300 METAR MRLB 081300Z 31002KT 9999 SCT030 BKN250 26/21 A2980=
201509081400 METAR MRLB 081400Z 03004KT 9999 SCT030 BKN250 30/20 A2982=
201509081500 METAR MRLB 081500Z 06011G21KT 9999 FEW035 OVC250 31/20 A2982=
201509081600 METAR MRLB 081600Z 09017KT 9999 FEW035 OVC250 33/20 A2981=
201509081700 METAR MRLB 081700Z 09017KT 9999 FEW035 OVC250 33/19 A2981=
201509081800 METAR MRLB 081800Z 10016KT 9999 FEW035 BKN120 33/19 A2979=
201509081900 METAR MRLB 081900Z 08023KT 9999 VCSH SCT030 SCT120 32/19 A2977=
201509082000 METAR MRLB 082000Z COR 09014KT 9999 FEW030 BKN120 31/20 A2975=
201509082100 METAR MRLB 082100Z 11010KT CAVOK 30/19 A2973=
201509082200 METAR MRLB 082200Z 08012KT 9999 FEW045 BKN100 29/19 A2972=
201509082300 METAR MRLB 082300Z 10009KT 9999 FEW045 BKN100 29/19 A2974=
201509082350 METAR MRLB 090000Z 13006KT 9999 FEW045 BKN100 27/20 A2973=
201509090000 METAR MRLB 090000Z 13006KT 9999 FEW045 BKN100 27/20 A2973=
201509090100 METAR MRLB 090100Z 11013G23KT 9999 FEW045 BKN110 28/19 A2974=
201509090200 METAR MRLB 090200Z 10009KT CAVOK 28/20 A2980=
201509090300 METAR MRLB NIL=
201509090400 METAR MRLB NIL=
201509090500 METAR MRLB NIL=
201509090600 METAR MRLB NIL=
201509090700 METAR MRLB NIL=
201509090800 METAR MRLB NIL=
201509090900 METAR MRLB NIL=
201509091000 METAR MRLB NIL=
201509091100 METAR MRLB NIL=
201509091200 METAR MRLB 091200Z 00000KT CAVOK 25/21 A2979=
201509091300 METAR MRLB 091300Z 10006KT CAVOK 27/21 A2981=
201509091400 METAR MRLB 091400Z 06009KT 9999 FEW040 SCT250 30/21 A2981=
201509091500 METAR MRLB 091500Z 33006KT 9999 FEW030 SCT250 31/21 A2981=
201509091600 METAR MRLB 091600Z 10010KT 9999 FEW030 SCT250 33/19 A2980=
201509091700 METAR MRLB 091700Z 09013KT 9999 SCT035 34/20 A2980=
201509091800 METAR MRLB 091800Z 09010KT 9999 BKN030 34/20 A2979=
201509091900 METAR MRLB 091900Z 07018KT 9999 BKN030 33/20 A2976=
201509092000 METAR MRLB 092000Z 03006KT 9999 SCT030 SCT140 30/21 A2974=
201509092100 METAR MRLB 092100Z 34008KT 9999 SCT030 BKN140 33/20 A2971=
201509092200 METAR MRLB 092200Z 09013KT 9999 SCT030 BKN130 31/20 A2972=
201509092300 METAR MRLB 092300Z 09012KT 9999 VCSH SCT030 BKN120 29/20 A2975=
201509092351 METAR MRLB 100000Z 06014KT 9999 SCT030 BKN100 28/19 A2978=
201509100000 METAR MRLB 100000Z 06014KT 9999 SCT030 BKN100 28/19 A2978=
201509100100 METAR MRLB 100100Z 09005KT 9999 SCT030 BKN100 27/20 A2979=
201509100200 METAR MRLB 100200Z 18003KT 9999 SCT035 BKN120 26/21 A2982=
201509100300 METAR MRLB NIL=
201509100400 METAR MRLB NIL=
201509100500 METAR MRLB NIL=
201509100600 METAR MRLB NIL=
201509100700 METAR MRLB NIL=
201509100800 METAR MRLB NIL=
201509100900 METAR MRLB NIL=
201509101000 METAR MRLB NIL=
201509101100 METAR MRLB NIL=
201509101200 METAR MRLB 101200Z 03006KT 9999 FEW030 BKN100 23/21 A2983=
201509101300 METAR MRLB 101300Z 16003KT 9999 FEW030 BKN100 24/21 A2986=
201509101400 METAR MRLB 101400Z 25005KT 9999 FEW025 BKN100 24/22 A2985=
201509101500 METAR MRLB 101500Z 32004KT 9999 FEW030 BKN120 27/21 A2984=
201509101600 METAR MRLB 101600Z 03003KT 9999 FEW035 BKN120 30/20 A2983=
201509101700 METAR MRLB 101700Z 17008KT 9999 FEW035 BKN120 28/21 A2983=
201509101800 METAR MRLB 101800Z 19003KT 9999 FEW035 BKN120 30/20 A2980=
201509101900 METAR MRLB 101900Z 27008KT 9999 FEW035 BKN120 29/21 A2979=
201509102000 METAR MRLB 102000Z 27005KT 9999 FEW035 OVC120 29/22 A2979=
201509102100 METAR MRLB 102100Z 19002KT 9999 FEW040 OVC130 30/21 A2978=
201509102200 METAR MRLB 102200Z 14009KT 9999 FEW040 OVC130 30/190 A2979=
201509102300 METAR MRLB 102300Z 12009KT 9999 FEW040 OVC130 29/19 A2980=
201509102352 METAR MRLB 110000Z 13009KT 9999 FEW040 OVC130 28/20 A2981=
201509110000 METAR MRLB 110000Z 13009KT 9999 FEW040 OVC130 28/20 A2981=
201509110100 METAR MRLB 110100Z 13007KT 9999 FEW040 BKN130 27/21 A2983=
201509110200 METAR MRLB 110200Z 10006KT 9999 FEW040 BKN130 26/22 A2986=
201509110300 METAR MRLB NIL=
201509110400 METAR MRLB NIL=
201509110500 METAR MRLB NIL=
201509110600 METAR MRLB NIL=
201509110700 METAR MRLB NIL=
201509110800 METAR MRLB NIL=
201509110900 METAR MRLB NIL=
201509111000 METAR MRLB NIL=
201509111100 METAR MRLB NIL=
201509111200 METAR MRLB 111200Z 19005KT CAVOK 23/21 A2985=
201509111300 METAR MRLB 111300Z 16004KT CAVOK 24/22 A2987=
201509111400 METAR MRLB 111400Z 21007KT CAVOK 27/20 A2989=
201509111500 METAR MRLB 111500Z 21003KT CAVOK 29/20 A2990=
201509111600 METAR MRLB 111600Z 16005KT 9999 FEW030 BKN130 32/21 A2989=
201509111700 METAR MRLB 111700Z 19006KT 9999 SCT030 BKN120 31/21 A2988=
201509111800 METAR MRLB 111800Z 16004KT 9999 BKN030 SCT100 32/21 A2986=
201509111900 METAR MRLB 111900Z 08010KT 9999 FEW030 OVC100 32/20 A2984=
201509112000 METAR MRLB 112000Z 07011KT 9999 SCT035 BKN100 31/20 A2983=
201509112100 METAR MRLB 112100Z 08009KT 9999 FEW035 BKN100 31/20 A2981=
201509112200 METAR MRLB 112200Z 07011KT 9999 FEW030 BKN120 31/20 A2980=
201509112300 METAR MRLB 112300Z 10008KT 9999 FEW035 BKN120 30/19 A2981=
201509112350 METAR MRLB 120000Z 14006KT 9999 FEW045 BKN120 29/19 A2983=
201509120000 METAR MRLB 120000Z 14006KT 9999 FEW045 BKN120 29/19 A2983=
201509120100 METAR MRLB 120100Z 12008KT 9999 FEW045 BKN120 28/19 A2986=
201509120200 METAR MRLB 120200Z 12009KT 9999 FEW045 SCT120 27/19 A2988=
201509120300 METAR MRLB NIL=
201509120400 METAR MRLB NIL=
201509120500 METAR MRLB NIL=
201509120600 METAR MRLB NIL=
201509120700 METAR MRLB NIL=
201509120800 METAR MRLB NIL=
201509120900 METAR MRLB NIL=
201509121000 METAR MRLB NIL=
201509121100 METAR MRLB NIL=
201509121200 METAR MRLB 121200Z 05002KT CAVOK 23/21 A2986=
201509121300 METAR MRLB 121300Z 06004KT 9999 FEW045 SCT220 26/21 2986=
201509121400 METAR MRLB 121400Z 00000KT CAVOK 29/21 A2988=
201509121500 METAR MRLB 121500Z 23002KT 9999 SCT040 SCT250 30/21 A2989=
201509121600 METAR MRLB 121600Z 20003KT 9999 SCT035 SCT250 30/22 A2988=
201509121700 METAR MRLB 121700Z COR 20007KT 9999 SCT035 SCT250 32/22 A2985=
201509121800 METAR MRLB 121800Z 19004KT 9999 SCT035 SCT250 32/21 A2982=
201509121900 METAR MRLB 121900Z 28010KT 9999 VCSH FEW020TCU SCT030 BKN250 30/23 A2979=
201509122000 METAR MRLB 122000Z 29008KT 9999 -RA VCSH SCT020TCU BKN130 29/23 A2976 RERA=
201509122100 METAR MRLB 122100Z 26008KT 9999 VCSH SCT030 BKN130 27/24 A2975=
201509122200 METAR MRLB 122200Z 35003KT 9999 -RA SCT020 BKN100 27/23 A2977=
201509122300 METAR MRLB 122300Z 34003KT 9999 SCT025 BKN120 26/24 A2979=
201509122351 METAR MRLB 130000Z 04007KT 9999 FEW010 SCT020 BKN100 25/23 A2981=
201509130000 METAR MRLB 130000Z 04007KT 9999 FEW010 SCT020 BKN100 25/23 A2981=
201509130100 METAR MRLB 130100Z 06011KT 5000 RA SCT010 BKN100 22/21 A2984=
201509130200 METAR MRLB 130200Z 09006KT 8000 RA SCT020 BKN100 23/22 A2989=
201509130300 METAR MRLB NIL=
201509130400 METAR MRLB NIL=
201509130500 METAR MRLB NIL=
201509130600 METAR MRLB NIL=
201509130700 METAR MRLB NIL=
201509130800 METAR MRLB NIL=
201509130900 METAR MRLB NIL=
201509131000 METAR MRLB NIL=
201509131100 METAR MRLB NIL=
201509131200 METAR MRLB 131200Z 10003KT 9999 FEW025 BKN130 23/22 A2983=
201509131300 METAR MRLB 131300Z 06003KT 9999 FEW025 BKN250 24/23 A2984=
201509131400 METAR MRLB 131400Z 18004KT 9999 FEW030 BKN250 25/22 A2987=
201509131500 METAR MRLB 131500Z 22004KT 9999 FEW030 BKN250 26/23 A2989=
201509131600 METAR MRLB 131600Z 05003KT 9999 FEW030 BKN250 29/23 A2989=
201509131700 METAR MRLB 131700Z 04003KT 9999 SCT030 BKN250 30/23 A2986=
201509131800 METAR MRLB 131800Z 19006KT 9999 SCT030 BKN250 31/23 A2983=
201509131900 METAR MRLB 131900Z 01003KT 9999 SCT030 SCT250 32/23 A2980=
201509132000 METAR MRLB 132000Z 30005KT 9999 VCSH SCT030 SCT250 31/23 A2978=
201509132100 METAR MRLB 132100Z 30009KT 9999 SCT030 BKN250 31/23 A2975=
201509132200 METAR MRLB 132200Z 28007KT 9999 SCT030 SCT250 30/22 A2975=
201509132300 METAR MRLB 132300Z 25005KT 9999 VCTS VCSH FEW020CB BKN250 29/23 A2976=
201509132352 METAR MRLB 140000Z 23004KT 9999 FEW035 SCT120 27/24 A2978=
201509140000 METAR MRLB 140000Z 23004KT 9999 FEW035 SCT120 27/24 A2978=
201509140100 METAR MRLB 140100Z 00000KT 9999 FEW035 BKN120 27/24 A2982=
201509140200 METAR MRLB 140200Z 15002KT 9999 FEW035 BKN120 27/23 A2985=
201509140300 METAR MRLB NIL=
201509140400 METAR MRLB NIL=
201509140500 METAR MRLB NIL=
201509140600 METAR MRLB NIL=
201509140700 METAR MRLB NIL=
201509140800 METAR MRLB NIL=
201509140900 METAR MRLB NIL=
201509141000 METAR MRLB NIL=
201509141100 METAR MRLB NIL=
201509141200 METAR MRLB 141200Z 03002KT 9999 VCFG FEW005 OVC140 24/23 A2983=
201509141300 METAR MRLB 141300Z 00000KT 9999 FEW030 SCT140 BKN250 25/24 A2985=
201509141400 METAR MRLB 141400Z 25003KT 9999 FEW010 OVC250 27/24 A2985=
201509141500 METAR MRLB 141500Z 23002KT 9999 FEW020 OVC250 29/24 A2986=
201509141600 METAR MRLB 141600Z 06009KT 9999 BKN025 SCT130 31/21 A2988=
201509141700 METAR MRLB 141700Z 09011KT 9999 SCT030 BKN130 32/21 A2986=
201509141800 METAR MRLB 141800Z 06011KT 9999 FEW035 OVC250 32/22 A2985=
201509141900 METAR MRLB 141900Z 08011KT 9999 FEW035 OVC250 32/21 A2981=
201509142000 METAR MRLB 142000Z 11011KT 9999 FEW035 BKN250 32/21 A2978=
201509142100 METAR MRLB 142100Z 11008KT CAVOK 32/20 2976=
201509142200 METAR MRLB 142200Z 07008KT CAVOK 31/21 A2977=
201509142300 METAR MRLB 142300Z 08012KT 9999 FEW035 BKN220 30/19 A2979=
201509142353 METAR MRLB 150000Z 09007KT 9999 FEW035 BKN240 29/20 A2982=
201509150000 METAR MRLB 150000Z 09007KT 9999 FEW035 BKN240 29/20 A2982=
201509150100 METAR MRLB 150100Z 09007KT 9999 FEW040 28/19 A2983=
201509150200 METAR MRLB 150200Z 10006KT 9999 FEW040 27/19 A2985=
201509150300 METAR MRLB NIL=
201509150400 METAR MRLB NIL=
201509150500 METAR MRLB NIL=
201509150600 METAR MRLB NIL=
201509150700 METAR MRLB NIL=
201509150800 METAR MRLB NIL=
201509150900 METAR MRLB NIL=
201509151000 METAR MRLB NIL=
201509151100 METAR MRLB NIL=
201509151200 METAR MRLB 151200Z 00000KT CAVOK 24/21 A2985=
201509151300 METAR MRLB 151300Z 24003KT CAVOK 26/22 A2986=
201509151400 METAR MRLB 151400Z 28004KT CAVOK 27/23 A2986=
201509151500 METAR MRLB 151500Z 28004KT CAVOK 30/22 A2987=
201509151600 METAR MRLB 151600Z 08007KT 9999 FEW035 SCT240 32/21 A2988=
201509151700 METAR MRLB 151700Z 10009KT 9999 FEW035 SCT240 33/21 A2987=
201509151800 METAR MRLB 151800Z 09010KT 9999 FEW035 34/20 A2985=
201509151900 METAR MRLB 151900Z 11009KT 9999 FEW035 33/21 A2983=
201509152000 METAR MRLB 152000Z 10009KT 9999 FEW035 SCT250 34/19 A2981=
201509152100 METAR MRLB 152100Z 12009KT 9999 FEW035 SCT200 33/19 A2978=
201509152200 METAR MRLB 152200Z 08007KT 9999 FEW035 BKN200 31/20 A2980=
201509152300 METAR MRLB 152300Z 30005KT 9999 FEW035 BKN200 30/23 A2980=
201509152350 METAR MRLB 160000Z 30006KT 9999 FEW035 BKN250 29/24 A2982=
201509160000 METAR MRLB 160000Z 30006KT 9999 FEW035 BKN250 29/24 A2982=
201509160100 METAR MRLB 160100Z 24003KT 9999 FEW035 BKN250 28/24 A2985=
201509160200 METAR MRLB 160200Z 23004KT 9999 FEW035 BKN250 27/24 A2985=
201509160300 METAR MRLB NIL=
201509160400 METAR MRLB NIL=
201509160500 METAR MRLB NIL=
201509160600 METAR MRLB NIL=
201509160700 METAR MRLB NIL=
201509160800 METAR MRLB NIL=
201509160900 METAR MRLB NIL=
201509161000 METAR MRLB NIL=
201509161100 METAR MRLB NIL=
201509161200 METAR MRLB 161200Z 00000KT CAVOK 24/22 A2986=
201509161300 METAR MRLB 161300Z 34002KT CAVOK 25/23 A2987=
201509161400 METAR MRLB 161400Z 00000KT CAVOK 29/22 A2988=
201509161500 METAR MRLB 161500Z 05007KT 9999 FEW035 31/21 A2987=
201509161600 METAR MRLB 161600Z 09015KT 9999 FEW035 33/19 A2986=
201509161652 METAR MRLB 261700Z 14002KT 9999 SCT025 BKN130 30/24 A2983=
201509161700 METAR MRLB 161700Z 09012KT 9999 FEW035 34/20 A2986=
201509161800 METAR MRLB 161800Z 10011KT 9999 FEW040 34/20 A2984=
201509161900 METAR MRLB 161900Z 10009KT 9999 SCT030 35/20 A2981=
201509162000 METAR MRLB 162000Z 11008KT 9999 SCT030 SCT250 35/19 A2979=
201509162100 METAR MRLB 162100Z 08010KT 9999 FEW035 BKN250 35/20 A2977=
201509162200 METAR MRLB 162200Z 07010KT 9999 FEW030 SCT130 BKN250 34/19 A2978=
201509162300 METAR MRLB 162300Z 09008KT 9999 FEW030 BKN130 32/20 A2978=
201509162352 METAR MRLB 170000Z 10009KT 9999 FEW035 BKN130 31/20 A2979=
201509170000 METAR MRLB 170000Z 10009KT 9999 FEW035 BKN130 31/20 A2979=
201509170100 METAR MRLB 170100Z 13007KT 9999 FEW035 BKN130 29/20 A2979=
201509170200 METAR MRLB 170200Z 05006KT CAVOK 28/22 A2983=
201509170300 METAR MRLB NIL=
201509170400 METAR MRLB NIL=
201509170500 METAR MRLB NIL=
201509170600 METAR MRLB NIL=
201509170700 METAR MRLB NIL=
201509170800 METAR MRLB NIL=
201509170900 METAR MRLB NIL=
201509171000 METAR MRLB NIL=
201509171100 METAR MRLB NIL=
201509171200 METAR MRLB 171200Z 00000KT CAVOK 23/21 A2982=
201509171300 METAR MRLB 171300Z 17002KT CAVOK 24/21 A2983=
201509171400 METAR MRLB 171400Z 00000KT CAVOK 28/21 A2984=
201509171500 METAR MRLB 171500Z 00000KT CAVOK 30/21 A2983=
201509171600 METAR MRLB 171600Z 32005KT CAVOK 32/21 A2983=
201509171700 METAR MRLB 171700Z 21005KT 9999 FEW035 OVC250 32/20 A2983=
201509171800 METAR MRLB 171800Z 12010KT 9999 FEW040 OVC250 33/19 A2981=
201509171900 METAR MRLB 171900Z 12010KT 9999 FEW040 OVC250 33/19 A2976=
201509172000 METAR MRLB 172000Z 12006KT 9999 FEW040 BKN250 34/19 A2974=
201509172100 METAR MRLB 172100Z 12008KT 9999 FEW035 BKN240 34/18 A2973=
201509172200 METAR MRLB 172200Z 31011KT 9999 FEW035 BKN240 32/22 A2973=
201509172300 METAR MRLB 172300Z 09007KT 9999 VCTS VCSH FEW020TCU FEW040 SCT120 30/19 A2976=
201509172353 METAR MRLB 180000Z 24005KT 9999 VCTS FEW020TCU FEW040 SCT120 26/21 A2978=
201509180000 METAR MRLB 180000Z 24005KT 9999 VCTS FEW020TCU FEW040 SCT120 26/21 A2978=
201509180100 METAR MRLB 180100Z 00000KT 9999 FEW040 SCT120 25/21 A2979=
201509180200 METAR MRLB 180200Z 00000KT 9999 FEW040 SCT120 26/21 A2981=
201509180300 METAR MRLB NIL=
201509180400 METAR MRLB NIL=
201509180500 METAR MRLB NIL=
201509180600 METAR MRLB NIL=
201509180700 METAR MRLB NIL=
201509180800 METAR MRLB NIL=
201509180900 METAR MRLB NIL=
201509181000 METAR MRLB NIL=
201509181100 METAR MRLB NIL=
201509181200 METAR MRLB 181200Z 00000KT 9999 FEW020 BKN200 24/22 A2979=
201509181300 METAR MRLB 181300Z 23004KT 9999 FEW010 BKN200 25/23 A2981=
201509181400 METAR MRLB 181400Z 21003KT 9999 FEW010 SCT120 BNK220 25/24 A2984=
201509181500 METAR MRLB 181500Z 15004KT 9999 FEW020 SCT240 28/23 A2984=
201509181600 METAR MRLB 181600Z 17003KT 9999 FEW030 SCT240 29/23 A2983=
201509181700 METAR MRLB 181700Z 27004KT 9999 FEW030 BKN240 31/22 A2983=
201509181800 METAR MRLB 181800Z 21003KT 9999 FEW030 BKN240 32/22 A2979=
201509181900 METAR MRLB 181900Z 24004KT 9999 SCT030 SCT120 32/22 A2976=
201509182000 METAR MRLB 182000Z 29009KT 9999 VCSH SCT025TCU SCT250 32/23 A2973=
201509182100 METAR MRLB 182100Z 03014KT 9999 2000SW -TSRA FEW010CB SCT020 BKN120 24/22 A2973=
201509182200 METAR MRLB 182200Z 36009KT 9999 RA FEW015 SCT025 BKN120 23/22 A2973=
201509182300 METAR MRLB 182300Z 31004KT 9999 FEW030 BKN120 23/22 A2974 RERA=
201509182350 METAR MRLB 190000Z 30003KT 9999 FEW030 BKN140 24/22 A2977=
201509190000 METAR MRLB 190000Z 30003KT 9999 FEW030 BKN140 24/22 A2977=
201509190100 METAR MRLB 190100Z 09003KT 9999 SCT030 BKN140 24/23 A2981=
201509190200 METAR MRLB 190200Z 08004KT 9999 SCT030 BKN130 24/22 A2981=
201509190300 METAR MRLB NIL=
201509190400 METAR MRLB NIL=
201509190500 METAR MRLB NIL=
201509190600 METAR MRLB NIL=
201509190700 METAR MRLB NIL=
201509190800 METAR MRLB NIL=
201509190900 METAR MRLB NIL=
201509191000 METAR MRLB NIL=
201509191100 METAR MRLB NIL=
201509191200 METAR MRLB 191200Z 04003KT CAVOK 23/22 A2983=
201509191300 METAR MRLB 191300Z 05003KT CAVOK 24/22 A2984=
201509191400 METAR MRLB 191400Z 17003KT CAVOK 27/23 A2985=
201509191500 METAR MRLB 191500Z 21003KT CAVOK 29/23 A2986=
201509191600 METAR MRLB 191600Z 24003KT 9999 FEW035 SCT250 30/23 A2986=
201509191700 METAR MRLB 191700Z 22003KT 9999 SCT035 SCT250 31/22 A2984=
201509191800 METAR MRLB 191800Z 27003KT 9999 SCT035 SCT250 32/22 A2982=
201509191900 METAR MRLB 191900Z 28004KT 9999 SCT030 33/22 A2978=
201509192000 METAR MRLB 192000Z 28011KT 9999 VCSH SCT030 SCT130 32/22 A2975=
201509192100 METAR MRLB 192100Z 29009KT 9999 VCSH FEW020TCU SCT025 SCT130 30/23 A2975=
201509192200 METAR MRLB 192200Z 01005KT 9999 VCTS VCSH FEW015CB FEW030 BKN130 28/22 A2976=
201509192300 METAR MRLB 192300Z 05002KT 9999 FEW030 OVC120 28/21 A2977=
201509192352 METAR MRLB 200000Z 04003KT 9999 FEW030 OVC120 27/22 A2978=
201509200000 METAR MRLB 200000Z 04003KT 9999 FEW030 OVC120 27/22 A2978=
201509200100 METAR MRLB 200100Z 00000KT 9999 FEW030 OVC120 26/22 A2981=
201509200200 METAR MRLB 200200Z 11002KT 9999 FEW030 OVC120 25/22 A2982=
201509200300 METAR MRLB NIL=
201509200400 METAR MRLB NIL=
201509200500 METAR MRLB NIL=
201509200600 METAR MRLB NIL=
201509200700 METAR MRLB NIL=
201509200800 METAR MRLB NIL=
201509200900 METAR MRLB NIL=
201509201000 METAR MRLB NIL=
201509201100 METAR MRLB NIL=
201509201200 METAR MRLB 201200Z 30002KT 9999 FEW035 SCT130 BKN250 24/23 A2982=
201509201300 METAR MRLB 201300Z 23002KT 9999 FEW035 OVC250 26/23 A2984=
201509201400 METAR MRLB 201400Z 09004KT CAVOK 29/23 A2985=
201509201500 METAR MRLB 201500Z 29004KT CAVOK 30/23 A2986=
201509201600 METAR MRLB 201600Z 07003KT 9999 FEW030 BKN250 31/22 A2985=
201509201700 METAR MRLB 201700Z 09010KT 9999 FEW035 BKN250 33/21 A2983=
201509201800 METAR MRLB 201800Z 10008KT 9999 SCT035 BKN250 33/21 A2980=
201509201900 METAR MRLB 201900Z 08005KT 9999 SCT035 BKN250 33/21 A2977=
201509202000 METAR MRLB 202000Z 10005KT 9999 FEW035 BKN250 33/20 A2974=
201509202100 METAR MRLB 202100Z 28008KT 9999 SCT035 SCT250 33/23 A2973=
201509202200 METAR MRLB 202200Z 31009KT 9999 FEW025TCU FEW035 SCT250 31/23 A2973=
201509202300 METAR MRLB 202300Z 28008KT 9999 FEW030 SCT250 30/23 A2973=
201509202352 METAR MRLB 210000Z 00000KT 9999 FEW030 BKN240 29/23 A2975=
201509210000 METAR MRLB 210000Z 00000KT 9999 FEW030 BKN240 29/23 A2975=
201509210100 METAR MRLB 210100Z 18003KT 9999 FEW035 28/24 A2977=
201509210200 METAR MRLB 210200Z 15003KT 9999 FEW035 27/24 A2980=
201509210300 METAR MRLB NIL=
201509210400 METAR MRLB NIL=
201509210500 METAR MRLB NIL=
201509210600 METAR MRLB NIL=
201509210700 METAR MRLB NIL=
201509210800 METAR MRLB NIL=
201509210900 METAR MRLB NIL=
201509211000 METAR MRLB NIL=
201509211100 METAR MRLB NIL=
201509211200 METAR MRLB 211200Z 00000KT CAVOK 24/23 A2980=
201509211300 METAR MRLB 211300Z 00000KT CAVOK 27/23 A2981=
201509211400 METAR MRLB 211400Z 00000KT CAVOK 29/23 A2982=
201509211500 METAR MRLB 211500Z 13006KT 9999 FEW040 SCT250 31/22 A2982=
201509211600 METAR MRLB 211600Z 10005KT 9999 SCT035 32/22 A2983=
201509211700 METAR MRLB 211700Z 11007KT 9999 FEW035 SCT250 33/21 A2979=
201509211751 METAR MRLB 21800Z 12005KT 9999 SCT035 34/21 A2977=
201509211800 METAR MRLB COR 211800Z 12005KT 9999 SCT035 34/21 A2977=
201509211900 METAR MRLB 211900Z 11006KT 9999 SCT035 35/20 A2971=
201509212000 METAR MRLB 212000Z 28011KT 9999 SCT025TCU SCT250 32/23 A2968=
201509212100 METAR MRLB 212100Z 27010KT 8000 2000SW RA FEW010CB SCT020 BKN100 31/23 A2968=
201509212200 METAR MRLB 212200Z 12005KT 9999 2500SW -TSRA SCT020CB BKN100 23/21 A2971=
201509212300 METAR MRLB 212300Z 20005KT 9999 SCT030 BKN100 23/22 A2974 RETSRA=
201509212352 METAR MRLB 220000Z 19003KT 9999 SCT025 BKN100 23/22 A2976=
201509220000 METAR MRLB 220000Z 19003KT 9999 SCT025 BKN100 23/22 A2976=
201509220100 METAR MRLB 220100Z 03003KT 9999 SCT030 BKN120 23/22 A2978=
201509220200 METAR MRLB 220200Z 06005KT 9999 FEW030 BKN120 23/22 A2978=
201509220300 METAR MRLB NIL=
201509220400 METAR MRLB NIL=
201509220500 METAR MRLB NIL=
201509220600 METAR MRLB NIL=
201509220700 METAR MRLB NIL=
201509220800 METAR MRLB NIL=
201509220900 METAR MRLB NIL=
201509221000 METAR MRLB NIL=
201509221100 METAR MRLB NIL=
201509221200 METAR MRLB 221200Z 04003KT CAVOK 23/22 A2978=
201509221300 METAR MRLB 221300Z 06003KT 9999 SCT020 BKN250 24/23 A2979=
201509221400 METAR MRLB 221400Z 20003KT 9999 SCT020 BKN250 26/23 A2982=
201509221500 METAR MRLB 221500Z 21004KT 9999 SCT025 BKN250 27/23 A2983=
201509221600 METAR MRLB 221600Z 22003KT 9999 SCT030 BKN250 29/24 A2981=
201509221700 METAR MRLB 221700Z 12005KT 9999 SCT030 BKN250 31/22 A2980=
201509221800 METAR MRLB 221800Z 09005KT 9999 SCT030 SCT250 33/21 A2976=
201509221900 METAR MRLB 221900Z COR 13005KT 9999 -RA BKN030 33/21 A2973=
201509222000 METAR MRLB 222000Z 01013KT 9999 2000N TSRA FEW015CB SCT020 SCT120 26/22 A2973=
201509222100 METAR MRLB 222100Z 23009KT 9999 4000SW -RA VCTS FEW005 SCT020 24/23 A2974=
201509222200 METAR MRLB 222200Z 23003KT 9999 -RA FEW005 OVC120 24/23 A2973=
201509222300 METAR MRLB 222300Z 33002KT 9999 -RA SCT005 BKN120 24/23 A2973=
201509222352 METAR MRLB 230000Z 17002KT 9999 -RA FEW005 OVC120 24/23 A2975=
201509230000 METAR MRLB 230000Z 17002KT 9999 -RA FEW005 OVC120 24/23 A2975=
201509230100 METAR MRLB 230100Z COR 19003KT 9999 -RA FEW005 OVC120 24/23 A2977=
201509230200 METAR MRLB 230200Z 19004KT 9999 FEW010 OVC120 24/23 A2979=
201509230300 METAR MRLB NIL=
201509230400 METAR MRLB NIL=
201509230500 METAR MRLB NIL=
201509230600 METAR MRLB NIL=
201509230700 METAR MRLB NIL=
201509230800 METAR MRLB NIL=
201509230900 METAR MRLB NIL=
201509231000 METAR MRLB NIL=
201509231100 METAR MRLB NIL=
201509231200 METAR MRLB 231200Z 13004KT 9999 -RA SCT020 BKN100 24/23 A2980=
201509231300 METAR MRLB 231300Z 14002KT 9999 FEW020 BKN120 25/23 A2980=
201509231400 METAR MRLB 231400Z 20002KT 9999 FEW020 BKN120 26/23 A2982=
201509231500 METAR MRLB 231500Z 20004KT 9999 FEW020 BKN130 26/23 A2984=
201509231600 METAR MRLB 231600Z 18003KT 9999 FEW025 BKN130 28/23 A2985=
201509231700 METAR MRLB 231700Z 18002KT 9999 FEW025 OVC130 29/22 A2984=
201509231800 METAR MRLB 231800Z 18003KT 9999 VCSH SCT030 BKN130 31/22 A2981=
201509231900 METAR MRLB 231900Z 27012KT 9999 4000N RA BKN020 29/24 A2977=
201509232000 METAR MRLB 232000Z 28010KT 9999 BKN020 28/24 A2976=
201509232008 METAR MRLB 232008Z 03004KT 9999 RA BKN020 26/23 A2977=
201509232100 METAR MRLB 232100Z 04004KT 9999 DZ BKN020 24/23 A2976=
201509232200 METAR MRLB 232200Z 05005KT 9999 FEW020 BKN100 24/23 A2977 REDZ=
201509232300 METAR MRLB 232300Z 05002KT 9999 SCT025 BKN100 24/22 A2978=
201509232351 METAR MRLB 240000Z 24002KT 9999 FEW025 BKN100 24/23 A2980=
201509240000 METAR MRLB 240000Z COR VRB02KT 9999 FEW025 BKN100 24/23 A2980=
201509240100 METAR MRLB 240100Z 20002KT 9999 FEW035 BKN100 24/23 A2982=
201509240154 METAR MRLB 2400200Z 00000KT 9999 FEW035 SCT120 24/23 A2983=
201509240200 METAR MRLB 2400200Z 00000KT 9999 FEW035 SCT120 24/23 A2983=
201509240300 METAR MRLB NIL=
201509240400 METAR MRLB NIL=
201509240500 METAR MRLB NIL=
201509240600 METAR MRLB NIL=
201509240700 METAR MRLB NIL=
201509240800 METAR MRLB NIL=
201509240900 METAR MRLB NIL=
201509241000 METAR MRLB NIL=
201509241100 METAR MRLB NIL=
201509241200 METAR MRLB 241200Z 00000KT 9999 BCFG FEW005 BKN120 24/22 A2982=
201509241300 METAR MRLB 241300Z 03004KT 9999 VCFG FEW010 BKN120 24/22 A2984=
201509241400 METAR MRLB 241400Z 00000KT 9999 FEW030 BKN120 26/22 A2986=
201509241500 METAR MRLB 241500Z 00000KT 9999 FEW045 BKN120 27/23 A2986=
201509241600 METAR MRLB 241600Z 12003KT 9999 FEW030 BKN120 28/22 A2986=
201509241700 METAR MRLB 241700Z 12003KT 9999 SCT030 BKN120 30/21 A2984=
201509241800 METAR MRLB 241800Z 22003KT 9999 SCT030 SCT120 31/22 A2981=
201509241900 METAR MRLB 241900Z 28004KT 9999 SCT030 SCT110 31/22 A2978=
201509242000 METAR MRLB 242000Z 24007KT 9999 -RA FEW015CB SCT025 BKN120 28/23 A2976=
201509242100 METAR MRLB 242100Z 23006KT 9999 SCT020 BKN120 28/24 A2975=
201509242200 METAR MRLB 242200Z 27007KT 9999 SCT020 BKN120 28/22 A2976=
201509242300 METAR MRLB 242300Z 03007KT 9999 VCSH SCT020 BKN100 26/22 A2979=
201509242352 METAR MRLB 250000Z 04005KT 9999 FEW030 BKN120 25/21 A2980=
201509250000 METAR MRLB 250000Z 04005KT 9999 FEW030 BKN120 25/21 A2980=
201509250100 METAR MRLB 250100Z 08004KT 9999 FEW030 BKN120 24/22 A2982=
201509250200 METAR MRLB 250200Z 20003KT 9999 FEW030 BKN120 24/22 A2984=
201509250300 METAR MRLB NIL=
201509250400 METAR MRLB NIL=
201509250500 METAR MRLB NIL=
201509250600 METAR MRLB NIL=
201509250700 METAR MRLB NIL=
201509250800 METAR MRLB NIL=
201509250900 METAR MRLB NIL=
201509251000 METAR MRLB NIL=
201509251100 METAR MRLB NIL=
201509251200 METAR MRLB 251200Z 08003KT 9999 FEW025 SCT250 22/21 A2982=
201509251300 METAR MRLB 251300Z 04003KT 9999 SCT030 SCT250 24/22 A2984=
201509251400 METAR MRLB 251400Z 23003KT 9999 FEW030 SCT250 27/23 A2986=
201509251500 METAR MRLB 251500Z 06003KT 9999 FEW030 SCT250 28/23 A2986=
201509251600 METAR MRLB 251600Z 18003KT 9999 FEW030 BKN250 29/24 A2985=
201509251700 METAR MRLB 251700Z 17003KT 9999 SCT030 BKN250 31/22 A2984=
201509251800 METAR MRLB 251800Z 15003KT 9999 SCT025TCU BKN250 30/22 A2981=
201509251900 METAR MRLB 251900Z 26006KT 9999 -RA FEW020TCU SCT030 BKN200 29/23 A2978=
201509252000 METAR MRLB 252000Z 27009KT 9999 VCSH FEW015TCU SCT030 BKN200 29/24 A2975=
201509252100 METAR MRLB 252100Z 03004KT 9999 4000E RA FEW015CB SCT025 BKN120 25/21 A2976=
201509252200 METAR MRLB 252200Z 32004KT 9999 SCT030 BKN120 25/22 A2976 RERA=
201509252300 METAR MRLB 252300Z 04005KT 9999 FEW030 BKN120 26/23 A2976=
201509252354 METAR MRLB 260000Z 12003KT 9999 FEW025 BKN120 26/23 A2979=
201509260000 METAR MRLB 260000Z 12003KT 9999 FEW025 BKN120 26/23 A2979=
201509260100 METAR MRLB 260100Z 17003KT 9999 SCT025 BKN120 25/23 A2981=
201509260200 METAR MRLB 260200Z 18005KT 9999 SCT030 BKN100 24/22 A2984=
201509260300 METAR MRLB NIL=
201509260400 METAR MRLB NIL=
201509260500 METAR MRLB NIL=
201509260600 METAR MRLB NIL=
201509260700 METAR MRLB NIL=
201509260800 METAR MRLB NIL=
201509260900 METAR MRLB NIL=
201509261000 METAR MRLB NIL=
201509261100 METAR MRLB NIL=
201509261200 METAR MRLB 261200Z 00000KT 9999 FEW005 OVC250 24/23 A2981=
201509261300 METAR MRLB 261300Z 16003KT 9999 FEW005 SCT140 BKN250 24/23 A2983=
201509261400 METAR MRLB 261400Z 00000KT 9999 FEW010 BKN250 27/24 A2984=
201509261500 METAR MRLB 261500Z 27002KT 9999 SCT015 BKN250 28/24 A2984=
201509261600 METAR MRLB 261600Z 00000KT 9999 SCT020 SCT250 31/24 A2984=
201509261700 METAR MRLB 261700Z 14002KT 9999 SCT025 BKN130 30/24 A2983=
201509261800 METAR MRLB 261800Z 25003KT 9999 SCT030 BKN130 31/24 A2980=
201509261900 METAR MRLB 261900Z 33004KT 9999 SCT025 SCT130 32/24 A2977=
201509262000 METAR MRLB 262000Z 18006KT 9999 VCTS VCSH FEW020TCU SCT030 29/24 A2975=
201509262100 METAR MRLB 262100Z 31004KT 9999 FEW025 27/23 A2972=
201509262200 METAR MRLB 262200Z 22006KT 9999 FEW025 29/24 A2973=
201509262300 METAR MRLB 262300Z 25003KT 9999 SCT025 30/24 A2975=
201509262355 METAR MRLB 270000Z 00000KT 9999 VCTS DZ SCT025TCU SCT030 27/24 A2979 RERA=
201509270000 METAR MRLB 270000Z 00000KT 9999 VCTS DZ SCT025TCU SCT030 27/24 A2979 RERA=
201509270100 METAR MRLB 270100Z 02005KT 9999 -TSRA SCT025TCU SCT030 25/23 A2980=
201509270200 METAR MRLB 270200Z 01002KT 9999 VCTS FEW025TCU SCT030 25/23 A2982=
201509270300 METAR MRLB NIL=
201509270400 METAR MRLB NIL=
201509270500 METAR MRLB NIL=
201509270600 METAR MRLB NIL=
201509270700 METAR MRLB NIL=
201509270800 METAR MRLB NIL=
201509270900 METAR MRLB NIL=
201509271000 METAR MRLB NIL=
201509271100 METAR MRLB NIL=
201509271200 METAR MRLB 271200Z 15003KT 9999 FEW040 BKN100 24/23 A2984=
201509271300 METAR MRLB 271300Z 00000KT 9999 VCFG SCT040 BKN200 25/24 A2986=
201509271400 METAR MRLB 271400Z 00000KT 9999 FEW015 OVC200 28/24 A2987=
201509271500 METAR MRLB 271500Z 24003KT 9999 FEW020 BKN200 28/24 A2986=
201509271600 METAR MRLB 271600Z 12004KT 9999 SCT030 BKN220 30/24 A2984=
201509271700 METAR MRLB 271700Z 08004KT 9999 FEW030 BKN220 31/22 A2982=
201509271800 METAR MRLB 271800Z 26003KT 9999 SCT030 BKN220 32/23 A2979=
201509271900 METAR MRLB 271900Z 30009KT 9999 SCT030 SCT220 30/25 A2977=
201509272000 METAR MRLB 272000Z 28008KT 9999 VCSH SCT030 BKN140 30/24 A2974=
201509272100 METAR MRLB 272100Z 22005KT 9999 RA SCT020 SCT120 30/24 A2975=
201509272120 METAR MRLB 272120Z 16005KT 9999 4000S TSRA FEW010CB SCT020 27/23 A2973=
201509272200 METAR MRLB 272200Z 31003KT 9999 -RA VCTS SCT020 BKN120 27/23 A2975=
201509272300 METAR MRLB 272300Z 00000KT 9999 -RA FEW020 BKN120 25/23 A2977=
201509272352 METAR MRLB 280000Z 07005KT 9999 SCT025 SCT120 25/23 A2980=
201509280000 METAR MRLB 280000Z 07005KT 9999 SCT025 SCT120 25/23 A2980=
201509280100 METAR MRLB 280100Z 11003KT 9999 -RA SCT025 SCT120 24/23 A2983=
201509280200 METAR MRLB 280200Z 07006KT 9999 FEW025 BKN120 25/23 A2984=
201509280300 METAR MRLB NIL=
201509280400 METAR MRLB NIL=
201509280500 METAR MRLB NIL=
201509280600 METAR MRLB NIL=
201509280700 METAR MRLB NIL=
201509280800 METAR MRLB NIL=
201509280900 METAR MRLB NIL=
201509281000 METAR MRLB NIL=
201509281100 METAR MRLB NIL=
201509281200 METAR MRLB 281200Z 04003KT 0400 FG VV/// 23/22 A2981=
201509281300 METAR MRLB 281300Z 06004KT 9999 FEW025 BKN120 23/23 A2983=
201509281400 METAR MRLB 281400Z 19005KT 9999 FEW030 BKN120 24/23 A2985=
201509281500 METAR MRLB 281500Z 13004KT 9999 SCT030 BKN130 25/24 A2986=
201509281600 METAR MRLB 281600Z 27003KT 9999 SCT030 BKN200 29/23 A2986=
201509281700 METAR MRLB 281700Z 12003KT 9999 FEW030 BKN200 29/23 A2983=
201509281800 METAR MRLB 281800Z 32003KT 9999 FEW030 BKN200 30/22 A2978=
201509281900 METAR MRLB 281900Z 22004KT 9999 SCT030 BKN250 32/23 A2974=
201509282000 METAR MRLB 282000Z 24004KT 9999 BKN030 SCT250 32/24 A2973=
201509282100 METAR MRLB 282100Z 26006KT 9999 SCT025 SCT250 31/23 A2972=
201509282200 METAR MRLB 282200Z 29009KT 9999 VCSH FEW020TCU FEW025 BKN250 31/24 A2970=
201509282300 METAR MRLB 282300Z 28010KT 9999 VCSH SCT020TCU BKN250 29/24 A2971=
201509282352 METAR MRLB 290000Z 21010KT 9999 4000SW TSRA FEW010CB SCT020TCU 25/21 A2975=
201509290000 METAR MRLB 290000Z 21010KT 9999 4000SW TSRA FEW010CB SCT020TCU 25/21 A2975=
201509290100 METAR MRLB 290100Z COR 16002KT 9999 FEW020 BKN120 24/21 A2977 RETSRA=
201509290200 METAR MRLB 290200Z 00000KT 9999 FEW025 BKN120 25/22 A2980=
201509290300 METAR MRLB NIL=
201509290400 METAR MRLB NIL=
201509290500 METAR MRLB NIL=
201509290600 METAR MRLB NIL=
201509290700 METAR MRLB NIL=
201509290800 METAR MRLB NIL=
201509290900 METAR MRLB NIL=
201509291000 METAR MRLB NIL=
201509291100 METAR MRLB NIL=
201509291200 METAR MRLB 291200Z 08002KT 9999 FEW020 OVC250 24/23 A2978=
201509291300 METAR MRLB 291300Z 02003KT 9999 FEW010 OVC250 26/23 A2979=
201509291400 METAR MRLB 291400Z 24002KT 9999 FEW015 OVC250 28/24 A2981=
201509291500 METAR MRLB 291500Z 21004KT 9999 FEW025 OVC250 29/24 A2981=
201509291600 METAR MRLB 291600Z 22004KT 9999 FEW030 OVC250 30/24 A2982=
201509291700 METAR MRLB 291700Z 17003KT 9999 SCT030 BKN250 31/24 A2980=
201509291800 METAR MRLB 291800Z 27006KT 9999 SCT030 SCT250 32/25 A2976=
201509291900 METAR MRLB 291900Z 29008KT 9999 SCT030 SCT250 32/25 A2975=
201509292000 METAR MRLB 292000Z 30009KT 9999 FEW030 SCT250 32/24 A2972=
201509292100 METAR MRLB 292100Z 28009KT 9999 FEW030 SCT250 32/24 A2970=
201509292200 METAR MRLB 292200Z 27008KT 9999 FEW030 SCT250 31/24 A2969=
201509292300 METAR MRLB 292300Z 28005KT 9999 FEW025 SCT250 30/24 A2970=
201509292354 METAR MRLB 300000Z 26003KT 9999 FEW025 SCT250 29/24 A2974=
201509300000 METAR MRLB 300000Z 26003KT 9999 FEW025 SCT250 29/24 A2974=
201509300100 METAR MRLB 300100Z 24003KT 9999 FEW025 28/24 A2974=
201509300200 METAR MRLB 300200Z 15003KT 9999 FEW030 27/24 A2978=
201509300300 METAR MRLB NIL=
201509300400 METAR MRLB NIL=
201509300500 METAR MRLB NIL=
201509300600 METAR MRLB NIL=
201509300700 METAR MRLB NIL=
201509300800 METAR MRLB NIL=
201509300900 METAR MRLB NIL=
201509301000 METAR MRLB NIL=
201509301100 METAR MRLB NIL=
201509301200 METAR MRLB 301200Z 06002KT CAVOK 23/22 A2979=
201509301300 METAR MRLB 301300Z 25003KT CAVOK 24/23 A2982=
201509301400 METAR MRLB 301400Z 25004KT 9999 FEW025 BKN220 27/24 A2983=
201509301500 METAR MRLB 301500Z 27003KT 9999 FEW030 BKN240 29/23 A2984=
201509301600 METAR MRLB 301600Z 25004KT 9999 FEW030 BKN240 31/22 A2982=
201509301700 METAR MRLB 301700Z 26004KT 9999 FEW030 BKN240 31/22 A2981=
201509301800 METAR MRLB 301800Z 25005KT 9999 FEW030 BKN240 32/22 A2979=
201509301900 METAR MRLB NIL=
201509302000 METAR MRLB 302000Z 30008KT 9999 VCSH FEW020CB SCT030 BKN140 30/23 A2974=
201509302100 METAR MRLB 302100Z 04003KT 9999 VCSH SCT025 BKN120 28/22 A2972=
201509302200 METAR MRLB 302200Z 27004KT 9999 SCT025 BKN120 27/22 A2973=
201509302300 METAR MRLB 302300Z 08003KT 9999 VCSH SCT030 BKN120 27/22 A2975=
201511010000 METAR MRLB 010000Z 12006KT 9999 FEW035 BKN250 28/21 A2983 NOSIG=
201511010100 METAR MRLB 010100Z 13004KT 9999 SCT035 BKN250 27/21 A2986 NOSIG=
201511010200 METAR MRLB 010200Z 16004KT 9999 FEW035 SCT250 26/21 A2990 NOSIG=
201511010300 METAR MRLB NIL=
201511010400 METAR MRLB NIL=
201511010500 METAR MRLB NIL=
201511010600 METAR MRLB NIL=
201511010700 METAR MRLB NIL=
201511010800 METAR MRLB NIL=
201511010900 METAR MRLB NIL=
201511011000 METAR MRLB NIL=
201511011100 METAR MRLB NIL=
201511011200 METAR MRLB 011200Z 00000KT 9999 VCFG BKN035 SCT250 23/22 A2989 NOSIG=
201511011300 METAR MRLB 011300Z 00000KT CAVOK 25/23 A2991 NOSIG=
201511011400 METAR MRLB 011400Z 11004KT 9999 FEW030 OVC250 27/24 A2992 NOSIG=
201511011500 METAR MRLB 011500Z 11003KT 9999 BKN025 SCT250 28/24 A2993 NOSIG=
201511011600 METAR MRLB 011600Z 16003KT 9999 SCT030 BKN250 29/24 A2992 NOSIG=
201511011700 METAR MRLB 011700Z 25003KT 9999 SCT030 SCT250 30/24 A2989 NOSIG=
201511011800 METAR MRLB 011800Z 22003KT 9999 SCT030 SCT250 30/23 A2986 NOSIG=
201511011900 METAR MRLB 011900Z 31007KT 9999 SCT030 SCT250 30/ 23 A2982 NOSIG=
201511012000 METAR MRLB 012000Z 29007KT 9999 RA FEW025TCU SCT030 SCT250 29/24 A2981 NOSIG=
201511012100 METAR MRLB 012100Z 27007KT 9999 FEW025 BKN250 29/24 A2979 NOSIG=
201511012200 METAR MRLB 012200Z 29007KT 9999 FEW025 BKN250 29/24 A2980 NOSIG=
201511012300 METAR MRLB 012300Z 31004KT 9999 FEW030 SCT130 BKN250 28/24 A2981 NOSIG=
201511012353 METAR MRLB 020000Z 36003KT 9999 SCT030 SCT250 27/23 A2983 NOSIG=
201511020000 METAR MRLB 020000Z 36003KT 9999 SCT030 SCT250 27/23 A2983 NOSIG=
201511020100 METAR MRLB 020100Z 16003KT 9999 SCT030 26/24 A2987 NOSIG=
201511020200 METAR MRLB 020200Z COR 14003KT 9999 RA SCT030 25/23 A2990 NOSIG=
201511020300 METAR MRLB NIL=
201511020400 METAR MRLB NIL=
201511020500 METAR MRLB NIL=
201511020600 METAR MRLB NIL=
201511020700 METAR MRLB NIL=
201511020800 METAR MRLB NIL=
201511020900 METAR MRLB NIL=
201511021000 METAR MRLB NIL=
201511021100 METAR MRLB NIL=
201511021200 METAR MRLB 021200Z 00000KT 9999 4000W BCFG FEW001 BKN250 22/21 A2988 NOSIG=
201511021253 METAR MRLB COR021300Z 00000KT 9999 2000W BCFG FEW003 BKN250 23/22 A2989 NOSIG=
201511021300 METAR MRLB 021300Z COR 00000KT 9999 2000W BCFG FEW003 BKN250 23/22 A2989 NOSIG=
201511021400 METAR MRLB 021400Z 36003KT 9999 4000W BCFG SCT003 SCT250 24/23 A2991 BECMG 9999 SCT010=
201511021500 METAR MRLB 021500Z 00000KT 9999 FEW010 BKN240 26/24 A2991 NOSIG=
201511021600 METAR MRLB 021600Z 26003KT 9999 FEW020 BKN240 28/25 A2990 NOSIG=
201511021700 METAR MRLB 021700Z 24004KT 9999 FEW025 BKN240 29/24 A2987 NOSIG=
201511021800 METAR MRLB 021800Z 26004KT 9999 SCT025 BKN250 30/23 A2983 NOSIG=
201511021900 METAR MRLB 021900Z 30009KT 9999 SCT025TCU SCT200 31/23 A2979 NOSIG=
201511022000 METAR MRLB 022000Z 29008KT 9999 VCSH SCT020TCU BKN200 30/23 A2977 TEMPO RA=
201511022100 METAR MRLB 022100Z 25005KT 9999 VCSH SCT025 BKN120 27/23 A2977 RERA NOSIG=
201511022200 METAR MRLB 022200Z 28007KT 9999 FEW030 BKN200 29/24 A2977 NOSIG=
201511022300 METAR MRLB 022300Z 29004KT 9999 SCT030 BKN200 28/23 A2980 NOSIG=
201511022351 METAR MRLB 030000Z 28003KT 9999 SCT030 BKN200 27/23 A2982 NOSIG=
201511030000 METAR MRLB 030000Z 28003KT 9999 SCT030 BKN200 27/23 A2982 NOSIG=
201511030100 METAR MRLB 030100Z 17003KT 9999 FEW030 BKN200 26/23 A2986 NOSIG=
201511030200 METAR MRLB 030200Z 15003KT 9999 FEW030 BKN200 26/23 A2988 NOSIG=
201511030300 METAR MRLB NIL=
201511030400 METAR MRLB NIL=
201511030500 METAR MRLB NIL=
201511030600 METAR MRLB NIL=
201511030700 METAR MRLB NIL=
201511030800 METAR MRLB NIL=
201511030900 METAR MRLB NIL=
201511031000 METAR MRLB NIL=
201511031100 METAR MRLB NIL=
201511031200 METAR MRLB 031200Z 04003KT 9999 FEW025 BKN200 23/22 A2986 NOSIG=
201511031300 METAR MRLB 031300Z 18003KT 9999 FEW030 BKN130 24/22 A2988 NOSIG=
201511031400 METAR MRLB 031400Z 04003KT 9999 FEW030 BKN200 25/23 A2989 NOSIG=
201511031500 METAR MRLB 031500Z 03003KT 9999 FEW030 BKN200 27/24 A2989 NOSIG=
201511031600 METAR MRLB 031600Z 34004KT 9999 FEW030 BKN200 28/24 A2988 NOSIG=
201511031700 METAR MRLB 031700Z 29003KT 9999 SCT030 BKN250 30/23 A2985 NOSIG=
201511031800 METAR MRLB 031800Z 26004KT 9999 SCT030 BKN250 30/23 A2982 NOSIG=
201511031900 METAR MRLB NIL=
201511032000 METAR MRLB 032000Z 29007KT 9999 FEW020TCU SCT030 30/23 A2972 NOSIG=
201511032100 METAR MRLB 032100Z 28006KT 9999 VCSH SCT020TCU SCT250 30/23 A2976 NOSIG=
201511032200 METAR MRLB 032200Z 31004KT 9999 4000NE -TSRA FEW015CB FEW025 SCT120 30/23 A2977 NOSIG=
201511032300 METAR MRLB 032300Z 33003KT 9999 VCSH FEW020TCU SCT030 SCT120 29/23 A2978 RETS NOSIG=
201511032352 METAR MRLB 040000Z 19003KT 9999 SCT020 SCT100 28/24 A2980 NOSIG=
201511040000 METAR MRLB 040000Z 19003KT 9999 SCT020 SCT100 28/24 A2980 NOSIG=
201511040100 METAR MRLB 040100Z 00000KT 9999 FEW020 SCT100 26/23 A2983 NOSIG=
201511040200 METAR MRLB 040200Z 17004KT 9999 FEW020 SCT120 25/22 A2985 NOSIG=
201511040300 METAR MRLB NIL=
201511040400 METAR MRLB NIL=
201511040500 METAR MRLB NIL=
201511040600 METAR MRLB NIL=
201511040700 METAR MRLB NIL=
201511040800 METAR MRLB NIL=
201511040900 METAR MRLB NIL=
201511041000 METAR MRLB NIL=
201511041100 METAR MRLB NIL=
201511041200 METAR MRLB 041200Z 16003KT 9999 BCFG FEW030 OVC250 23/22 A2984 NOSIG=
201511041300 METAR MRLB 041300Z 23005KT 9999 FEW008 OVC250 25/23 A2986 NOSIG=
201511041400 METAR MRLB 041400Z 17002KT 9999 FEW020 OVC250 26/24 A2989 NOSIG=
201511041500 METAR MRLB 041500Z 25003KT 9999 FEW025 OVC250 27/24 A2989 NOSIG=
201511041600 METAR MRLB 041600Z 06002KT 9999 SCT030 BKN250 28/23 A2989 NOSIG=
201511041700 METAR MRLB 041700Z 36003KT 9999 SCT030 BKN250 29/23 A2985 NOSIG=
201511041800 METAR MRLB 041800Z 12003KT 9999 SCT030 SCT250 30/23 A2982 NOSIG=
201511041900 METAR MRLB 041900Z 03003KT 9999 SCT020 SCT250 31/21 A2979 NOSIG=
201511042000 METAR MRLB 042000Z 18002KT 9999 SCT025 SCT250 31/21 A2976 NOSIG=
201511042100 METAR MRLB 042100Z 29008KT 9999 SCT025 SCT250 31/23 A2974 NOSIG=
201511042200 METAR MRLB 042200Z 29008KT 9999 -DZ FEW020TCU SCT025 30/22 A2976 NOSIG=
201511042300 METAR MRLB 042300Z 30004KT 9999 TS FEW015CB FEW020TCU SCT030 28/23 A2978 TEMPO RA=
201511042350 METAR MRLB 050000Z 14004KT 9999 VCST FEW015TCU BKN020 25/21 A2981 NOSIG=
201511042356 METAR MRLB COR 050000Z 14004KT 9999 VCTS FEW015CB BKN020 25/21 A2981 RETS NOSIG=
201511050000 METAR MRLB 050000Z COR 14004KT 9999 VCTS FEW015CB BKN020 25/21 A2981 RETS NOSIG=
201511050100 METAR MRLB 050100Z 22003KT 9999 FEW015 BKN025 23/21 A2985 NOSIG=
201511050200 METAR MRLB 050200Z 00000KT 9999 BKN025 23/21 A2987 NOSIG=
201511050300 METAR MRLB NIL=
201511050400 METAR MRLB NIL=
201511050500 METAR MRLB NIL=
201511050600 METAR MRLB NIL=
201511050700 METAR MRLB NIL=
201511050800 METAR MRLB NIL=
201511050900 METAR MRLB NIL=
201511051000 METAR MRLB NIL=
201511051100 METAR MRLB NIL=
201511051200 METAR MRLB 051200Z 00000KT 9999 BCFG FEW001 SCT250 22/21 A2984 NOSIG=
201511051300 METAR MRLB 051300Z 16002KT 9999 FEW005 SCT060 23/21 A2987 NOSIG=
201511051400 METAR MRLB 051400Z 16002KT 9999 FEW010 SCT080 24/23 A2988 NOSIG=
201511051500 METAR MRLB 051500Z 18002KT 9999 SCT020 27/24 A2990 NOSIG=
201511051600 METAR MRLB 051600Z 16002KT 9999 SCT020 28/24 A2989 NOSIG=
201511051700 METAR MRLB 051700Z 00000KT 9999 VCSH FEW020TCU SCT025 29/24 A2987 BECMG RA=
201511051800 METAR MRLB 051800Z 36007KT 9999 -RA FEW020TCU SCT025 27/21 A2985 NOSIG=
201511051900 METAR MRLB 051900Z 04013KT 8000 RA SCT015 SCT050 25/21 A2983 NOSIG=
201511052000 METAR MRLB 052000Z 06005KT 9999 4000NE VCSH SCT015 BKN080 25/21 A2981 REDZ NOSIG=
201511052100 METAR MRLB 052100Z 35006KT 9999 VCSH SCT020 BKN100 25/22 A2981 NOSIG=
201511052200 METAR MRLB 052200Z 29005KT 9999 SCT025 BKN120 26/23 A2981 NOSIG=
201511052300 METAR MRLB 052300Z 35003KT 9999 VCSH SCT030 BKN100 26/23 A2984 NOSIG=
201511052350 METAR MRLB 060000Z 05004KT 9999 -RA SCT020 BKN100 25/23 A2985 NOSIG=
201511060000 METAR MRLB 060000Z 05004KT 9999 -RA SCT020 BKN100 25/23 A2985 NOSIG=
201511060100 METAR MRLB 060100Z 10004KT 9999 SCT020 BKN100 25/23 A2988 NOSIG=
201511060200 METAR MRLB 060200Z 12003KT 9999 DZ SCT025 BKN100 24/22 A2991 NOSIG=
201511060300 METAR MRLB NIL=
201511060400 METAR MRLB NIL=
201511060500 METAR MRLB NIL=
201511060600 METAR MRLB NIL=
201511060700 METAR MRLB NIL=
201511060800 METAR MRLB NIL=
201511060900 METAR MRLB NIL=
201511061000 METAR MRLB NIL=
201511061100 METAR MRLB NIL=
201511061200 METAR MRLB 061200Z 04003KT 0600 FG VV/// 22/21 A2988 BECMG 9999=
201511061300 METAR MRLB 061300Z 07003KT 3000 BR SCT008 BKN130 23/22 A2991 BECMG 9999=
201511061400 METAR MRLB 061400Z 03003KT 9999 SCT020 BKN200 24/23 A2992 NOSIG=
201511061500 METAR MRLB 061500Z 18003KT 9999 SCT025 SCT250 26/24 A2993 NOSIG=
201511061600 METAR MRLB 061600Z 28003KT 9999 SCT025 BKN250 28/24 A2992 NOSIG=
201511061700 METAR MRLB 061700Z 27003KT 9999 SCT030 BKN250 29/23 A2989 NOSIG=
201511061800 METAR MRLB 061800Z 21003KT 9999 SCT030 BKN250 30/23 A2985 NOSIG=
201511061900 METAR MRLB 061900Z 01002KT 9999 SCT025TCU BKN250 30/23 A2980 NOSIG=
201511062000 METAR MRLB 062000Z 21004KT 9999 BKN030 SCT250 30/23 A2977 NOSIG=
201511062100 METAR MRLB 062100Z 28007KT 9999 VCAH SCT020TCU BKN250 29/23 A2975 NOSIG=
201511062200 METAR MRLB 062200Z 29008KT 9999 VCSH FEW020TCU BKN250 29/23 A2977 NOSIG=
201511062300 METAR MRLB 062300Z 29006KT 9999 FEW020 SCT120 BKN250 28/23 A2979 NOSIG=
201511062352 METAR MRLB 070000Z 30003KT 9999 SCT025 SCT120 27/23 A2981 NOSIG=
201511070000 METAR MRLB 070000Z 30003KT 9999 SCT025 SCT120 27/23 A2981 NOSIG=
201511070100 METAR MRLB 070100Z 00000KT 9999 FEW025 SCT120 27/23 A2982 NOSIG=
201511070200 METAR MRLB 070200Z 15004KT 9999 FEW025 SCT120 25/23 A2985 NOSIG=
201511070300 METAR MRLB NIL=
201511070400 METAR MRLB NIL=
201511070500 METAR MRLB NIL=
201511070600 METAR MRLB NIL=
201511070700 METAR MRLB NIL=
201511070800 METAR MRLB NIL=
201511070900 METAR MRLB NIL=
201511071000 METAR MRLB NIL=
201511071100 METAR MRLB NIL=
201511071200 METAR MRLB 071200Z 06004KT 9999 FEW035 OVC140 23/22 A2984 NOSIG=
201511071300 METAR MRLB 071300Z 15002KT 9999 FEW035 BKN140 25/23 A2985 NOSIG=
201511071400 METAR MRLB 071400Z 02002KT CAVOK 27/24 A2987 NOSIG=
201511071500 METAR MRLB 071500Z 06003KT CAVOK 29/25 A2988 NOSIG=
201511071600 METAR MRLB 071600Z 04003KT 9999 SCT030 BKN250 30/25 A2988 NOSIG=
201511071700 METAR MRLB 071700Z 12007KT 9999 SCT030 BKN250 31/23 A2985 NOSIG=
201511071800 METAR MRLB 071800Z 08008KT 9999 SCT030 BKN250 31/22 A2981 NOSIG=
201511071900 METAR MRLB 071900Z 11008KT 9999 SCT030 BKN250 32/21 A2977 NOSIG=
201511072000 METAR MRLB 072000Z 08009KT 9999 FEW030 SCT250 32/21 A2975 NOSIG=
201511072100 METAR MRLB 072100Z 08009KT 9999 FEW030 SCT250 32/21 A2973 NOSIG=
201511072200 METAR MRLB 072200Z 13005KT 9999 FEW030 SCT250 31/21 A2975 NOSIG=
201511072300 METAR MRLB 072300Z 02004KT 9999 FEW025 SCT250 29/22 A2977 NOSIG=
201511072351 METAR MRLB 080000Z 09004KT 9999 FEW025 SCT250 27/23 A2979 NOSIG=
201511080000 METAR MRLB 080000Z 09004KT 9999 FEW025 SCT250 27/23 A2979 NOSIG=
201511080100 METAR MRLB 080100Z 11005KT 9999 FEW030 27/22 A2983 NOSIG=
201511080200 METAR MRLB 080200Z 13005KT 9999 FEW030 26/22 A2985 NOSIG=
201511080300 METAR MRLB NIL=
201511080400 METAR MRLB NIL=
201511080500 METAR MRLB NIL=
201511080600 METAR MRLB NIL=
201511080700 METAR MRLB NIL=
201511080800 METAR MRLB NIL=
201511080900 METAR MRLB NIL=
201511081000 METAR MRLB NIL=
201511081100 METAR MRLB NIL=
201511081200 METAR MRLB 081200Z 21002KT CAVOK 23/22 A2982 NOSIG=
201511081300 METAR MRLB 081300Z 18003KT CAVOK 24/23 A2984 NOSIG=
201511081400 METAR MRLB 081400Z 14003KT CAVOK 27/24 A2986 NOSIG=
201511081500 METAR MRLB 081500Z 13004KT 9999 FEW030 BKN240 29/24 A2987 NOSIG=
201511081600 METAR MRLB 081600Z 12007KT 9999 FEW030 BKN250 30/22 A2986 NOSIG=
201511081700 METAR MRLB 081700Z 11007KT 9999 SCT030 SCT250 31/22 A2984 NOSIG=
201511081800 METAR MRLB 081800Z 13006KT 9999 BKN030 30/21 A2982 NOSIG=
201511081900 METAR MRLB 081900Z 12006KT 9999 FEW030 SCT250 31/22 A2979 NOSIG=
201511082000 METAR MRLB 082000Z 10003KT 9999 SCT030 SCT250 32/21 A2976 NOSIG=
201511082100 METAR MRLB 082100Z 29009KT 9999 SCT025 BKN250 31/22 A2975 NOSIG=
201511082200 METAR MRLB 082200Z 28009KT 9999 VCSH FEW015TCU SCT025 BKN250 28/22 A2977 NOSIG=
201511082300 METAR MRLB 082300Z 24006KT 9999 SCT025 BKN200 26/22 A2979 NOSIG=
201511082350 METAR MRLB 090000Z 20003KT 9999 SCT030 BKN200 25/22 A2980 NOSIG=
201511090000 METAR MRLB 090000Z 20003KT 9999 SCT030 BKN200 25/22 A2980 NOSIG=
201511090100 METAR MRLB 090100Z 14003KT 9999 -RA SCT025 BKN130 25/23 A2985 NOSIG=
201511090200 METAR MRLB 090200Z 17003KT 9999 SCT030 BKN130 25/23 A2987 NOSIG=
201511090300 METAR MRLB NIL=
201511090400 METAR MRLB NIL=
201511090500 METAR MRLB NIL=
201511090600 METAR MRLB NIL=
201511090700 METAR MRLB NIL=
201511090800 METAR MRLB NIL=
201511090900 METAR MRLB NIL=
201511091000 METAR MRLB NIL=
201511091100 METAR MRLB NIL=
201511091200 METAR MRLB 091200Z 25003KT 9999 FEW030 BKN200 22/21 A2982 NOSIG=
201511091300 METAR MRLB 091300Z 24003KT 1000 BR SCT006 SCT020 23/22 A2985 BECMG 9999=
201511091400 METAR MRLB 091400Z 05003KT 9999 FEW025 SCT250 24/23 A2988 NOSIG=
201511091500 METAR MRLB 091500Z 35003KT 9999 FEW030 SCT250 26/24 A2988 NOSIG=
201511091600 METAR MRLB 091600Z 29003KT 9999 FEW030 BKN250 29/24 A2987 NOSIG=
201511091700 METAR MRLB 091700Z 09006KT 9999 FEW030 SCT250 31/23 A2985 NOSIG=
201511091800 METAR MRLB 091800Z 10007KT 9999 SCT030 BKN250 31/22 A2983 NOSIG=
201511091900 METAR MRLB 091900Z 13007KT 9999 SCT030 BKN250 32/22 A2980 NOSIG=
201511092000 METAR MRLB 092000Z 15004KT 9999 SCT035 BKN250 32/22 A2976 NOSIG=
201511092100 METAR MRLB 092100Z 16004KT 9999 SCT035 BKN250 32/22 A2975 NOSIG=
201511092200 METAR MRLB 092200Z 25006KT 9999 FEW035 OVC250 29/23 A2975 NOSIG=
201511092300 METAR MRLB 092300Z 32003KT 9999 FEW025 BKN030 29/23 A2977 NOSIG=
201511092352 METAR MRLB 100000Z 17002KT 9999 SCT020 BKN030 28/23 A2981 NOSIG=
201511100000 METAR MRLB 100000Z 17002KT 9999 SCT020 BKN030 28/23 A2981 NOSIG=
201511100100 METAR MRLB 100100Z 14002KT 9999 SCT020 SCT030 28/23 A2984 NOSIG=
201511100200 METAR MRLB 100200Z 03003KT 9999 FEW020 SCT030 27/23 A2987 NOSIG=
201511100300 METAR MRLB NIL=
201511100400 METAR MRLB NIL=
201511100500 METAR MRLB NIL=
201511100600 METAR MRLB NIL=
201511100700 METAR MRLB NIL=
201511100800 METAR MRLB NIL=
201511100900 METAR MRLB NIL=
201511101000 METAR MRLB NIL=
201511101100 METAR MRLB NIL=
201511101200 METAR MRLB 101200Z 03002KT 5000 1000SE BR FEW002 OVC120 23/22 A2986 NOSIG=
201511101300 METAR MRLB 101300Z 00000KT 9999 2000W PRFG FEW002 OVC120 23/22 A2989 NOSIG=
201511101400 METAR MRLB 101400Z 08003KT 9999 FEW005 BKN120 26/24 A2990 NOSIG=
201511101500 METAR MRLB 101500Z 18003KT 9999 FEW010 BKN120 27/24 A2991 NOSIG=
201511101600 METAR MRLB 101600Z 20005KT 9999 FEW020TCU SCT030 28/24 A2991 NOSIG=
201511101700 METAR MRLB 101700Z 12007KT 9999 VCSH FEW020TCU BKN120 29/23 A2987 NOSIG=
201511101800 METAR MRLB 101800Z 14006KT 9999 FEW030 BKN120 30/23 A2984 NOSIG=
201511101900 METAR MRLB 101900Z 17006KT 9999 FEW025 SCT100 BKN250 30/23 A2980 NOSIG=
201511102000 METAR MRLB 102000Z 16006KT 9999 FEW020TCU FEW025 SCT100 31/22 A2978 NOSIG=
201511102100 METAR MRLB 102100Z COR 34008KT 9999 VCSH -RA FEW020TCU BKN030 28/20 A2978 NOSIG=
201511102200 METAR MRLB 102200Z 02004KT 9999 -RA VCSH FEW020TCU BKN025 26/23 A2978 NOSIG=
201511102300 METAR MRLB 102300Z 16007KT 9999 -RA VCSH FEW010 FEW020TCU SCT025 BKN100 25/23 A2981 TEMPO RA=
201511102350 METAR MRLB 110000Z 16003KT 9999 FEW010 BKN025 23/21 A2984 NOSIG=
201511110000 METAR MRLB 110000Z 16003KT 9999 FEW010 BKN025 23/21 A2984 NOSIG=
201511110100 METAR MRLB 110100Z 00000KT 9999 BKN030 23/21 A2986 NOSIG=
201511110200 METAR MRLB 110200Z 06003KT 9999 BKN030 23/22 A2986 NOSIG=
201511110300 METAR MRLB NIL=
201511110400 METAR MRLB NIL=
201511110500 METAR MRLB NIL=
201511110600 METAR MRLB NIL=
201511110700 METAR MRLB NIL=
201511110800 METAR MRLB NIL=
201511110900 METAR MRLB NIL=
201511111000 METAR MRLB NIL=
201511111100 METAR MRLB NIL=
201511111200 METAR MRLB 111200Z 18002KT 9999 BCFG VCFG FEW001 BKN100 23/22 A2983 NOSIG=
201511111300 METAR MRLB 111300Z 00000KT 9999 BCFG FEW005 BKN110 24/23 A2983 NOSIG=
201511111400 METAR MRLB 111400Z VRB03KT 9999 FEW015 BKN110 25/23 A2984 NOSIG=
201511111500 METAR MRLB 111500Z 00000KT 9999 FEW020 BKN120 26/24 A2985 NOSIG=
201511111600 METAR MRLB 111600Z 00000KT 9999 FEW025 SCT120 28/24 A2986 NOSIG=
201511111654 METAR MRLB 11700Z 02002KT 9999 SCT025 SCT120 29/24 A2984 NOSIG=
201511111700 METAR MRLB 11700Z 02002KT 9999 SCT025 SCT120 29/24 A2984 NOSIG=
201511111800 METAR MRLB 111800Z 12005KT 9999 BKN025 29/23 A2980 NOSIG=
201511111900 METAR MRLB 111900Z 09004KT 9999 SCT025TCU SCT220 30/23 A2977 NOSIG=
201511112000 METAR MRLB 112000Z 12005KT 9999 SCT025TCU SCT250 30/22 A2975 NOSIG=
201511112100 METAR MRLB 112100Z 26008KT 9999 VCSH SCT030TCU BKN200 29/22 A2974 NOSIG=
201511112200 METAR MRLB 112200Z 25007KT 9999 2500NE RA FEW010TCU SCT020 BKN200 28/23 A2975 NOSIG=
201511112300 METAR MRLB 112300Z 05003KT 9999 DZ SCT025 BKN120 26/22 A2978 NOSIG=
201511112351 METAR MRLB 120000Z 13003KT 9999 SCT025 BKN120 25/22 A2979 REDZ NOSIG=
201511120000 METAR MRLB 120000Z 13003KT 9999 SCT025 BKN120 25/22 A2979 REDZ NOSIG=
201511120100 METAR MRLB 120100Z 03003KT 9999 SCT025 BKN130 25/22 A2982 NOSIG=
201511120200 METAR MRLB 120200Z 10004KT 9999 SCT030 BKN130 25/23 A2984 NOSIG=
201511120300 METAR MRLB NIL=
201511120400 METAR MRLB NIL=
201511120500 METAR MRLB NIL=
201511120600 METAR MRLB NIL=
201511120700 METAR MRLB NIL=
201511120800 METAR MRLB NIL=
201511120900 METAR MRLB NIL=
201511121000 METAR MRLB NIL=
201511121100 METAR MRLB NIL=
201511121200 METAR MRLB 121200Z 15003KT 1000 BR SCT004 SCT020 23/22 A2983 NOSIG=
201511121300 METAR MRLB 121300Z 19003KT 9999 VCFG SCT010 SCT250 24/22 A2985 NOSIG=
201511121400 METAR MRLB 121400Z 16003KT 9999 FEW030 SCT250 26/24 A2987 NOSIG=
201511121500 METAR MRLB 121500Z 13003KT 9999 FEW030 SCT250 27/24 A2988 NOSIG=
201511121600 METAR MRLB 121600Z 27003KT 9999 FEW030 SCT250 28/23 A2987 NOSIG=
201511121700 METAR MRLB 121700Z 05003KT 9999 SCT030 SCT250 29/23 A2986 NOSIG=
201511121800 METAR MRLB 121800Z 15003KT 9999 SCT025 BKN250 30/23 A2983 NOSIG=
201511121900 METAR MRLB 121900Z 17003KT 9999 SCT025TCU SCT250 31/22 A2979 NOSIG=
201511122000 METAR MRLB 122000Z 23006KT 9999 FEW025TCU SCT030 SCT130 31/23 A2976 NOSIG=
201511122100 METAR MRLB 122100Z 29009KT 9999 VCSH SCT020TCU BKN130 29/23 A2975 NOSIG=
201511122200 METAR MRLB 122200Z 29008KT 9999 FEW025 BKN130 29/23 A2975 NOSIG=
201511122300 METAR MRLB 122300Z 27006KT 9999 FEW030 BKN130 28/23 A2975 NOSIG=
201511122352 METAR MRLB 130000Z 28002KT 9999 FEW030 SCT250 27/23 A2976 NOSIG=
201511130000 METAR MRLB 130000Z 28002KT 9999 FEW030 SCT250 27/23 A2976 NOSIG=
201511130100 METAR MRLB 130100Z 00000KT CAVOK 26/23 A2978 NOSIG=
201511130200 METAR MRLB 130200Z 18003KT 9999 FEW030 SCT250 26/23 A2981 NOSIG=
201511130300 METAR MRLB NIL=
201511130400 METAR MRLB NIL=
201511130500 METAR MRLB NIL=
201511130600 METAR MRLB NIL=
201511130700 METAR MRLB NIL=
201511130800 METAR MRLB NIL=
201511130900 METAR MRLB NIL=
201511131000 METAR MRLB NIL=
201511131100 METAR MRLB NIL=
201511131200 METAR MRLB 131200Z 00000KT 9999 BCFG FEW010 BKN250 23/22 A2977 NOSIG=
201511131300 METAR MRLB 131300Z 00000KT 9999 BCFG FEW005 SCT250 24/23 A2979 NOSIG=
201511131400 METAR MRLB 131400Z 00000KT 9999 FEW010 SCT250 26/24 A2980 NOSIG=
201511131500 METAR MRLB 131500Z 23003KT 9999 FEW020 27/24 A2982 NOSIG=
201511131600 METAR MRLB 131600Z 33003KT 9999 SCT025 29/24 A2982 NOSIG=
201511131700 METAR MRLB 131700Z 32003KT 9999 SCT030 SCT100 30/24 A2980 NOSIG=
201511131800 METAR MRLB 131800Z 22003KT 9999 BKN030 31/24 A2977 NOSIG=
201511131900 METAR MRLB 131900Z 16003KT 9999 SCT030 SCT250 32/23 A2973 NOSIG=
201511132000 METAR MRLB 132000Z 31006KT 9999 FEW030 SCT250 32/24 A2970 NOSIG=
201511132100 METAR MRLB 132100Z 28007KT 9999 SCT030 SCT250 31/24 A2969 NOSIG=
201511132200 METAR MRLB 132200Z 29008KT 9999 VCSH FEW020TCU FEW030 30/24 A2970=
201511132300 METAR MRLB 132300Z 27004KT 9999 VCSH FEW020TCU SCT030 29/23 A2971 NOSIG=
201511132350 METAR MRLB 140000Z 20006KT 9999 VCSH FEW020TCU FEW030 BKN100 25/22 A2974 NOSIG=
201511140000 METAR MRLB 140000Z 20006KT 9999 VCSH FEW020TCU FEW030 BKN100 25/22 A2974 NOSIG=
201511140100 METAR MRLB 140100Z 19003KT 9999 FEW030 BKN100 24/22 A2976 NOSIG=
201511140200 METAR MRLB 140200Z VRB02KT 9999 FEW030 BKN100 25/23 A2980 NOSIG=
201511140300 METAR MRLB NIL=
201511140400 METAR MRLB NIL=
201511140500 METAR MRLB NIL=
201511140600 METAR MRLB NIL=
201511140700 METAR MRLB NIL=
201511140800 METAR MRLB NIL=
201511140900 METAR MRLB NIL=
201511141000 METAR MRLB NIL=
201511141100 METAR MRLB NIL=
201511141200 METAR MRLB 141200Z 00000KT 9999 BCFG FEW001 SCT250 23/22 A2977 NOSIG=
201511141300 METAR MRLB 141300Z 06002KT 9999 BCFG FEW002 SCT250 25/23 A2978 NOSIG=
201511141400 METAR MRLB 141400Z 21003KT CAVOK 26/24 A2981 NOSIG=
201511141500 METAR MRLB 141500Z 01002KT 9999 FEW030 SCT250 28/25 A2982 NOSIG=
201511141600 METAR MRLB 141600Z 30004KT 9999 FEW030 SCT250 30/24 A2980 NOSIG=
201511141700 METAR MRLB 141700Z 32006KT 9999 FEW030 SCT250 30/24 A2979 NOSIG=
201511141800 METAR MRLB 141800Z 29008KT 9999 FEW025TCU FEW030 SCT250 32/24 A2977 NOSIG=
201511141830 METAR MRLB 141830Z 33005KT 9999 -RA FEW020TCU FEW030 SCT120 27/22 A2976 NOSIG=
201511141900 METAR MRLB 141900Z 32003KT 9999 SCT025 SCT250 28/24 A2975 NOSIG=
201511142000 METAR MRLB 142000Z 27003KT 9999 SCT030 BKN250 31/24 A2972 NOSIG=
201511142100 METAR MRLB 142100Z 34005KT 9999 SCT030 BKN200 31/24 A2971 NOSIG=
201511142200 METAR MRLB 142200Z 10007KT 9999 SCT030 BKN200 30/22 A2969 NOSIG=
201511142300 METAR MRLB 142300Z 12008KT 9999 SCT030 BKN200 29/21 A2971 NOSIG=
201511142352 METAR MRLB 150000Z 10006KT 9999 FEW030 BKN200 27/20 A2973 NOSIG=
201511150000 METAR MRLB 150000Z 10006KT 9999 FEW030 BKN200 27/20 A2973 NOSIG=
201511150100 METAR MRLB 150100Z 12003KT 9999 SCT030 BKN200 27/21 A2978 NOSIG=
201511150200 METAR MRLB 150200Z 15005KT 9999 SCT035 BKN200 26/20 A2980 NOSIG=
201511150300 METAR MRLB NIL=
201511150400 METAR MRLB NIL=
201511150500 METAR MRLB NIL=
201511150600 METAR MRLB NIL=
201511150700 METAR MRLB NIL=
201511150800 METAR MRLB NIL=
201511150900 METAR MRLB NIL=
201511151000 METAR MRLB NIL=
201511151100 METAR MRLB NIL=
201511151200 METAR MRLB 151200Z 34002KT CAVOK 22/21 A2979 NOSIG=
201511151300 METAR MRLB 151300Z 01003KT CAVOK 23/22 A2981 NOSIG=
201511151400 METAR MRLB 151400Z 22002KT CAVOK 26/24 A2982 NOSIG=
201511151500 METAR MRLB 151500Z 20003KT CAVOK 28/25 A2982 NOSIG=
201511151600 METAR MRLB 151600Z 12009KT 9999 FEW030 BKN250 30/24 A2981 NOSIG=
201511151700 METAR MRLB 151700Z 10008KT 9999 FEW035 BKN250 31/22 A2980 NOSIG=
201511151800 METAR MRLB 151800Z 11008KT 9999 FEW035 BKN250 32/23 A2978 NOSIG=
201511151900 METAR MRLB 151900Z 12008KT 9999 SCT035 SCT250 32/22 A2974 NOSIG=
201511152000 METAR MRLB 152000Z COR 12010KT 9999 RA BKN030 SCT250 31/22 A2972 NOSIG=
201511152100 METAR MRLB 152100Z 04011KT 9999 RA SCT025 SCT120 29/22 A2973 NOSIG=
201511152200 METAR MRLB 152200Z COR 17005KT 9999 VCSH FEW020TCU SCT030 SCT120 30/24 A2971 RERA NOSIG=
201511152300 METAR MRLB 152300Z 23007KT 9999 BKN030 SCT120 28/23 A2973 NOSIG=
201511152352 METAR MRLB 160000Z 21006KT 9999 BKN030 SCT120 27/23 A2975 NOSIG=
201511160000 METAR MRLB 160000Z 21006KT 9999 BKN030 SCT120 27/23 A2975 NOSIG=
201511160100 METAR MRLB 160100Z 21005KT 9999 BKN030 26/23 A2978 NOSIG=
201511160200 METAR MRLB 160200Z 00000KT 9999 BKN030 26/23 A2980 NOSIG=
201511160300 METAR MRLB NIL=
201511160400 METAR MRLB NIL=
201511160500 METAR MRLB NIL=
201511160600 METAR MRLB NIL=
201511160700 METAR MRLB NIL=
201511160800 METAR MRLB NIL=
201511160900 METAR MRLB NIL=
201511161000 METAR MRLB NIL=
201511161100 METAR MRLB NIL=
201511161200 METAR MRLB 161200Z 19003KT 9999 FEW035 OVC120 23/22 A2976 NOSIG=
201511161300 METAR MRLB 161300Z 22002KT 9999 FEW035 SCT120 BKN250 24/23 A2977 NOSIG=
201511161400 METAR MRLB 161400Z 20003KT 9999 FEW035 OVC250 26/24 A2981 NOSIG=
201511161500 METAR MRLB 161500Z 10003KT 9999 FEW035 OVC250 28/24 A2982 NOSIG=
201511161600 METAR MRLB 161600Z 08004KT 9999 FEW035 OVC250 29/24 A2981 NOSIG=
201511161700 METAR MRLB 161700Z 13002KT 9999 SCT030 SCT250 30/23 A2979 NOSIG=
201511161800 METAR MRLB 161800Z 31003KT 9999 BKN025 SCT250 31/24 A2976 NOSIG=
201511161900 METAR MRLB 161900Z 32004KT 9999 SCT025 SCT250 31/24 A2972 NOSIG=
201511161938 METAR MRLB 161938Z 30005KT 9999 RA FEW020TCU SCT025 SCT250 30/23 A2970 NOSIG=
201511162000 METAR MRLB 162000Z 26007KT 9999 RA VCSH SCT020TCU SCT030 28/23 A2970 NOSIG=
201511162100 METAR MRLB 162100Z 27005KT 9999 RA SCT020TCU BKN030 27/24 A2970 NOSIG=
201511162200 METAR MRLB 162200Z 21003KT 9999 RA FEW010 FEW020TCU BKN030 27/24 A2971 NOSIG=
201511162300 METAR MRLB 162300Z 22004KT 9999 3000W RA FEW010 FEW020TCU SCT030 BKN080 25/23 A2973 NOSIG=
201511162354 METAR MRLB 170000Z 21002KT 9999 FEW010 FEW020TCU BKN080 25/23 A2974 RERA NOSIG=
201511170000 METAR MRLB 170000Z 21002KT 9999 FEW010 FEW020TCU BKN080 25/23 A2974 RERA NOSIG=
201511170100 METAR MRLB 170100Z 09004KT 9999 DZ VCSH FEW005 FEW020TCU BKN040 25/24 A2977 BECMG RA=
201511170200 METAR MRLB 170200Z 06003KT 9999 -RA FEW005 SCT020TCU BKN030 24/23 A2979 NOSIG=
201511170300 METAR MRLB NIL=
201511170400 METAR MRLB NIL=
201511170500 METAR MRLB NIL=
201511170600 METAR MRLB NIL=
201511170700 METAR MRLB NIL=
201511170800 METAR MRLB NIL=
201511170900 METAR MRLB NIL=
201511171000 METAR MRLB NIL=
201511171100 METAR MRLB NIL=
201511171200 METAR MRLB 171200Z 10004KT 9999 FEW010 BKN100 21/20 A2975 NOSIG=
201511171300 METAR MRLB 171300Z 11004KT 9999 FEW010 SCT100 24/23 A2975 NOSIG=
201511171400 METAR MRLB 171400Z 09002KT 9999 FEW020 BKN200 27/24 A2975 NOSIG=
201511171500 METAR MRLB 171500Z 19003KT 9999 FEW025 BKN120 28/24 A2975 NOSIG=
201511171600 METAR MRLB 171600Z 28005KT 9999 BKN025 28/24 A2975 NOSIG=
201511171700 METAR MRLB 171700Z 25004KT 9999 FEW020TCU SCT025 SCT240 28/23 A2975 NOSIG=
201511171800 METAR MRLB 171800Z 26004KT 9999 FEW020TCU SCT025 28/24 A2973 NOSIG=
201511171900 METAR MRLB 171900Z 30004KT 9999 FEW020TCU SCT035 BKN100 29/23 A2970 NOSIG=
201511172000 METAR MRLB 172000Z 31006KT 9999 VCSH FEW015 SCT025 BKN120 29/23 A2969 NOSIG=
201511172100 METAR MRLB 172100Z 04007KT 9999 3000E RA FEW010 SCT020 BKN100 27/22 A2969 NOSIG=
201511172200 METAR MRLB 172200Z 03008KT 8000 2000E RA FEW010 SCT015 BKN100 26/23 A2980 NOSIG=
201511172300 METAR MRLB 172300Z 15003KT 9999 -RA FEW010 SCT020 BKN120 24/22 A2973 NOSIG=
201511172351 METAR MRLB 180000Z 09005KT 9999 SCT020 BKN120 24/22 A2973 NOSIG=
201511180000 METAR MRLB 180000Z 09005KT 9999 SCT020 BKN120 24/22 A2973 NOSIG=
201511180100 METAR MRLB 180100Z 15004KT 9999 SCT025 BKN130 23/22 A2975 NOSIG=
201511180200 METAR MRLB 180200Z 15004KT 9999 SCT025 BKN140 23/22 A2978 NOSIG=
201511180300 METAR MRLB NIL=
201511180400 METAR MRLB NIL=
201511180500 METAR MRLB NIL=
201511180600 METAR MRLB NIL=
201511180700 METAR MRLB NIL=
201511180800 METAR MRLB NIL=
201511180900 METAR MRLB NIL=
201511181000 METAR MRLB NIL=
201511181100 METAR MRLB NIL=
201511181200 METAR MRLB 181200Z 05003KT CAVOK 22/21 A2977 NOSIG=
201511181300 METAR MRLB 181300Z 05004KT CAVOK 23/22 A2979 NOSIG=
201511181400 METAR MRLB 181400Z 12003KT 9999 FEW030 SCT250 25/23 A2981 NOSIG=
201511181500 METAR MRLB 181500Z 19003KT 9999 FEW030 SCT250 27/24 A2981 NOSIG=
201511181600 METAR MRLB 181600Z 18003KT 9999 SCT030 SCT250 28/24 A2980 NOSIG=
201511181700 METAR MRLB 181700Z 30003KT 9999 SCT030 SCT250 29/23 A2976 NOSIG=
201511181800 METAR MRLB 181800Z 22003KT 9999 SCT030 SCT250 30/23 A2974 NOSIG=
201511181900 METAR MRLB 181900Z 29006KT 9999 SCT030 SCT250 30/24 A2971 NOSIG=
201511182000 METAR MRLB 182000Z 29006KT 9999 SCT030 BKN250 30/23 A2968 NOSIG=
201511182100 METAR MRLB 182100Z 29009KT 9999 SCT030 SCT250 30/23 A2968 NOSIG=
201511182200 METAR MRLB 182200Z 29008KT 9999 VCSH FEW020TCU BKN120 29/23 A2969 NOSIG=
201511182300 METAR MRLB 182300Z 35003KT 9999 VCSH SCT010 BKN030 28/23 A2973 NOSIG=
201511182355 METAR MRLB 190000Z 15004KT 5000 RA SCT010 BKN020 25/22 A2976 NOSIG=
201511190000 METAR MRLB 190000Z 15004KT 5000 RA SCT010 BKN020 25/22 A2976 NOSIG=
201511190020 METAR MRLB 190020Z COR 22004KT 9999 -RA SCT020 SCT120 24/22 A2977 RERA NOSIG=
201511190100 METAR MRLB 190100Z 19002KT 9999 -RA FEW020 SCT120 24/22 A2978 NOSIG=
201511190200 METAR MRLB 190200Z 11002KT 9999 FEW020 SCT120 24/22 A2980 NOSIG=
201511190300 METAR MRLB NIL=
201511190400 METAR MRLB NIL=
201511190500 METAR MRLB NIL=
201511190600 METAR MRLB NIL=
201511190700 METAR MRLB NIL=
201511190800 METAR MRLB NIL=
201511190900 METAR MRLB NIL=
201511191000 METAR MRLB NIL=
201511191100 METAR MRLB NIL=
201511191200 METAR MRLB 191200Z 00000KT 9999 VCFG FEW035 BKN120 23/22 A2980 NOSIG=
201511191300 METAR MRLB 191300Z 00000KT 9999 FEW005 SCT120 BKN250 24/23 A2983 NOSIG=
201511191400 METAR MRLB 191400Z 00000KT 9999 FEW010 SCT120 BKN250 26/24 A2984 NOSIG=
201511191500 METAR MRLB 191500Z 36002KT 9999 FEW020 BKN250 27/25 A2984 NOSIG=
201511191600 METAR MRLB 191600Z 00000KT 9999 SCT020 SCT250 29/25 A2984 NOSIG=
201511191700 METAR MRLB 191700Z 21002KT 9999 SCT025 BKN250 29/24 A2981 NOSIG=
201511191800 METAR MRLB 191800Z 2003KT 9999 VCSH FEW020TCU SCT025 SCT250 31/24 A2978 NOSIG=
201511191900 METAR MRLB 191900Z 26005KT VCSH FEW020TCU SCT025 SCT250 29/23 A2974 NOSIG=
201511192000 METAR MRLB 192000Z 29007KT 9999 VCSH FEW020TCU FEW030 SCT250 30/23 A2972 NOSIG=
201511192100 METAR MRLB 192100Z 30007KT 9999 FEW020TCU FEW030 SCT250 29/23 A2971 NOSIG=
201511192200 METAR MRLB 192200Z 31006KT 9999 FEW020TCU FEW030 SCT250 30/23 A2970 NOSIG=
201511192300 METAR MRLB 192300Z 19004KT 9999 VCSH FEW010 FEW020TCU SCT250 28/23 A2973 NOSIG=
201511192352 METAR MRLB 200000Z 12004KT 9999 VCSH FEW010 FEW020TCU SCT025 26/23 A2976 NOSIG=
201511200000 METAR MRLB 200000Z 12004KT 9999 VCSH FEW010 FEW020TCU SCT025 26/23 A2976 NOSIG=
201511200100 METAR MRLB 200100Z 16005KT 9999 FEW020TCU SCT030 25/23 A2980 NOSIG=
201511200200 METAR MRLB 200200Z 18003KT 9999 VCTS FEW005 FEW020TCU BKN025 25/23 A2982 NOSIG=
201511200300 METAR MRLB NIL=
201511200400 METAR MRLB NIL=
201511200500 METAR MRLB NIL=
201511200600 METAR MRLB NIL=
201511200700 METAR MRLB NIL=
201511200800 METAR MRLB NIL=
201511200900 METAR MRLB NIL=
201511201000 METAR MRLB NIL=
201511201100 METAR MRLB NIL=
201511201200 METAR MRLB 201200Z 12002KT 9999 BCFG FEW001 OVC220 24/23 A2978 NOSIG=
201511201300 METAR MRLB 201300Z 14003KT 9999 BCFG FEW001 BKN200 25/24 A2979 NOSIG=
201511201400 METAR MRLB 201400Z 15005KT 9999 FEW020 BKN220 26/24 A2981 NOSIG=
201511201500 METAR MRLB 201500Z 20005KT 9999 SCT020 SCT240 28/25 A2983 NOSIG=
201511201600 METAR MRLB 201600Z 20004KT 9999 SCT025 29/24 A2981 NOSIG=
201511201700 METAR MRLB 201700Z 00000KT 9999 FEW020TCU SCT025 30/24 A2980 NOSIG=
201511201800 METAR MRLB 201800Z COR 27004KT 9999 VCSH FEW015CB FEW020TCU SCT025 30/24 A2976 BECMG RA=
201511201900 METAR MRLB 201900Z 18004KT 9999 4000S RA VCSH FEW015 BKN060 24/21 A2974 NOSIG=
201511202000 METAR MRLB 202000Z 31004KT 9999 -RA SCT020 BKN100 24/22 A2970 RERA NOSIG=
201511202100 METAR MRLB 202100Z 35003KT 9999 FEW025 BKN100 25/24 A2971 NOSIG=
201511202200 METAR MRLB 202200Z 15003KT 9999 SCT020 BKN100 26/24 A2971 NOSIG=
201511202300 METAR MRLB 202300Z 16004KT 9999 SCT020 BKN100 25/24 A2972 NOSIG=
201511202350 METAR MRLB 210000Z 18005KT 9999 SCT025 BKN120 25/23 A2973 NOSIG=
201511210000 METAR MRLB 210000Z 18005KT 9999 SCT025 BKN120 25/23 A2973 NOSIG=
201511210100 METAR MRLB 210100Z 23003KT 9999 SCT030 BKN120 24/23 A2977 NOSIG=
201511210200 METAR MRLB 210200Z 14003KT 9999 SCT030 BKN120 24/23 A2978 NOSIG=
201511210300 METAR MRLB NIL=
201511210400 METAR MRLB NIL=
201511210500 METAR MRLB NIL=
201511210600 METAR MRLB NIL=
201511210700 METAR MRLB NIL=
201511210800 METAR MRLB NIL=
201511210900 METAR MRLB NIL=
201511211000 METAR MRLB NIL=
201511211100 METAR MRLB NIL=
201511211200 METAR MRLB 211200Z 05004KT 0300 FG VV/// 23/23 A2977 NOSIG=
201511211300 METAR MRLB 211300Z 03003KT 9999 VCFG SCT010 SCT200 24/23 A2979 NOSIG=
201511211400 METAR MRLB 211400Z 18003KT 9999 SCT020 SCT250 25/24 A2982 NOSIG=
201511211500 METAR MRLB 211500Z 19003KT 9999 FEW030 BKN200 26/24 A2983 NOSIG=
201511211600 METAR MRLB 211600Z 30003KT 9999 SCT030 BKN200 28/24 A2981 NOSIG=
201511211700 METAR MRLB 211700Z 32003KT 9999 SCT030 BKN200 29/24 A2979 NOSIG=
201511211800 METAR MRLB 211800Z 12004KT 9999 SCT025 BKN200 30/24 A2976 NOSIG=
201511211900 METAR MRLB 211900Z 10005KT 9999 SCT030 BKN250 31/23 A2973 NOSIG=
201511212000 METAR MRLB 212000Z 00000KT 9999 VCSH FEW020TCU SCT025 BKN120 32/24 A2970 NOSIG=
201511212100 METAR MRLB 212100Z 21010KT 9999 2000W TSRA FEW010CB BKN020 26/24 A2971 NOSIG=
201511212200 METAR MRLB 212200Z 31005KT 9999 RA FEW005 SCT020 BKN100 24/23 A2973 NOSIG=
201511212300 METAR MRLB 212300Z 03003KT 9999 -RA SCT020 BKN100 24/22 A2974 RERA NOSIG=
201511212354 METAR MRLB 220000Z 05005KT 9999 -RA SCT020 BKN100 24/23 A2976 NOSIG=
201511220000 METAR MRLB 220000Z 05005KT 9999 -RA SCT020 BKN100 24/23 A2976 NOSIG=
201511220100 METAR MRLB 220100Z 04004KT 9999 FEW020 BKN120 22/20 A2978 NOSIG=
201511220200 METAR MRLB 220200Z 03003KT 9999 FEW020 BKN120 24/23 A2981 NOSIG=
201511220300 METAR MRLB NIL=
201511220400 METAR MRLB NIL=
201511220500 METAR MRLB NIL=
201511220600 METAR MRLB NIL=
201511220700 METAR MRLB NIL=
201511220800 METAR MRLB NIL=
201511220900 METAR MRLB NIL=
201511221000 METAR MRLB NIL=
201511221100 METAR MRLB NIL=
201511221200 METAR MRLB 221200Z 20002KT 0200 FG VV/// 23/22 A2975 NOSIG=
201511221300 METAR MRLB 221300Z COR 19004KT 0500 FG VV/// 23/22 A2979 NOSIG=
201511221400 METAR MRLB 221400Z 00000KT 9999 SCT008 SCT130 24/23 A2982 NOSIG=
201511221500 METAR MRLB 221500Z 000000KT 9999 FEW020 25/24 A2983 NOSIG=
201511221600 METAR MRLB 221600Z 22003KT 9999 FEW025 BKN140 28/25 A2984 NOSIG=
201511221700 METAR MRLB 221700Z 17003KT 9999 SCT030 SCT120 29/25 A2982 NOSIG=
201511221800 METAR MRLB 221800Z 11007KT 9999 RA FEW020TCU SCT025 SCT120 30/25 A2980 NOSIG=
201511221900 METAR MRLB 221900Z 12005KT 9999 4000SW RA SCT020 BKN120 26/22 A2978 NOSIG=
201511222000 METAR MRLB 222000Z 19004KT 9999 VCSH SCT025 BKN100 27/24 A2976 NOSIG=
201511222100 METAR MRLB 222100Z 17006KT 9999 FEW015 SCT050 BKN100 27/23 A2975 NOSIG=
201511222200 METAR MRLB 222200Z 12007KT DZ VCSH FEW050 BKN100 25/21 A2975 BECMG RA=
201511222300 METAR MRLB 222300Z OCR 07002KT 9999 FEW040 BKN100 25/22 A2976 NOSIG=
201511222351 METAR MRLB 230000Z 00000KT CAVOK 25/22 A2978 NOSIG=
201511230000 METAR MRLB 230000Z 00000KT CAVOK 25/22 A2978 NOSIG=
201511230100 METAR MRLB 230100Z 26004KT CAVOK 24/22 A2980 NOSIG=
201511230200 METAR MRLB 230200Z 22003KT CAVOK 23/22 A2982 NOSIG=
201511230300 METAR MRLB NIL=
201511230400 METAR MRLB NIL=
201511230500 METAR MRLB NIL=
201511230600 METAR MRLB NIL=
201511230700 METAR MRLB NIL=
201511230800 METAR MRLB NIL=
201511230900 METAR MRLB NIL=
201511231000 METAR MRLB NIL=
201511231100 METAR MRLB NIL=
201511231200 METAR MRLB 231200Z COR 10002KT 0100 FG VV/// 22/21 A2982 BECMG 9999=
201511231300 METAR MRLB 231300Z 00000KT 1000 FG SCT001 23/22 A2984 BECMG 9999 SCT010=
201511231400 METAR MRLB 231400Z 35002KT 9999 FEW020 24/23 A2986 NOSIG=
201511231500 METAR MRLB 231500Z 00000KT 9999 FEW020 27/24 A2986 NOSIG=
201511231600 METAR MRLB 231600Z 27002KT 9999 FEW020 SCT120 29/24 A2986 NOSIG=
201511231700 METAR MRLB 231700Z COR 10014G25KT 9999 FEW025 30/22 A2981 NOSIG=
201511231800 METAR MRLB 231800Z 10012KT 9999 FEW025 30/21 A2979 NOSIG=
201511231900 METAR MRLB 231900Z 10014G24KT CAVOK 30/20 A2975 NOSIG=
201511232000 METAR MRLB 232000Z 09008KT CAVOK 31/21 A2973 NOSIG=
201511232100 METAR MRLB 232100Z 10011KT CAVOK 31/20 A2972 NOSIG=
201511232200 METAR MRLB 232200Z 09010KT CAVOK 30/19 A2972 NOSIG=
201511232300 METAR MRLB 232300Z 12011KT CAVOK 29/19 A2973 NOSIG=
201511232350 METAR MRLB 240000Z 10011KT CAVOK 28/19 A2975 NOSIG=
201511240000 METAR MRLB 240000Z 10011KT CAVOK 28/19 A2975 NOSIG=
201511240100 METAR MRLB 240100Z 10007KT CAVOK 27/20 A2980 NOSIG=
201511240200 METAR MRLB 240200Z 10009KT CAVOK 26/20 A2982 NOSIG=
201511240300 METAR MRLB NIL=
201511240400 METAR MRLB NIL=
201511240500 METAR MRLB NIL=
201511240600 METAR MRLB NIL=
201511240700 METAR MRLB NIL=
201511240800 METAR MRLB NIL=
201511240900 METAR MRLB NIL=
201511241000 METAR MRLB NIL=
201511241100 METAR MRLB NIL=
201511241200 METAR MRLB 241200Z 16003KT CAVOK 22/19 A2982 NOSIG=
201511241300 METAR MRLB 241300Z 03003KT CAVOK 22/19 A2983 NOSIG=
201511241400 METAR MRLB 241400Z 15004KT CAVOK 26/22 A2984 NOSIG=
201511241500 METAR MRLB 241500Z 08011KT CAVOK 29/22 A2985 NOSIG=
201511241600 METAR MRLB 241600Z 07016KT CAVOK 30/20 A2984 NOSIG=
201511241700 METAR MRLB 241700Z 08016KT CAVOK 30/20 A2982 NOSIG=
201511241800 METAR MRLB 241800Z 09011KT 9999 FEW030 31/20 A2980 NOSIG=
201511241900 METAR MRLB 241900Z 07013KT 9999 FEW035 32/20 A2977 NOSIG=
201511242000 METAR MRLB 242000Z 08016G26KT 9999 BKN035 30/20 A2976 NOSIG=
201511242100 METAR MRLB 242100Z 10010KT 9999 SCT035 SCT080 29/20 A2975 NOSIG=
201511242200 METAR MRLB 242200Z 11008KT 9999 FEW035 SCT120 29/20 A2975NOSIG=
201511242300 METAR MRLB 242300Z 11005KT 9999 FEW040 28/20 A2977 NOSIG=
201511242352 METAR MRLB 250000Z 100/12G22KT CAVOK 27/20 A2978 NOSIG=
201511250000 METAR MRLB 250000Z 100/12G22KT CAVOK 27/20 A2978 NOSIG=
201511250100 METAR MRLB 250100Z 12006KT CAVOK 26/19 A2981 NOSIG=
201511250200 METAR MRLB 250200Z 09011KT CAVOK 26/19 A2983 NOSIG=
201511250300 METAR MRLB NIL=
201511250400 METAR MRLB NIL=
201511250500 METAR MRLB NIL=
201511250600 METAR MRLB NIL=
201511250700 METAR MRLB NIL=
201511250800 METAR MRLB NIL=
201511250900 METAR MRLB NIL=
201511251000 METAR MRLB NIL=
201511251100 METAR MRLB NIL=
201511251200 METAR MRLB 251200Z 00000KT CAVOK 20/18 A2979 NOSIG=
201511251300 METAR MRLB 251300Z 07002KT CAVOK 21/19 A2982 NOSIG=
201511251400 METAR MRLB 251400Z 00000KT CAVOK 24/21 A2984 NOSIG=
201511251500 METAR MRLB 251500Z 35003KT CAVOK 27/21 A2985 NOSIG=
201511251600 METAR MRLB 251600Z 30003KT CAVOK 30/20 A2985 NOSIG=
201511251652 METAR MRLB 251652Z 251700KT 06007KT 9999 FEW040 BKN250 31/20 A2983 NOSIG=
201511251700 METAR MRLB 251700Z 251700KT 06007KT 9999 FEW040 BKN250 31/20 A2983 NOSIG=
201511251800 METAR MRLB 251800Z 10012KT 9999 FEW040 BKN250 31/20 A2980 NOSIG=
201511251900 METAR MRLB 251900Z 12011KT 9999 FEW030 31/20 A2977 NOSIG=
201511252000 METAR MRLB 252000Z 11012KT 9999 FEW030 31/20 A2976 NOSIG=
201511252100 METAR MRLB 252100Z 11012KT 9999 FEW030 31/20 A2975 NOSIG=
201511252200 METAR MRLB 252200Z 10013KT 9999 FEW030 BKN250 30/20 A2974 NOSIG=
201511252300 METAR MRLB 252300Z 11010KT 9999 FEW030 SCT120 29/20 A2976 NOSIG=
201511252354 METAR MRLB 260000Z 09004KT 9999 FEW040 BKN100 28/20 A2977 NOSIG=
201511260000 METAR MRLB 260000Z 09004KT 9999 FEW040 BKN100 28/20 A2977 NOSIG=
201511260100 METAR MRLB 260100Z 09009KT 9999 FEW040 SCT100 28/19 A2978 NOSIG=
201511260200 METAR MRLB 260200Z 11016KT 9999 FEW040 27/20 A2980 NOSIG=
201511260300 METAR MRLB NIL=
201511260400 METAR MRLB NIL=
201511260500 METAR MRLB NIL=
201511260600 METAR MRLB NIL=
201511260700 METAR MRLB NIL=
201511260800 METAR MRLB NIL=
201511260900 METAR MRLB NIL=
201511261000 METAR MRLB NIL=
201511261100 METAR MRLB NIL=
201511261200 METAR MRLB 261200Z 09006KT CAVOK 26/20 A2981 NOSIG=
201511261300 METAR MRLB 261300Z 05004KT CAVOK 26/21 A2984 NOSIG=
201511261400 METAR MRLB 261400Z 02005KT 9999 FEW040 27/22 A2987 NOSIG=
201511261500 METAR MRLB 261500Z 10012KT 9999 FEW035 SCT120 29/20 A2987 NOSIG=
201511261600 METAR MRLB 261600Z 10015G25KT 9999 FEW030 SCT130 30/21 A2986 NOSIG=
201511261700 METAR MRLB 261700Z COR 08019G29KT 9999 FEW030 SCT100 30/21 A2986 NOSIG=
201511261800 METAR MRLB 261800Z 08017KT 9999 FEW030 SCT080 31/20 A2984 NOSIG=
201511261900 METAR MRLB 261900Z 08014KT 9999 FEW030 SCT100 31/21 A2982 NOSIG=
201511262000 METAR MRLB 262000Z 07015KT 9999 SCT030 31/20 A2980 NOSIG=
201511262100 METAR MRLB 262100Z 07013KT 9999 SCT030 31/20 A2978 NOSIG=
201511262200 METAR MRLB 262200Z 07013KT 9999 FEW030 SCT250 30/20 A2978 NOSIG=
201511262300 METAR MRLB 262300Z 06012KT 9999 FEW030 SCT250 29/19 A2978 NOSIG=
201511262352 METAR MRLB 270000Z 07009KT 9999 FEW030 SCT250 26/20 A2979 NOSIG=
201511270000 METAR MRLB 270000Z 07009KT 9999 FEW030 SCT250 26/20 A2979 NOSIG=
201511270100 METAR MRLB 270100Z 09008KT 9999 FEW030 SCT250 26/20 A2981 NOSIG=
201511270200 METAR MRLB 270200Z 08010KT 9999 FEW030 SCT250 26/20 A2982 NOSIG=
201511270300 METAR MRLB NIL=
201511270400 METAR MRLB NIL=
201511270500 METAR MRLB NIL=
201511270600 METAR MRLB NIL=
201511270700 METAR MRLB NIL=
201511270800 METAR MRLB NIL=
201511270900 METAR MRLB NIL=
201511271000 METAR MRLB NIL=
201511271100 METAR MRLB NIL=
201511271200 METAR MRLB 271200Z 10003KT CAVOK 22/20 A2981 NOSIG=
201511271300 METAR MRLB 271300Z 19005KT CAVOK 26/20 A2983 NOSIG=
201511271400 METAR MRLB 271400Z 03007KT CAVOK 27/20 A2985 NOSIG=
201511271500 METAR MRLB 271500Z 27006KT 9999 FEW030 29/21 A2987 NOSIG=
201511271600 METAR MRLB 271600Z 08015KT 9999 FEW035 30/20 A2986 NOSIG=
201511271700 METAR MRLB 271700Z 09013KT 9999 FEW035 SCT250 31/20 A2984 NOSIG=
201511271800 METAR MRLB 271800Z 08012KT 9999 FEW035 SCT250 31/20 A2982 NOSIG=
201511271900 METAR MRLB 271900Z 08013KT 9999 SCT035 SCT250 31/21 A2979 NOSIG=
201511272000 METAR MRLB 272000Z 08010KT 9999 FEW035 SCT250 31/19 A2976 NOSIG=
201511272100 METAR MRLB 272100Z 09011KT 9999 FEW035 31/19 A2976 NOSIG=
201511272200 METAR MRLB 272200Z 10014KT 9999 FEW035 SCT130 BKN250 30/19 A2974 NOSIG=
201511272300 METAR MRLB 272300Z 10008KT 9999 FEW035 SCT130 BKN250 28/21 A2975 NOSIG=
201511272354 METAR MRLB 280000Z 10005KT 9999 FEW045 BKN250 27/19 A2977 NOSIG=
201511280000 METAR MRLB 280000Z 10005KT 9999 FEW045 BKN250 27/19 A2977 NOSIG=
201511280100 METAR MRLB 280100Z 08006KT 9999 FEW045 BKN250 26/19 A2980 NOSIG=
201511280200 METAR MRLB 280200Z 10011KT 9999 FEW045 BKN250 27/19 A2981 NOSIG=
201511280300 METAR MRLB NIL=
201511280400 METAR MRLB NIL=
201511280500 METAR MRLB NIL=
201511280600 METAR MRLB NIL=
201511280700 METAR MRLB NIL=
201511280800 METAR MRLB NIL=
201511280900 METAR MRLB NIL=
201511281000 METAR MRLB NIL=
201511281100 METAR MRLB NIL=
201511281200 METAR MRLB 281200Z 00000KT CAVOK 21/20 A2980 NOSIG=
201511281300 METAR MRLB 281300Z 30002KT CAVOK 24/21 A2982 NOSIG=
201511281400 METAR MRLB 281400Z 24004KT CAVOK 26/21 A2984 NOSIG=
201511281500 METAR MRLB 281500Z 27005KT CAVOK 28/21 A2985 NOSIG=
201511281600 METAR MRLB 281600Z 33004KT CAVOK 29/20 A2984 NOSIG=
201511281700 METAR MRLB 281700Z 31004KT 9999 FEW035 SCT250 31/21 A2982 NOSIG=
201511281800 METAR MRLB 281800Z 29003KT 9999 FEW035 BKN250 32/20 A2979 NOSIG=
201511281900 METAR MRLB 281900Z 10010KT 9999 FEW035 BKN250 32/20 A2975 NOSIG=
201511282000 METAR MRLB 282000Z 09009KT 9999 FEW035 BKN250 32/19 A2974 NOSIG=
201511282100 METAR MRLB 282100Z 32007KT 9999 FEW040 BKN250 32/20 A2971 NOSIG=
201511282200 METAR MRLB 282200Z 20004KT 9999 FEW040 BKN250 32/21 A2972 NOSIG=
201511282300 METAR MRLB 282300Z 19003KT CAVOK 29/21 A2972 NOSIG=
201511282352 METAR MRLB 290000Z 09007KT CAVOK 27/20 A2975 NOSIG=
201511290000 METAR MRLB 290000Z 09007KT CAVOK 27/20 A2975 NOSIG=
201511290100 METAR MRLB 290100Z 10010KT CAVOK 27/19 A2977 NOSIG=
201511290200 METAR MRLB 290200Z 08012KT CAVOK 27/19 A2980 NOSIG=
201511290300 METAR MRLB NIL=
201511290400 METAR MRLB NIL=
201511290500 METAR MRLB NIL=
201511290600 METAR MRLB NIL=
201511290700 METAR MRLB NIL=
201511290800 METAR MRLB NIL=
201511290900 METAR MRLB NIL=
201511291000 METAR MRLB NIL=
201511291100 METAR MRLB NIL=
201511291200 METAR MRLB 291200Z 24005KT CAVOK 21/19 A2978 NOSIG=
201511291300 METAR MRLB 291300Z 16007KT CAVOK 24/19 A2980 NOSIG=
201511291400 METAR MRLB 291400Z 26006KT CAVOK 26/20 A2981 NOSIG=
201511291500 METAR MRLB 291500Z 25007KT CAVOK 28/19 A2982 NOSIG=
201511291600 METAR MRLB 291600Z 25006KT CAVOK 29/19 A2981 NOSIG=
201511291700 METAR MRLB 291700Z 33005KT CAVOK 30/19 A2977 NOSIG=
201511291800 METAR MRLB 291800Z COR 29005KT 9999 FEW035 30/19 A2974 NOSIG=
201511291900 METAR MRLB 291900Z 01005KT 9999 FEW035 32/19 A2971 NOSIG=
201511292000 METAR MRLB 292000Z 11012KT 9999 FEW030 31/19 A2967 NOSIG=
201511292100 METAR MRLB 292100Z 30007KT 9999 FEW030 31/18 A2968 NOSIG=
201511292200 METAR MRLB 292200Z 11005KT 9999 FEW035 30/18 A2967 NOSIG=
201511292300 METAR MRLB 292300Z 08006KT 9999 FEW035 28/19 A2969 NOSIG=
201511292353 METAR MRLB 300000Z 12006KT 9999 FEW035 26/17 A2972 NOSIG=
201511300000 METAR MRLB 300000Z 12006KT 9999 FEW035 26/17 A2972 NOSIG=
201511300100 METAR MRLB 300100Z 11008KT CAVOK 27/16 A2973=
201511300150 METAR MRLB 00000KT CAVOK 24/18 A2975 NOSIG=
201511300200 METAR MRLB 300200Z 00000KT CAVOK 24/18 A2975 NOSIG=
201511300300 METAR MRLB NIL=
201511300400 METAR MRLB NIL=
201511300500 METAR MRLB NIL=
201511300600 METAR MRLB NIL=
201511300700 METAR MRLB NIL=
201511300800 METAR MRLB NIL=
201511300900 METAR MRLB NIL=
201511301000 METAR MRLB NIL=
201511301100 METAR MRLB NIL=
201511301200 METAR MRLB 301200Z 20003KT CAVOK 20/18 A2975 NOSIG=
201511301300 METAR MRLB 301300Z 32003KT CAVOK 22/18 A2977 NOSIG=
201511301400 METAR MRLB 301400Z 25003KT CAVOK 25/19 A2979 NOSIG=
201511301500 METAR MRLB 301500Z 24004KT CAVOK 27/19 A2979 NOSIG=
201511301600 METAR MRLB 301600Z 28005KT CAVOK 28/19 A2978 NOSIG=
201511301700 METAR MRLB 301700Z 35003KT CAVOK 29/19 A2976 NOSIG=
201511301800 METAR MRLB 301800Z 30003KT CAVOK 30/19 A2973 NOSIG=
201511301900 METAR MRLB 301900Z 13010KT CAVOK 31/19 A2970 NOSIG=
201511302000 METAR MRLB 302000Z 11009KT CAVOK 31/18 A2968 NOSIG=
201511302100 METAR MRLB 302100Z 35007KT CAVOK 31/20 A2967 NOSIG=
201511302200 METAR MRLB 302200Z COR 27003KT CAVOK 32/19 A2968 NOSIG=
201511302300 METAR MRLB 302300Z 18002KT CAVOK 29/19 A2969 NOSIG=
201511302352 METAR MRLB 010000Z 36003KT CAVOK 27/20 A2971 NOSIG=
201512010000 METAR MRLB 010000Z 36003KT CAVOK 27/20 A2971 NOSIG=
201512010052 METAR MRLB 040100Z 10008KT CAVOK 28/21 A2984 NOSIG=
201512010100 METAR MRLB 010100Z 26004KT CAVOK 25/19 A2974 NOSIG=
201512010200 METAR MRLB 010200Z 22003KT CAVOK 23/19 A2976 NOSIG=
201512010300 METAR MRLB NIL=
201512010400 METAR MRLB NIL=
201512010452 METAR MRLB 040500Z 12002KT CAVOK 25/22 A2988 NOSIG=
201512010500 METAR MRLB NIL=
201512010600 METAR MRLB NIL=
201512010700 METAR MRLB NIL=
201512010800 METAR MRLB NIL=
201512010900 METAR MRLB NIL=
201512011000 METAR MRLB NIL=
201512011100 METAR MRLB NIL=
201512011200 METAR MRLB 011200Z 14003KT CAVOK 19/18 A2979 NOSIG=
201512011300 METAR MRLB 011300Z 32003KT CAVOK 22/19 A2981 NOSIG=
201512011400 METAR MRLB NIL=
201512011500 METAR MRLB 011500Z 35003KT CAVOK 25/19 A2983 NOSIG=
201512011600 METAR MRLB 011600Z 29003KT CAVOK 29/19 A2981 NOSIG=
201512011700 METAR MRLB 011700Z 35004KT CAVOK 30/19 A2978 NOSIG=
201512011800 METAR MRLB 011800Z 32004KT CAVOK 31/18 A2975 NOSIG=
201512011900 METAR MRLB 011900Z 34003KT CAVOK 32/19 A2972 NOSIG=
201512012000 METAR MRLB 012000Z 13009KT CAVOK 32/19 A2970 NOSIG=
201512012100 METAR MRLB 012100Z 14009KT 9999 FEW040 32/19 A2969 NOSIG=
201512012200 METAR MRLB 012200Z 11009KT 9999 FEW040 31/19 A2968 NOSIG=
201512012300 METAR MRLB 012300Z 10006KT CAVOK 30/19 A2971 NOSIG=
201512012354 METAR MRLB 020000Z 05004KT CAVOK 27/19 A2973 NOSIG=
201512020000 METAR MRLB 020000Z 05004KT CAVOK 27/19 A2973 NOSIG=
201512020100 METAR MRLB 020100Z 31004KT CAVOK 26/20 A2976 NOSIG=
201512020200 METAR MRLB 020200Z 22004KT CAVOK 24/21 A2978 NOSIG=
201512020300 METAR MRLB 020300Z 27003KT CAVOK 23/20 A2980 NOSIG=
201512020400 METAR MRLB 020400Z 21003KT CAVOK 22/20 A2979 NOSIG=
201512020500 METAR MRLB 020500Z 24004KT CAVOK 21/20 A2978 NOSIG=
201512020600 METAR MRLB 020600Z 05003KT CAVOK 21/20 A2977 NOSIG=
201512020700 METAR MRLB NIL=
201512020800 METAR MRLB NIL=
201512020900 METAR MRLB NIL=
201512021000 METAR MRLB NIL=
201512021100 METAR MRLB NIL=
201512021200 METAR MRLB 021200Z 00000KT CAVOK 19/18 A2980 NOSIG=
201512021300 METAR MRLB 021300Z 02002KT CAVOK 21/19 A2981 NOSIG=
201512021400 METAR MRLB 021400Z 00000KT CAVOK 24/20 A2983 NOSIG=
201512021500 METAR MRLB 021500Z 31002KT CAVOK 27/21 A2984 NOSIG=
201512021600 METAR MRLB 021600Z 18002KT CAVOK 29/21 A2982 NOSIG=
201512021700 METAR MRLB 021700Z 33002KT 9999 FEW040 31/20 A2980 NOSIG=
201512021800 METAR MRLB 021800Z 34004KT 9999 FEW040 31/20 A2977 NOSIG=
201512021900 METAR MRLB 021900Z 29003KT 9999 FEW040 33/20 A2974 NOSIG=
201512022000 METAR MRLB 022000Z 14005KT 9999 FEW040 33/19 A2973 NOSIG=
201512022100 METAR MRLB 022100Z 18002KT 9999 FEW040 33/19 A2972 NOSIG=
201512022200 METAR MRLB 022200Z 28005KT 9999 FEW040 31/22 A2973 NOSIG=
201512022300 METAR MRLB 022300Z 32005KT CAVOK 29/22 A2974 NOSIG=
201512022352 METAR MRLB 030000Z 27003KT CAVOK 27/23 A2977 NOSIG=
201512030000 METAR MRLB 030000Z 27003KT CAVOK 27/23 A2977 NOSIG=
201512030100 METAR MRLB 030100Z 23003KT CAVOK 26/22 A2980 NOSIG=
201512030200 METAR MRLB 030200Z 17003KT CAVOK 25/22 A2982 NOSIG=
201512030300 METAR MRLB 030300Z 00000KT CAVOK 24/22 A2984 NOSIG=
201512030400 METAR MRLB 030400Z 00000KT CAVOK 23/22 A2984 NOSIG=
201512030500 METAR MRLB 030500Z 06002KT CAVOK 23/21 A2984 NOSIG=
201512030600 METAR MRLB 030600Z 09002KT CAVOK 22/21 A2983 NOSIG=
201512030700 METAR MRLB NIL=
201512030800 METAR MRLB NIL=
201512030900 METAR MRLB NIL=
201512031000 METAR MRLB NIL=
201512031100 METAR MRLB NIL=
201512031200 METAR MRLB 031200Z 03002KT CAVOK 20/19 A2987 NOSIG=
201512031300 METAR MRLB 031300Z 05003KT CAVOK 22/20 A2988 NOSIG=
201512031400 METAR MRLB 031400Z 00000KT CAVOK 25/21 A2989 NOSIG=
201512031500 METAR MRLB 031500Z 26002KT CAVOK 28/21 A2989 NOSIG=
201512031600 METAR MRLB 031600Z 22004KT 9999 FEW040 29/21 A2988 NOSIG=
201512031700 METAR MRLB 031700Z 01004KT 9999 FEW040 31/22 A2986 NOSIG=
201512031800 METAR MRLB 031800Z 13006KT 9999 FEW040 32/20 A2982 NOSIG=
201512031900 METAR MRLB 031900Z 07008KT 9999 FEW040 33/20 A2979 NOSIG=
201512032000 METAR MRLB 032000Z 10010KT 9999 FEW035 33/19 A2977 NOSIG=
201512032100 METAR MRLB 032100Z 10010KT 9999 FEW035 32/20 A2977 NOSIG=
201512032200 METAR MRLB 032200Z 10007KT CAVOK 32/21 A2977 NOSIG=
201512032300 METAR MRLB 032300Z 09008KT CAVOK 30/21 A2979 NOSIG=
201512032349 METAR MRLB 040000Z 09007KT CAVOK 29/21 A2981 NOSIG=
201512040000 METAR MRLB 040000Z 09007KT CAVOK 29/21 A2981 NOSIG=
201512040100 METAR MRLB 040100Z 10008KT CAVOK 28/21 A2984 NOSIG=
201512040200 METAR MRLB 040200Z 08011KT CAVOK 28/21 A2987 NOSIG=
201512040300 METAR MRLB 040300Z 10005KT CAVOK 28/21 A2988 NOSIG=
201512040400 METAR MRLB 040400Z 06002KT CAVOK 26/22 A2989 NOSIG=
201512040500 METAR MRLB 040500Z 12002KT CAVOK 25/22 A2988 NOSIG=
201512040600 METAR MRLB 040600Z 00000KT CAVOK 25/22 A2986 NOSIG=
201512040700 METAR MRLB NIL=
201512040800 METAR MRLB NIL=
201512040900 METAR MRLB NIL=
201512041000 METAR MRLB NIL=
201512041100 METAR MRLB NIL=
201512041200 METAR MRLB 041200Z 22004KT 9999 FEW035 SCT130 24/21 A2983 NOSIG=
201512041300 METAR MRLB 041300Z 23002KT 9999 FEW035 BKN130 24/22 A2986 NOSIG=
201512041400 METAR MRLB 041400Z 23003KT 9999 FEW035 BKN130 27/22 A2989 NOSIG=
201512041500 METAR MRLB 041500Z 29003KT 9999 FEW035 SCT130 BKN250 29/21 A2990 NOSIG=
201512041600 METAR MRLB 041600Z 09013KT 9999 SCT035 BKN250 31/22 A2988 NOSIG=
201512041700 METAR MRLB 041700Z 08016KT 9999 SCT035 BKN250 32/21 A2987 NOSIG=
201512041800 METAR MRLB 041800Z 09014KT 9999 SCT035 BKN250 33/21 A2985 NOSIG=
201512041900 METAR MRLB 041900Z 09014KT 9999 FEW035 BKN250 33/21 A2983 NOSIG=
201512042000 METAR MRLB 042000Z 08015KT 9999 SCT035 SCT250 33/22 A2982 NOSIG=
201512042100 METAR MRLB 042100Z 09017G29KT 9999 FEW035 SCT120 32/19 A2980 NOSIG=
201512042200 METAR MRLB 042200Z 10012KT 9999 FEW035 SCT120 31/20 A2980 NOSIG=
201512042300 METAR MRLB 042300Z 08013KT CAVOK 30/20 A2982 NOSIG=
201512042353 METAR MRLB 050000Z 11007KT CAVOK 28/21 A2984 NOSIG=
201512050000 METAR MRLB 050000Z 11007KT CAVOK 28/21 A2984 NOSIG=
201512050100 METAR MRLB 050100Z 08011KT CAVOK 28/21 A2986 NOSIG=
201512050200 METAR MRLB 050200Z 05006KT CAVOK 28/21 A2988 NOSIG=
201512050300 METAR MRLB 050300Z 04007KT CAVOK 28/21 A2989 NOSIG=
201512050400 METAR MRLB 050400Z 05006KT CAVOK 28/21 A2991 NOSIG=
201512050500 METAR MRLB 050500Z 32003KT CAVOK 26/21 A2991 NOSIG=
201512050600 METAR MRLB 050600Z 05010KT CAVOK 27/21 A2989 NOSIG=
201512050700 METAR MRLB NIL=
201512050800 METAR MRLB NIL=
201512050900 METAR MRLB NIL=
201512051000 METAR MRLB NIL=
201512051100 METAR MRLB NIL=
201512051200 METAR MRLB 051200Z 22004KT 9999 SCT030 BKN200 25/21 A2987 NOSIG=
201512051300 METAR MRLB 051300Z 20004KT 9999 SCT025 SCT120 24/21 A2990 NOSIG=
201512051400 METAR MRLB 051400Z 10015KT 9999 SCT025 SCT130 27/20 A2990 NOSIG=
201512051500 METAR MRLB 051500Z 10015G25KT 9999 FEW030 BKN130 28/18 A2989 NOSIG=
201512051600 METAR MRLB 051600Z 07014KT 9999 FEW030 BKN130 29/19 A2990 NOSIG=
201512051700 METAR MRLB 051700Z 10008KT 9999 FEW030 BKN130 29/19 A2988 NOSIG=
201512051800 METAR MRLB 051800Z 09006KT 9999 FEW030 BKN140 30/19 A2985 NOSIG=
201512051900 METAR MRLB 051900Z 08019KT 9999 FEW035 BKN140 30/20 A2983 NOSIG=
201512052000 METAR MRLB 052000Z 08016G26KT 9999 FEW025 BKN140 28/19 A2980 NOSIG=
201512052100 METAR MRLB 052100Z 09016G27KT 9999 FEW030 BKN140 28/20 A2979 NOSIG=
201512052200 METAR MRLB 052200Z 09018KT 9999 FEW030 BKN140 28/20 A2978 NOSIG=
201512052300 METAR MRLB 052300Z 08016KT 9999 FEW030 BKN120 28/20 A2979 NOSIG=
201512052351 METAR MRLB 060000Z 08018KT 9999 FEW030 SCT120 28/20 A2980 NOSIG=
201512060000 METAR MRLB 060000Z 08018KT 9999 FEW030 SCT120 28/20 A2980 NOSIG=
201512060100 METAR MRLB 060100Z 09015KT 9999 FEW035 SCT140 28/20 A2982 NOSIG=
201512060200 METAR MRLB 060200Z 08017KT 9999 FEW035 28/20 A2985 NOSIG=
201512060300 METAR MRLB 060300Z 09018G28KT 9999 FEW035 28/20 A2987 NOSIG=
201512060400 METAR MRLB 060400Z 09011KT 9999 FEW040 28/20 A2988 NOSIG=
201512060500 METAR MRLB 060500Z 09013KT 9999 FEW040 27/20 A2986 NOSIG=
201512060600 METAR MRLB 060600Z 09015G27KT 9999 FEW040 27/20 A2983 NOSIG=
201512060700 METAR MRLB NIL=
201512060800 METAR MRLB NIL=
201512060900 METAR MRLB NIL=
201512061000 METAR MRLB NIL=
201512061100 METAR MRLB NIL=
201512061200 METAR MRLB 061200Z 27003KT 9999 FEW020 SCT100 26/20 A2981 NOSIG=
201512061300 METAR MRLB 061300Z 11012KT 9999 FEW020 SCT100 28/20 A2981 NOSIG=
201512061400 METAR MRLB 061400Z 21002KT 9999 FEW030 SCT100 27/21 A2986 NOSIG=
201512061500 METAR MRLB 061500Z 09013KT 9999 FEW030 SCT120 29/20 A2985 NOSIG=
201512061600 METAR MRLB 061600Z 11013KT 9999 FEW030 SCT120 28/21 A2984 NOSIG=
201512061700 METAR MRLB 061700Z 09014KT 9999 FEW030 SCT140 31/21 A2983 NOSIG=
201512061752 METAR MRLB 061752Z 061800Z08018KT 9999 FEW030 SCT220 32/20 A2980 NOSIG=
201512061800 METAR MRLB 061800Z COR 08018KT 9999 FEW030 SCT220 32/20 A2980 NOSIG=
201512061900 METAR MRLB 061900Z 09017G27KT 9999 FEW030 SCT140 32/20 A2977 NOSIG=
201512062000 METAR MRLB 062000Z 09016KT 9999 FEW035 SCT130 32/20 A2976 NOSIG=
201512062100 METAR MRLB 062100Z 08019KT 9999 FEW035 BKN130 31/19 A2975 NOSIG=
201512062200 METAR MRLB 062200Z 10018KT 9999 FEW035 BKN130 30/19 A2974 NOSIG=
201512062300 METAR MRLB 062300Z 09017KT 9999 FEW035 BKN130 28/20 A2976 NOSIG=
201512062352 METAR MRLB 070000Z 09013KT 9999 FEW035 BKN130 28/20 A2978 NOSIG=
201512070000 METAR MRLB 070000Z 09013KT 9999 FEW035 BKN130 28/20 A2978 NOSIG=
201512070100 METAR MRLB 070100Z 09019KT 9999 FEW035 SCT130 28/19 A2980 NOSIG=
201512070200 METAR MRLB 070200Z 10013KT 9999 FEW040 SCT130 28/20 A2983 NOSIG=
201512070300 METAR MRLB 070300Z 09015G25KT 9999 FEW040 SCT130 28/20 A2984 NOSIG=
201512070400 METAR MRLB 070400Z COR 09016G26KT 9999 FEW040 28/19 A2982 NOSIG=
201512070500 METAR MRLB 070500Z 09015KT 9999 FEW040 28/19 A2981 NOSIG=
201512070600 METAR MRLB 070600Z 06012KT 9999 FEW040 27/19 A2980 NOSIG=
201512070700 METAR MRLB NIL=
201512070800 METAR MRLB NIL=
201512070900 METAR MRLB NIL=
201512071000 METAR MRLB NIL=
201512071100 METAR MRLB NIL=
201512071200 METAR MRLB 071200Z 00000KT CAVOK 26/20 A2978 NOSIG=
201512071300 METAR MRLB 071300Z 06006KT CAVOK 27/20 A2980 NOSIG=
201512071400 METAR MRLB 071400Z 08013KT 9999 FEW040 SCT250 29/19 A2980 NOSIG=
201512071500 METAR MRLB 071500Z 04008KT 9999 FEW040 30/20 A2983 NOSIG=
201512071600 METAR MRLB 071600Z 09017KT 9999 FEW040 31/20 A2982 NOSIG=
201512071700 METAR MRLB 071700Z 10018G29KT 9999 FEW035 31/20 A2979 NOSIG=
201512071800 METAR MRLB 071800Z 10017G27KT 9999 FEW035 32/18 A2976 NOSIG=
201512071900 METAR MRLB 071900Z 10016KT 9999 FEW035 33/17 A2973 NOSIG=
201512072000 METAR MRLB 072000Z 10016KT 9999 FEW035 32/18 A2971 NOSIG=
201512072100 METAR MRLB 072100Z 08014KT CAVOK 32/19 A2970 NOSIG=
201512072200 METAR MRLB 072200Z 08009KT CAVOK 32/18 A2972 NOSIG=
201512072300 METAR MRLB 072300Z 04008KT CAVOK 30/18 A2973 NOSIG=
201512072350 METAR MRLB 080000 08008KT CAVOK 28/19 A2976 NOSIG=
201512080000 METAR MRLB 080000Z 08008KT CAVOK 28/19 A2976 NOSIG=
201512080100 METAR MRLB 080100Z 09011KT CAVOK 28/19 A2977 NOSIG=
201512080200 METAR MRLB 080200Z 07006KT CAVOK 27/18 A2981 NOSIG=
201512080300 METAR MRLB 080300Z 08011KT CAVOK 27/19 A2983 NOSIG=
201512080400 METAR MRLB 080400Z 07011KT CAVOK 27/18 A2984 NOSIG=
201512080500 METAR MRLB 080500Z 08007KT CAVOK 26/19 A2982 NOSIG=
201512080600 METAR MRLB 080600Z 33004KT CAVOK 22/19 A2981 NOSIG=
201512080700 METAR MRLB NIL=
201512080800 METAR MRLB NIL=
201512080900 METAR MRLB NIL=
201512081000 METAR MRLB NIL=
201512081100 METAR MRLB NIL=
201512081200 METAR MRLB 081200Z 17002KT CAVOK 21/19 A2978 NOSIG=
201512081300 METAR MRLB 081300Z 27002KT CAVOK 23/20 A2981 NOSIG=
201512081400 METAR MRLB 081400Z 29002KT CAVOK 26/21 A2984 NOSIG=
201512081500 METAR MRLB 081500Z 26005KT CAVOK 28/21 A2984 NOSIG=
201512081600 METAR MRLB 081600Z 30004KT 9999 FEW035 SCT250 31/20 A2984 NOSIG=
201512081700 METAR MRLB 081700Z 31007KT 9999 FEW035 31/20 A2982 NOSIG=
201512081800 METAR MRLB 081800Z 10006KT 9999 FEW035 32/20 A2980 NOSIG=
201512081900 METAR MRLB 081900Z 12011KT 9999 FEW035 32/21 A2975 NOSIG=
201512082000 METAR MRLB 082000Z 11012KT 9999 FEW035 32/20 A2976 NOSIG=
201512082100 METAR MRLB 082100Z 11014G24KT 9999 FEW035 32/20 A2974 NOSIG=
201512082200 METAR MRLB 082200Z 10010KT 9999 FEW035 31/20 A2974 NOSIG=
201512082300 METAR MRLB 082300Z 11004KT 9999 FEW035 29/21 A2975 NOSIG=
201512082353 METAR MRLB 090000Z 10011KT 9999 SCT035 28/20 A2979 NOSIG=
201512090000 METAR MRLB 090000Z 10011KT 9999 SCT035 28/20 A2979 NOSIG=
201512090100 METAR MRLB 090100Z 08009KT 9999 SCT035 27/20 A2982 NOSIG=
201512090200 METAR MRLB 090200Z 09003KT 9999 SCT035 27/20 A2986 NOSIG=
201512090300 METAR MRLB 090300Z 08009KT 9999 SCT035 26/21 A2987 NOSIG=
201512090400 METAR MRLB 090400Z 07004KT 9999 SCT030 SCT120 25/21 A2988 NOSIG=
201512090500 METAR MRLB 090500Z 10007KT 9999 SCT030 SCT130 26/20 A2985 NOSIG=
201512090600 METAR MRLB 090600Z 17005KT 9999 SCT030 25/20 A2984 NOSIG=
201512090700 METAR MRLB NIL=
201512090800 METAR MRLB NIL=
201512090900 METAR MRLB NIL=
201512091000 METAR MRLB NIL=
201512091100 METAR MRLB NIL=
201512091200 METAR MRLB 091200Z 00000KT CAVOK 21/20 A2983 NOSIG=
201512091300 METAR MRLB 091300Z 03003KT CAVOK 23/20 A2985 NOSIG=
201512091400 METAR MRLB 091400Z 25003KT CAVOK 26/21 A2987 NOSIG=
201512091500 METAR MRLB 091500Z 22004KT CAVOK 27/20 A2988 NOSIG=
201512091600 METAR MRLB 091600Z 15004KT CAVOK 30/21 A2987 NOSIG=
201512091700 METAR MRLB 091700Z 03006KT CAVOK 31/21 A2985 NOSIG=
201512091800 METAR MRLB NIL=
201512091900 METAR MRLB 091900Z 12010KT 9999 FEW035 SCT250 32/20 A2981 NOSIG=
201512092000 METAR MRLB 092000Z 10008KT 9999 FEW035 SCT250 32/21 A2978 NOSIG=
201512092100 METAR MRLB 092100Z 12007KT 9999 FEW035 SCT250 32/21 A2976 NOSIG=
201512092200 METAR MRLB 092200Z 12007KT 9999 FEW035 SCT250 31/21 A2976 NOSIG=
201512092300 METAR MRLB 092300Z 05009KT 9999 FEW035 BKN100 29/21 A2978 NOSIG=
201512092352 METAR MRLB 100000Z 00000KT 9999 FEW045 BKN250 28/21 A2980 NOSIG=
201512100000 METAR MRLB 100000Z 00000KT 9999 FEW045 BKN250 28/21 A2980 NOSIG=
201512100100 METAR MRLB 100100Z 34003KT CAVOK 27/21 A2980 NOSIG=
201512100200 METAR MRLB 100200Z 13004KT CAVOK 27/20 A2983 NOSIG=
201512100300 METAR MRLB 100300Z 06007KT CAVOK 27/20 A2983 NOSIG=
201512100400 METAR MRLB 100400Z 19003KT CAVOK 25/21 A2984 NOSIG=
201512100500 METAR MRLB 100500Z 30004KT CAVOK 24/21 A2983 NOSIG=
201512100600 METAR MRLB 100600Z 26006KT CAVOK 25/21 A2981 NOSIG=
201512100700 METAR MRLB NIL=
201512100800 METAR MRLB NIL=
201512100900 METAR MRLB NIL=
201512101000 METAR MRLB NIL=
201512101100 METAR MRLB NIL=
201512101200 METAR MRLB 101200Z 22004KT 9999 FEW030 22/21 A2982 NOSIG=
201512101300 METAR MRLB 101300Z 06002KT 9999 FEW030 24/21 A2985 NOSIG=
201512101400 METAR MRLB 101400Z 33003KT 9999 FEW030 27/21 A2987 NOSIG=
201512101500 METAR MRLB 101500Z 20004KT 9999 FEW035 29/21 A2987 NOSIG=
201512101600 METAR MRLB 101600Z 09013G23KT 9999 FEW030 30/20 A2987 NOSIG=
201512101700 METAR MRLB 101700Z 09011KT 9999 FEW030 31/21 A2986 NOSIG=
201512101800 METAR MRLB 101800Z 10012KT 9999 FEW030 32/20 A2983 NOSIG=
201512101900 METAR MRLB 101900Z 11010KT 9999 FEW030 32/21 A2980 NOSIG=
201512102000 METAR MRLB 102000Z 13007KT 9999 SCT035 31/21 A2978 NOSIG=
201512102100 METAR MRLB 102100Z 14007KT 9999 SCT035 31/21 A2977 NOSIG=
201512102200 METAR MRLB 102200Z 12007KT 9999 SCT035 29/21 A2977 NOSIG=
201512102300 METAR MRLB 102300Z 11005KT 9999 SCT035 29/20 A2979 NOSIG=
201512102356 METAR MRLB 110000Z 08003KT 9999 SCT035 27/26 A2981 NOSIG=
201512110000 METAR MRLB 110000Z 08003KT 9999 SCT035 27/26 A2981 NOSIG=
201512110100 METAR MRLB 110100Z 32004KT 9999 SCT035 BKN120 26/22 A2983 NOSIG=
201512110200 METAR MRLB 110200Z 00000KT 9999 FEW040 SCT120 26/21 A2985 NOSIG=
201512110300 METAR MRLB 110300Z 29003KT CAVOK 25/21 A2986 NOSIG=
201512110400 METAR MRLB 110400Z 19005KT CAVOK 24/21 A2984 NOSIG=
201512110500 METAR MRLB 110500Z 17003KT CAVOK 24/21 A2982 NOSIG=
201512110600 METAR MRLB 110600Z 30004KT CAVOK 24/21 A2981 NOSIG=
201512110700 METAR MRLB NIL=
201512110800 METAR MRLB NIL=
201512110900 METAR MRLB NIL=
201512111000 METAR MRLB NIL=
201512111100 METAR MRLB NIL=
201512111200 METAR MRLB 111200Z 22002KT CAVOK 22/20 A2979 NOSIG=
201512111300 METAR MRLB 111300Z 20002KT CAVOK 24/21 A2981 NOSIG=
201512111400 METAR MRLB 111400Z 03004KT CAVOK 26/21 A2984 NOSIG=
201512111500 METAR MRLB 111500Z 27003KT CAVOK 29/21 A2984 NOSIG=
201512111600 METAR MRLB 111600Z 11007KT 9999 FEW035 31/21 A2983 NOSIG=
201512111700 METAR MRLB 111700Z 04010KT 9999 FEW035 SCT250 32/21 A2983 NOSIG=
201512111800 METAR MRLB 111800Z 05006KT 9999 FEW035 SCT250 32/21 A2980 NOSIG=
201512111900 METAR MRLB 111900Z 10009KT 9999 FEW035 32/21 A2978 NOSIG=
201512112000 METAR MRLB 112000Z 09009KT 9999 SCT035 32/21 A2975 NOSIG=
201512112100 METAR MRLB 112100Z 10009KT 9999 SCT035 32/21 A2973 NOSIG=
201512112200 METAR MRLB 112200Z 08012KT 9999 BKN030 30/21 A2974 NOSIG=
201512112300 METAR MRLB 112300Z 08007KT 9999 SCT030 29/21 A2975 NOSIG=
201512112351 METAR MRLB 120000Z 09008KT 9999 FEW035 SCT250 28/21 A2976 NOSIG=
201512120000 METAR MRLB 120000Z 09008KT 9999 FEW035 SCT250 28/21 A2976 NOSIG=
201512120100 METAR MRLB 120100Z 09009KT 9999 FEW035 SCT250 28/21 A2978 NOSIG=
201512120200 METAR MRLB 120200Z 06009KT 9999 FEW035 SCT250 28/20 A2980 NOSIG=
201512120300 METAR MRLB 120300Z 03005KT 9999 FEW035 SCT250 26/21 A2982 NOSIG=
201512120400 METAR MRLB 120400Z 08014KT CAVOK 28/20 A2983 NOSIG=
201512120500 METAR MRLB 120500Z 14005KT CAVOK 26/21 A2983 NOSIG=
201512120600 METAR MRLB 120600Z 12007KT CAVOK 26/20 A2982 NOSIG=
201512120700 METAR MRLB NIL=
201512120800 METAR MRLB NIL=
201512120900 METAR MRLB NIL=
201512121000 METAR MRLB NIL=
201512121100 METAR MRLB NIL=
201512121200 METAR MRLB 121200Z 02002KT CAVOK 22/20 A2978 NOSIG=
201512121300 METAR MRLB 121300Z 04003KT CAVOK 23/21 A2980 NOSIG=
201512121400 METAR MRLB 121400Z 00000KT CAVOK 27/21 A2982 NOSIG=
201512121500 METAR MRLB 121500Z 29002KT CAVOK 29/21 A2982 NOSIG=
201512121600 METAR MRLB 121600Z 08011KT CAVOK 32/19 A2982 NOSIG=
201512121700 METAR MRLB 121700Z 10008KT CAVOK 32/19 A2981 NOSIG=
201512121800 METAR MRLB 121800Z 10009KT 9999 FEW035 BKN250 33/19 A2979 NOSIG=
201512121900 METAR MRLB 121900Z 10008KT 9999 FEW035 BKN250 34/20 A2976 NOSIG=
201512122000 METAR MRLB 122000Z COR 08009KT 9999 FEW035 BKN250 33/20 A2973 NOSIG=
201512122100 METAR MRLB 122100Z 08010KT 9999 FEW035 33/21 A2973 NOSIG=
201512122200 METAR MRLB 122200Z 07011KT 9999 FEW035 32/21 A2973 NOSIG=
201512122300 METAR MRLB 122300Z 09012KT 9999 FEW035 30/19 A2974 NOSIG=
201512122354 METAR MRLB 130000Z 10007KT CAVOK 28/20 A2975 NOSIG=
201512130000 METAR MRLB 130000Z 10007KT CAVOK 28/20 A2975 NOSIG=
201512130100 METAR MRLB 130100Z 09008KT CAVOK 28/19 A2977 NOSIG=
201512130200 METAR MRLB 130200Z 09009KT CAVOK 28/20 A2979 NOSIG=
201512130300 METAR MRLB 130300Z 08008KT CAVOK 28/19 A2981 NOSIG=
201512130400 METAR MRLB 130400Z 12005KT CAVOK 26/20 A2982 NOSIG=
201512130500 METAR MRLB 130500Z 13006KT CAVOK 26/20 A2982 NOSIG=
201512130600 METAR MRLB 130600Z 14003KT CAVOK 25/20 A2982 NOSIG=
201512130700 METAR MRLB NIL=
201512130800 METAR MRLB NIL=
201512130900 METAR MRLB NIL=
201512131000 METAR MRLB NIL=
201512131100 METAR MRLB NIL=
201512131200 METAR MRLB 131200Z 22003KT CAVOK 23/20 A2979 NOSIG=
201512131300 METAR MRLB 131300Z 26003KT CAVOK 24/20 A2982 NOSIG=
201512131400 METAR MRLB 131400Z 21003KT CAVOK 27/21 A2984 NOSIG=
201512131500 METAR MRLB 131500Z 22004KT CAVOK 29/21 A2985 NOSIG=
201512131600 METAR MRLB 131600Z 19003KT CAVOK 32/21 A2985 NOSIG=
201512131700 METAR MRLB 131700Z 06006KT 9999 FEW035 SCT250 32/21 A2983 NOSIG=
201512131800 METAR MRLB 131800Z 04005KT 9999 FEW035 SCT250 32/21 A2980 NOSIG=
201512131900 METAR MRLB 131900Z 10006KT 9999 FEW035 SCT250 33/20 A2976 NOSIG=
201512132000 METAR MRLB 132000Z 11006KT 9999 SCT035 SCT250 34/21 A2974 NOSIG=
201512132100 METAR MRLB 132100Z 10006KT 9999 SCT035 SCT250 33/21 A2973 NOSIG=
201512132200 METAR MRLB 132200Z 30003KT 9999 FEW035 SCT250 32/22 A2974 NOSIG=
201512132300 METAR MRLB 132300Z 15002KT 9999 FEW040 SCT250 31/21 A2975 NOSIG=
201512132353 METAR MRLB 140000Z 13004KT 9999 FEW040 SCT250 29/20 A2976 NOSIG=
201512140000 METAR MRLB 140000Z 13004KT 9999 FEW040 SCT250 29/20 A2976 NOSIG=
201512140100 METAR MRLB 140100Z 01003KT CAVOK 27/21 A2978 NOSIG=
201512140200 METAR MRLB 140200Z 16003KT CAVOK 26/22 A2981 NOSIG=
201512140300 METAR MRLB 140300Z 18004KT CAVOK 26/21 A2984 NOSIG=
201512140400 METAR MRLB 140400Z 32002KT CAVOK 25/21 A2983 NOSIG=
201512140500 METAR MRLB 140500Z 11002KT CAVOK 25/21 A2984 NOSIG=
201512140600 METAR MRLB 140600Z 00000KT CAVOK 24/21 A2983 NOSIG=
201512140700 METAR MRLB NIL=
201512140800 METAR MRLB NIL=
201512140900 METAR MRLB NIL=
201512141000 METAR MRLB NIL=
201512141100 METAR MRLB NIL=
201512141200 METAR MRLB 141200Z 00000KT CAVOK 22/21 A2980 NOSIG=
201512141300 METAR MRLB 141300Z 06003KT CAVOK 23/21 A2982 NOSIG=
201512141400 METAR MRLB 141400Z 01002KT CAVOK 26/21 A2984 NOSIG=
201512141500 METAR MRLB 141500Z 33002KT 9999 FEW030 SCT250 29/22 A2985 NOSIG=
201512141600 METAR MRLB 141600Z 01004KT 9999 FEW030 30/21 A2986 NOSIG=
201512141700 METAR MRLB 141700Z 10005KT 9999 FEW035 32/20 A2983 NOSIG=
201512141800 METAR MRLB 141800Z 12003KT 9999 FEW035 33/21 A2980 NOSIG=
201512141900 METAR MRLB 141900Z 33005KT 9999 FEW035 34/21 A2976 NOSIG=
201512142000 METAR MRLB 142000Z 31003KT 9999 BKN030 33/22 A2973 NOSIG=
201512142100 METAR MRLB 142100Z 29008KT 9999 SCT035 31/22 A2972 NOSIG=
201512142200 METAR MRLB 142200Z 30006KT 9999 FEW035 31/22 A2971 NOSIG=
201512142300 METAR MRLB 142300Z 27004KT 9999 FEW035 30/22 A2972 NOSIG=
201512142352 METAR MRLB 150000Z 00000KT CAVOK 29/23 A2973 NOSIG=
201512150000 METAR MRLB 150000Z 00000KT CAVOK 29/23 A2973 NOSIG=
201512150100 METAR MRLB 150100Z 20003KT CAVOK 27/22 A2977 NOSIG=
201512150107 METAR MRLB 150107Z 20003KT CAVOK 27/22 A2977 NOSIG=
201512150200 METAR MRLB 150200Z 22002KT CAVOK 26/22 A2979 NOSIG=
201512150300 METAR MRLB 150300Z 17005KT CAVOK 25/22 A2982 NOSIG=
201512150400 METAR MRLB 150400Z 10003KT CAVOK 25/21 A2984 NOSIG=
201512150500 METAR MRLB 150500Z 12002KT CAVOK 24/22 A2983 NOSIG=
201512150600 METAR MRLB 150600Z 14003KT CAVOK 24/22 A2982 NOSIG=
201512150700 METAR MRLB NIL=
201512150800 METAR MRLB NIL=
201512150900 METAR MRLB NIL=
201512151000 METAR MRLB NIL=
201512151100 METAR MRLB NIL=
201512151200 METAR MRLB 151200Z 06005KT CAVOK 22/20 A2978 NOSIG=
201512151300 METAR MRLB 151300Z 05003KT CAVOK 23/20 A2980 NOSIG=
201512151400 METAR MRLB 151400Z 04002KT CAVOK 27/20 A2981 NOSIG=
201512151500 METAR MRLB 151500Z 35002KT CAVOK 29/21 A2981 NOSIG=
201512151600 METAR MRLB 151600Z 27004KT CAVOK 31/20 A2981 NOSIG=
201512151700 METAR MRLB 151700Z 22003KT 9999 FEW030 SCT250 31/20 A2980 NOSIG=
201512151800 METAR MRLB 151800Z 26004KT 9999 FEW030 SCT250 32/20 A29/78 NOSIG=
201512151900 METAR MRLB 151900Z 10005KT 9999 FEW035 SCT250 32/19 A2975 NOSIG=
201512152000 METAR MRLB 152000Z 12007KT 9999 FEW035 SCT250 33/19 A2973 NOSIG=
201512152100 METAR MRLB 152100Z 12006KT 9999 FEW035 SCT250 32/19 A2971 NOSIG=
201512152200 METAR MRLB 152200Z 23006KT 9999 FEW035 SCT250 33/20 A2972=
201512152300 METAR MRLB 152300Z 28006KT 9999 FEW035 SCT250 29/22 A2972 NOSIG=
201512152350 METAR MRLB 160000Z 29005KT 9999 FEW035 SCT250 27/23 A2975 NOSIG=
201512160000 METAR MRLB 160000Z 29005KT 9999 FEW035 SCT250 27/23 A2975 NOSIG=
201512160100 METAR MRLB 160100Z 00000KT 9999 FEW035 SCT250 27/23 A2976 NOSIG=
201512160200 METAR MRLB 160200Z 15004KT 9999 SCT035 26/24 A2979 NOSIG=
201512160300 METAR MRLB NIL=
201512160400 METAR MRLB 160400Z 10002KT 9999 FEW030 SCT250 25/23 A2981 NOSIG=
201512160500 METAR MRLB 160500Z 11002KT 9999 FEW030 SCT250 24/23 A2979 NOSIG=
201512160600 METAR MRLB 160600Z 05002KT 9999 FEW030 SCT250 24/23 A2979 NOSIG=
201512160700 METAR MRLB NIL=
201512160800 METAR MRLB NIL=
201512160900 METAR MRLB NIL=
201512161000 METAR MRLB NIL=
201512161100 METAR MRLB NIL=
201512161200 METAR MRLB 161200Z 05003KT CAVOK 21/20 A2979 NOSIG=
201512161300 METAR MRLB 161300Z 00000KT CAVOK 24/21 A2982 NOSIG=
201512161400 METAR MRLB 161400Z 03002KT CAVOK 25/21 A2984 NOSIG=
201512161500 METAR MRLB 161500Z 15002KT CAVOK 28/21 A2985 NOSIG=
201512161600 METAR MRLB 161600Z 00000KT 9999 FEW030 SCT250 30/21 A2984 NOSIG=
201512161700 METAR MRLB 161700Z 18002KT 9999 FEW030 SCT250 31/21 A2981 NOSIG=
201512161800 METAR MRLB 161800Z 35003KT 9999 FEW030 SCT250 32/20 A2978 NOSIG=
201512161900 METAR MRLB 161900Z 13006KT 9999 SCT035 33/18 A2974 NOSIG=
201512162000 METAR MRLB 162000Z 18005KT 9999 SCT035 33/19 A2972 NOSIG=
201512162100 METAR MRLB 162100Z 28009KT 9999 SCT035 32/22 A2970 NOSIG=
201512162200 METAR MRLB 162200Z 30008KT 9999 FEW035 30/22 A2970 NOSIG=
201512162300 METAR MRLB 162300Z 29006KT 9999 FEW040 29/21 A2972 NOSIG=
201512162354 METAR MRLB 170000Z 26004KT CAVOK 27/22 A2973 NOSIG=
201512170000 METAR MRLB 170000Z 26004KT CAVOK 27/22 A2973 NOSIG=
201512170100 METAR MRLB 170100Z 20002KT CAVOK 26/22 A2975 NOSIG=
201512170200 METAR MRLB 170200Z 18002KT CAVOK 25/22 A2977 NOSIG=
201512170300 METAR MRLB 170300Z 07003KT CAVOK 24/22 A2978 NOSIG=
201512170400 METAR MRLB 170400Z 08003KT CAVOK 24/22 A2976 NOSIG=
201512170500 METAR MRLB 170500Z 12003KT CAVOK 24/22 A2978 NOSIG=
201512170600 METAR MRLB 170600Z 35003KT CAVOK 23/21 A2977 NOSIG=
201512170700 METAR MRLB NIL=
201512170800 METAR MRLB NIL=
201512170900 METAR MRLB NIL=
201512171000 METAR MRLB NIL=
201512171100 METAR MRLB NIL=
201512171200 METAR MRLB 171200Z 32003KT CAVOK 21/19 A2976 NOSIG=
201512171300 METAR MRLB 171300Z 07003KT CAVOK 22/20 A2979 NOSIG=
201512171400 METAR MRLB 171400Z 20003KT CAVOK 26/21 A2980 NOSIG=
201512171500 METAR MRLB 171500Z 22003KT CAVOK 28/21 A2981 NOSIG=
201512171600 METAR MRLB 171600Z 18003KT CAVOK 30/20 A2980 NOSIG=
201512171700 METAR MRLB 171700Z 08004KT 9999 FEW035 32/19 A2978 NOSIG=
201512171800 METAR MRLB 171800Z 09006KT 9999 FEW035 32/19 A2975 NOSIG=
201512171900 METAR MRLB 171900Z 09007KT 9999 FEW035 33/19 A2973 NOSIG=
201512172000 METAR MRLB 172000Z 11008KT 9999 SCT030 33/19 A2970 NOSIG=
201512172100 METAR MRLB 172100Z 09006KT 9999 FEW035 33/18 A2968 NOSIG=
201512172200 METAR MRLB 172200Z 05004KT 9999 FEW035 33/18 A2968 NOSIG=
201512172300 METAR MRLB 172300Z 30006KT 9999 FEW045 29/22 A2970 NOSIG=
201512172348 METAR MRLB 180000Z 27004KT CAVOK 27/21 A2972 NOSIG=
201512180000 METAR MRLB 180000Z 27004KT CAVOK 27/21 A2972 NOSIG=
201512180100 METAR MRLB 180100Z 23003KT CAVOK 26/22 A2975 NOSIG=
201512180200 METAR MRLB 180200Z 23003KT CAVOK 26/22 A2978 NOSIG=
201512180300 METAR MRLB 180300Z 21006KT CAVOK 25/22 A2980 NOSIG=
201512180400 METAR MRLB 180400Z 00000KT CAVOK 25/22 A2981 NOSIG=
201512180500 METAR MRLB 180500Z 00000KT CAVOK 24/22 A2980 NOSIG=
201512180600 METAR MRLB 180600Z 04004KT CAVOK 24/22 A2980 NOSIG=
201512180700 METAR MRLB NIL=
201512180800 METAR MRLB NIL=
201512180900 METAR MRLB NIL=
201512181000 METAR MRLB NIL=
201512181100 METAR MRLB NIL=
201512181200 METAR MRLB 181200Z 00000KT 0100 FG VV/// 20/20 A2978 BCMG9999=
201512181300 METAR MRLB 181300Z COR 05003KT 9999 BCFG FEW002 22/20 A2981 NOSIG=
201512181400 METAR MRLB 181400Z 00000KT CAVOK 25/20 A2983 NOSIG=
201512181500 METAR MRLB 181500Z 34003KT CAVOK 27/20 A2983 NOSIG=
201512181600 METAR MRLB 181600Z 32004KT CAVOK 30/19 A2983 NOSIG=
201512181700 METAR MRLB 181700Z 06003KT CAVOK 32/18 A2980 NOSIG=
201512181800 METAR MRLB 181800Z 09004KT CAVOK 33/18 A2977 NOSIG=
201512181900 METAR MRLB 181900Z 02005KT CAVOK 34/17 A2974 NOSIG=
201512182000 METAR MRLB 182000Z 07013KT CAVOK 34/16 A2972 NOSIG=
201512182100 METAR MRLB 182100Z 09012KT CAVOK 33/16 A2970 NOSIG=
201512182200 METAR MRLB 182200Z 10012KT CAVOK 32/18 A2971 NOSIG=
201512182300 METAR MRLB 182300Z 10010KT CAVOK 31/19 A2973 NOSIG=
201512182352 METAR MRLB 190000Z 11008KT CAVOK 29/19 A2976 NOSIG=
201512190000 METAR MRLB 190000Z 11008KT CAVOK 29/19 A2976 NOSIG=
201512190100 METAR MRLB 190100Z 10010KT CAVOK 28/19 A2979 NOSIG=
201512190200 METAR MRLB 190200Z 10013KT CAVOK 28/18 A2981 NOSIG=
201512190300 METAR MRLB 190300Z 10012KT CAVOK 28/17 A2982 NOSIG=
201512190400 METAR MRLB 190400Z 10010KT CAVOK 27/18 A2983 NOSIG=
201512190500 METAR MRLB 190500Z 09010KT CAVOK 25/19 A2983 NOSIG=
201512190600 METAR MRLB 190600Z 08006KT CAVOK 23/18 A2982 NOSIG=
201512190700 METAR MRLB NIL=
201512190800 METAR MRLB NIL=
201512190900 METAR MRLB NIL=
201512191000 METAR MRLB NIL=
201512191100 METAR MRLB NIL=
201512191200 METAR MRLB 191200Z 36004KT CAVOK 24/19 A2980 NOSIG=
201512191300 METAR MRLB 191300Z 33004KT CAVOK 24/19 A2981 NOSIG=
201512191400 METAR MRLB 191400Z 08013KT CAVOK 29/20 A2983 NOSIG=
201512191500 METAR MRLB 191500Z 08018G28KT 9999 FEW035 SCT250 31/20 A2984 NOSIG=
201512191600 METAR MRLB 191600Z 09018G30KT 9999 FEW035 SCT240 31/20 A2983 NOSIG=
201512191700 METAR MRLB 191700Z 09020G31KT 9999 FEW035 BKN240 32/20 A2981 NOSIG=
201512191800 METAR MRLB 191800Z 08019KT 9999 FEW035 BKN240 32/20 A2981 NOSIG=
201512191900 METAR MRLB 191900Z 08019G30KT 9999 FEW035 BKN240 32/20 A2978 NOSIG=
201512192000 METAR MRLB 192000Z 08016KT 9999 FEW035 SCT250 32/20 A2976 NOSIG=
201512192100 METAR MRLB 192100Z 08015KT 9999 FEW035 BKN250 32/20 A2976 NOSIG=
201512192200 METAR MRLB 192200Z 07016KT 9999 FEW035 BKN250 31/20 A2976 NOSIG=
201512192300 METAR MRLB 192300Z 08015KT 9999 SCT035 BKN250 29/20 A2978 NOSIG=
201512192352 METAR MRLB 200000Z 08011KT 9999 SCT035 BKN250 28/20 A2981 NOSIG=
201512200000 METAR MRLB 200000Z 08011KT 9999 SCT035 BKN250 28/20 A2981 NOSIG=
201512200100 METAR MRLB 200100Z 09014KT 9999 FEW035 SCT100 28/20 A2982 NOSIG=
201512200200 METAR MRLB 200200Z 08013KT 9999 SCT035 BKN100 28/20 A2985 NOSIG=
201512200300 METAR MRLB 200300Z 10012KT 9999 FEW035 SCT100 28/20 A2987 NOSIG=
201512200400 METAR MRLB 200400Z 09010KT CAVOK 28/20 A2987 NOSIG=
201512200500 METAR MRLB 200500Z 08015KT CAVOK 28/20 A2984 NOSIG=
201512200600 METAR MRLB 200600Z 08016KT CAVOK 28/20 A2982 NOSIG=
201512200700 METAR MRLB NIL=
201512200800 METAR MRLB NIL=
201512200900 METAR MRLB NIL=
201512201000 METAR MRLB NIL=
201512201100 METAR MRLB NIL=
201512201200 METAR MRLB 201200Z 09018G28KT 9999 FEW035 BKN100 28/20 A2978 NOSIG=
201512201300 METAR MRLB 201300Z 08023KT 9999 FEW035 BKN100 28/20 A2979 NOSIG=
201512201400 METAR MRLB 201400Z 07024G34KT 9999 FEW035 SCT100 29/19 A2982 NOSIG=
201512201500 METAR MRLB 201500Z 08024G34KT 9999 FEW035 SCT100 30/19 A2982 NOSIG=
201512201600 METAR MRLB 201600Z 09020G34KT 9999 FEW035 SCT140 31/20 A2982 NOSIG=
201512201700 METAR MRLB 201700Z 08022KT 9999 FEW035 SCT140 32/19 A2982 NOSIG=
201512201800 METAR MRLB 201800Z 07021G31KT 9999 FEW035 BKN130 32/20 A2981 NOSIG=
201512201900 METAR MRLB 201900Z 08024G34KT 9999 FEW035 SCT130 32/19 A2978 NOSIG=
201512202000 METAR MRLB 202000Z 09016KT 9999 FEW035 SCT130 30/20 A2977 NOSIG=
201512202100 METAR MRLB 202100Z 08023KT 9999 FEW035 SCT140 31/20 A2975 NOSIG=
201512202200 METAR MRLB 202200Z 08020KT 9999 FEW035 30/19 A2976 NOSIG=
201512202300 METAR MRLB 202300Z 08019G29KT 99999 FEW040 29/20 A2977 NOSIG=
201512202352 METAR MRLB 210000Z 10020G32KT 9999 FEW040 28/19 A2977 NOSIG=
201512210000 METAR MRLB 210000Z 10020G32KT 9999 FEW040 28/19 A2977 NOSIG=
201512210100 METAR MRLB 210100Z 08019KT 9999 FEW040 28/20 A2981 NOSIG=
201512210200 METAR MRLB 210200Z COR 10017G28KT CAVOK 27/20 A2982 A2982 NOSIG=
201512210300 METAR MRLB 210300Z 09014KT CAVOK 27/20 A2983 NOSIG=
201512210400 METAR MRLB 210400Z 09020KT CAVOK 28/20 A2983 NOSIG=
201512210500 METAR MRLB 210500Z 08018KT CAVOK 28/20 A2982 NOSIG=
201512210600 METAR MRLB 210600Z 07018KT CAVOK 27/20 A2982 NOSIG=
201512210700 METAR MRLB NIL=
201512210800 METAR MRLB NIL=
201512210900 METAR MRLB NIL=
201512211000 METAR MRLB NIL=
201512211100 METAR MRLB NIL=
201512211200 METAR MRLB 211200Z 08011KT CAVOK 27/18 A2976 NOSIG=
201512211300 METAR MRLB 211300Z 07010KT 9999 FEW035 SCT250 28/18 A2978 NOSIG=
201512211400 METAR MRLB 211400Z 35010KT 9999 FEW035 SCT250 29/18 A2982 NOSIG=
201512211500 METAR MRLB 211500Z 10015G25KT 9999 FEW035 SCT250 30/19 A2981 NOSIG=
201512211600 METAR MRLB 211600Z 09016G26KT 9999 FEW035 SCT250 31/19 A2979 NOSIG=
201512211700 METAR MRLB 211700Z 09020KT 9999 FEW035 SCT250 32/18 A2978 NOSIG=
201512211800 METAR MRLB 211800Z 09019KT 9999 FEW035 SCT250 32/19 A2975 NOSIG=
201512211900 METAR MRLB 211900Z 09020KT 9999 FEW035 SCT250 33/18 A2973 NOSIG=
201512212000 METAR MRLB 212000Z 09020G34KT 9999 FEW035 SCT250 32/19 A2971 NOSIG=
201512212100 METAR MRLB 212100Z 08019G29KT 9999 FEW035 32/19 A2970 NOSIG=
201512212200 METAR MRLB 212200Z 09018G29KT 9999 FEW035 31/18 A2970 NOSIG=
201512212300 METAR MRLB 212300Z 10015KT CAVOK 30/18 A2969 NOSIG=
201512212355 METAR MRLB 220000Z 09014KT CAVOK 29/18 A2972 NOSIG=
201512220000 METAR MRLB 220000Z 09014KT CAVOK 29/18 A2972 NOSIG=
201512220100 METAR MRLB 220100Z 10015KT CAVOK 29/18 A2972 NOSIG=
201512220200 METAR MRLB 220200Z 10017KT CAVOK 28/19 A2976 A2976 NOSIG=
201512220300 METAR MRLB 220300Z 09015KT CAVOK 28/18 A2977 NOSIG=
201512220400 METAR MRLB 220400Z 06006KT CAVOK 27/18 2978 NOSIG=
201512220500 METAR MRLB 220500Z 08005KT CAVOK 27/19 A2977 NOSIG=
201512220600 METAR MRLB 220600Z 07011KT CAVOK 27/19 A2975 NOSIG=
201512220700 METAR MRLB NIL=
201512220800 METAR MRLB NIL=
201512220900 METAR MRLB NIL=
201512221000 METAR MRLB NIL=
201512221100 METAR MRLB NIL=
201512221200 METAR MRLB 221200Z 14003KT CAVOK 24/18 A2975 NOSIG=
201512221300 METAR MRLB 221300Z 05003KT CAVOK 23/19 A2976 NOSIG=
201512221400 METAR MRLB 221400Z 35003KT CAVOK 28/19 A2978 NOSIG=
201512221500 METAR MRLB 221500Z 04008KT CAVOK 31/20 A2978 NOSIG=
201512221600 METAR MRLB 221600Z 10015KT 9999 FEW030 32/19 A2975 NOSIG=
201512221700 METAR MRLB 221700Z 09019G29KT 9999 FEW035 32/18 A2973 NOSIG=
201512221800 METAR MRLB 221800Z 09020KT 9999 FEW035 33/19 A2971 NOSIG=
201512221900 METAR MRLB 221900Z 09018G28KT 9999 FEW035 33/19 A2969 NOSIG=
201512222000 METAR MRLB 222000Z 10016KT 9999 FEW035 33/19 A2967 NOSIG=
201512222100 METAR MRLB 222100Z 09014KT 9999 FEW035 33/18 A2966 NOSIG=
201512222200 METAR MRLB 222200Z 09013KT 9999 FEW035 32/20 A2966 NOSIG=
201512222300 METAR MRLB 222300Z 09013KT 9999 FEW035 30/20 A2967 NOSIG=
201512222352 METAR MRLB 230000Z 09010KT CAVOK 29/20 A2969 NOSIG=
201512230000 METAR MRLB 230000Z 09010KT CAVOK 29/20 A2969 NOSIG=
201512230100 METAR MRLB 230100Z 12007KT CAVOK 27/20 A2973 NOSIG=
201512230200 METAR MRLB 230200Z 10006KT CAVOK 27/20 A2976 NOSIG=
201512230300 METAR MRLB 230300Z 11005KT CAVOK 25/20 A2978 NOSIG=
201512230400 METAR MRLB 230400Z 00000KT CAVOK 25/20 A2978=
201512230500 METAR MRLB 230500Z 19003KT CAVOK 24/20 A2977 NOSIG=
201512230600 METAR MRLB 230600Z VRB02KT CAVOK 24/20 A2978 NOSIG=
201512230700 METAR MRLB NIL=
201512230800 METAR MRLB NIL=
201512230900 METAR MRLB NIL=
201512231000 METAR MRLB NIL=
201512231100 METAR MRLB NIL=
201512231200 METAR MRLB 231200Z 00000KT CAVOK 21/20 A2976 NOSIG=
201512231300 METAR MRLB 231300Z 06003KT CAVOK 21/19 A2978 NOSIG=
201512231400 METAR MRLB 231400Z 19002KT CAVOK 26/21 A2980 NOSIG=
201512231500 METAR MRLB 231500Z 24004KT CAVOK 29/21 A2981 NOSIG=
201512231600 METAR MRLB 231600Z 14003KT 9999 FEW030 SCT110 31/20 A2980 NOSIG=
201512231700 METAR MRLB 231700Z 10008KT 9999 FEW035 32/20 A2977 NOSIG=
201512231800 METAR MRLB 231800Z 10011KT 9999 SCT035 33/20 A2975 NOSIG=
201512231900 METAR MRLB 231900Z 08009KT 9999 FEW035 SCT080 33/20 A2972 NOSIG=
201512232000 METAR MRLB 232000Z 09007KT 9999 FEW035 SCT250 32/21 A2969 NOSIG=
201512232100 METAR MRLB 232100Z 09008KT 9999 FEW035 SCT250 33/21 A2967 NOSIG=
201512232200 METAR MRLB 232200Z 06008KT 9999 FEW035 SCT250 32/20 A2967 NOSIG=
201512232300 METAR MRLB 232300Z 08009KT 9999 FEW035 SCT250 30/20 A2968 NOSIG=
201512232351 METAR MRLB 240000Z 08009KT 9999 SCT035 SCT250 29/20 A2970 NOSIG=
201512240000 METAR MRLB 240000Z 08009KT 9999 SCT035 SCT250 29/20 A2970 NOSIG=
201512240100 METAR MRLB 240100Z 10007KT 9999 FEW035 BKB120 28/20 A2973 NOSIG=
201512240200 METAR MRLB 240200Z 07006KT 9999 FEW035 BKN120 28/20 A2975 NOSIG=
201512240300 METAR MRLB 240300Z 08006KT 9999 FEW035 BKN120 28/20 A2977 NOSIG=
201512240400 METAR MRLB 240400Z 00000KT 9999 FEW035 BKN120 26/21 A2978 NOSIG=
201512240500 METAR MRLB 240500Z 00000KT 9999 FEW035 BKN120 26/21 A2977 NOSIG=
201512240600 METAR MRLB 240600Z 22003KT 9999 FEW035 BKN120 25/21 A2975 NOSIG=
201512240700 METAR MRLB NIL=
201512240800 METAR MRLB NIL=
201512240900 METAR MRLB NIL=
201512241000 METAR MRLB NIL=
201512241100 METAR MRLB NIL=
201512241200 METAR MRLB 241200Z 23004KT CAVOK 22/21 A2976 NOSIG=
201512241300 METAR MRLB 241300Z 01002KT CAVOK 24/21 A2977 NOSIG=
201512241400 METAR MRLB 241400Z 19004KT 9999 FEW035 28/21 A2980 NOSIG=
201512241500 METAR MRLB 241500Z 28006KT 9999 FEW035 30/21 A2980 NOSIG=
201512241600 METAR MRLB 241600Z 09015KT 9999 FEW035 32/21 A2980 NOSIG=
201512241700 METAR MRLB 241700Z 09015KT 9999 FEW035 33/20 A2979 NOSIG=
201512241800 METAR MRLB 241800Z 09016KT 9999 FEW035 33/20 A2978 NOSIG=
201512241900 METAR MRLB 241900Z 10013G23KT 9999 FEW035 34/20 A2974 NOSIG=
201512242000 METAR MRLB 242000Z 08017KT 9999 FEW035 33/20 A2972 NOSIG=
201512242100 METAR MRLB 242100Z 08014KT 9999 FEW035 33/20 A2970 NOSIG=
201512242200 METAR MRLB 242200Z 09013KT 9999 FEW035 32/20 A2970 NOSIG=
201512242300 METAR MRLB 242300Z 09012KT CAVOK 30/20 A2972 NOSIG=
201512242353 METAR MRLB 250000Z 08016KT CAVOK 29/20 A2974 NOSIG RMK FEW250=
201512250000 METAR MRLB 250000Z COR 08016KT CAVOK 29/20 A2974 NOSIG=
201512250100 METAR MRLB 250100Z 08016KT CAVOK 28/20 A2976 NOSIG=
201512250200 METAR MRLB 250200Z 08011KT CAVOK 28/20 A2979 NOSIG=
201512250300 METAR MRLB 250300Z 08015KT CAVOK 28/20 A2980 NOSIG=
201512250400 METAR MRLB 250400Z 10014KT CAVOK 28/20 A2980 NOSIG=
201512250500 METAR MRLB 250500Z 09012KT CAVOK 28/20 A2980 NOSIG=
201512250600 METAR MRLB 250600Z 10015KT CAVOK 27/20 A2978 NOSIG=
201512250700 METAR MRLB NIL=
201512250800 METAR MRLB NIL=
201512250900 METAR MRLB NIL=
201512251000 METAR MRLB NIL=
201512251100 METAR MRLB NIL=
201512251200 METAR MRLB 251200Z 10015KT CAVOK 27/18 A2976 NOSIG=
201512251300 METAR MRLB 251300Z 08012KT CAVOK 27/19 A2979 NOSIG=
201512251400 METAR MRLB 251400Z 10018KT CAVOK 28/18 A2979 NOSIG=
201512251500 METAR MRLB 251500Z 09018KT CAVOK 30/18 A2981 NOSIG=
201512251600 METAR MRLB 251600Z 09017G29KT CAVOK 31/19 A2980 NOSIG=
201512251700 METAR MRLB 251700Z 10018KT 9999 FEW035 31/19 A2979 NOSIG=
201512251800 METAR MRLB 251800Z 09021KT 9999 FEW035 31/18 A2977 NOSIG=
201512251900 METAR MRLB 251900Z 08020G30KT 9999 FEW035 32/19 A2976 NOSIG=
201512252000 METAR MRLB 252000Z 07021KT 9999 FEW035 32/19 A2972 NOSIG=
201512252100 METAR MRLB 252100Z 08015KT 9999 FEW035 32/19 A2971 NOSIG=
201512252200 METAR MRLB 252200Z 07018KT 9999 FEW040 32/19 A2971 NOSIG=
201512252300 METAR MRLB 252300Z 08015KT 9999 FEW035 30/19 A2971 NOSIG=
201512252350 METAR MRLB 260000Z 08014G24KT 9999 FEW040 28/20 A2973 NOSIG=
201512260000 METAR MRLB 260000Z 08014G24KT 9999 FEW040 28/20 A2973 NOSIG=
201512260100 METAR MRLB 260100Z 09019KT 9999 FEW040 28/19 A2974 NOSIG=
201512260200 METAR MRLB 260200Z 09016KT CAVOK 28/20 A2977 NOSIG=
201512260300 METAR MRLB 260300Z 10016G27KT CAVOK 28/20 A2978 NOSIG=
201512260400 METAR MRLB 260400Z 10016KT CAVOK 28/20 A2977 NOSIG=
201512260500 METAR MRLB 260500Z 07008KT CAVOK 27/20 A2977 NOSIG=
201512260600 METAR MRLB 260600Z 05012KT CAVOK 26/20 A2976 NOSIG=
201512260700 METAR MRLB NIL=
201512260800 METAR MRLB NIL=
201512260900 METAR MRLB NIL=
201512261000 METAR MRLB NIL=
201512261100 METAR MRLB NIL=
201512261200 METAR MRLB 261200Z 07005KT CAVOK 25/19 A2975 NOSIG=
201512261300 METAR MRLB 261300Z 03005KT CAVOK 26/19 A2976 NOSIG=
201512261400 METAR MRLB 261400Z 09014KT 9999 FEW030 29/19 A2979 NOSIG=
201512261500 METAR MRLB 261500Z 09022G34KT 9999 FEW030 30/19 A2980 NOSIG=
201512261600 METAR MRLB 261600Z 08022G33KT 9999 FEW030 31/19 A2979 NOSIG=
201512261700 METAR MRLB 261700Z 09018KT 9999 FEW030 32/19 A2978 NOSIG=
201512261800 METAR MRLB 261800Z 10019KT 9999 FEW030 32/19 A2975 NOSIG=
201512261900 METAR MRLB 261900Z 10016KT 9999 FEW030 33/19 A2973 NOSIG=
201512262000 METAR MRLB 262000Z 09020KT 9999 FEW035 33/18 A2971 NOSIG=
201512262100 METAR MRLB 262100Z 09023KT 9999 FEW035 32/19 A2969 NOSIG=
201512262200 METAR MRLB 262200Z 09016G29KT 9999 FEW035 SCT130 31/19 A2968 NOSIG=
201512262300 METAR MRLB 262300Z 10017KT 9999 FEW040 29/19 A2969 NOSIG=
201512262352 METAR MRLB 270000Z 11016KT 9999 FEW040 28/19 A2969 NOSIG=
201512270000 METAR MRLB 270000Z 11016KT 9999 FEW040 28/19 A2969 NOSIG=
201512270100 METAR MRLB 270100Z 10018KT 9999 FEW040 28/19 A2971 NOSIG=
201512270200 METAR MRLB 270200Z 10016KT CAVOK 28/19 A2974 NOSIG=
201512270300 METAR MRLB 270300Z 09016KT CAVOK 28/19 A2975 NOSIG=
201512270400 METAR MRLB 270400Z 10016KT CAVOK 28/19 A2975 NOSIG=
201512270500 METAR MRLB 270500Z 10013KT CAVOK 27/19 A2974 NOSIG=
201512270600 METAR MRLB 270600Z 10008KT CAVOK 27/19 A2973 NOSIG=
201512270700 METAR MRLB NIL=
201512270800 METAR MRLB NIL=
201512270900 METAR MRLB NIL=
201512271000 METAR MRLB NIL=
201512271100 METAR MRLB NIL=
201512271200 METAR MRLB 271200Z 28004KT CAVOK 22/19 A2971 NOSIG=
201512271300 METAR MRLB 271300Z VRB03KT CAVOK 24/20 A2974 NOSIG=
201512271400 METAR MRLB 271400Z 00000KT CAVOK 28/20 A2976 NOSIG=
201512271500 METAR MRLB 271500Z 33003KT 9999 FEW035 29/20 A2977 NOSIG=
201512271600 METAR MRLB 271600Z 08011KT 9999 FEW030 32/20 A2977 NOSIG=
201512271700 METAR MRLB 271700Z 09015KT 9999 FEW030 33/19 A2976 NOSIG=
201512271800 METAR MRLB 271800Z 09016KT 9999 FEW030 33/19 A2973 NOSIG=
201512271900 METAR MRLB 271900Z 09016KT 9999 FEW030 33/19 A2968 NOSIG=
201512272000 METAR MRLB 272000Z 09012KT 9999 FEW035 33/19 A2966 NOSIG=
201512272100 METAR MRLB 272100Z 10015KT CAVOK 33/18 A2964 NOSIG=
201512272200 METAR MRLB 272200Z 10011KT CAVOK 32/19 A2964 NOSIG=
201512272300 METAR MRLB 272300Z 10012KT CAVOK 30/18 A2964 NOSIG=
201512272353 METAR MRLB 280000Z 10009KT CAVOK 28/18 A2966 NOSIG=
201512280000 METAR MRLB 280000Z 10009KT CAVOK 28/18 A2966 NOSIG=
201512280100 METAR MRLB 280100Z 11009KT CAVOK 28/19 A2970 NOSIG=
201512280200 METAR MRLB 280200Z 10011KT CAVOK 27/19 A2972 NOSIG=
201512280300 METAR MRLB 280300Z 10005KT CAVOK 26/19 A2975 NOSIG=
201512280400 METAR MRLB 280400Z 12005KT CAVOK 26/19 A2975 NOSIG=
201512280500 METAR MRLB 280500Z 05004KT CAVOK 23/19 A2974 NOSIG=
201512280600 METAR MRLB 280600Z 15002KT CAVOK 24/19 A2973 NOSIG=
201512280700 METAR MRLB NIL=
201512280800 METAR MRLB NIL=
201512280900 METAR MRLB NIL=
201512281000 METAR MRLB NIL=
201512281100 METAR MRLB NIL=
201512281200 METAR MRLB 281200Z 00000KT CAVOK 21/19 A2974 NOSIG=
201512281300 METAR MRLB 281300Z 06003KT CAVOK 23/20 A2976 NOSIG=
201512281400 METAR MRLB 281400Z 00000KT CAVOK 26/19 A2978 NOSIG=
201512281500 METAR MRLB 281500Z 30002KT CAVOK 28/20 A2979 NOSIG=
201512281600 METAR MRLB 281600Z 21002KT CAVOK 32/20 A2979 NOSIG=
201512281700 METAR MRLB 281700Z 09010KT 9999 FEW035 33/20 A2977 NOSIG=
201512281800 METAR MRLB 281800Z 09013KT 9999 FEW035 33/19 A2975 NOSIG=
201512281900 METAR MRLB 281900Z 10010KT 9999 FEW035 33/19 A2972 NOSIG=
201512282000 METAR MRLB 282000Z 10012KT 9999 FEW035 34/19 A2968 NOSIG=
201512282100 METAR MRLB 282100Z 10013KT 9999 FEW035 33/19 A2966 NOSIG=
201512282200 METAR MRLB 282200Z 09013KT 9999 FEW035 33/18 A2966 NOSIG=
201512282300 METAR MRLB 282300Z 10011KT 9999 FEW035 30/19 A2967 NOSIG=
201512282352 METAR MRLB 290000Z 10009KT CAVOK 29/20 A2969 NOSIG=
201512282355 METAR MRLB 290000Z 10009KT CAVOK 29/20 A2969 NOSIG=
201512290000 METAR MRLB 290000Z 10009KT CAVOK 29/20 A2969 NOSIG=
201512290100 METAR MRLB 290100Z 09010KT CAVOK 28/20 A2972 NOSIG=
201512290200 METAR MRLB 290200Z 11006KT CAVOK 27/19 A2975 NOSIG=
201512290300 METAR MRLB 290300Z 10008KT CAVOK 27/19 A2978 NOSIG=
201512290400 METAR MRLB 290400Z 10007KT CAVOK 26/18 A2980 NOSIG=
201512290500 METAR MRLB 290500Z 14003KT CAVOK 25/18 A2980 NOSIG=
201512290600 METAR MRLB 290600Z 07004KT CAVOK 23/19 A2980 NOSIG=
201512290700 METAR MRLB NIL=
201512290800 METAR MRLB NIL=
201512290900 METAR MRLB NIL=
201512291000 METAR MRLB NIL=
201512291100 METAR MRLB NIL=
201512291200 METAR MRLB 291200Z 05003KT CAVOK 19/18 A2980 NOSIG=
201512291300 METAR MRLB 291300Z 28003KT CAVOK 21/18 A2983 NOSIG=
201512291400 METAR MRLB 291400Z 35003KT CAVOK 24/19 A2986 NOSIG=
201512291500 METAR MRLB 291500Z 29003KT CAVOK 29/19 A2987 NOSIG=
201512291600 METAR MRLB 291600Z 10009KT CAVOK 32/19 A2986 NOSIG=
201512291700 METAR MRLB 291700Z 09011KT CAVOK 33/19 A2984 NOSIG=
201512291800 METAR MRLB 291800Z 07012KT 9999 FEW035 33/19 A2982 NOSIG=
201512291900 METAR MRLB 291900Z 08010KT 9999 FEW035 34/18 A2979 NOSIG=
201512292000 METAR MRLB 292000Z 09011KT 9999 FEW035 34/19 A2976 NOSIG=
201512292100 METAR MRLB 292100Z 09011KT 9999 FEW035 34/19 A2975 NOSIG=
201512292200 METAR MRLB 292200Z 08012KT 9999 FEW035 33/19 A2975 NOSIG=
201512292258 METAR MRLB 2923000Z 10014KT CAVOK 30/19 A2975 NOSIG=
201512292300 METAR MRLB 2923000Z 10014KT CAVOK 30/19 A2975 NOSIG=
201512292353 METAR MRLB 300000Z 10013KT CAVOK 29/19 A2977 NOSIG=
201512300000 METAR MRLB 300000Z 10013KT CAVOK 29/19 A2977 NOSIG=
201512300100 METAR MRLB 300100Z 10010KT CAVOK 28/19 A2979 NOSIG=
201512300200 METAR MRLB 300200Z 10013KT CAVOK 28/19 A2981 NOSIG=
201512300300 METAR MRLB 300300Z 09010KT CAVOK 28/19 A2983 NOSIG=
201512300400 METAR MRLB 300400Z 09012KT CAVOK 28/19 A2984 NOSIG=
201512300500 METAR MRLB 300500Z 10014G24KT CAVOK 28/19 A2984 NOSIG=
201512300600 METAR MRLB 300600Z 07009KT CAVOK 27/20 A2984 NOSIG=
201512300700 METAR MRLB NIL=
201512300800 METAR MRLB NIL=
201512300900 METAR MRLB NIL=
201512301000 METAR MRLB NIL=
201512301100 METAR MRLB NIL=
201512301200 METAR MRLB 301200Z 09015G25KT CAVOK 27/20 A2981 NOSIG=
201512301300 METAR MRLB 301300Z 06012KT CAVOK 27/20 A2984 NOSIG=
201512301400 METAR MRLB 301400Z 08019KT CAVOK 29/20 A2986 NOSIG=
201512301500 METAR MRLB 301500Z 09017KT 9999 FEW030 30/20 A2986 NOSIG=
201512301600 METAR MRLB 301600Z 08018G28KT 9999 FEW030 32/19 A2986 NOSIG=
201512301700 METAR MRLB 301700Z 08020KT 9999 FEW030 32/19 A2984 NOSIG=
201512301800 METAR MRLB 301800Z 09018KT 9999 FEW030 33/20 A2982 NOSIG=
201512301900 METAR MRLB 301900Z 09015G25KT 9999 FEW035 33/20 A2979 NOSIG=
201512302000 METAR MRLB 302000Z 08016KT 9999 FEW035 33/20 A2976 NOSIG=
201512302100 METAR MRLB 302100Z 08018KT 9999 FEW035 32/20 A2975 NOSIG=
201512302200 METAR MRLB 302200Z 08016KT 9999 FEW035 32/20 A2975 NOSIG=
201512302300 METAR MRLB 302300Z 08017KT CAVOK 30/21 A2975 NOSIG=
201512302352 METAR MRLB 310000Z 07020KT CAVOK 29/19 A2976 NOSIG=
201512310000 METAR MRLB 310000Z 07020KT CAVOK 29/19 A2976 NOSIG=
201512310100 METAR MRLB 310100Z COR 09018G29KT CAVOK 28/19 A2977 NOSIG=
201512310200 METAR MRLB 310200Z 10020G32KT CAVOK 28/20 A2978 NOSIG=
201512310300 METAR MRLB 310300Z 09023G34KT CAVOK 28/19 A2978 NOSIG=
201512310400 METAR MRLB 310400Z 10018G32KT CAVOK 28/19 A2979 NOSIG=
201512310500 METAR MRLB 310500Z 09020G31KT CAVOK 28/19 A2979 NOSIG=
201512310600 METAR MRLB 310600Z 10016KT CAVOK 28/20 A2979 NOSIG=
201512310700 METAR MRLB NIL=
201512310800 METAR MRLB NIL=
201512310900 METAR MRLB NIL=
201512311000 METAR MRLB NIL=
201512311100 METAR MRLB NIL=
201512311200 METAR MRLB 311200Z 10017KT 9999 FEW040 28/19 A2977 NOSIG=
201512311300 METAR MRLB 311300Z 09015G26KT 9999 FEW040 28/19 A2979 NOSIG=
201512311400 METAR MRLB 311400Z 09018G30KT 9999 FEW040 29/19 A2981 NOSIG=
201512311500 METAR MRLB 311500Z 10019KT 9999 FEW040 30/19 A2980 NOSIG=
201512311600 METAR MRLB 311600Z 08022G32KT 9999 FEW035 31/19 A2980 NOSIG=
201512311700 METAR MRLB 311700Z 10020G31KT 9999 FEW035 32/20 A2977 NOSIG=
201512311800 METAR MRLB 311800Z 09020KT 9999 FEW035 33/19 A2975 NOSIG=
201512311900 METAR MRLB 311900Z 08021G32KT 9999 FEW035 34/19 A2972 NOSIG=
201512312000 METAR MRLB 312000Z 09021KT 9999 FEW035 34/19 A2970 NOSIG=
201512312100 METAR MRLB 312100Z 09019KT 9999 FEW035 33/19 A2968 NOSIG=
201512312200 METAR MRLB 312200Z 09018KT 9999 FEW035 32/19 A2969 NOSIG=
201512312300 METAR MRLB 312300Z 09015KT 9999 FEW035 30/20 A2970 NOSIG=
201512312355 METAR MRLB 010000Z 09017G27KT CAVOK 29/19 A2971 NOSIG=
