201601010000 METAR MRLB 010000Z 09017G27KT CAVOK 29/19 A2971 NOSIG=
201601010052 METAR MRLB 050100Z 07004KT 9999 FEW035 27/19 A2982 NOSIG=
201601010100 METAR MRLB 010100Z 09019KT CAVOK 28/20 A2971 NOSIG=
201601010200 METAR MRLB 010200Z 09019KT CAVOK 28/19 A2974 NOSIG=
201601010300 METAR MRLB 010300Z 10017KT CAVOK 28/19 A2974 NOSIG=
201601010400 METAR MRLB 010400Z 10008G21KT CAVOK 28/20 A2977 NOSIG=
201601010500 METAR MRLB 010500Z 09018KT CAVOK 28/19 A2975 NOSIG=
201601010600 METAR MRLB 010600Z 09013KT CAVOK 28/19 A2975 NOSIG=
201601010700 METAR MRLB NIL=
201601010800 METAR MRLB NIL=
201601010900 METAR MRLB NIL=
201601011000 METAR MRLB NIL=
201601011100 METAR MRLB NIL=
201601011200 METAR MRLB 011200Z 06005KT CAVOK 25/19 A2975 NOSIG=
201601011300 METAR MRLB 011300Z 09013KT CAVOK 28/18 A2977 NOSIG=
201601011400 METAR MRLB 011400Z 09021G32KT CAVOK 29/18 A2978 NOSIG=
201601011500 METAR MRLB 011500Z 09018KT CAVOK 30/18 A2980 NOSIG=
201601011600 METAR MRLB 011600Z 09019KT CAVOK 32/18 A2980 NOSIG=
201601011700 METAR MRLB 011700Z 08020KT CAVOK 33/17 A2978 NOSIG=
201601011752 METAR MRLB 01800Z 08024G34KT CAVOK 33/17 A2975 NOSIG=
201601011800 METAR MRLB 011800Z COR 08024G34KT CAVOK 33/17 A2975 NOSIG=
201601011900 METAR MRLB 011900Z 08019KT CAVOK 33/17 A2973 NOSIG=
201601012000 METAR MRLB 012000Z 08020G30KT CAVOK 34/17 A2970 NOSIG=
201601012100 METAR MRLB 012100Z COR 08021G31KT CAVOK 33/17 A2969 NOSIG=
201601012200 METAR MRLB 012200Z 08023KT CAVOK 32/16 A2970 NOSIG=
201601012300 METAR MRLB 012300Z 09018KT CAVOK 30/17 A2971 NOSIG=
201601012354 METAR MRLB 020000Z 08020G31KT CAVOK 29/17 A2974 NOSIG=
201601020000 METAR MRLB 020000Z 08020G31KT CAVOK 29/17 A2974 NOSIG=
201601020100 METAR MRLB 020100Z 09019KT CAVOK 28/17 A2976 NOSIG=
201601020200 METAR MRLB 020200Z 08019KT CAVOK 28/17 A2978 NOSIG=
201601020300 METAR MRLB 020300Z 10017KT CAVOK 27/17 A2980 NOSIG=
201601020400 METAR MRLB 020400Z 07016KT CAVOK 27/18 A2983 NOSIG=
201601020500 METAR MRLB 020500Z 09019KT CAVOK 27/17 A2981 NOSIG=
201601020600 METAR MRLB 020600Z 07014KT CAVOK 26/17 A2982 NOSIG=
201601020700 METAR MRLB NIL=
201601020800 METAR MRLB NIL=
201601020900 METAR MRLB NIL=
201601021000 METAR MRLB NIL=
201601021100 METAR MRLB NIL=
201601021200 METAR MRLB 021200Z 30003KT CAVOK 23/17 A2981 NOSIG=
201601021300 METAR MRLB 021300Z 07004KT CAVOK 22/17 A2984 NOSIG=
201601021400 METAR MRLB 021400Z 08003KT CAVOK 28/18 A2986 NOSIG=
201601021500 METAR MRLB 021500Z 03005KT CAVOK 29/19 A2986 NOSIG=
201601021600 METAR MRLB 021600Z 09015KT CAVOK 31/17 A2984 NOSIG=
201601021700 METAR MRLB 021700Z 09016G26KT CAVOK 32/17 A2982 NOSIG=
201601021800 METAR MRLB 021800Z 09019G31KT CAVOK 32/17 A2978 NOSIG=
201601021900 METAR MRLB 021900Z 08018KT CAVOK 33/16 A2976 NOSIG=
201601022000 METAR MRLB 022000Z 10019G30KT CAVOK 33/17 A2972 NOSIG=
201601022100 METAR MRLB 022100Z 09021G32KT 9999 FEW045 32/17 A2972 NOSIG=
201601022200 METAR MRLB 022200Z 10014KT CAVOK 31/18 A2972 NOSIG=
201601022300 METAR MRLB 022300Z 08018KT CAVOK 29/18 A2973 NOSIG=
201601022352 METAR MRLB 030000Z 09017G27KT CAVOK 28/19 A2973 NOSIG=
201601030000 METAR MRLB 030000Z 09017G27KT CAVOK 28/19 A2973 NOSIG=
201601030100 METAR MRLB 030100Z 09018KT CAVOK 27/18 A2976 NOSIG=
201601030200 METAR MRLB 030200Z 08017KT CAVOK 27/18 A2979 NOSIG=
201601030300 METAR MRLB 030300Z 09017KT CAVOK 27/18 A2981 NOSIG=
201601030400 METAR MRLB 030400Z 09015KT CAVOK 27/18 A2981 NOSIG=
201601030500 METAR MRLB 030500Z 10015KT CAVOK 27/18 A2981 NOSIG=
201601030600 METAR MRLB 030600Z 10013KT CAVOK 27/17 A2981 NOSIG=
201601030700 METAR MRLB NIL=
201601030800 METAR MRLB NIL=
201601030900 METAR MRLB NIL=
201601031000 METAR MRLB NIL=
201601031100 METAR MRLB NIL=
201601031200 METAR MRLB 031200Z 00000KT CAVOK 22/19 A2983 NOSIG=
201601031300 METAR MRLB 031300Z 28005KT CAVOK 23/19 A2984 NOSIG=
201601031400 METAR MRLB 031400Z 25004KT CAVOK 26/20 A2987 NOSIG=
201601031500 METAR MRLB 031500Z 17004KT 9999 FEW030 30/ 19 A2988 NOSIG=
201601031600 METAR MRLB 031600Z 35006KT 9999 FEW030 31/19 A2987 NOSIG=
201601031700 METAR MRLB 031700Z COR 08004KT 9999 FEW030 32/19 A2985 NOSIG=
201601031800 METAR MRLB 031800Z 10012KT 9999 FEW030 33/19 A2981 NOSIG=
201601031900 METAR MRLB 031900Z 13011KT 9999 FEW030 34/18 A2978 NOSIG=
201601032000 METAR MRLB 032000Z 09014KT 9999 BKN030 33/18 A2975 NOSIG=
201601032100 METAR MRLB 032100Z 10011KT 9999 SCT030 33/18 A2974 NOSIG=
201601032200 METAR MRLB 032200Z 35008KT 9999 SCT030 33/19 A2974 NOSIG=
201601032300 METAR MRLB 032300Z 10004KT 9999 FEW030 SCT250 31/18 A2976 NOSIG=
201601032352 METAR MRLB 040000Z 35003KT 9999 FEW035 SCT250 29/20 A2977 NOSIG=
201601040000 METAR MRLB 040000Z 35003KT 9999 FEW035 SCT250 29/20 A2977 NOSIG=
201601040100 METAR MRLB 040100Z 02002KT 9999 FEW040 27/19 A2980 NOSIG=
201601040200 METAR MRLB 040200Z 00000KT 9999 FEW040 26/20 A2982 NOSIG=
201601040300 METAR MRLB 040300Z 22005KT CAVOK 24/20 A2984 NOSIG=
201601040400 METAR MRLB 040400Z 24004KT CAVOK 23/20 A2986 NOSIG=
201601040500 METAR MRLB 040500Z 02004KT CAVOK 23/20 A2986 NOSIG=
201601040600 METAR MRLB 040600Z 35003KT CAVOK 23/20 A2985 NOSIG=
201601040700 METAR MRLB NIL=
201601040800 METAR MRLB NIL=
201601040900 METAR MRLB NIL=
201601041000 METAR MRLB NIL=
201601041100 METAR MRLB NIL=
201601041200 METAR MRLB 041200Z 01002KT 9999 FEW040 BKN250 20/19 A2983 NOSIG=
201601041300 METAR MRLB 041300Z 07002KT 9999 FEW035 22/19 A2985 NOSIG=
201601041400 METAR MRLB 041400Z 23003KT 9999 FEW035 25/20 A2988 NOSIG=
201601041500 METAR MRLB 041500Z 23006KT CAVOK 27/20 A2988 NOSIG=
201601041600 METAR MRLB 041600Z 24005KT 9999 FEW040 29/20 A2988 NOSIG=
201601041700 METAR MRLB 041700Z 26003KT 9999 FEW040 31/19 A2986 NOSIG=
201601041800 METAR MRLB 041800Z 28006KT 9999 FEW040 33/19 A2983 NOSIG=
201601041900 METAR MRLB 041900Z 30005KT 9999 FEW040 33/19 A2979 NOSIG=
201601042000 METAR MRLB 042000Z 28006KT 9999 FEW040 34/19 A2977 NOSIG=
201601042100 METAR MRLB 042100Z 07010KT 9999 FEW035 32/19 A2976 NOSIG=
201601042200 METAR MRLB 042200Z 10012KT 9999 FEW035 32/19 A2976 NOSIG=
201601042300 METAR MRLB 042300Z 10008KT 9999 FEW035 30/19 A2976 NOSIG=
201601042350 METAR MRLB 050000Z 09006KT 9999 FEW035 29/19 A2978 NOSIG=
201601050000 METAR MRLB 050000Z 09006KT 9999 FEW035 29/19 A2978 NOSIG=
201601050100 METAR MRLB 050100Z 07004KT 9999 FEW035 27/19 A2982 NOSIG=
201601050200 METAR MRLB 050200Z 23002KT 9999 FEW035 27/19 A2986 NOSIG=
201601050300 METAR MRLB 050300Z 04004KT CAVOK 26/19 A2988 NOSIG=
201601050400 METAR MRLB 050400Z 09013KT CAVOK 28/19 A2988 NOSIG=
201601050500 METAR MRLB 050500Z 29002KT CAVOK 26/19 A2989 NOSIG=
201601050600 METAR MRLB 050600Z 19003KT CAVOK 25/20 A2987 NOSIG=
201601050700 METAR MRLB NIL=
201601050800 METAR MRLB NIL=
201601050900 METAR MRLB NIL=
201601051000 METAR MRLB NIL=
201601051100 METAR MRLB NIL=
201601051200 METAR MRLB 051200Z 25004KT CAVOK 22/20 A2989 NOSIG=
201601051300 METAR MRLB 051300Z 24004KT CAVOK 24/20 A2990 NOSIG=
201601051400 METAR MRLB 051400Z 18003KT 9999 FEW035 26/20 A2992 NOSIG=
201601051500 METAR MRLB 051500Z 27004KT CAVOK 28/20 A2992 NOSIG=
201601051600 METAR MRLB 051600Z 11011KT CAVOK 32/19 A2990 NOSIG=
201601051700 METAR MRLB 051700Z 05005KT CAVOK 33/19 A2988 NOSIG=
201601051800 METAR MRLB 051800Z 11004KT 9999 FEW035 33/18 A2986 NOSIG=
201601051900 METAR MRLB 051900Z 11009KT 9999 FEW035 34/17 A2983 NOSIG=
201601052000 METAR MRLB 052000Z 11013KT 9999 FEW035 34/17 A2979 NOSIG=
201601052100 METAR MRLB 052100Z 10013KT 9999 FEW040 33/18 A2978 NOSIG=
201601052200 METAR MRLB 052200Z 10012KT 9999 FEW040 32/19 A2979 NOSIG=
201601052300 METAR MRLB 052300Z 10011KT 9999 FEW040 30/19 A2981 NOSIG=
201601052354 METAR MRLB 060000Z 09011KT 9999 FEW040 28/19 A2983 NOSIG=
201601060000 METAR MRLB 060000Z 09011KT 9999 FEW040 28/19 A2983 NOSIG=
201601060100 METAR MRLB 060100Z 09014KT 9999 FEW035 28/19 A2986 NOSIG=
201601060200 METAR MRLB 060200Z 09013KT 9999 FEW035 27/19 A2988 NOSIG=
201601060300 METAR MRLB 060300Z 09011KT 9999 FEW035 27/19 A2990 NOSIG=
201601060400 METAR MRLB 060400Z 10012KT 9999 FEW035 27/19 A2989 NOSIG=
201601060500 METAR MRLB 060500Z 12011KT 9999 FEW035 27/19 A2989 NOSIG=
201601060600 METAR MRLB 060600Z 10011KT 9999 FEW035 27/19 A2989 NOSIG=
201601060700 METAR MRLB NIL=
201601060800 METAR MRLB NIL=
201601060900 METAR MRLB NIL=
201601061000 METAR MRLB NIL=
201601061100 METAR MRLB NIL=
201601061200 METAR MRLB 061200Z 18006KT CAVOK 23/19 A2988 NOSIG=
201601061300 METAR MRLB 061300Z 29005KT CAVOK 24/19 A2990 NOSIG=
201601061400 METAR MRLB 061400Z 19004KT CAVOK 27/19 A2992 NOSIG=
201601061500 METAR MRLB 061500Z 14004KT CAVOK 30/19 A2991 NOSIG=
201601061600 METAR MRLB 061600Z 09013KT CAVOK 31/19 A2993 NOSIG=
201601061700 METAR MRLB 061700Z 09016KT 9999 FEW035 31/18 A2991 NOSIG=
201601061800 METAR MRLB 061800Z 09015KT 9999 FEW035 32/18 A2989 NOSIG=
201601061900 METAR MRLB 061900Z 09017KT 9999 FEW035 32/19 A2985 NOSIG=
201601062000 METAR MRLB 062000Z 09011KT 9999 FEW035 32/19 A2982 NOSIG=
201601062100 METAR MRLB 062100Z 09011KT 9999 FEW035 32/19 A2980 NOSIG=
201601062200 METAR MRLB 062200Z 09012G22KT 9999 FEW035 31/19 A2980 NOSIG=
201601062300 METAR MRLB 062300Z 09017KT CAVOK 29/18 A2980 NOSIG=
201601062355 METAR MRLB 070000Z 10011KT CAVOK 28/18 A2983 NOSIG=
201601070000 METAR MRLB 070000Z 10011KT CAVOK 28/18 A2983 NOSIG=
201601070100 METAR MRLB 070100Z 09015KT CAVOK 28/18 A2985 NOSIG=
201601070200 METAR MRLB 070200Z 09011KT CAVOK 27/19 A2988 NOSIG=
201601070300 METAR MRLB 070300Z 08012KT CAVOK 27/19 A2990 NOSIG=
201601070400 METAR MRLB 070400Z 09014KT CAVOK 27/19 A2989 NOSIG=
201601070500 METAR MRLB 070500Z 03005KT CAVOK 26/19 A2990 NOSIG=
201601070600 METAR MRLB 070600Z 10008KT CAVOK 26/19 A2990 NOSIG=
201601070700 METAR MRLB NIL=
201601070800 METAR MRLB NIL=
201601070900 METAR MRLB NIL=
201601071000 METAR MRLB NIL=
201601071100 METAR MRLB NIL=
201601071200 METAR MRLB 071200Z 02006KT CAVOK 22/20 A2987 NOSIG=
201601071300 METAR MRLB 071300Z 02002KT CAVOK 24/20 A2989 NOSIG=
201601071400 METAR MRLB 071400Z 30004KT CAVOK 26/20 A2992 NOSIG=
201601071500 METAR MRLB 071500Z 33002KT CAVOK 29/19 A2992 NOSIG=
201601071600 METAR MRLB 071600Z 12013KT 9999 FEW030 31/19 A2991 NOSIG=
201601071700 METAR MRLB 071700Z 11013KT 9999 FEW030 32/19 A2990 NOSIG=
201601071800 METAR MRLB 071800Z 10014KT 9999 FEW030 33/18 A2987 NOSIG=
201601071900 METAR MRLB 071900Z 10010KT 9999 FEW035 33/19 A2984 NOSIG=
201601072000 METAR MRLB 072000Z 11009KT 9999 FEW035 33/19 A2981 NOSIG=
201601072100 METAR MRLB 072100Z 08011KT 9999 FEW035 33/19 A2979 NOSIG=
201601072200 METAR MRLB 072200Z 11009KT 9999 SCT040 32/19 A2978 NOSIG=
201601072300 METAR MRLB 072300Z 10010KT 9999 FEW040 31/18 A2979 NOSIG=
201601072352 METAR MRLB 080000Z 09007KT CAVOK 29/18 A2980 NOSIG=
201601080000 METAR MRLB 080000Z 09007KT CAVOK 29/18 A2980 NOSIG=
201601080054 METAR MRLB 090100Z 09008KT CAVOK 28/19 A2979 NOSIG=
201601080100 METAR MRLB 080100Z 09007KT CAVOK 27/18 A2984 NOSIG=
201601080200 METAR MRLB 080200Z 00000KT CAVOK 27/18 A2986 NOSIG=
201601080300 METAR MRLB 080300Z 09002KT CAVOK 26/18 A2989 NOSIG=
201601080400 METAR MRLB 080400Z 00000KT CAVOK 24/19 A2989 NOSIG=
201601080500 METAR MRLB 080500Z 00000KT CAVOK 23/19 A2988 NOSIG=
201601080600 METAR MRLB 080600Z 17004KT CAVOK 24/19 A2988 NOSIG=
201601080700 METAR MRLB NIL=
201601080800 METAR MRLB NIL=
201601080900 METAR MRLB NIL=
201601081000 METAR MRLB NIL=
201601081100 METAR MRLB NIL=
201601081200 METAR MRLB 081200Z 12003KT CAVOK 20/19 A2982 NOSIG=
201601081300 METAR MRLB 081300Z 19003KT CAVOK 22/20 A2984 NOSIG=
201601081400 METAR MRLB 081400Z 27002KT CAVOK 25/20 A2986 NOSIG=
201601081500 METAR MRLB 081500Z 01002KT CAVOK 28/20 A2987 NOSIG=
201601081600 METAR MRLB 081600Z 01002KT CAVOK 30/19 A2987 NOSIG=
201601081700 METAR MRLB 081700Z 11011KT 9999 FEW035 32/18 A2986 NOSIG=
201601081800 METAR MRLB 081800Z 10011KT 9999 FEW035 33/18 A2983 NOSIG=
201601081900 METAR MRLB 081900Z 11011KT 9999 FEW035 34/18 A2981 NOSIG=
201601082000 METAR MRLB 082000Z 12007KT 9999 FEW035 33/18 A2978 NOSIG=
201601082100 METAR MRLB 082100Z 09009KT 9999 FEW035 33/18 A2978 NOSIG=
201601082200 METAR MRLB 082200Z 08020KT 9999 FEW035 33/18 A2977 NOSIG=
201601082300 METAR MRLB 082300Z 09010KT 9999 FEW035 31/18 A2977 NOSIG=
201601082351 METAR MRLB 090000Z 09010KT 9999 FEW035 29/19 A2978 NOSIG=
201601090000 METAR MRLB 090000Z 09010KT 9999 FEW035 29/19 A2978 NOSIG=
201601090100 METAR MRLB 090100Z 09008KT CAVOK 28/19 A2979 NOSIG=
201601090200 METAR MRLB 090200Z 03002KT CAVOK 26/18 A2982 NOSIG=
201601090300 METAR MRLB 090300Z 09007KT CAVOK 27/19 A2984 NOSIG=
201601090400 METAR MRLB 090400Z 06005KT CAVOK 26/19 A2986 NOSIG=
201601090500 METAR MRLB 090500Z 00000KT CAVOK 25/19 A2986 NOSIG=
201601090600 METAR MRLB 090600Z 15002KT CAVOK 25/18 A2985 NOSIG=
201601090700 METAR MRLB NIL=
201601090800 METAR MRLB NIL=
201601090900 METAR MRLB NIL=
201601091000 METAR MRLB NIL=
201601091100 METAR MRLB NIL=
201601091200 METAR MRLB 091200Z 07003KT CAVOK 19/17 A2983 NOSIG=
201601091300 METAR MRLB 091300Z 00000KT CAVOK 21/18 A2986 NOSIG=
201601091400 METAR MRLB 091400Z 33002KT CAVOK 24/19 A2988 NOSIG=
201601091500 METAR MRLB 091500Z 30003KT CAVOK 27/19 A2989 NOSIG=
201601091600 METAR MRLB 091600Z 26003KT CAVOK 30/19 A2989 NOSIG=
201601091700 METAR MRLB 091700Z 26003KT CAVOK 32/18 A2986 NOSIG=
201601091800 METAR MRLB 091800Z 05003KT CAVOK 33/16 A2983 NOSIG=
201601091900 METAR MRLB 091900Z 34003KT 9999 FEW035 33/17 A2979 NOSIG=
201601092000 METAR MRLB 092000Z 30008KT 9999 FEW035 34/19 A2976 NOSIG=
201601092100 METAR MRLB 092100Z 28008KT 9999 FEW035 33/20 A2975 NOSIG=
201601092200 METAR MRLB 092200Z 29008KT 9999 FEW035 31/19 A2975 NOSIG=
201601092300 METAR MRLB 092300Z 29008KT 9999 FEW035 29/20 A2977 NOSIG=
201601092354 METAR MRLB 100000Z 29006KT 9999 SCT035 28/21 A2980 NOSIG=
201601100000 METAR MRLB 100000Z 29006KT 9999 SCT035 28/21 A2980 NOSIG=
201601100100 METAR MRLB 100100Z 25003KT 9999 FEW035 27/21 A2981 NOSIG=
201601100200 METAR MRLB 100200Z 21002KT 9999 FEW035 26/21 A2984 NOSIG=
201601100300 METAR MRLB 100300Z 05002KT CAVOK 25/21 A2985=
201601100400 METAR MRLB 100400Z 03003KT CAVOK 23/21 A2987 NOSIG=
201601100500 METAR MRLB 100500Z 06004KT CAVOK 23/20 A2987 NOSIG=
201601100600 METAR MRLB 100600Z 05003KT CAVOK 23/20 A2986 NOSIG=
201601100700 METAR MRLB NIL=
201601100800 METAR MRLB NIL=
201601100900 METAR MRLB NIL=
201601101000 METAR MRLB NIL=
201601101100 METAR MRLB NIL=
201601101200 METAR MRLB 101200Z 00000KT CAVOK 21/19 A2987 NOSIG=
201601101300 METAR MRLB 101300Z 03002KT CAVOK 21/19 A2989 NOSIG=
201601101400 METAR MRLB 101400Z 20004KT CAVOK 25/20 A2992 NOSIG=
201601101500 METAR MRLB 101500Z COR 00000KT CAVOK 28/19 A2993 NOSIG=
201601101600 METAR MRLB 101600Z 19005KT CAVOK 31/18 A2991 NOSIG=
201601101700 METAR MRLB 101700Z 10011KT CAVOK 32/15 A2989 NOSIG=
201601101800 METAR MRLB 101800Z 09011KT 9999 FEW035 SCT250 33/14 A2986 NOSIG=
201601101900 METAR MRLB 101900Z 10010KT 9999 FEW035 34/15 A2983 NOSIG=
201601102000 METAR MRLB 102000Z 08013KT 9999 FEW035 34/13 A2981 NOSIG=
201601102100 METAR MRLB 102100Z 09014KT 9999 FEW035 33/15 A2979 NOSIG=
201601102200 METAR MRLB 102200Z 09014KT 9999 FEW035 SCT250 32/16 A2980 NOSIG=
201601102300 METAR MRLB 102300Z 09012KT CAVOK 31/17 A2981 NOSIG=
201601102353 METAR MRLB 110000Z 08006KT CAVOK 28/18 A2983 NOSIG=
201601110000 METAR MRLB 110000Z 08006KT CAVOK 28/18 A2983 NOSIG=
201601110100 METAR MRLB 110100Z 09013KT CAVOK 28/19 A2985 NOSIG=
201601110200 METAR MRLB 110200Z 09011KT CAVOK 27/18 A2987 NOSIG=
201601110300 METAR MRLB 110300Z 08010KT CAVOK 26/17 A2989 NOSIG=
201601110400 METAR MRLB 110400Z 10011KT CAVOK 26/16 A2989 NOSIG=
201601110500 METAR MRLB 110500Z 10012KT CAVOK 26/16 A2988 NOSIG=
201601110600 METAR MRLB 110600Z 13005KT CAVOK 25/16 A2989 NOSIG=
201601110700 METAR MRLB NIL=
201601110800 METAR MRLB NIL=
201601110900 METAR MRLB NIL=
201601111000 METAR MRLB NIL=
201601111100 METAR MRLB NIL=
201601111200 METAR MRLB 111200Z 05008KT CAVOK 22/15 A2987 NOSIG=
201601111300 METAR MRLB 111300Z 05004KT CAVOK 24/15 A2988 NOSIG=
201601111400 METAR MRLB 111400Z 09015KT CAVOK 28/15 A2990 NOSIG=
201601111500 METAR MRLB 111500Z 09014KT CAVOK 30/13 A2991 NOSIG=
201601111600 METAR MRLB 111600Z 10015KT CAVOK 31/12 A2991 NOSIG=
201601111700 METAR MRLB 111700Z 07008KT CAVOK 32/12 A2990 NOSIG=
201601111800 METAR MRLB 111800Z 10009KT CAVOK 33/12 A2988 NOSIG=
201601111900 METAR MRLB 111900Z 06012KT CAVOK 33/14 A2984 NOSIG=
201601112000 METAR MRLB 112000Z 09013KT CAVOK 33/11 A2980 NOSIG=
201601112100 METAR MRLB 112100Z 08010KT CAVOK 33/11 A2979 NOSIG=
201601112200 METAR MRLB 112200Z 10011KT CAVOK 32/12 A2981 NOSIG=
201601112352 METAR MRLB 120000Z 08007KT CAVOK 29/15 A2983 NOSIG=
201601120000 METAR MRLB 120000Z 08007KT CAVOK 29/15 A2983 NOSIG=
201601120100 METAR MRLB 120100Z 04003KT CAVOK 26/15 A2987 NOSIG=
201601120200 METAR MRLB 120200Z 21003KT CAVOK 25/16 A2989 NOSIG=
201601120300 METAR MRLB 120300Z 22003KT CAVOK 24/15 A2992 NOSIG=
201601120400 METAR MRLB 120400Z 23002KT CAVOK 23/16 A2992 NOSIG=
201601120500 METAR MRLB 120500Z 00000KT CAVOK 21/16 A2992 NOSIG=
201601120600 METAR MRLB 120600Z 00000KT CAVOK 21/16 A2990 NOSIG=
201601120700 METAR MRLB NIL=
201601120800 METAR MRLB NIL=
201601120900 METAR MRLB NIL=
201601121000 METAR MRLB NIL=
201601121100 METAR MRLB NIL=
201601121200 METAR MRLB 121200Z 00000KT CAVOK 17/14 A2989 NOSIG=
201601121300 METAR MRLB 121300Z 00000KT CAVOK 19/15 A2991 NOSIG=
201601121400 METAR MRLB 121400Z 00000KT CAVOK 23/16 A2993 NOSIG=
201601121500 METAR MRLB 121500Z 07002KT CAVOK 27/16 A2995 NOSIG=
201601121600 METAR MRLB 121600Z 05004KT CAVOK 29/15 A2994 NOSIG=
201601121700 METAR MRLB 121700Z 11014KT CAVOK 32/15 A2990 NOSIG=
201601121800 METAR MRLB 121800Z 10012KT CAVOK 32/15 A2987 NOSIG=
201601121900 METAR MRLB 121900Z 10012KT 9999 FEW035 SCT240 33/15 A2985 NOSIG=
201601122000 METAR MRLB 122000Z 10015KT 9999 FEW040 SCT240 32/16 A2981 NOSIG=
201601122100 METAR MRLB 122100Z 08012KT 9999 FEW040 SCT140 33/16 A2981 NOSIG=
201601122200 METAR MRLB 122200Z 09010KT CAVOK 31/16 A2981 NOSIG=
201601122300 METAR MRLB 122300Z 09013KT CAVOK 30/16 A2982 NOSIG=
201601122354 METAR MRLB 130000Z 09012KT CAVOK 28/15 A2983 NOSIG=
201601130000 METAR MRLB 130000Z 09012KT CAVOK 28/15 A2983 NOSIG=
201601130100 METAR MRLB 130100Z 10012KT CAVOK 28/15 A2986 NOSIG=
201601130200 METAR MRLB 130200Z 09010KT CAVOK 27/17 A2988 NOSIG=
201601130300 METAR MRLB 130300Z 09010KT CAVOK 27/16 A2989 NOSIG=
201601130400 METAR MRLB 130400Z 10009KT CAVOK 26/16 A2990 NOSIG=
201601130500 METAR MRLB 130500Z 07002KT CAVOK 24/17 A2990 NOSIG=
201601130600 METAR MRLB 130600Z 08004KT CAVOK 22/17 A2990 NOSIG=
201601130700 METAR MRLB NIL=
201601130800 METAR MRLB NIL=
201601130900 METAR MRLB NIL=
201601131000 METAR MRLB NIL=
201601131100 METAR MRLB NIL=
201601131200 METAR MRLB 131200Z 05004KT CAVOK 19/16 A2987 NOSIG=
201601131300 METAR MRLB 131300Z 20002KT CAVOK 21/17 A2989 NOSIG=
201601131400 METAR MRLB 131400Z 31002KT CAVOK 24/18 A2992 NOSIG=
201601131500 METAR MRLB 131500Z 33003KT CAVOK 28/17 A2993 NOSIG=
201601131600 METAR MRLB 131600Z 07007KT CAVOK 30/17 A2992 NOSIG=
201601131700 METAR MRLB 131700Z 10011KT 9999 FEW035 32/17 A2990 NOSIG=
201601131800 METAR MRLB 131800Z 09012KT 9999 FEW035 BKN250 32/18 A2989 NOSIG=
201601131900 METAR MRLB 131900Z 10012KT 9999 FEW035 BKN250 32/19 A2985 NOSIG=
201601132000 METAR MRLB 132000Z 08014KT 9999 FEW035 SCT250 32/18 A2983 NOSIG=
201601132100 METAR MRLB 132100Z 09014KT 9999 FEW035 BKN250 31/17 A2981 NOSIG=
201601132200 METAR MRLB 132200Z 09011KT CAVOK 32/16 A2982 NOSIG=
201601132300 METAR MRLB 132300Z 09011KT CAVOK 30/18 A2982 NOSIG=
201601132350 METAR MRLB 140000Z 09013KT CAVOK 28/18 A2983 NOSIG=
201601140000 METAR MRLB 140000Z 09013KT CAVOK 28/18 A2983 NOSIG=
201601140100 METAR MRLB 140100Z 09010KT CAVOK 27/18 A2985 NOSIG=
201601140200 METAR MRLB 140200Z 09010KT CAVOK 26/18 A2987 NOSIG=
201601140300 METAR MRLB 140300Z 11007KT CAVOK 25/18 A2990 NOSIG=
201601140400 METAR MRLB 140400Z 10007KT CAVOK 26/17 A2991 NOSIG=
201601140500 METAR MRLB 140500Z 13006KT CAVOK 25/17 A2990 NOSIG=
201601140600 METAR MRLB 140600Z 13007KT CAVOK 25/17 A2989 NOSIG=
201601140700 METAR MRLB NIL=
201601140800 METAR MRLB NIL=
201601140900 METAR MRLB NIL=
201601141000 METAR MRLB NIL=
201601141100 METAR MRLB NIL=
201601141200 METAR MRLB 141200Z 29002KT CAVOK 21/17 A2990 NOSIG=
201601141300 METAR MRLB 141300Z 06002KT CAVOK 22/17 A2992 NOSIG=
201601141400 METAR MRLB 141400Z 16003KT CAVOK 26/18 A2994 NOSIG=
201601141500 METAR MRLB 141500Z 13004KT CAVOK 29/18 A2993 NOSIG=
201601141600 METAR MRLB 141600Z 12009KT CAVOK 31/17 A2992 NOSIG=
201601141700 METAR MRLB 141700Z 06007KT 9999 FEW035 32/17 A2990 NOSIG=
201601141800 METAR MRLB 141800Z 07005KT 9999 FEW035 32/17 A2987 NOSIG=
201601141900 METAR MRLB 141900Z 10006KT 9999 FEW035 34/17 A2984 NOSIG=
201601142000 METAR MRLB 142000Z 12003KT 9999 SCT035 33/17 A2981 NOSIG=
201601142100 METAR MRLB 142100Z 29008KT 9999 SCT035 31/20 A2979 NOSIG=
201601142200 METAR MRLB 142200Z 30008KT 9999 SCT040 30/19 A2980 NOSIG=
201601142300 METAR MRLB 142300Z 30007KT 9999 FEW040 30/19 A2981 NOSIG=
201601142355 METAR MRLB 150000Z 31003KT 9999 FEW040 28/20 A2983 NOSIG=
201601150000 METAR MRLB 150000Z 31003KT 9999 FEW040 28/20 A2983 NOSIG=
201601150100 METAR MRLB 150100Z 00000KT CAVOK 27/19 A2984 NOSIG=
201601150200 METAR MRLB 150200Z 21003KT CAVOK 26/20 A2986 NOSIG=
201601150300 METAR MRLB 150300Z 02002KT CAVOK 25/20 A2988 NOSIG=
201601150400 METAR MRLB 150400Z 03002KT CAVOK 24/19 A2989 NOSIG=
201601150500 METAR MRLB 150500Z 11002KT CAVOK 23/20 A2987 NOSIG=
201601150600 METAR MRLB 150600Z 23002KT CAVOK 23/19 A2986 NOSIG=
201601150700 METAR MRLB NIL=
201601150800 METAR MRLB NIL=
201601150900 METAR MRLB NIL=
201601151000 METAR MRLB NIL=
201601151100 METAR MRLB NIL=
201601151200 METAR MRLB 151200Z 30002KT CAVOK 20/18 A2983 NOSIG=
201601151300 METAR MRLB 151300Z 21004KT CAVOK 22/19 A2984 NOSIG=
201601151400 METAR MRLB 151400Z 18004KT CAVOK 25/19 A2986 NOSIG=
201601151500 METAR MRLB 151500Z 18002KT CAVOK 28/19 A2986 NOSIG=
201601151600 METAR MRLB 151600Z 12007KT CAVOK 31/16 A2985 NOSIG=
201601151700 METAR MRLB 151700Z 09007KT CAVOK 32/14 A2983 NOSIG=
201601151800 METAR MRLB 151800Z 08007KT CAVOK 33/12 A2981 NOSIG=
201601151900 METAR MRLB 151900Z 14005KT 9999 FEW035 34/13 A2977 NOSIG=
201601152000 METAR MRLB 152000Z 33004KT 9999 FEW035 34/15 A2974 NOSIG=
201601152100 METAR MRLB 152100Z 30009KT 9999 FEW035 34/18 A2972 NOSIG=
201601152200 METAR MRLB 152200Z 29005KT 9999 FEW035 33/17 A2972 NOSIG=
201601152300 METAR MRLB 152300Z 11009KT CAVOK 32/16 A2973 NOSIG=
201601152352 METAR MRLB 160000Z 10007KT CAVOK 29/17 A2975 NOSIG=
201601160000 METAR MRLB 160000Z 10007KT CAVOK 29/17 A2975 NOSIG=
201601160100 METAR MRLB 160100Z 05006KT CAVOK 27/17 A2978 NOSIG=
201601160200 METAR MRLB 160200Z 07004KT CAVOK 26/16 A2980 NOSIG=
201601160300 METAR MRLB 160300Z 21004KT CAVOK 24/17 A2982 NOSIG=
201601160400 METAR MRLB 160400Z 17004KT CAVOK 24/15 A2982 NOSIG=
201601160500 METAR MRLB 160500Z 20003KT CAVOK 22/16 A2982 NOSIG=
201601160600 METAR MRLB 160600Z 24003KT CAVOK 21/17 A2981 NOSIG=
201601160700 METAR MRLB NIL=
201601160800 METAR MRLB NIL=
201601160900 METAR MRLB NIL=
201601161000 METAR MRLB NIL=
201601161100 METAR MRLB NIL=
201601161200 METAR MRLB 161200Z 00000KT CAVOK 17/14 A2983 NOSIG=
201601161300 METAR MRLB 161300Z 00000KT CAVOK 19/15 A2985 NOSIG=
201601161400 METAR MRLB 161400Z 00000KT 9999 FEW020 23/16 A2987 NOSIG=
201601161500 METAR MRLB 161500Z 22004KT 9999 FEW020 26/17 A2988 NOSIG=
201601161600 METAR MRLB 161600Z 18003KT CAVOK 29/17 A2987 NOSIG=
201601161700 METAR MRLB 161700Z 10009KT CAVOK 32/15 A2985 NOSIG=
201601161800 METAR MRLB 161800Z 11008KT CAVOK 34/15 A2981 NOSIG=
201601161900 METAR MRLB 161900Z 12007KT 9999 FEW040 34/15 A2977 NOSIG=
201601162000 METAR MRLB 162000Z 12010KT CAVOK 34/15 A2974 NOSIG=
201601162100 METAR MRLB 162100Z 10008KT 9999 FEW040 34/15 A2973 NOSIG=
201601162200 METAR MRLB 162200Z 13008KT 9999 FEW040 33/16 A2973 NOSIG=
201601162300 METAR MRLB 162300Z 09007KT CAVOK 32/17 A2974 NOSIG=
201601162352 METAR MRLB 170000Z 29005KT CAVOK 28720 A2976 NOSIG=
201601170000 METAR MRLB 170000Z 29005KT CAVOK 28720 A2976 NOSIG=
201601170100 METAR MRLB 170100Z 29004KT CAVOK 27/21 A2979 NOSIG=
201601170200 METAR MRLB 170200Z 32003KT CAVOK 26/22 A2982 NOSIG=
201601170300 METAR MRLB 170300Z 28004KT CAVOK 26/22 A2985 NOSIG=
201601170400 METAR MRLB 170400Z 32002KT CAVOK 25/22 A2986 NOSIG=
201601170500 METAR MRLB 170500Z 02003KT CAVOK 25/21 A2986 NOSIG=
201601170600 METAR MRLB 170600Z 02002KT CAVOK 24/21 A2986 NOSIG=
201601170700 METAR MRLB NIL=
201601170800 METAR MRLB NIL=
201601170900 METAR MRLB NIL=
201601171000 METAR MRLB NIL=
201601171100 METAR MRLB NIL=
201601171200 METAR MRLB 171200Z 00000KT 9999 FEW035 BKN120 21/19 A2986 NOSIG=
201601171300 METAR MRLB 171300Z 10003KT 9999 FEW035 SCT120 22/20 A2987 NOSIG=
201601171400 METAR MRLB 171400Z 06004KT CAVOK 25/20 A2990 NOSIG=
201601171500 METAR MRLB 171500Z 31002KT CAVOK 28/20 A2991 NOSIG=
201601171600 METAR MRLB 171600Z 31005KT CAVOK 30/19 A2991 NOSIG=
201601171700 METAR MRLB 171700Z 10003KT 9999 FEW030 32/18 A2989 NOSIG=
201601171800 METAR MRLB 171800Z 27007KT 9999 SCT030 32/18 A2987 NOSIG=
201601171900 METAR MRLB 171900Z 27004KT 9999 BKN030 33/18 A2982 NOSIG=
201601172000 METAR MRLB 172000Z 08005KT 9999 BKN030 33/17 A2980 NOSIG=
201601172100 METAR MRLB 172100Z 10009KT 9999 SCT030 33/17 A2978 NOSIG=
201601172200 METAR MRLB 172200Z 09013KT 9999 FEW035 32/17 A2978 NOSIG=
201601172300 METAR MRLB 172300Z 08012KT CAVOK 31/19 A2979 NOSIG=
201601172350 METAR MRLB 180000Z 09011KT CAVOK 29/19 A2980 NOSIG=
201601180000 METAR MRLB 180000Z 09011KT CAVOK 29/19 A2980 NOSIG=
201601180100 METAR MRLB 180100Z 07009KT CAVOK 28/19 A2984 NOSIG=
201601180200 METAR MRLB 180200Z 09011KT CAVOK 27/19 A2985 NOSIG=
201601180300 METAR MRLB 180300Z 09016G26KT CAVOK 27/18 A2987 NOSIG=
201601180400 METAR MRLB 180400Z 09011KT CAVOK 27/18 A2988 NOSIG=
201601180500 METAR MRLB 180500Z 10015G25KT CAVOK 26/18 A2984 NOSIG=
201601180600 METAR MRLB 180600Z 12008KT CAVOK 26/18 A2985 NOSIG=
201601180700 METAR MRLB NIL=
201601180800 METAR MRLB NIL=
201601180900 METAR MRLB NIL=
201601181000 METAR MRLB NIL=
201601181100 METAR MRLB NIL=
201601181200 METAR MRLB 181200Z 09018KT CAVOK 27/17 A2982 NOSIG=
201601181300 METAR MRLB 181300Z 09015G25KT CAVOK 27/17 A2985 NOSIG=
201601181400 METAR MRLB 181400Z 04006KT CAVOK 28/17 A2989 NOSIG=
201601181500 METAR MRLB 181500Z 08016G26KT CAVOK 30/17 A2989 NOSIG=
201601181600 METAR MRLB 181600Z 08018G28KT CAVOK 31/17 A2990 NOSIG=
201601181700 METAR MRLB 181700Z 08020G30KT 9999 FEW030 32/17 A2988 NOSIG=
201601181800 METAR MRLB 181800Z 09022G34KT 9999 FEW030 31/17 A2985 NOSIG=
201601181900 METAR MRLB 181900Z 08022G32KT 9999 FEW035 32/17 A2983 NOSIG=
201601182000 METAR MRLB 182000Z 09018KT 9999 FEW030 32/18 A2980 NOSIG=
201601182100 METAR MRLB 182100Z 08021KT 9999 FEW030 31/17 A2980 NOSIG=
201601182200 METAR MRLB 182200Z 09020G31KT 9999 FEW035 31/17 A2979 NOSIG=
201601182300 METAR MRLB 182300Z 08021KT CAVOK 30/17 A2982 NOSIG=
201601182357 METAR MRLB 190000Z 09018G29KT 9999 FEW010 28/16 A2985 NOSIG=
201601190000 METAR MRLB 190000Z 09018G29KT 9999 FEW010 28/16 A2985 NOSIG=
201601190100 METAR MRLB 190100Z 09022G32KT CAVOK 27/16 A2986 NOSIG=
201601190200 METAR MRLB 190200Z 09020G34KT CAVOK 27/15 A2988 NOSIG=
201601190300 METAR MRLB 190300Z COR 09019G29KT CAVOK 27/15 A2989 NOSIG=
201601190400 METAR MRLB 190400Z 09015KT CAVOK 27/15 A2990 NOSIG=
201601190500 METAR MRLB 190500Z 09008KT CAVOK 27/15 A2992 NOSIG=
201601190600 METAR MRLB 190600Z 02007KT CAVOK 25/16 A2991 NOSIG=
201601190700 METAR MRLB NIL=
201601190800 METAR MRLB NIL=
201601190900 METAR MRLB NIL=
201601191000 METAR MRLB NIL=
201601191100 METAR MRLB NIL=
201601191200 METAR MRLB 191200Z 19002KT 9999 FEW030 SCT250 24/16 A2990 NOSIG=
201601191300 METAR MRLB 191300Z 33006KT 9999 FEW030 SCT250 24/17 A2991 NOSIG=
201601191400 METAR MRLB 191400Z 24005KT 9999 FEW030 SCT250 27/17 A2991 NOSIG=
201601191500 METAR MRLB 191500Z 10019G29KT 9999 FEW030 SCT250 29/16 A2989 NOSIG=
201601191600 METAR MRLB 191600Z 16006KT 9999 FEW030 SCT250 30/16 A2991 NOSIG=
201601191700 METAR MRLB 191700Z 09019G29KT 9999 FEW030 BKN250 32/17 A2985 NOSIG=
201601191800 METAR MRLB 191800Z 09026G40KT 9999 FEW030 BKN250 32/22 A2984 NOSIG=
201601191900 METAR MRLB NIL=
201601192000 METAR MRLB 192000Z 08028G41KT 9999 SCT035 BKN250 30/17 A2980 NOSIG=
201601192100 METAR MRLB 192100Z 09026G37KT 9999 FE3W035 BKN250 29/17 A2978 NOSIG=
201601192200 METAR MRLB 192200Z 09025G36KT 9999 FEW035 OVC250 29/17 A978 NOSIG=
201601192300 METAR MRLB 192300Z 09020G32KT 9999 FEW035 OVC250 28/17 A2979 NOSIG=
201601192352 METAR MRLB 200000Z 10019G29KT CAVOK 27/18 A2981 NOSIG=
201601200000 METAR MRLB 200000Z 10019G29KT CAVOK 27/18 A2981 NOSIG=
201601200100 METAR MRLB 200100Z 09023G38KT CAVOK 27/17 A2983 NOSIG=
201601200200 METAR MRLB 200200Z 09022G40KT CAVOK 27/17 A2987 NOSIG=
201601200300 METAR MRLB 200300Z 09022G35KT CAVOK 26/16 A2989 NOSIG=
201601200400 METAR MRLB 200400Z 09019G30KT CAVOK 26/17 A2991 NOSIG=
201601200500 METAR MRLB 200500Z 09021G37KT CAVOK 26/17 A2991 NOSIG=
201601200600 METAR MRLB 200600Z 09022G33KT CAVOK 26/17 A2990 NOSIG=
201601200700 METAR MRLB NIL=
201601200800 METAR MRLB NIL=
201601200900 METAR MRLB NIL=
201601201000 METAR MRLB NIL=
201601201100 METAR MRLB NIL=
201601201200 METAR MRLB 201200Z 09018G28KT CAVOK 25/17 A2988 NOSIG=
201601201300 METAR MRLB 201300Z 08016KT CAVOK 26/16 A2989 NOSIG=
201601201400 METAR MRLB 201400Z 08017KT CAVOK 28/17 A2992 NOSIG=
201601201500 METAR MRLB 201500Z 08018KT 9999 FEW030 BKN240 29/17 A2992 NOSIG=
201601201600 METAR MRLB 201600Z 08017KT 9999 FEW030 BKN240 30/17 A2992 NOSIG=
201601201700 METAR MRLB 201700Z COR 08016KT 9999 FEW030 BKN240 30/17 A2992 NOSIG=
201601201800 METAR MRLB 201800Z 09014KT 9999 FEW030 BKN250 32/17 A2987 NOSIG=
201601201900 METAR MRLB 201900Z 09017KT 9999 FEW030 BKN250 32/16 A2984 NOSIG=
201601202000 METAR MRLB 202000Z 07018KT CAVOK 32/17 A2980 NOSIG=
201601202100 METAR MRLB 202100Z 08017KT CAVOK 32/17 A2979 NOSIG=
201601202200 METAR MRLB 202200Z 08018KT CAVOK 30/18 A2979 NOSIG=
201601202300 METAR MRLB 202300Z 08015KT CAVOK 29/17 A2980 NOSIG=
201601202352 METAR MRLB 210000Z 08011KT CAVOK 28/17 A2981 NOSIG=
201601210000 METAR MRLB 210000Z 08011KT CAVOK 28/17 A2981 NOSIG=
201601210100 METAR MRLB 210100Z 11010KT CAVOK 27/18 A2983 NOSIG=
201601210200 METAR MRLB 210200Z 09014KT CAVOK 27/18 A2986 NOSIG=
201601210300 METAR MRLB 210300Z 09014KT CAVOK 27/17 A2987 NOSIG=
201601210400 METAR MRLB 210400Z 10012KT CAVOK 27/17 A2989 NOSIG=
201601210500 METAR MRLB 210500Z 07010KT CAVOK 26/17 A2989 NOSIG=
201601210600 METAR MRLB 210600Z 12003KT CAVOK 26/17 A2988 NOSIG=
201601210700 METAR MRLB NIL=
201601210800 METAR MRLB NIL=
201601210900 METAR MRLB NIL=
201601211000 METAR MRLB NIL=
201601211100 METAR MRLB NIL=
201601211200 METAR MRLB 211200Z 19004KT CAVOK 20/17 A2985 NOSIG=
201601211300 METAR MRLB 211300Z 33004KT CAVOK 21/17 A2988 NOSIG=
201601211400 METAR MRLB 211400Z 26003KT CAVOK 26/18 A2990 NOSIG=
201601211500 METAR MRLB 211500Z 30003KT 9999 FEW035 29/17 A2991 NOSIG=
201601211600 METAR MRLB 211600Z 02004KT 9999 FEW035 31/17 A2989 NOSIG=
201601211700 METAR MRLB 211700Z 09016KT 9999 FEW035 32/17 A2987 NOSIG=
201601211800 METAR MRLB 211800Z 10018G28KT 9999 FEW035 SCT250 32/18 A2985 NOSIG=
201601211900 METAR MRLB 211900Z 09017KT 9999 FEW035 33/17 A2981 NOSIG=
201601212000 METAR MRLB 212000Z 09016KT CAVOK 33/17 A2978 NOSIG=
201601212100 METAR MRLB 212100Z 10013KT CAVOK 33/16 A2978 NOSIG=
201601212200 METAR MRLB 212200Z 09016KT CAVOK 32/16 A2976 NOSIG=
201601212300 METAR MRLB 212300Z 09015KT CAVOK 30/16 A2978 NOSIG=
201601212355 METAR MRLB 220000Z 10013KT CAVOK 29/16 A2979 NOSIG=
201601220000 METAR MRLB 220000Z 10013KT CAVOK 29/16 A2979 NOSIG=
201601220100 METAR MRLB 220100Z 11009KT CAVOK 28/16 A2981 NOSIG=
201601220200 METAR MRLB 220200Z 10014KT CAVOK 27/17 A2982 NOSIG=
201601220300 METAR MRLB 220300Z 13010KT CAVOK 26/18 A2985 NOSIG=
201601220400 METAR MRLB 220400Z 11011KT CAVOK 26/18 A2985 NOSIG=
201601220500 METAR MRLB 220500Z 11007KT CAVOK 26/18 A2986 NOSIG=
201601220600 METAR MRLB 220600Z 06005KT CAVOK 25/17 A2986 NOSIG=
201601220700 METAR MRLB NIL=
201601220800 METAR MRLB NIL=
201601220900 METAR MRLB NIL=
201601221000 METAR MRLB NIL=
201601221100 METAR MRLB NIL=
201601221200 METAR MRLB 221200Z 00000KT CAVOK 19/17 A2986 NOSIG=
201601221300 METAR MRLB 221300Z 05003KT CAVOK 21/18 A2987 NOSIG=
201601221400 METAR MRLB 221400Z 08002KT CAVOK 25/18 A2989 NOSIG=
201601221500 METAR MRLB 221500Z 34002KT CAVOK 28/18 A2990 NOSIG=
201601221600 METAR MRLB 221600Z 25005KT CAVOK 30/18 A2990 NOSIG=
201601221700 METAR MRLB 221700Z 05009KT CAVOK 33/16 A2988 NOSIG=
201601221800 METAR MRLB 221800Z 08010KT CAVOK 34/16 A2984 NOSIG=
201601221900 METAR MRLB 221900Z 08010G20KT 9999 FEW030 34/16 A2982 NOSIG=
201601222000 METAR MRLB 222000Z 09009KT 9999 FEW035 34/16 A2978 NOSIG=
201601222100 METAR MRLB 222100Z 09012KT 9999 FEW035 34/17 A2976 NOSIG=
201601222200 METAR MRLB 222200Z 09010KT 9999 FEW035 33/18 A2977 NOSIG=
201601222300 METAR MRLB 222300Z 09011KT 9999 FEW035 32/17 A2978 NOSIG=
201601222352 METAR MRLB 230000Z 09010KT 9999 FEW035 30/17 A2980 NOSIG=
201601230000 METAR MRLB 230000Z 09010KT 9999 FEW035 30/17 A2980 NOSIG=
201601230100 METAR MRLB 230100Z 08007KT CAVOK 29/17 A2983 NOSIG=
201601230200 METAR MRLB 230200Z 09012KT CAVOK 28/19 A2986 NOSIG=
201601230300 METAR MRLB 230300Z 07011KT CAVOK 27/18 A2989 NOSIG=
201601230400 METAR MRLB 230400Z 07012KT CAVOK 27/16 A2989 NOSIG=
201601230500 METAR MRLB 230500Z 07011KT CAVOK 26/16 A2989 NOSIG=
201601230600 METAR MRLB 230600Z 09004KT CAVOK 26/16 A2987 NOSIG=
201601230700 METAR MRLB NIL=
201601230800 METAR MRLB NIL=
201601230900 METAR MRLB NIL=
201601231000 METAR MRLB NIL=
201601231100 METAR MRLB NIL=
201601231200 METAR MRLB 231200Z 02006KT 9999 FEW030 25/17 A292984 NOSIG=
201601231300 METAR MRLB 231300Z 07006KT 9999 FEW030 26/16 A2985 NOSIG=
201601231400 METAR MRLB 231400Z 10005KT 9999 FEW030 28/17 A2989 NOSIG=
201601231500 METAR MRLB 231500Z 07013KT 9999 FEW030 30/17 A2988 NOSIG=
201601231600 METAR MRLB 231600Z 09017G27KT 9999 FEW030 32/16 A2985 NOSIG=
201601231700 METAR MRLB 231700Z 10017KT 9999 FEW030 32/16 A2984 NOSIG=
201601231800 METAR MRLB 231800Z 09019G29KT 9999 FEW030 32/16 A2981 NOSIG=
201601231900 METAR MRLB 231900Z 09022G32KT 9999 FEW030 30/18 A2979 NOSIG=
201601232000 METAR MRLB 232000Z 10021G31KT 9999 FEW035 30/18 A2977 NOSIG=
201601232100 METAR MRLB 232100Z 09023KT 9999 FEW035 30/17 A2977 NOSIG=
201601232200 METAR MRLB 232200Z 10020G30KT CAVOK 28/17 A2975 NOSIG=
201601232300 METAR MRLB 232300Z 08021G32 CAVOK 27/17 A2977 NOSIG=
201601232352 METAR MRLB 240000Z 09018KT CAVOK 26/17 A2978 NOSIG=
201601240000 METAR MRLB 240000Z 09018KT CAVOK 26/17 A2978 NOSIG=
201601240100 METAR MRLB 240100Z 10020G30KT CAVOK 25/16 A2979 NOSIG=
201601240200 METAR MRLB 240200Z 09015KT CAVOK 25/16 A2984 NOSIG=
201601240300 METAR MRLB 240300Z 11012G22KT CAVOK 25/15 A2985 NOSIG=
201601240400 METAR MRLB 240400Z 09013KT CAVOK 25/15 A2988=
201601240500 METAR MRLB 240500Z 09009KT CAVOK 25/15 A2987 NOSIG=
201601240600 METAR MRLB 240600Z 14003KT CAVOK 25/13 A2986 NOSIG=
201601240700 METAR MRLB NIL=
201601240800 METAR MRLB NIL=
201601240900 METAR MRLB NIL=
201601241000 METAR MRLB NIL=
201601241100 METAR MRLB NIL=
201601241200 METAR MRLB 241200Z 20004KT CAVOK 20/13 A2987 NOSIG=
201601241300 METAR MRLB 241300Z 34003KT CAVOK 21/13 A2990 NOSIG=
201601241400 METAR MRLB 241400Z 21005KT CAVOK 24/12 A2993 NOSIG=
201601241500 METAR MRLB 241500Z 27004KT CAVOK 27/13 A2992 NOSIG=
201601241600 METAR MRLB 241600Z 07007KT CAVOK 30/13 A2992 NOSIG=
201601241700 METAR MRLB 241700Z 08017G31KT CAVOK 32/13 A2989 NOSIG=
201601241800 METAR MRLB 241800Z 08019KT CAVOK 31/13 A2987 NOSIG=
201601241900 METAR MRLB 241900Z 08019KT CAVOK 32/14 A2984 NOSIG=
201601242000 METAR MRLB 242000Z 08018KT CAVOK 32/14 A2982 NOSIG=
201601242100 METAR MRLB 242100Z 09016KT CAVOK 32/14 A2981 NOSIG=
201601242200 METAR MRLB 242200Z 09016G26KT CAVOK 29/14 A2981 NOSIG=
201601242300 METAR MRLB 242300Z 08013KT CAVOK 28/15 A2983 NOSIG=
201601242354 METAR MRLB 250000Z 09013KT CAVOK 27/15 A2984 NOSIG=
201601250000 METAR MRLB 250000Z 09013KT CAVOK 27/15 A2984 NOSIG=
201601250100 METAR MRLB 250100Z 07014KT CAVOK 27/14 A2986 NOSIG=
201601250200 METAR MRLB 250200Z 08010KT CAVOK 26/15 A2988 NOSIG=
201601250300 METAR MRLB 250300Z 08010KT CAVOK 26/15 A2990 NOSIG=
201601250400 METAR MRLB 250400Z 09009KT CAVOK 26/15 A2990 NOSIG=
201601250500 METAR MRLB 250500Z 10009KT CAVOK 26/16 A2989 NOSIG=
201601250600 METAR MRLB 250600Z 01006KT CAVOK 24/16 A2988 NOSIG=
201601250700 METAR MRLB NIL=
201601250800 METAR MRLB NIL=
201601250900 METAR MRLB NIL=
201601251000 METAR MRLB NIL=
201601251100 METAR MRLB NIL=
201601251200 METAR MRLB 251200Z 25004KT CAVOK 21/16 A2987 NOSIG=
201601251300 METAR MRLB 251300Z 30007KT CAVOK 23/17 A2988 NOSIG=
201601251400 METAR MRLB 251400Z 30007KT CAVOK 25/16 A2992 NOSIG=
201601251500 METAR MRLB 251500Z 30003KT CAVOK 28/16 A2992 NOSIG=
201601251600 METAR MRLB 251600Z 20005KT CAVOK 32/16 A2990 NOSIG=
201601251700 METAR MRLB 251700Z 09015KT CAVOK 32/16 A2989 NOSIG=
201601251800 METAR MRLB 251800Z 10015KT CAVOK 32/16 A2987 NOSIG=
201601251900 METAR MRLB 251900Z 10014KT CAVOK 33/16 A2986 NOSIG=
201601252000 METAR MRLB 252000Z 10013KT CAVOK 32/17 A2984 NOSIG=
201601252100 METAR MRLB 252100Z 08014KT CAVOK 32/17 A2983 NOSIG=
201601252200 METAR MRLB 252200Z 09014KT CAVOK 31/17 A2983 NOSIG=
201601252256 METAR MRLB 252256Z 252300Z09013KT CAVOK 29/18 A2984 NOSIG=
201601252300 METAR MRLB 252300Z 252300Z09013KT CAVOK 29/18 A2984 NOSIG=
201601252353 METAR MRLB 260000Z 09011KT CAVOK 28/18 A2985 NOSIG=
201601260000 METAR MRLB 260000Z 09011KT CAVOK 28/18 A2985 NOSIG=
201601260100 METAR MRLB 260100Z 09010KT CAVOK 26/18 A2988 NOSIG=
201601260200 METAR MRLB 260200Z 10009KT CAVOK 26/18 A2989 NOSIG=
201601260300 METAR MRLB 260300Z 11006KT CAVOK 25/18 A2992 NOSIG=
201601260400 METAR MRLB 260400Z 10005KT CAVOK 25/18 A2993 NOSIG=
201601260500 METAR MRLB 260500Z 00000KT CAVOK 24/18 A2993 NOSIG=
201601260600 METAR MRLB 260600Z 09008KT CAVOK 25/18 A2993 NOSIG=
201601260700 METAR MRLB NIL=
201601260800 METAR MRLB NIL=
201601260900 METAR MRLB NIL=
201601261000 METAR MRLB NIL=
201601261100 METAR MRLB NIL=
201601261200 METAR MRLB 261200Z 24005KT CAVOK 21/18 A2990 NOSIG=
201601261300 METAR MRLB 261300Z 28003KT CAVOK 23/19 A2992 NOSIG=
201601261400 METAR MRLB 261400Z 28003KT CAVOK 25/19 A2993 NOSIG=
201601261500 METAR MRLB 261500Z 26004KT CAVOK 28/19 A2994 NOSIG=
201601261600 METAR MRLB 261600Z 09010KT 9999 FEW030 31/18 A2993 NOSIG=
201601261700 METAR MRLB 261700Z 10014KT 9999 FEW035 32/18 A2990 NOSIG=
201601261800 METAR MRLB 261800Z 09012KT 9999 SCT035 32/19 A2988 NOSIG=
201601261900 METAR MRLB 261900Z 09015KT 9999 FEW035 32/18 A2985 NOSIG=
201601262000 METAR MRLB 262000Z 08019KT 9999 FEW035 33/18 A2981 NOSIG=
201601262100 METAR MRLB 262100Z 09014KT 9999 FEW035 33/17 A2979 NOSIG=
201601262200 METAR MRLB 262200Z 08015KT CAVOK 32/17 A2978 NOSIG=
201601262300 METAR MRLB 262300Z 09015KT CAVOK 31/17 A2978 NOSIG=
201601262353 METAR MRLB 270000Z 09014KT CAVOK 29/18 A2979 NOSIG=
201601270000 METAR MRLB 270000Z 09014KT CAVOK 29/18 A2979 NOSIG=
201601270100 METAR MRLB 270100Z 09013KT CAVOK 28/18 A2980 NOSIG=
201601270200 METAR MRLB 270200Z 10011KT CAVOK 27/18 A2983 NOSIG=
201601270300 METAR MRLB 270300Z 09013KT CAVOK 27/18 A2984 NOSIG=
201601270400 METAR MRLB 270400Z 11011KT CAVOK 27/18 A2985 NOSIG=
201601270500 METAR MRLB 270500Z 11008KT CAVOK 26/18 A2985 NOSIG=
201601270600 METAR MRLB 270600Z 10008KT CAVOK 26/18 A2984 NOSIG=
201601270700 METAR MRLB NIL=
201601270800 METAR MRLB NIL=
201601270900 METAR MRLB NIL=
201601271000 METAR MRLB NIL=
201601271100 METAR MRLB NIL=
201601271200 METAR MRLB 271200Z 24002KT CAVOK 19/17 A2983 NOSIG=
201601271300 METAR MRLB 271300Z 07002KT CAVOK 20/17 A2985 NOSIG=
201601271354 METAR MRLB COR271400Z 00000KT CAVOK 25/18 A2987 NOSIG=
201601271400 METAR MRLB 271400Z COR 00000KT CAVOK 25/18 A2987 NOSIG=
201601271500 METAR MRLB 271500Z 10006KT CAVOK 30/17 A2988 NOSIG=
201601271600 METAR MRLB 271600Z 10012KT CAVOK 31/16 A2988 NOSIG=
201601271700 METAR MRLB 271700Z 11011KT CAVOK 32/16 A2986 NOSIG=
201601271800 METAR MRLB 271800Z 11008KT 9999 FEW030 33/17 A2983 NOSIG=
201601271900 METAR MRLB 271900Z 09008KT 9999 FEW030 34/16 A2981 NOSIG=
201601272000 METAR MRLB 272000Z 09009KT 9999 FEW035 34/16 A2978 NOSIG=
201601272100 METAR MRLB 272100Z 09006KT 9999 FEW035 34/15 A2976 NOSIG=
201601272200 METAR MRLB 272200Z 09004KT 9999 SCT035 33/15 A2975 NOSIG=
201601272300 METAR MRLB 272300Z 07005KT 9999 FEW035 33/16 A2976 NOSIG=
201601272352 METAR MRLB 280000Z 31007KT CAVOK 28/20 A2978 NOSIG=
201601280000 METAR MRLB 280000Z 31007KT CAVOK 28/20 A2978 NOSIG=
201601280100 METAR MRLB 280100Z 00000KT CAVOK 27/20 A2981 NOSIG=
201601280200 METAR MRLB 280200Z 24002KT CAVOK 26/20 A2983 NOSIG=
201601280300 METAR MRLB 280300Z 22004KT CAVOK 25/21 A2986 NOSIG=
201601280400 METAR MRLB 280400Z 20004KT CAVOK 25/20 A2987 NOSIG=
201601280500 METAR MRLB 280500Z 04003KT CAVOK 23/20 A2987 NOSIG=
201601280600 METAR MRLB 280600Z 03002KT CAVOK 23/20 A2986 NOSIG=
201601280700 METAR MRLB NIL=
201601280800 METAR MRLB NIL=
201601280900 METAR MRLB NIL=
201601281000 METAR MRLB NIL=
201601281100 METAR MRLB NIL=
201601281200 METAR MRLB 281200Z 08002KT CAVOK 19/17 A2986 NOSIG=
201601281300 METAR MRLB 281300Z 09003KT CAVOK 20/18 A2989 NOSIG=
201601281400 METAR MRLB 281400Z 20003KT CAVOK 24/19 A2993 NOSIG=
201601281500 METAR MRLB 281500Z 00000KT CAVOK 26/19 A2994 NOSIG=
201601281600 METAR MRLB 281600Z 14003KT CAVOK 30/17 A2993 NOSIG=
201601281700 METAR MRLB 281700Z 05006KT CAVOK 32/16 A2991 NOSIG=
201601281800 METAR MRLB 281800Z 04006KT 9999 FEW040 33/15 A2986 NOSIG=
201601281900 METAR MRLB 281900Z 35006KT 9999 FEW040 34/13 A2983 NOSIG=
201601282000 METAR MRLB 282000Z VRB03KT 9999 SCT035 33/13 A2980 NOSIG=
201601282100 METAR MRLB 282100Z 06010KT 9999 FEW040 33/13 A2979 NOSIG=
201601282200 METAR MRLB 282200Z 10007KT 9999 FEW040 33/13 A2978 NOSIG=
201601282300 METAR MRLB 282300Z 08010KT CAVOK 31/15 A2978 NOSIG=
201601282356 METAR MRLB 290000Z 08008KT CAVOK 29/17 A2981 NOSIG=
201601290000 METAR MRLB 290000Z 08008KT CAVOK 29/17 A2981 NOSIG=
201601290100 METAR MRLB 290100Z 03004KT CAVOK 28/17 A2983 NOSIG=
201601290200 METAR MRLB 290200Z 10005KT CAVOK 27/18 A2986 NOSIG=
201601290300 METAR MRLB 290300Z 11006KT CAVOK 27/18 A2988 NOSIG=
201601290400 METAR MRLB 290400Z 09005KT CAVOK 27/18 A2989 NOSIG=
201601290500 METAR MRLB 290500Z 10003KT CAVOK 27/18 A2989 NOSIG=
201601290600 METAR MRLB 290600Z 28003KT CAVOK 25/18 A2989 NOSIG=
201601290700 METAR MRLB NIL=
201601290800 METAR MRLB NIL=
201601290900 METAR MRLB NIL=
201601291000 METAR MRLB NIL=
201601291100 METAR MRLB NIL=
201601291200 METAR MRLB 291200Z 01003KT CAVOK 19/17 A2987 NOSIG=
201601291300 METAR MRLB 291300Z 00000KT CAVOK 22/17 A2989 NOSIG=
201601291400 METAR MRLB 291400Z 09014KT CAVOK 28/17 A2989 NOSIG=
201601291500 METAR MRLB 291500Z 05011KT CAVOK 30/16 A2992 NOSIG=
201601291600 METAR MRLB 291600Z 09015KT CAVOK 32/16 A2991 NOSIG=
201601291700 METAR MRLB 291700Z 08018KT 9999 FEW035 33/16 A2989 NOSIG=
201601291800 METAR MRLB 291800Z 09019G29KT 9999 FEW035 32/17 A2987 NOSIG=
201601291900 METAR MRLB 291900Z 08021KT 9999 FEW035 33/17 A2984 NOSIG=
201601292000 METAR MRLB 292000Z 08018G28KT 9999 FEW035 34/16 A2981 NOSIG=
201601292100 METAR MRLB 292100Z 09017KT 9999 FEW035 33/17 A2980 NOSIG=
201601292200 METAR MRLB 292200Z 10014KT 9999 FEW035 32/18 A2980 NOSIG=
201601292300 METAR MRLB 292300Z 09017KT 9999 FEW035 30/18 A2979 NOSIG=
201601292354 METAR MRLB 300000Z 08021KT CAVOK 28/18 A2980 NOSIG=
201601300000 METAR MRLB 300000Z 08021KT CAVOK 28/18 A2980 NOSIG=
201601300100 METAR MRLB 300100Z 09019G30KT CAVOK 28/18 A2982 NOSIG=
201601300200 METAR MRLB 300200Z 09019G29KT CAVOK 28/17 A2985 NOSIG=
201601300300 METAR MRLB 300300Z 09017G27KT CAVOK 27/17 A2987 NOSIG=
201601300400 METAR MRLB 300400Z 09021G31KT CAVOK 27/17 A2987 NOSIG=
201601300500 METAR MRLB 300500Z 08021G231KT CAVOK 27/16 A2987 NOSIG=
201601300600 METAR MRLB 300600Z 09017KT CAVOK 27/17 A2986 NOSIG=
201601300700 METAR MRLB NIL=
201601300800 METAR MRLB NIL=
201601300900 METAR MRLB NIL=
201601301000 METAR MRLB NIL=
201601301100 METAR MRLB NIL=
201601301200 METAR MRLB 301200Z 25004KT CAVOK 22/17 A2986 NOSIG=
201601301300 METAR MRLB 301300Z 07003KT CAVOK 23/17 A2987 NOSIG=
201601301400 METAR MRLB 301400Z 35003KT CAVOK 27/17 A2989 NOSIG=
201601301500 METAR MRLB 301500Z 07005KT CAVOK 29/17 A2990 NOSIG=
201601301600 METAR MRLB 301600Z 10013KT CAVOK 30/17 A2990 NOSIG=
201601301700 METAR MRLB 301700Z 10014KT CAVOK 31/17 A2989 NOSIG=
201601301800 METAR MRLB 301800Z 10012KT CAVOK 32/16 A2988 NOSIG=
201601301900 METAR MRLB 301900Z 10012KT CAVOK 32/17 A2986 NOSIG=
201601302000 METAR MRLB 302000Z 08012KT 9999 FEW040 32/17 A2984 NOSIG=
201601302100 METAR MRLB 302100Z 09012KT 9999 FEW040 32/17 A2983 NOSIG=
201601302200 METAR MRLB 302200Z 08012KT 9999 FEW040 32/17 A2983 NOSIG=
201601302300 METAR MRLB 302300Z 07014KT 9999 FEW040 31/17 A2984 NOSIG=
201601302352 METAR MRLB 310000Z 08011KT 9999 FEW040 29/18 A2985 NOSIG=
201601310000 METAR MRLB 310000Z 08011KT 9999 FEW040 29/18 A2985 NOSIG=
201601310100 METAR MRLB 310100Z 09011KT 9999 FEW045 28/17 A2987 NOSIG=
201601310200 METAR MRLB 310200Z 09009KT 9999 FEW045 27/17 A2990 NOSIG=
201601310300 METAR MRLB 310300Z 10013KT CAVOK 27/17 A2991 NOSIG=
201601310400 METAR MRLB 310400Z 10011KT CAVOK 27/17 A2993 NOSIG=
201601310500 METAR MRLB 310500Z 09005KT CAVOK 26/17 A2991 NOSIG=
201601310600 METAR MRLB 310600Z 15003KT CAVOK 25/17 A2990 NOSIG=
201601310700 METAR MRLB NIL=
201601310800 METAR MRLB NIL=
201601310900 METAR MRLB NIL=
201601311000 METAR MRLB NIL=
201601311100 METAR MRLB NIL=
201601311200 METAR MRLB 311200Z 00000KT CAVOK 21/17 A2988 NOSIG=
201601311300 METAR MRLB 311300Z 00000KT CAVOK 21/18 A2990 NOSIG=
201601311400 METAR MRLB 311400Z 28002KT CAVOK 26/18 A2992 NOSIG=
201601311500 METAR MRLB 311500Z 32002KT CAVOK 28/18 A2992 NOSIG=
201601311600 METAR MRLB 311600Z 09013KT CAVOK 32/17 A2990 NOSIG=
201601311700 METAR MRLB 311700Z 10013KT CAVOK 32/17 A2989 NOSIG=
201601311800 METAR MRLB 311800Z 08011KT 9999 FEW035 33/16 A2986 NOSIG=
201601311900 METAR MRLB 311900Z 10013KT 9999 FEW035 34/16 A2983 NOSIG=
201601312000 METAR MRLB 312000Z 07013KT 9999 FEW035 34/17 A2979 NOSIG=
201601312100 METAR MRLB 312100Z 09010KT 9999 FEW035 34/16 A2977 NOSIG=
201601312200 METAR MRLB 312200Z 09011KT 9999 FEW035 33/16 A2976 NOSIG=
201601312300 METAR MRLB 312300Z 08012KT CAVOK 32/16 A2976 NOSIG=
201601312352 METAR MRLB 010000Z 08010KT CAVOK 30/18 A2978 NOSIG=
201601312356 METAR MRLB 010000Z 08010KT CAVOK 30/18 A2978 NOSIG=
201602010000 METAR MRLB 010000Z 08010KT CAVOK 30/18 A2978 NOSIG=
201602010100 METAR MRLB 010100Z 09008KT CAVOK 28/18 A2980 NOSIG=
201602010200 METAR MRLB 010200Z 11009KT CAVOK 27/18 A2982 NOSIG=
201602010300 METAR MRLB 010300Z 09009KT CAVOK 27/18 A2985 NOSIG=
201602010400 METAR MRLB 010400Z 13005KT CAVOK 26/18 A2985 NOSIG=
201602010500 METAR MRLB 010500Z 08003KT CAVOK 25/17 A2986 NOSIG=
201602010600 METAR MRLB 010600Z 07002KT CAVOK 24/18 A2986 NOSIG=
201602010700 METAR MRLB NIL=
201602010800 METAR MRLB NIL=
201602010900 METAR MRLB NIL=
201602011000 METAR MRLB NIL=
201602011100 METAR MRLB NIL=
201602011200 METAR MRLB 011200Z 01003KT CAVOK 20/17 A2986 NOSIG=
201602011300 METAR MRLB 011300Z 00000KT 9999 FEW040 22/18 A2986 NOSIG=
201602011400 METAR MRLB 011400Z 03004KT CAVOK 25/18 A2989 NOSIG=
201602011500 METAR MRLB 011500Z 07013KT 9999 FEW040 30/18 A2990 NOSIG=
201602011600 METAR MRLB 011600Z 07016KT 9999 FEW035 30/17 A2990 NOSIG=
201602011700 METAR MRLB 011700Z 09012KT 9999 FEW035 32/17 A2987 NOSIG=
201602011800 METAR MRLB 011800Z 09016KT 9999 FEW035 32/17 A2984 NOSIG=
201602011900 METAR MRLB 011900Z 09013KT 9999 FEW035 32/16 A2981 NOSIG=
201602012000 METAR MRLB 012000Z 08013KT 9999 FEW035 33/17 A2977 NOSIG=
201602012100 METAR MRLB 012100Z 08014KT 9999 FEW030 32/17 A2976 NOSIG=
201602012200 METAR MRLB 012200Z 09013G23KT CAVOK 31/17 A2976 NOSIG=
201602012300 METAR MRLB 012300Z 08015KT CAVOK 30/16 A2975 NOSIG=
201602012350 METAR MRLB 020000Z 08012KT CAVOK 29/16 A2977 NOSIG=
201602020000 METAR MRLB 020000Z 08012KT CAVOK 29/16 A2977 NOSIG=
201602020100 METAR MRLB 020100Z 08011KT CAVOK 28/15 A2979 NOSIG=
201602020200 METAR MRLB 020200Z 08012KT CAVOK 27/17 A2982 NOSIG=
201602020300 METAR MRLB 020300Z 08012KT CAVOK 27/16 A2984 NOSIG=
201602020400 METAR MRLB 020400Z 08011KT CAVOK 26/16 A2985 NOSIG=
201602020500 METAR MRLB 020500Z 10008KT CAVOK 26/15 A2985 NOSIG=
201602020600 METAR MRLB 020600Z 10004KT CAVOK 25/17 A2985 NOSIG=
201602020700 METAR MRLB NIL=
201602020800 METAR MRLB NIL=
201602020900 METAR MRLB NIL=
201602021000 METAR MRLB NIL=
201602021100 METAR MRLB NIL=
201602021200 METAR MRLB 021200Z 05002KT CAVOK 19/16 A2984 NOSIG=
201602021300 METAR MRLB 021300Z 14003KT CAVOK 19/16 A2986 NOSIG=
201602021400 METAR MRLB 021400Z 00000KT CAVOK 25/16 A2987 NOSIG=
201602021500 METAR MRLB 021500Z 00000KT CAVOK 28/16 A2988 NOSIG=
201602021600 METAR MRLB 021600Z 23003KT CAVOK 31/17 A2987 NOSIG=
201602021700 METAR MRLB 021700Z 10006KT CAVOK 33/14 A2984 NOSIG=
201602021800 METAR MRLB 021800Z 14006KT 9999 FEW035 34/14 A2981 NOSIG=
201602021900 METAR MRLB 021900Z 21002KT 9999 SCT035 33/14 A2979 NOSIG=
201602022000 METAR MRLB 022000Z 29008KT 9999 FEW035 33/17 A2976 NOSIG=
201602022100 METAR MRLB 022100Z 28010KT 9999 FEW035 33/17 A2974 NOSIG=
201602022200 METAR MRLB 022200Z 30008KT 9999 FEW040 33/16 A2975 NOSIG=
201602022300 METAR MRLB NIL=
201602030000 METAR MRLB NIL=
201602030100 METAR MRLB NIL=
201602030200 METAR MRLB 030200Z 18005KT CAVOK 27/18 A2984 NOSIG=
201602030300 METAR MRLB 030300Z 15003KT CAVOK 26/18 A2986 NOSIG=
201602030400 METAR MRLB 030400Z 05003KT CAVOK 24/18 A2988 NOSIG=
201602030500 METAR MRLB 030500Z 14004KT CAVOK 23/17 A2987 NOSIG=
201602030600 METAR MRLB 030600Z 15002KT CAVOK 23/16 A2987 NOSIG=
201602030700 METAR MRLB NIL=
201602030800 METAR MRLB NIL=
201602030900 METAR MRLB NIL=
201602031000 METAR MRLB NIL=
201602031100 METAR MRLB NIL=
201602031200 METAR MRLB 031200Z 00000KT CAVOK 19/16 A2984 NOSIG=
201602031300 METAR MRLB 031300Z 00000KT CAVOK 21/17 A2986 NOSIG=
201602031400 METAR MRLB 031400Z 22003KT CAVOK 23/17 A2988 NOSIG=
201602031500 METAR MRLB 031500Z 23002KT CAVOK 27/17 A2989 NOSIG=
201602031600 METAR MRLB 031600Z 08003KT CAVOK 31/16 A2988 NOSIG=
201602031700 METAR MRLB 031700Z 03004KT CAVOK 33/15 A2985 NOSIG=
201602031800 METAR MRLB 031800Z 10004KT CAVOK 34/13 A2981 NOSIG=
201602031900 METAR MRLB 031900Z VRB02KT CAVOK 36/11 A2977 NOSIG=
201602032000 METAR MRLB 032000Z 27008KT CAVOK 35/14 A2974 NOSIG=
201602032100 METAR MRLB 032100Z 28009KT 9999 FEW045 BKN250 34/17 A2973 NOSIG=
201602032200 METAR MRLB 032200Z 31005KT CAVOK 34/16 A2972 NOSIG=
201602032300 METAR MRLB 032300Z 28006KT CAVOK 33/18 A2974 NOSIG=
201602032354 METAR MRLB 040000Z 25003KT CAVOK 30/18 A2976 NOSIG=
201602040000 METAR MRLB 040000Z 25003KT CAVOK 30/18 A2976 NOSIG=
201602040100 METAR MRLB 040100Z COR 130003KT CAVOK 29/17 A2979 NOSIG=
201602040200 METAR MRLB 040200Z 11005KT CAVOK 27/18 A2981 NOSIG=
201602040300 METAR MRLB 040300Z 13003KT CAVOK 27/18 A2984 NOSIG=
201602040400 METAR MRLB 040400Z 16002KT CAVOK 26/18 A2985 NOSIG=
201602040500 METAR MRLB 040500Z 18002KT CAVOK 24/18 A2986 NOSIG=
201602040600 METAR MRLB 040600Z 24004KT CAVOK 22/19 A2986 NOSIG=
201602040700 METAR MRLB NIL=
201602040800 METAR MRLB NIL=
201602040900 METAR MRLB NIL=
201602041000 METAR MRLB NIL=
201602041100 METAR MRLB NIL=
201602041200 METAR MRLB 041200Z 00000KT CAVOK 20/18 A2988 NOSIG=
201602041300 METAR MRLB 041300Z 31002KT CAVOK 21/18 A2990 NOSIG=
201602041400 METAR MRLB 041400Z 00000KT CAVOK 25/19 A2992 NOSIG=
201602041500 METAR MRLB 041500Z 27003KT CAVOK 27/18 A2993 NOSIG=
201602041600 METAR MRLB 041600Z 27002KT 9999 FEW030 31/16 A2992 NOSIG=
201602041700 METAR MRLB 041700Z 33003KT 9999 FEW030 33/16 A2989 NOSIG=
201602041800 METAR MRLB 041800Z 05007KT 9999 FEW030 32/15 A2986 NOSIG=
201602041900 METAR MRLB 041900Z 08010KT 9999 SCT035 34/14 A2981 NOSIG=
201602042000 METAR MRLB 042000Z 09010KT 9999 FEW035 34/14 A2978 NOSIG=
201602042100 METAR MRLB 042100Z 09010KT 9999 FEW035 34/14 A2977 NOSIG=
201602042200 METAR MRLB 042200Z 08012KT 9999 FEW035 34/14 A2977 NOSIG=
201602042300 METAR MRLB 042300Z 08013KT CAVOK 32/15 A2978 NOSIG=
201602042357 METAR MRLB 050000Z 09010KT CAVOK 30/18 A2979 NOSIG=
201602050000 METAR MRLB 050000Z 09010KT CAVOK 30/18 A2979 NOSIG=
201602050100 METAR MRLB 050100Z 09013KT CAVOK 28/18 A2981 NOSIG=
201602050200 METAR MRLB 050200Z 09014KT CAVOK 27/18 A2984 NOSIG=
201602050300 METAR MRLB 050300Z 09015KT CAVOK 27/18 A2986 NOSIG=
201602050400 METAR MRLB 050400Z 10011KT CAVOK 27/16 A2987 NOSIG=
201602050500 METAR MRLB 050500Z 09014KT CAVOK 26/16 A2986 NOSIG=
201602050600 METAR MRLB 050600Z 08011KT CAVOK 26/16 A2986 NOSIG=
201602050700 METAR MRLB NIL=
201602050800 METAR MRLB NIL=
201602050900 METAR MRLB NIL=
201602051000 METAR MRLB NIL=
201602051100 METAR MRLB NIL=
201602051200 METAR MRLB 051200Z 09013KT CAVOK 26/17 A2985 NOSIG=
201602051300 METAR MRLB 051300Z 00000KT CAVOK 24/16 A2989 NOSIG=
201602051400 METAR MRLB 051400Z 12010G20KT CAVOK 29/16 A2990 NOSIG=
201602051500 METAR MRLB 051500Z 08020G31KT 9999 FEW035 29/17 A2991 NOSIG=
201602051600 METAR MRLB 051600Z 08023G33KT 9999 FEW035 29/17 A2993 NOSIG=
201602051700 METAR MRLB 051700Z 08023G33KT 9999 FEW035 31/17 A2990 NOSIG=
201602051800 METAR MRLB 051800Z 08024G36KT 9999 FEW035 32/17 A2986 NOSIG=
201602051900 METAR MRLB 051900Z 10019G30KT 9999 FEW035 32/17 A2982 NOSIG=
201602052000 METAR MRLB 052000Z 08020G30KT 9999 FEW035 32/16 A2979 NOSIG=
201602052100 METAR MRLB 052100Z 09020G30KT 9999 FEW035 31/17 A2979 NOSIG=
201602052200 METAR MRLB 052200Z 09022G32KT CAVOK 30/16 A2978 NOSIG=
201602052300 METAR MRLB 052300Z 09023G33KT CAVOK 29/16 A2978 NOSIG=
201602052351 METAR MRLB 060000Z 09020G30KT CAVOK 28716 A2980 NOSIG=
201602060000 METAR MRLB 060000Z 09020G30KT CAVOK 28716 A2980 NOSIG=
201602060100 METAR MRLB 060100Z 08021KT CAVOK 27/17 A2983 NOSIG=
201602060200 METAR MRLB 060200Z 08020G31KT CAVOK 26/16 A2984 NOSIG=
201602060300 METAR MRLB 060300Z 08019KT CAVOK 26/15 A2984 NOSIG=
201602060400 METAR MRLB 060400Z 09018G28KT CAVOK 26/15 A2986 NOSIG=
201602060500 METAR MRLB 060500Z 09020KT CAVOK 26/15 A2984 NOSIG=
201602060600 METAR MRLB 060600Z 10018KT CAVOK 26/15 A2984 NOSIG=
201602060700 METAR MRLB NIL=
201602060800 METAR MRLB NIL=
201602060900 METAR MRLB NIL=
201602061000 METAR MRLB NIL=
201602061100 METAR MRLB NIL=
201602061200 METAR MRLB 061200Z 09016KT CAVOK 26/14 A2981 NOSIG=
201602061300 METAR MRLB 061300Z 09016G26KT CAVOK 26/15 A2983 NOSIG=
201602061400 METAR MRLB 061400Z 09021KT CAVOK 27/15 A2984 NOSIG=
201602061500 METAR MRLB 061500Z 09019KT CAVOK 29/15 A2986 NOSIG=
201602061600 METAR MRLB 061600Z 08020KT CAVOK 31/14 A2986 NOSIG=
201602061700 METAR MRLB 061700Z 09021KT CAVOK 31/14 A2985 NOSIG=
201602061800 METAR MRLB 061800Z 09018G29KT CAVOK 33/13 A2982 NOSIG=
201602061900 METAR MRLB 061900Z 08020KT CAVOK 33/14 A2980 NOSIG=
201602062000 METAR MRLB 062000Z 09016KT CAVOK 34/14 A2978 NOSIG=
201602062100 METAR MRLB 062100Z 08019G29KT 9999 FEW035 34/14 A2977 NOSIG=
201602062200 METAR MRLB 062200Z 09017G27KT CAVOK 33/14 A2977 NOSIG=
201602062300 METAR MRLB 062300Z 08018KT CAVOK 31/14 A2978 NOSIG=
201602062353 METAR MRLB 070000Z 08016G26KT CAVOK 29/14 A2979 NOSIG=
201602070000 METAR MRLB 070000Z 08016G26KT CAVOK 29/14 A2979 NOSIG=
201602070100 METAR MRLB 070100Z 08018KT CAVOK 28/15 A2981 NOSIG=
201602070200 METAR MRLB 070200Z 08019KT CAVOK 27/16 A2984 NOSIG=
201602070300 METAR MRLB 070300Z 08016KT CAVOK 26/16 A2985 NOSIG=
201602070400 METAR MRLB 070400Z 08013KT CAVOK 26/15 A2987 NOSIG=
201602070500 METAR MRLB 070500Z 09014KT CAVOK 26/16 A2987 NOSIG=
201602070600 METAR MRLB 070600Z 05010KT CAVOK 25/14 A2986 NOSIG=
201602070700 METAR MRLB NIL=
201602070800 METAR MRLB NIL=
201602070900 METAR MRLB NIL=
201602071000 METAR MRLB NIL=
201602071100 METAR MRLB NIL=
201602071200 METAR MRLB 071200Z 07005KT CAVOK 24/16 A2982 NOSIG=
201602071300 METAR MRLB 071300Z 09003KT CAVOK 25/15 A2985 NOSIG=
201602071400 METAR MRLB 071400Z 27005KT CAVOK 27/16 A2986 NOSIG=
201602071500 METAR MRLB 071500Z 24002KT CAVOK 29/15 A2988 NOSIG=
201602071600 METAR MRLB 071600Z 10016G26KT CAVOK 30/15 A2985 NOSIG=
201602071700 METAR MRLB 071700Z 09021G31KT CAVOK 31/15 A2982 NOSIG=
201602071800 METAR MRLB 071800Z 09022G32KT CAVOK 31/15 A2980 NOSIG=
201602071900 METAR MRLB 071900Z 08022G32KT CAVOK 32/15 A2978 NOSIG=
201602072000 METAR MRLB 072000Z 08023G33KT CAVOK 32/15 A29/75=
201602072100 METAR MRLB 072100Z 08023G33KT CAVOK 32/16 A2974 NOSIG=
201602072200 METAR MRLB 072200Z 08023G33KT CAVOK 30/16 A2973 NOSIG=
201602072300 METAR MRLB 072300Z 08023G33KT CAVOK 29/17 A2974 NOSIG=
201602072353 METAR MRLB 080000Z 08022G37KT CAVOK 28/16 A2977 NOSIG=
201602080000 METAR MRLB 080000Z 08022G37KT CAVOK 28/16 A2977 NOSIG=
201602080100 METAR MRLB NIL=
201602080200 METAR MRLB 080200Z 08022KT CAVOK 27/15 A2983 NOSIG=
201602080300 METAR MRLB 080300Z 09022G35KT CAVOK 26/16 A2985 NOSIG=
201602080400 METAR MRLB 080400Z 09022G35KT CAVOK 26/15 A2986 NOSIG=
201602080500 METAR MRLB 080500Z 08021G32KT CAVOK 26/15 A2986 NOSIG=
201602080600 METAR MRLB 080600Z 09023G36KT CAVOK 25/17 A2984 NOSIG=
201602080700 METAR MRLB NIL=
201602080800 METAR MRLB NIL=
201602080900 METAR MRLB NIL=
201602081000 METAR MRLB NIL=
201602081100 METAR MRLB NIL=
201602081200 METAR MRLB 081200Z 10017KT CAVOK 24/15 A2978 NOSIG=
201602081300 METAR MRLB 081300Z 07017KT CAVOK 25/16 A2982 NOSIG=
201602081400 METAR MRLB 081400Z 01010KT CAVOK 26/15 A2984 NOSIG=
201602081500 METAR MRLB 081500Z 10018G28KT CAVOK 28/15 A2982 NOSIG=
201602081600 METAR MRLB 081600Z 09011KT CAVOK 31/13 A2982 NOSIG=
201602081700 METAR MRLB 081700Z 10014KT CAVOK 31/13 A2981 NOSIG=
201602081800 METAR MRLB 081800Z 10019G30KT CAVOK 31/12 A2979 NOSIG=
201602081900 METAR MRLB NIL=
201602082000 METAR MRLB 082000Z 11016KT CAVOK 32/15 A2977 NOSIG=
201602082100 METAR MRLB 082100Z 10014KT CAVOK 32/15 A2977 NOSIG=
201602082200 METAR MRLB 082200Z 08017KT CAVOK 31/15 A2977 NOSIG=
201602082300 METAR MRLB 082300Z 08017KT CAVOK 30/16 A2978 NOSIG=
201602082357 METAR MRLB 090000Z 08016G27KT CAVOK 28/16 A2981 NOSIG=
201602090000 METAR MRLB 090000Z 08016G27KT CAVOK 28/16 A2981 NOSIG=
201602090100 METAR MRLB 090100Z 09015KT CAVOK 27/16 A2983 NOSIG=
201602090200 METAR MRLB 090200Z 09014KT CAVOK 27/17 A2985 NOSIG=
201602090300 METAR MRLB 090300Z 10011KT CAVOK 27/17 A2987 NOSIG=
201602090400 METAR MRLB 090400Z 09013KT CAVOK 26/17 A2989 NOSIG=
201602090500 METAR MRLB 090500Z 09014KT CAVOK 26/17 A2988 NOSIG=
201602090600 METAR MRLB 090600Z 08014KT CAVOK 26/17 A2987 NOSIG=
201602090700 METAR MRLB NIL=
201602090800 METAR MRLB NIL=
201602090900 METAR MRLB NIL=
201602091000 METAR MRLB NIL=
201602091100 METAR MRLB NIL=
201602091200 METAR MRLB 091200Z 24007KT 9999 FEW045 SCT240 22/16 A2987 NOSIG=
201602091300 METAR MRLB 091300Z 24005KT CAVOK 23/16 A2989 NOSIG=
201602091400 METAR MRLB 091400Z 24006KT CAVOK 27/16 A2991 NOSIG=
201602091500 METAR MRLB 091500Z 22008KT 9999 FEW035 SCT250 29/16 A2992 NOSIG=
201602091600 METAR MRLB 091600Z 06010G20KT 9999 FEW035 31/16 A2991 NOSIG=
201602091700 METAR MRLB 091700Z 09010KT 9999 FEW035 32/16 A2989 NOSIG=
201602091800 METAR MRLB 091800Z 10014KT 9999 FEW035 32/16 A2985 NOSIG=
201602091900 METAR MRLB 091900Z 08019G31KT 9999 FEW035 33/15 A2981 NOSIG=
201602092000 METAR MRLB 092000Z 10018G30KT 9999 FEW035 33/16 A2978 NOSIG=
201602092100 METAR MRLB 092100Z 03010KT 9999 FEW035 32/16 A2979 NOSIG=
201602092200 METAR MRLB 092200Z 34005KT 9999 FEW035 32/16 A2979 NOSIG=
201602092300 METAR MRLB 092300Z 08013KT 9999 FEW035 30/16 A2980 NOSIG=
201602092355 METAR MRLB 100000Z 24010KT 9999 FEW035 29/16 A2982 NOSIG=
201602100000 METAR MRLB 100000Z 24010KT 9999 FEW035 29/16 A2982 NOSIG=
201602100100 METAR MRLB 100100Z 23006KT CAVOK 27/16 A2985 NOSIG=
201602100200 METAR MRLB 100200Z 26010KT CAVOK 26/16 A2987 NOSIG=
201602100300 METAR MRLB 100300Z 25008KT CAVOK 26/15 A2988 NOSIG=
201602100400 METAR MRLB 100400Z 27007KT CAVOK 25/15 A2989 NOSIG=
201602100500 METAR MRLB 100500Z 24006KT CAVOK 25/15 A2990 NOSIG=
201602100600 METAR MRLB 100600Z 25011KT CAVOK 25/15 A2989 NOSIG=
201602100700 METAR MRLB NIL=
201602100800 METAR MRLB NIL=
201602100900 METAR MRLB NIL=
201602101000 METAR MRLB NIL=
201602101100 METAR MRLB NIL=
201602101200 METAR MRLB 101200Z 27009KT CAVOK 22/15 A2987 NOSIG=
201602101300 METAR MRLB 101300Z 25008KT CAVOK 24/14 A2990 NOSIG=
201602101400 METAR MRLB 101400Z 27012KT CAVOK 26/14 A2991 NOSIG=
201602101500 METAR MRLB 101500Z 08014G25KT CAVOK 29/13 A2992 NOSIG=
201602101600 METAR MRLB 101600Z 06021KT CAVOK 31/13 A2992 NOSIG=
201602101700 METAR MRLB 101700Z 07015G26KT CAVOK 31/13 A2991 NOSIG=
201602101800 METAR MRLB 101800Z 08018KT CAVOK 32/13 A2987 NOSIG=
201602101900 METAR MRLB 101900Z 07019KT CAVOK 32/13 A2986 NOSIG=
201602102000 METAR MRLB 102000Z 09018KT CAVOK 31/14 A2984 NOSIG=
201602102100 METAR MRLB 102100Z 09020G30KT CAVOK 30/15 A2983 NOSIG=
201602102200 METAR MRLB 102200Z 08018KT CAVOK 30/15 A2984 NOSIG=
201602102300 METAR MRLB 102300Z 07018KT CAVOK 29/15 A2986 NOSIG=
201602102353 METAR MRLB 110000Z 09014KT CAVOK 27/15 A2987 NOSIG=
201602110000 METAR MRLB 110000Z 09014KT CAVOK 27/15 A2987 NOSIG=
201602110100 METAR MRLB 110100Z 09015KT CAVOK 26/15 A2989 NOSIG=
201602110200 METAR MRLB 110200Z 07015G25KT CAVOK 27/15 A2991 NOSIG=
201602110300 METAR MRLB 110300Z 07014KT CAVOK 26/15 A2993 NOSIG=
201602110400 METAR MRLB 110400Z 08013G23KT CAVOK 27/14 A2993 NOSIG=
201602110500 METAR MRLB 110500Z 30010G20KT CAVOK 26/14 A2991 NOSIG=
201602110600 METAR MRLB 110600Z 07012G22KT CAVOK 26/14 A2990 NOSIG=
201602110700 METAR MRLB NIL=
201602110800 METAR MRLB NIL=
201602110900 METAR MRLB NIL=
201602111000 METAR MRLB NIL=
201602111100 METAR MRLB NIL=
201602111200 METAR MRLB 111200Z 20010KT CAVOK 24/14 A2987 NOSIG=
201602111300 METAR MRLB 111300Z 10011G31KT CAVOK 26/15 A2988 NOSIG=
201602111400 METAR MRLB 111400Z 05008G18KT CAVOK 29/14 A2989 NOSIG=
201602111500 METAR MRLB 111500Z 06020G30KT CAVOK 29/14 A2990 NOSIG=
201602111600 METAR MRLB 111600Z 06016G26KT CAVOK 31/15 A2990 NOSIG=
201602111700 METAR MRLB 111700Z 09020G30KT CAVOK 31/15 A2987 NOSIG=
201602111800 METAR MRLB 111800Z COR 09016G26KT CAVOK 31/16 A2985 WSRWY07 NOSIG=
201602111900 METAR MRLB 111900Z 08020G30KT CAVOK 32/16 A2980 WSRWY 07 NOSIG=
201602112000 METAR MRLB 112000Z 07022G32KT CAVOK 32/16 A2978 WSRWY 07 NOSIG=
201602112100 METAR MRLB 112100Z 08020KT CAVOK 31/17 A2979 WSRWY 07 NOSIG=
201602112200 METAR MRLB 112200Z 08017KT CAVOK 30/17 A2980 WSRWY 07 NOSIG=
201602112300 METAR MRLB 112300Z 09015KT CAVOK 29/17 A2981 WSRWY 07 NOSIG=
201602112352 METAR MRLB 120000Z 09014KT CAVOK 28/17 A2983 WSRWY 07 NOSIG=
201602120000 METAR MRLB 120000Z 09014KT CAVOK 28/17 A2983 WSRWY 07 NOSIG=
201602120100 METAR MRLB 120100Z 10006KT CAVOK 27/16 A2986 NOSIG=
201602120200 METAR MRLB 120200Z 09013G28KT CAVOK 27/16 A2986 NOSIG=
201602120300 METAR MRLB 120300Z 05011KT CAVOK 27/16 A2987 NOSIG=
201602120400 METAR MRLB 120400Z 04012G24KT CAVOK 26/16 A2987 NOSIG=
201602120500 METAR MRLB 120500Z 32007KT CAVOK 24/17 A2988 NOSIG=
201602120600 METAR MRLB 120600Z 03003KT CAVOK 24/16 A2986 NOSIG=
201602120700 METAR MRLB NIL=
201602120800 METAR MRLB NIL=
201602120900 METAR MRLB NIL=
201602121000 METAR MRLB NIL=
201602121100 METAR MRLB NIL=
201602121200 METAR MRLB 121200Z 32003KT CAVOK 23/17 A2987 NOSIG=
201602121300 METAR MRLB 121300Z 08017G27KT CAVOK 27/16 A2987 NOSIG=
201602121400 METAR MRLB 121400Z 07018G28KT CAVOK 28/17 A2989 NOSIG=
201602121500 METAR MRLB 121500Z 07017KT CAVOK 30/17 A2990 NOSIG=
201602121600 METAR MRLB 121600Z 07023KT 9999 FEW030 30/16 A2990 NOSIG=
201602121700 METAR MRLB 121700Z 08024KT 9999 FEW030 31/16 NOSIG=
201602121800 METAR MRLB 121800Z 07024G34KT 9999 FEW030 32/17 A2983 NOSIG=
201602121900 METAR MRLB 121900Z 08023KT 9999 FEW030 33/16 A2980 NOSIG=
201602122000 METAR MRLB 122000Z 08022KT CAVOK 33/16 A2978 NOSIG=
201602122100 METAR MRLB 122100Z 08023G33KT CAVOK 32/16 A2976 NOSIG=
201602122200 METAR MRLB 122200Z 08021G31KT CAVOK 32/16 A2976 NOSIG=
201602122300 METAR MRLB 122300Z 08019KT CAVOK 30/17 A2978 NOSIG=
201602122352 METAR MRLB 130000Z 08018G28KT CAVOK 28/17 A2980 NOSIG=
201602130000 METAR MRLB 130000Z 08018G28KT CAVOK 28/17 A2980 NOSIG=
201602130100 METAR MRLB 130100Z 08018G28KT CAVOK 27/16 A2981 NOSIG=
201602130200 METAR MRLB 130200Z 09017KT CAVOK 27/17 A2984 NOSIG=
201602130300 METAR MRLB 130300Z 08018G29KT CAVOK 27/16 A2985 NOSIG=
201602130400 METAR MRLB 130400Z 09015KT CAVOK 27/16 A2985 NOSIG=
201602130500 METAR MRLB 130500Z 08018KT CAVOK 27/16 A2983 NOSIG=
201602130600 METAR MRLB 130600Z 09018KT CAVOK 26/16 A2982 NOSIG=
201602130700 METAR MRLB NIL=
201602130800 METAR MRLB NIL=
201602130900 METAR MRLB NIL=
201602131000 METAR MRLB NIL=
201602131100 METAR MRLB NIL=
201602131200 METAR MRLB 131200Z 09020G30KT CAVOK 26/17 A2981 WSRWY 07 NOSIG=
201602131300 METAR MRLB 131300Z 09021G31KT CAVOK 27/16 A2982 WSRWY 07 NOSIG=
201602131400 METAR MRLB 131400Z 09020G30KT CAVOK 28/17 A2984 WSRWY 07 NOSIG=
201602131500 METAR MRLB 131500Z 08020G30KT CAVOK 30/17 A2986 WSRWY 07 NOSIG=
201602131600 METAR MRLB 131600Z 08022G32KT 9999 FEW030 SCT250 31/17 A2986 WSRWY 07 NOSIG=
201602131700 METAR MRLB 131700Z 09022G32KT 9999 FEW035 SCT250 31/17 A2983 WSRWY 07 NOSIG=
201602131800 METAR MRLB 131800Z 08025G35KT 9999 FEW035 SCT250 31/17 A2979 WSRWY 07 NOSIG=
201602131900 METAR MRLB 131900Z 09024G34KT 9999 FEW035 SCT250 31/18 A2977 WSRWY 07 NOSIG=
201602132000 METAR MRLB 132000Z 08023G32KT CAVOK 32/16 A2974 WSRWY 07 NOSIG=
201602132100 METAR MRLB 132100Z 09023G33KT CAVOK 32/16 A2972 WSRWY 07 NOSIG=
201602132200 METAR MRLB 132200Z 08023G33KT CAVOK 31/17 A2971 WSRWY 07 NOSIG=
201602132300 METAR MRLB 132300Z 08024G34KT CAVOK 29/17 A2972 WSR07 NOSIG=
201602132350 METAR MRLB 140000Z 09022G32KT CAVOK 28/18 A2972 WSR07 NOSIG=
201602140000 METAR MRLB 140000Z 09022G32KT CAVOK 28/18 A2972 WSR07 NOSIG=
201602140100 METAR MRLB 140100Z 08028G38KT CAVOK 27/16 A2974 WSR07 NOSIG=
201602140200 METAR MRLB 140200Z 08022G34KT CAVOK 27/17 A2976 WSR07 NOSIG=
201602140300 METAR MRLB 140300Z 08028G39KT CAVOK 27/16 A2977 WSR07 NOSIG=
201602140400 METAR MRLB 140400Z 09024G37KT CAVOK 26/17 A2978 WSR07 NOSIG=
201602140500 METAR MRLB 140500Z 10015G25KT CAVOK 26/16 A2977 NOSIG=
201602140600 METAR MRLB 140600Z 09021G33KT CAVOK 26/17 A2978 WSR07 NOSIG=
201602140700 METAR MRLB NIL=
201602140800 METAR MRLB NIL=
201602140900 METAR MRLB NIL=
201602141000 METAR MRLB NIL=
201602141100 METAR MRLB NIL=
201602141200 METAR MRLB 141200Z 10015KT CAVOK 26/17 A2974 NOSIG=
201602141300 METAR MRLB 141300Z 09020KT CAV0K 26/17 A2974 NOSIG=
201602141400 METAR MRLB 141400Z 09019G29KT CAVOK 28/16 A2975 NOSIG=
201602141500 METAR MRLB 141500Z 09020G30KT CAVOK 28/16 A2977 NOSIG=
201602141600 METAR MRLB 141600Z 09021KT CAVOK 31/16 A2978 NOSIG=
201602141700 METAR MRLB 141700Z 09022G34KT CAVOK 31/17 A2975 NOSIG=
201602141800 METAR MRLB 141800Z COR 09021G32KT CAVOK 32/16 A2972 NOSIG=
201602141900 METAR MRLB 141900Z 08019KT CAVOK 33/16 A2970 NOSIG=
201602142000 METAR MRLB 142000Z 0902032KT CAVOK 33/17 A2967 NOSIG=
201602142100 METAR MRLB 142100Z 08020KT CAVOK 32/16 A2966 NOSIG=
201602142200 METAR MRLB 142200Z COR 09020G35KT CAVOK 31/17 A2965 NOSIG=
201602142300 METAR MRLB 142300Z 08017KT CAVOK 30/16 A2967 NOSIG=
201602142353 METAR MRLB 150000Z 09017KT CAVOK 28/15 A2968 NOSIG=
201602150000 METAR MRLB 150000Z 09017KT CAVOK 28/15 A2968 NOSIG=
201602150100 METAR MRLB 150100Z COR 10017G27KT CAVOK 27/16 A2970 NOSIG=
201602150200 METAR MRLB 150200Z 09017KT CAVOK 27/17 A2974 NOSIG=
201602150300 METAR MRLB 150300Z 08020KT CAVOK 27/16 A2976 NOSIG=
201602150400 METAR MRLB 150400Z 09020KT CAVOK 27/17 A2976 NOSIG=
201602150500 METAR MRLB NIL=
201602150600 METAR MRLB NIL=
201602150700 METAR MRLB NIL=
201602150800 METAR MRLB NIL=
201602150900 METAR MRLB NIL=
201602151000 METAR MRLB NIL=
201602151100 METAR MRLB NIL=
201602151200 METAR MRLB 151200Z 11010KT CAVOK 26/17 A2971 NOSIG=
201602151300 METAR MRLB 151300Z 07005KT CAVOK 24/17 A2973 NOSIG=
201602151400 METAR MRLB 151400Z 02005KT CAVOK 28/17 A2974 NOSIG=
201602151500 METAR MRLB 151500Z 08016KT CAVOK 31/17 A2975 NOSIG=
201602151600 METAR MRLB 151600Z 09012G22KT CAVOK 32/17 A2975 NOSIG=
201602151700 METAR MRLB 151700Z 08016G26KT CAVOK 33/16 A2972 NOSIG=
201602151800 METAR MRLB 151800Z 07016G26KT CAVOK 33/17 A2971 NOSIG=
201602151900 METAR MRLB 151900Z 08014G24KT CAVOK 33/17 A2969 NOSIG=
201602152000 METAR MRLB 152000Z 09014KT 9999 FEW040 34/17 A2966 NOSIG=
201602152100 METAR MRLB 152100Z 08014KT CAVOK 33/17 A2964 NOSIG=
201602152200 METAR MRLB 152200Z 08013KT CAVOK 33/17 A2964 NOSIG=
201602152300 METAR MRLB 152300Z 08012KT CAVOK 32/17 A2964 NOSIG=
201602152354 METAR MRLB 160000Z 08013KT CAVOK 29/17 A2966 NOSIG=
201602160000 METAR MRLB 160000Z 08013KT CAVOK 29/17 A2966 NOSIG=
201602160100 METAR MRLB 160100Z 02005KT CAVOK 28/17 A2969 NOSIG=
201602160200 METAR MRLB 160200Z 06003KT CAVOK 27/17 A2972 NOSIG=
201602160300 METAR MRLB 160300Z 29003KT CAVOK 26/21 A2974 NOSIG=
201602160400 METAR MRLB 160400Z 08004KT CAVOK 26/18 A2975 NOSIG=
201602160500 METAR MRLB 160500Z 08007KT CAVOK 25/18 A2974 NOSIG=
201602160600 METAR MRLB 160600Z 36005KT CAVOK 25/18 A2973 NOSIG=
201602160700 METAR MRLB NIL=
201602160800 METAR MRLB NIL=
201602160900 METAR MRLB NIL=
201602161000 METAR MRLB NIL=
201602161100 METAR MRLB NIL=
201602161200 METAR MRLB 161200Z 04003KT CAVOK 20/18 A2973 NOSIG=
201602161300 METAR MRLB 161300Z 00000KT CAVOK 22/18 A2976 NOSIG=
201602161400 METAR MRLB 161400Z 20002KT CAVOK 26/18 A2979 NOSIG=
201602161500 METAR MRLB 161500Z 20003KT CAVOK 28/18 A2980 NOSIG=
201602161600 METAR MRLB 161600Z 23003KT CAVOK 31/17 A2978 NOSIG=
201602161700 METAR MRLB NIL=
201602161800 METAR MRLB NIL=
201602161900 METAR MRLB 161900Z 10015KT CAVOK 34/16 A2973 NOSIG=
201602162000 METAR MRLB 162000Z 10012KT CAVOK 34/17 A2966 NOSIG=
201602162100 METAR MRLB 162100Z 09012KT CAVOK 34/17 A2965 NOSIG=
201602162200 METAR MRLB 162200Z 10013KT CAVOK 34/17 A2964 NOSIG=
201602162300 METAR MRLB 162300Z 10013KT CAVOK 32/17 A2966 NOSIG=
201602162350 METAR MRLB 170000Z 10014KT CAVOK 29/18 A2967 NOSIG=
201602170000 METAR MRLB 170000Z 10014KT CAVOK 29/18 A2967 NOSIG=
201602170100 METAR MRLB 170100Z 10012KT CAVOK 28/18 A2970 NOSIG=
201602170200 METAR MRLB 170200Z 09013KT CAVOK 27/18 A2973 NOSIG=
201602170300 METAR MRLB 170300Z 09012KT CAVOK 27/17 A2976 NOSIG=
201602170400 METAR MRLB 170400Z 09010KT CAVOK 26/18 A2976 NOSIG=
201602170500 METAR MRLB 170500Z 06004KT CAVOK 25/17 A2977 NOSIG=
201602170600 METAR MRLB 170600Z 13004KT CAVOK 24/17 A2977 NOSIG=
201602170700 METAR MRLB NIL=
201602170800 METAR MRLB NIL=
201602170900 METAR MRLB NIL=
201602171000 METAR MRLB NIL=
201602171100 METAR MRLB NIL=
201602171200 METAR MRLB 171200Z 05004KT CAVOK 20/17 A2980 NOSIG=
201602171300 METAR MRLB 171300Z 16004KT CAVOK 23/17 A2982 NOSIG=
201602171400 METAR MRLB 171400Z 33004KT CAVOK 26/18 A2983 NOSIG=
201602171500 METAR MRLB 171500Z 09005KT CAVOK 30/17 A2984 NOSIG=
201602171600 METAR MRLB 171600Z 06006KT CAVOK 32/17 A2982 NOSIG=
201602171700 METAR MRLB 171700Z COR 10015G25KT CAVOK 34/17 A2981 NOSIG=
201602171800 METAR MRLB 171800Z 09020G30KT 9999 FEW040 34/16 A2979 NOSIG=
201602171900 METAR MRLB 171900Z 08018G28KT 9999 FEW040 34/18 A2976 NOSIG=
201602172000 METAR MRLB 172000Z 07018G28KT 9999 FEW040 35/17 A2974 NOSIG=
201602172100 METAR MRLB 172100Z 08019KT 9999 FEW040 34/17 A2972 NOSIG=
201602172200 METAR MRLB 172200Z 07021KT CAVOK 34/18 A2973 NOSIG=
201602172300 METAR MRLB 172300Z 08019KT CAVOK 32/18 A2974 NOSIG=
201602172355 METAR MRLB 180000Z 09016KT CAVOK 30/18 A2976 NOSIG=
201602180000 METAR MRLB 180000Z 09016KT CAVOK 30/18 A2976 NOSIG=
201602180100 METAR MRLB 180100Z 09019KT CAVOK 29/18 A2977 NOSIG=
201602180200 METAR MRLB 180200Z 09020G30KT CAVOK 28/18 A2980 NOSIG=
201602180300 METAR MRLB 180300Z 09019G30KT CAVOK 27/18 A2982 NOSIG=
201602180400 METAR MRLB 180400Z 08020G30KT CAVOK 27/18 A2984 NOSIG=
201602180500 METAR MRLB 180500Z 08021KT CAVOK 27/18 A2983 NOSIG=
201602180600 METAR MRLB 180600Z 08020KT CAVOK 27/18 A2982 NOSIG=
201602180700 METAR MRLB NIL=
201602180800 METAR MRLB NIL=
201602180900 METAR MRLB NIL=
201602181000 METAR MRLB NIL=
201602181100 METAR MRLB NIL=
201602181200 METAR MRLB 181200Z 09014G24KT CAVOK 27/18 A2980 NOSIG=
201602181300 METAR MRLB 181300Z 10009KT CAVOK 28/18 A2984 NOSIG=
201602181400 METAR MRLB 181400Z 07016G27KT CAVOK 30/18 A2986 NOSIG=
201602181500 METAR MRLB 181500Z 08017KT CAVOK 31/18 A2987 NOSIG=
201602181600 METAR MRLB 181600Z 09019KT CAVOK 31/18 A2986 NOSIG=
201602181700 METAR MRLB 181700Z 09018G30KT CAVOK 33/17 A2984 NOSIG=
201602181800 METAR MRLB 181800Z 08022KT CAVOK 33/17 A2981 NOSIG=
201602181900 METAR MRLB 181900Z 08020G30KT CAVOK 34/17 A2979 NOSIG=
201602182000 METAR MRLB 182000Z 07021G31KT 9999 FEW035 SCT250 35/17 A2974 NOSIG=
201602182100 METAR MRLB 182100Z 08025G40KT CAVOK 34/16 A2974 NOSIG=
201602182200 METAR MRLB 182200Z COR 07022KT CAVOK 33/17 A2973 WSR07 NOSIG=
201602182300 METAR MRLB 182300Z 07021G32KT CAVOK 31/17 A2974 WSR07 NOSIG=
201602182354 METAR MRLB 190000Z 08022KT CAVOK 29/18 A2975 WSR07 NOSIG=
201602190000 METAR MRLB 190000Z 08022KT CAVOK 29/18 A2975 WSR07 NOSIG=
201602190100 METAR MRLB 190100Z 08025G37KT CAVOK 28/18 A2976 WSR07 NOSIG=
201602190200 METAR MRLB 190200Z 09024G38KT CAVOK 28/18 A2978 WSR07 NOSIG=
201602190300 METAR MRLB 190300Z 09025G35KT CAVOK 27/18 A2980 WSR07 NOSIG=
201602190400 METAR MRLB 190400Z 09021G31KT CAVOK 27/18 A2981 WSR07 NOSIG=
201602190500 METAR MRLB 190500Z 10020G30KT CAVOK 27/17 A2982 WSR07 NOSIG=
201602190600 METAR MRLB 190600Z 10020G30KT CAVOK 27/17 A2980 WSR07 NOSIG=
201602190700 METAR MRLB NIL=
201602190800 METAR MRLB NIL=
201602190900 METAR MRLB NIL=
201602191000 METAR MRLB NIL=
201602191100 METAR MRLB NIL=
201602191200 METAR MRLB 191200Z 09020G30KT CAVOK 26/18 A2978 WSR07 NOSIG=
201602191300 METAR MRLB 191300Z 07024G34KT CAVOK 27/17 A2981 WSR07 NOSIG=
201602191400 METAR MRLB 191400Z 07025G35KT CAVOK 28/17 A2982 WSR07 NOSIG=
201602191500 METAR MRLB 191500Z 07024G34KT CAVOK 30/17 A2985 WSR07 NOSIG=
201602191600 METAR MRLB 191600Z 07028G41KT CAVOK 30/17 A2984 WSR07 NOSIG=
201602191700 METAR MRLB 191700Z 07026G38KT 9999 FEW035 32/17 A2983 WSR07 NOSIG=
201602191800 METAR MRLB 191800Z 07028G38KT 9999 FEW035 32/17 A2981 WSR07 NOSIG=
201602191900 METAR MRLB 191900Z 08024G34KT 9999 FEW035 33/17 A2977 WSR07 NOSIG=
201602192000 METAR MRLB 192000Z 08026G36KT 9999 FEW035 33/17 A2974 WSR07 NOSIG=
201602192100 METAR MRLB 192100Z 07028G38KT 9999 FEW035 32/17 A2972 WSR07 NOSIG=
201602192200 METAR MRLB 192200Z 08024KT CAVOK 31/17 A2972 WSR07 NOSIG=
201602192300 METAR MRLB 192300Z 09018KT CAVOK 30/18 A2972 WSR07 NOSIG=
201602192354 METAR MRLB 200000Z 08020KT CAVOK 29/17 A2973 WSR07 NOSIG=
201602200000 METAR MRLB 200000Z 08020KT CAVOK 29/17 A2973 WSR07 NOSIG=
201602200100 METAR MRLB 200100Z 08024G36KT CAVOK 28/16 A2976 WSR07 NOSIG=
201602200200 METAR MRLB 200200Z 08019KT CAVOK 27/17 A2978 WSR07 NOSIG=
201602200300 METAR MRLB 200300Z 09021KT CAVOK 27/18 A2979 WSR07 NOSIG=
201602200400 METAR MRLB 200400Z 09019KT CAVOK 27/18 A2980 WSR07 NOSIG=
201602200500 METAR MRLB 200500Z 09024G36KT CAVOK 27/18 A2978 WSR07 NOSIG=
201602200600 METAR MRLB 200600Z 09022G32KT CAVOK 27/17 A2977 WSR07 NOSIG=
201602200700 METAR MRLB NIL=
201602200800 METAR MRLB NIL=
201602200900 METAR MRLB NIL=
201602201000 METAR MRLB NIL=
201602201100 METAR MRLB NIL=
201602201200 METAR MRLB 201200Z 09020KT CAVOK 26/16 A2975 WSR07 NOSIG=
201602201300 METAR MRLB 201300Z 09023G35KT CAVOK 27/16 A2976 WSR07 NOSIG=
201602201400 METAR MRLB 201400Z 09024KT CAVOK 28/16 A2978 WSR07 NOSIG=
201602201500 METAR MRLB 201500Z 09025G43KT CAVOK 29/17 A2979 WSR07 NOSIG=
201602201600 METAR MRLB 201600Z 08022G33KT CAVOK 31/17 A2980 WSR07 NOSIG=
201602201700 METAR MRLB 201700Z 09020G32KT 9999 FEW030 32/17 A2978 WSR07 NOSIG=
201602201800 METAR MRLB 201800Z 07027G40KT 9999 FEW035 33/17 A2975 WSR07 NOSIG=
201602201900 METAR MRLB 201900Z 08019G29KT 9999 FEW035 34/17 A2974 WSR07 NOSIG=
201602201951 METAR MRLB 20200Z 08027KT 9999 FEW035 33/17 A2972 WSR07 NOSIG=
201602202000 METAR MRLB 202000Z 08027KT 9999 FEW035 33/17 A2972 WSR07 NOSIG=
201602202100 METAR MRLB 202100Z 09022G32KT CAVOK 32/16 A2969 WSR07 NOSIG=
201602202200 METAR MRLB 202200Z 09019KT CAVOK 31/17 A2969 WSR07 NOSIG=
201602202300 METAR MRLB 202300Z 09020KT 9999 FEW035 30/17 A2970 WSR07 NOSIG=
201602202355 METAR MRLB 210000Z 09021KT CAVOK 28/16 A2971 WSR07 NOSIG=
201602210000 METAR MRLB 210000Z 09021KT CAVOK 28/16 A2971 WSR07 NOSIG=
201602210100 METAR MRLB 210100Z 09025G36KT CAVOK 27/18 A2974 WSR07 NOSIG=
201602210200 METAR MRLB 210200Z 09018G29KT CAVOK 27/17 A2977 WSR07 NOSIG=
201602210300 METAR MRLB 210300Z 10017KT CAVOK 27/17 A2977 WSR07 NOSIG=
201602210400 METAR MRLB 210400Z 10019G30KT CAVOK 27/17 A2979 WSR07 NOSIG=
201602210500 METAR MRLB 210500Z 10023G35KT CAVOK 27/17 A2978 WSR07 NOSIG=
201602210600 METAR MRLB 210600Z 10021G31KT CAVOK 27/17 A2977 WSR07 NOSIG=
201602210700 METAR MRLB NIL=
201602210800 METAR MRLB NIL=
201602210900 METAR MRLB NIL=
201602211000 METAR MRLB NIL=
201602211100 METAR MRLB NIL=
201602211200 METAR MRLB 211200Z 09016G26KT CAVOK 27/18 A2976 WSR07 NOSIG=
201602211300 METAR MRLB 211300Z 08012KT CAVOK 27/18 A2979 WSR07 NOSIG=
201602211400 METAR MRLB 211400Z 09017G27KT CAVOK 29/18 A2980 WSR07 NOSIG=
201602211500 METAR MRLB 211500Z 08021KT 9999 FEW030 30/17 A2981 WSR07 NOSIG=
201602211600 METAR MRLB 211600Z 09018G31KT 9999 FEW030 31/18 A2980 WSR07 NOSIG=
201602211700 METAR MRLB 211700Z 09025KT 9999 FEW030 32/18 A2977 WSR07 NOSIG=
201602211800 METAR MRLB 211800Z 08024G37KT CAVOK 32/17 A2975 WSR07 NOSIG=
201602211900 METAR MRLB 211900Z 09022G32KT CAVOK 34/16 A2970 WSR07 NOSIG=
201602212000 METAR MRLB 212000Z 09019G29KT 9999 FEW035 34/17 A2968 WSR07 NOSIG=
201602212100 METAR MRLB 212100Z 09020G30KT CAVOK 33/18 A2967 WSR07 NOSIG=
201602212200 METAR MRLB 212200Z 09022KT CAVOK 32/17 A2967 WSR07 NOSIG=
201602212300 METAR MRLB 212300Z 09022G32KT CAVOK 29/18 A2968 WSR07 NOSIG=
201602212352 METAR MRLB 220000Z 09020G31KT CAVOK 28/18 A2970 WSR07 NOSIG=
201602220000 METAR MRLB 220000Z 09020G31KT CAVOK 28/18 A2970 WSR07 NOSIG=
201602220100 METAR MRLB 220100Z 10017KT CAVOK 27/18 A2973 NOSIG=
201602220200 METAR MRLB 220200Z 10017G27KT CAVOK 27/18 A2975 NOSIG=
201602220300 METAR MRLB 220300Z 09018KT CAVOK 27/17 A2979 NOSIG=
201602220400 METAR MRLB 220400Z 10017KT CAVOK 27/17 A2980 NOSIG=
201602220500 METAR MRLB 220500Z 09016KT CAVOK 27/17 A2980 NOSIG=
201602220600 METAR MRLB 220600Z 10015KT CAVOK 26/17 A2978 NOSIG=
201602220700 METAR MRLB NIL=
201602220800 METAR MRLB NIL=
201602220900 METAR MRLB NIL=
201602221000 METAR MRLB NIL=
201602221100 METAR MRLB NIL=
201602221200 METAR MRLB 221200Z 06006KT CAVOK 24/17 A2979 NOSIG=
201602221300 METAR MRLB 221300Z 09013KT CAVOK 27/18 A2981 NOSIG=
201602221400 METAR MRLB 221400Z 10014G24KT CAVOK 29/17 A2983 NOSIG=
201602221500 METAR MRLB 221500Z 07017KT CAVOK 30/17 A2984 NOSIG=
201602221600 METAR MRLB 221600Z 08014KT CAVOK 31/17 A2983 NOSIG=
201602221700 METAR MRLB 221700Z 09014KT CAVOK 33/16 A2981 NOSIG=
201602221800 METAR MRLB 221800Z 09014KT CAVOK 33/17 A2979 NOSIG=
201602221900 METAR MRLB 221900Z 10014KT CAVOK 34/17 A2974 NOSIG=
201602222000 METAR MRLB 222000Z 09013KT CAVOK 34/17 A2970 NOSIG=
201602222100 METAR MRLB 222100Z 09014KT CAVOK 34/18 A2968 NOSIG=
201602222200 METAR MRLB 222200Z 08015KT CAVOK 33/18 A2968 NOSIG=
201602222300 METAR MRLB 222300Z 07014KT CAVOK 32/18 A2969 NOSIG=
201602222350 METAR MRLB 230000Z 08012KT CAVOK 30/18 A2971 NOSIG=
201602230000 METAR MRLB 230000Z 08012KT CAVOK 30/18 A2971 NOSIG=
201602230100 METAR MRLB 230100Z 09012KT CAVOK 29/18 A2973 NOSIG=
201602230200 METAR MRLB 230200Z 09012KT CAVOK 28/18 A2975 NOSIG=
201602230300 METAR MRLB 230300Z 09017KT CAVOK 27/18 A2976 NOSIG=
201602230400 METAR MRLB 230400Z 10010KT CAVOK 27/18 A2979 NOSIG=
201602230500 METAR MRLB 230500Z 10010G20KT CAVOK 26/17 A2978 NOSIG=
201602230600 METAR MRLB 230600Z 09010KT CAVOK 26/17 A2978 NOSIG=
201602230700 METAR MRLB NIL=
201602230800 METAR MRLB NIL=
201602230900 METAR MRLB NIL=
201602231000 METAR MRLB NIL=
201602231100 METAR MRLB NIL=
201602231200 METAR MRLB 231200Z 00000KT CAVOK 20/17 A2979 NOSIG=
201602231300 METAR MRLB 231300Z 03003KT CAVOK 22/17 A2980 NOSIG=
201602231400 METAR MRLB 231400Z 22003KT CAVOK 28/18 A2982 NOSIG=
201602231500 METAR MRLB 231500Z 12009KT CAVOK 32/17 A2983 NOSIG=
201602231600 METAR MRLB 231600Z 09011KT CAVOK 33/17 A2983 NOSIG=
201602231700 METAR MRLB 231700Z 08008KT CAVOK 34/17 A2981 NOSIG=
201602231800 METAR MRLB 231800Z 10008KT 9999 FEW035 34/17 A2978 NOSIG=
201602231900 METAR MRLB 231900Z 16010KT 9999 FEW035 36/15 A2975 NOSIG=
201602232000 METAR MRLB 232000Z 30013KT 9999 SCT035 33/20 A2972 NOSIG=
201602232100 METAR MRLB 232100Z 30013KT 9999 FEW035 32/20 A2972 NOSIG=
201602232200 METAR MRLB 232200Z 29012KT 9999 FEW035 31/21 A2972 NOSIG=
201602232300 METAR MRLB 232300Z 28007KT 9999 FEW035 30/21 A2973 NOSIG=
201602232352 METAR MRLB 240000Z 32005KT 9999 FEW035 29/21 A2974 NOSIG=
201602240000 METAR MRLB 240000Z 32005KT 9999 FEW035 29/21 A2974 NOSIG=
201602240100 METAR MRLB 240100Z 32004KT 9999 FEW040 27/22 A2976 NOSIG=
201602240200 METAR MRLB 240200Z 29003KT 9999 FEW040 27/22 A2980 NOSIG=
201602240300 METAR MRLB 240300Z 02002KT 9999 FEW040 26/21 A2982 NOSIG=
201602240400 METAR MRLB 240400Z 13002KT 9999 FEW040 25/21 A2983 NOSIG=
201602240500 METAR MRLB 240500Z 07003KT CAVOK 24/21 A2982 NOSIG=
201602240600 METAR MRLB 240600Z 02004KT CAVOK 24/20 A2980 NOSIG=
201602240700 METAR MRLB NIL=
201602240800 METAR MRLB NIL=
201602240900 METAR MRLB NIL=
201602241000 METAR MRLB NIL=
201602241100 METAR MRLB NIL=
201602241200 METAR MRLB 241200Z 07003KT CAVOK 20/18 A2983 NOSIG=
201602241300 METAR MRLB 241300Z 00000KT CAVOK 24/19 A2986 NOSIG=
201602241400 METAR MRLB 241400Z 01006KT CAVOK 26/18 A2988 NOSIG=
201602241500 METAR MRLB 241500Z 05003KT CAVOK 28/18 A2989 NOSIG=
201602241600 METAR MRLB 241600Z 17006KT CAVOK 31/18 A2990 NOSIG=
201602241700 METAR MRLB 241700Z 22003KT CAVOK 33/17 A2988 NOSIG=
201602241800 METAR MRLB 241800Z 18006KT 9999 FEW035 34/17 A2985 NOSIG=
201602241900 METAR MRLB 241900Z 16005KT 9999 FEW035 36/15 A2981 NOSIG=
201602242000 METAR MRLB 242000Z 28011KT 9999 FEW035 34/18 A2978 NOSIG=
201602242100 METAR MRLB 242100Z 30011KT 9999 FEW035 35/18 A2976 NOSIG=
201602242200 METAR MRLB 242200Z 29009KT 9999 FEW035 34/17 A2975 NOSIG=
201602242300 METAR MRLB 242300Z 29007KT 9999 FEW035 33/18 A2976 NOSIG=
201602242351 METAR MRLB 250000Z 22004KT 9999 FEW035 31/19 A2978 NOSIG=
201602250000 METAR MRLB 250000Z 22004KT 9999 FEW035 31/19 A2978 NOSIG=
201602250100 METAR MRLB 250100Z 18004KT 9999 FEW035 30/19 A2981 NOSIG=
201602250200 METAR MRLB 250200Z 18006KT 9999 FEW035 29/19 A2984 NOSIG=
201602250300 METAR MRLB 250300Z 12004KT 9999 FEW035 29/19 A2987 NOSIG=
201602250400 METAR MRLB 250400Z 06004KT 9999 FEW035 27/19 A2989 NOSIG=
201602250500 METAR MRLB 250500Z 10004KT 9999 FEW040 27/18 A2989 NOSIG=
201602250600 METAR MRLB 250600Z 21004KT CAVOK 25/17 A2988 NOSIG=
201602250700 METAR MRLB NIL=
201602250800 METAR MRLB NIL=
201602250900 METAR MRLB NIL=
201602251000 METAR MRLB NIL=
201602251100 METAR MRLB NIL=
201602251200 METAR MRLB 251200Z 06003KT CAVOK 24/18 A2986 NOSIG=
201602251300 METAR MRLB 251300Z 04004KT CAVOK 26/18 A2988 NOSIG=
201602251400 METAR MRLB 251400Z 08014KT CAVOK 29/18 A2988 NOSIG=
201602251500 METAR MRLB 251500Z 08018KT 9999 FEW040 BKN250 30/18 A2988 NOSIG=
201602251600 METAR MRLB 251600Z 09020G30KT 9999 FEW040 BKN250 31/17 A2987 NOSIG=
201602251700 METAR MRLB 251700Z 08025G35KT 9999 FEW040 BKN250 32/17 A2985 NOSIG=
201602251800 METAR MRLB 251800Z 08024G38KT 9999 FEW040 BKN250 33/16 A2983 NOSIG=
201602251900 METAR MRLB 251900Z 07024KT 9999 FEW040 BKN250 34/16 A2981 NOSIG=
201602252000 METAR MRLB 252000Z 08026G38KT 9999 FEW040 BKN250 34/15 A2979 NOSIG=
201602252100 METAR MRLB 252100Z 07024G34KT CAVOK 34/13 A2978 NOSIG=
201602252200 METAR MRLB 252200Z 06026KT CAVOK 33/14 A2978 WSR07 NOSIG=
201602252300 METAR MRLB 252300Z 07021G33KT CAVOK 31/15 A2979 NOSIG=
201602252350 METAR MRLB 260000Z 08019KT CAVOK 29/16 A2981 NOSIG=
201602260000 METAR MRLB 260000Z 08019KT CAVOK 29/16 A2981 NOSIG=
201602260100 METAR MRLB 260100Z 09016KT CAVOK 28/15 A2983 NOSIG=
201602260200 METAR MRLB 260200Z 08019KT CAVOK 27/16 A2986 NOSIG=
201602260300 METAR MRLB 260300Z 08021G32KT CAVOK 27/17 A2988 NOSIG=
201602260400 METAR MRLB 260400Z 08021G31KT CAVOK 27/17 A2989 NOSIG=
201602260500 METAR MRLB 260500Z 08022G34KT CAVOK 27/17 A2989 NOSIG=
201602260600 METAR MRLB 260600Z 08022G32KT CAVOK 26/17 A2990 NOSIG=
201602260700 METAR MRLB NIL=
201602260800 METAR MRLB NIL=
201602260900 METAR MRLB NIL=
201602261000 METAR MRLB NIL=
201602261100 METAR MRLB NIL=
201602261200 METAR MRLB 261200Z 25004KT CAVOK 24/16 A2987 NOSIG=
201602261300 METAR MRLB 261300Z 24005KT CAVOK 25/17 A2991 NOSIG=
201602261400 METAR MRLB 261400Z 17007KT CAVOK 28/16 A2992 NOSIG=
201602261500 METAR MRLB 261500Z 12005KT CAVOK 31/15 A2992 NOSIG=
201602261600 METAR MRLB 261600Z 34008KT CAVOK 32/15 A2991 NOSIG=
201602261700 METAR MRLB 261700Z 09016G26KT 9999 FEW035 BKN250 33/16 A2988 NOSIG=
201602261800 METAR MRLB 261800Z 09017KT CAVOK 33/15 A2985 NOSIG=
201602261900 METAR MRLB 261900Z 08020KT 9999 FEW035 BKN 250 34/15 A2982 NOSIG=
201602262000 METAR MRLB 262000Z 10018KT 9999 FEW035 BKN250 33/17 A2979 NOSIG=
201602262100 METAR MRLB 262100Z 09016KT CAVOK 33/16 A2978 NOSIG=
201602262200 METAR MRLB 262200Z 09020KT CAVOK 31/17 A2976 NOSIG=
201602262300 METAR MRLB 262300Z 09018KT CAVOK 30/17 A2976 NOSIG=
201602262353 METAR MRLB 270000Z 09016KT CAVOK 29/17 A2978 NOSIG=
201602270000 METAR MRLB 270000Z 09016KT CAVOK 29/17 A2978 NOSIG=
201602270100 METAR MRLB 270100Z 09015KT CAVOK 27/17 A2982 NOSIG=
201602270200 METAR MRLB 270200Z 10016G26KT CAVOK 27/17 A2983 NOSIG=
201602270300 METAR MRLB 270300Z 09020G30KT CAVOK 27/17 A2984 WSR07 NOSIG=
201602270400 METAR MRLB 270400Z 09019G29KT CAVOK 27/17 A2984 NOSIG=
201602270500 METAR MRLB 270500Z 09021G31KT CAVOK 27/17 A29883 NOSIG=
201602270600 METAR MRLB 270600Z 09016G26KT CAVOK 27/16 A2984 NOSIG=
201602270700 METAR MRLB NIL=
201602270800 METAR MRLB NIL=
201602270900 METAR MRLB NIL=
201602271000 METAR MRLB NIL=
201602271100 METAR MRLB NIL=
201602271200 METAR MRLB 271200Z 01004KT CAVOK 23/15 A2983 NOSIG=
201602271300 METAR MRLB 271300Z 04006KT CAVOK 26/16 A2983 NOSIG=
201602271400 METAR MRLB 271400Z 08015G25KT CAVOK 29/16 A2984 NOSIG=
201602271500 METAR MRLB 271500Z 08021KT CAVOK 31/15 A2985 NOSIG=
201602271600 METAR MRLB 271600Z 08020G30KT CAVOK 32/16 A2985 WSR07 NOSIG=
201602271700 METAR MRLB 271700Z 09025G42KT CAVOK 32/16 A2982 WSR07 NOSIG=
201602271800 METAR MRLB 271800Z 09023G33KT CAVOK 32/16 A2981 WSR07 NOSIG=
201602271801 METAR MRLB 281800Z 10021KT 9999 FEW030 31/16 A2981 NOSIG=
201602271900 METAR MRLB 271900Z 08027G37KT CAVOK 33/15 A2979 WSR07 NOSIG=
201602272000 METAR MRLB 272000Z 08023G33KT CAVOK 33/14 A2975 NOSIG=
201602272100 METAR MRLB 272100Z 08025G35KT CAVOK 33/16 A2974 NOSIG=
201602272200 METAR MRLB 272200Z 08021G34KT CAVOK 32/15 A2975 NOSIG=
201602272300 METAR MRLB 272300Z 08024KT CAVOK 30/16 A2976 NOSIG=
201602272355 METAR MRLB 280000Z 08024G35KT CAVOK 28/17 A2976 NOSIG=
201602280000 METAR MRLB 280000Z 08024G35KT CAVOK 28/17 A2976 NOSIG=
201602280100 METAR MRLB 280100Z 09025G36KT CAVOK 28/17 A2977 NOSIG=
201602280200 METAR MRLB 280200Z 09026G36KT CAVOK 27/17 A2979 NOSIG=
201602280300 METAR MRLB 280300Z 09022G35KT CAVOK 27/17 A2983 NOSIG=
201602280400 METAR MRLB 280400Z 08023G35KT CAVOK 27/16 A2984 NOSIG=
201602280500 METAR MRLB 280500Z 09016KT CAVOK 27/17 A2983 NOSIG=
201602280600 METAR MRLB 280600Z 09021G36KT CAVOK 27/17 A2981 NOSIG=
201602280700 METAR MRLB NIL=
201602280800 METAR MRLB NIL=
201602280900 METAR MRLB NIL=
201602281000 METAR MRLB NIL=
201602281100 METAR MRLB NIL=
201602281200 METAR MRLB 281200Z 11008KT 9999 FEW025 25/17 A2983 NOSIG=
201602281300 METAR MRLB 281300Z 31007KT 9999 FEW030 26/17 A2983 NOSIG=
201602281400 METAR MRLB 281400Z 11004KT 9999 FEW030 29/16 A2985 NOSIG=
201602281500 METAR MRLB 281500Z 10017G29KT 9999 FEW030 31/16 A2984 NOSIG=
201602281600 METAR MRLB 281600Z 02013G25KT 9999 FEW030 33/16 A2986 NOSIG=
201602281700 METAR MRLB 281700Z COR 10019G34KT 9999 FEW030 31/16 A2984 NOSIG=
201602281800 METAR MRLB 281800Z 10021KT 9999 FEW030 31/16 A2981 NOSIG=
201602281900 METAR MRLB 281900Z 09021G32KT 9999 FEW030 32/16 A2979 NOSIG=
201602282000 METAR MRLB 282000Z 10019G29KT CAVOK 31/17 A2976 WSR07 NOSIG=
201602282100 METAR MRLB 282100Z 09021G31KT CAVOK 31/16 A2975 WSR07 NOSIG=
201602282200 METAR MRLB 282200Z 09016G26KT CAVOK 31/17 A2976 WSR07 NOSIG=
201602282300 METAR MRLB 282300Z 09015G25KT CAVOK 29/16 A2979 WSR07 NOSIG=
201602282354 METAR MRLB 290000Z 09016G26KT CAVOK 27/18 A2979 WSR07 NOSIG=
201602290000 METAR MRLB 290000Z 09016G26KT CAVOK 27/18 A2979 WSR07 NOSIG=
201602290100 METAR MRLB 290100Z 10019G33KT CAVOK 26/17 A2981 WSR07 NOSIG=
201602290200 METAR MRLB 290200Z 09010KT CAVOK 26/18 A2987 NOSIG=
201602290300 METAR MRLB 290300Z 10009KT CAVOK 26/18 A2985 NOSIG=
201602290400 METAR MRLB 290400Z 09014KT CAVOK 26/17 A2986 NOSIG=
201602290500 METAR MRLB 290500Z 09012KT CAVOK 27/16 A2987 NOSIG=
201602290600 METAR MRLB 290600Z 27003KT CAVOK 24/18 A2986 NOSIG=
201602290700 METAR MRLB NIL=
201602290800 METAR MRLB NIL=
201602290900 METAR MRLB NIL=
201602291000 METAR MRLB NIL=
201602291100 METAR MRLB NIL=
201602291200 METAR MRLB 291200Z 09004KT CAVOK 21/17 A2985 NOSIG=
201602291300 METAR MRLB 291300Z 05003KT CAVOK 23/17 A2988 NOSIG=
201602291400 METAR MRLB 291400Z 32003KT CAVOK 27/17 A2989 NOSIG=
201602291500 METAR MRLB 291500Z 29003KT CAVOK 29/17 A2988 NOSIG=
201602291600 METAR MRLB 291600Z 31005KT CAVOK 31/17 A2988 NOSIG=
201602291700 METAR MRLB 291700Z 11015KT CAVOK 32/16 A2986 NOSIG=
201602291800 METAR MRLB 291800Z 10016KT 9999 FEW040 SCT250 34/15 A2984 NOSIG=
201602291900 METAR MRLB 291900Z 09015KT 9999 FEW040 SCT250 34/16 A2981 NOSIG=
201602292000 METAR MRLB 292000Z 10016KT CAVOK 32/17 A2979 NOSIG=
201602292100 METAR MRLB 292100Z 10018G28KT CAVOK 33/16 A2976 WSR07 NOSIG=
201602292200 METAR MRLB 292200Z 09015KT CAVOK 32/17 A2978 NOSIG=
201602292300 METAR MRLB 292300Z 08014KT CAVOK 30/16 A2979 NOSIG=
201602292350 METAR MRLB 010000Z 10014KT CAVOK 28/18 A2979 NOSIG=
201602292354 METAR MRLB 010000Z 10014KT CAVOK 28/18 A2979 NOSIG=
201603010000 METAR MRLB 010000Z 10014KT CAVOK 28/18 A2979 NOSIG=
201603010100 METAR MRLB 010100Z 10012KT CAVOK 27/17 A2982 NOSIG=
201603010200 METAR MRLB 010200Z 10014KT CAVOK 26/17 A2984 NOSIG=
201603010300 METAR MRLB 010300Z 09017KT CAVOK 26/16 A2987 NOSIG=
201603010400 METAR MRLB 010400Z 09018G28KT CAVOK 26/14 A2987 NOSIG=
201603010500 METAR MRLB 010500Z 09014KT CAVOK 26/15 A2988 NOSIG=
201603010600 METAR MRLB 010600Z 10015KT CAVOK 26/14 A2989 NOSIG=
201603010700 METAR MRLB NIL=
201603010800 METAR MRLB NIL=
201603010900 METAR MRLB NIL=
201603011000 METAR MRLB NIL=
201603011100 METAR MRLB NIL=
201603011200 METAR MRLB 011200Z 12004KT CAVOK 20/16 A2987 NOSIG=
201603011300 METAR MRLB 011300Z 13004KT CAVOK 22/16 A2990 NOSIG=
201603011400 METAR MRLB 011400Z 31005KT CAVOK 26/17 A2990 NOSIG=
201603011500 METAR MRLB 011500Z 32006KT CAVOK 28/17 A2993 NOSIG=
201603011600 METAR MRLB 011600Z 06008KT CAVOK 31/15 A2991 NOSIG=
201603011700 METAR MRLB 011700Z 08014KT CAVOK 33/14 A2989 NOSIG=
201603011800 METAR MRLB 011800Z 09012KT CAVOK 33/15 A2986 NOSIG=
201603011900 METAR MRLB 011900Z 09012KT CAVOK 35/14 A2983 NOSIG=
201603012000 METAR MRLB 012000Z 09014KT 9999 FEW035 BKN250 34/15 A2979 NOSIG=
201603012100 METAR MRLB 012100Z 09012KT 9999 FEW035 BKN250 35/15 A2978 NOSIG=
201603012200 METAR MRLB 012200Z 08015KT CAVOK 33/16 A2978 NOSIG=
201603012300 METAR MRLB 012300Z 08015KT CAVOK 31/17 A2979 NOSIG=
201603012354 METAR MRLB 020000Z 09014KT CAVOK 30/17 A2980 NOSIG=
201603020000 METAR MRLB 020000Z 09014KT CAVOK 30/17 A2980 NOSIG=
201603020100 METAR MRLB 020100Z 08015KT CAVOK 28/17 A2982 NOSIG=
201603020200 METAR MRLB 020200Z 09013KT CAVOK 28/17 A2983 NOSIG=
201603020300 METAR MRLB 020300Z 09016KT CAVOK 27/17 A2986 NOSIG=
201603020400 METAR MRLB 020400Z 09017KT CAVOK 27/17 A2987 NOSIG=
201603020500 METAR MRLB 020500Z 10015G25KT CAVOK 27/16 A2988 NOSIG=
201603020600 METAR MRLB 020600Z 10013KT CAVOK 26/17 A2988 NOSIG=
201603020700 METAR MRLB NIL=
201603020800 METAR MRLB NIL=
201603020900 METAR MRLB NIL=
201603021000 METAR MRLB NIL=
201603021100 METAR MRLB NIL=
201603021200 METAR MRLB 021200Z 10005KT CAVOK 22/17 A2989 NOSIG=
201603021300 METAR MRLB 021300Z 35003KT CAVOK 22/17 A2992 NOSIG=
201603021400 METAR MRLB 021400Z 29003KT CAVOK 26/17 A2993 NOSIG=
201603021500 METAR MRLB 021500Z 06006KT CAVOK 30/16 A2993 NOSIG=
201603021600 METAR MRLB 021600Z 07009KT CAVOK 32/15 A2992 NOSIG=
201603021700 METAR MRLB 021700Z 07016KT CAVOK 33/14 A2990 NOSIG=
201603021800 METAR MRLB 021800Z 11015KT 9999 FEW035 SCT250 33/15 A2986 NOSIG=
201603021900 METAR MRLB 021900Z 08016KT CAVOK 34/15 A2982 NOSIG=
201603022000 METAR MRLB 022000Z 07016G26KT 9999 FEW035 SCT250 35/15 A2980 NOSIG=
201603022100 METAR MRLB 022100Z 09016KT 9999 FEW035 34/16 A2977 NOSIG=
201603022200 METAR MRLB 022200Z 09016KT 9999 FEW035 32/18 A2978 NOSIG=
201603022300 METAR MRLB 022300Z 08019KT CAVOK 30/18 A2978 NOSIG=
201603022353 METAR MRLB 030000Z 08015KT CAVOK 28/18 A2979 NOSIG=
201603030000 METAR MRLB 030000Z 08015KT CAVOK 28/18 A2979 NOSIG=
201603030100 METAR MRLB 030100Z 09014KT CAVOK 27/18 A2982 NOSIG=
201603030200 METAR MRLB 030200Z 08016KT CAVOK 27/18 A2985 NOSIG=
201603030300 METAR MRLB 030300Z 08016KT CAVOK 27/17 A2987 NOSIG=
201603030400 METAR MRLB 030400Z 09013KT CAVOK 26/17 A2988 NOSIG=
201603030500 METAR MRLB 030500Z 09015KT CAVOK 26/18 A2987 NOSIG=
201603030600 METAR MRLB 030600Z 08012KT CAVOK 26/18 A2987 NOSIG=
201603030700 METAR MRLB NIL=
201603030800 METAR MRLB NIL=
201603030900 METAR MRLB NIL=
201603031000 METAR MRLB NIL=
201603031100 METAR MRLB NIL=
201603031200 METAR MRLB 031200Z 05008KT CAVOK 23/17 A2984 NOSIG=
201603031300 METAR MRLB 031300Z 35004KT CAVOK 25/18 A2987 NOSIG=
201603031400 METAR MRLB 031400Z 09016KT CAVOK 29/16 A2987 NOSIG=
201603031500 METAR MRLB 031500Z 09016KT CAVOK 31/16 A2987 NOSIG=
201603031600 METAR MRLB 031600Z 09019G30KT CAVOK 31/17 A2986 NOSIG=
201603031700 METAR MRLB 031700Z 10018KT CAVOK 32/16 A2984 NOSIG=
201603031800 METAR MRLB 031800Z 08020KT CAVOK 33/17 A2982 NOSIG=
201603031900 METAR MRLB 031900Z 09019KT CAVOK 33/17 A2979 NOSIG=
201603032000 METAR MRLB 032000Z 09017G27KT CAVOK 33/17 A2977 WSR07 NOSIG=
201603032100 METAR MRLB 032100Z 09018G28KT CAVOK 33/16 A2974 WSR07 NOSIG=
201603032200 METAR MRLB 032200Z 09017KT CAVOK 33/15 A2975 NOSIG=
201603032300 METAR MRLB 032300Z 09018G28KT CAVOK 31/16 A2975 WSR07 NOSIG=
201603032350 METAR MRLB 040000Z 09017G27KT CAVOK 29/17 A2977 WSR07 NOSIG=
201603040000 METAR MRLB 040000Z 09017G27KT CAVOK 29/17 A2977 WSR07 NOSIG=
201603040100 METAR MRLB 040100Z 09015KT CAVOK 29/17 A2980 NOSIG=
201603040200 METAR MRLB 040200Z 09014KT CAVOK 28/17 A2983 NOSIG=
201603040300 METAR MRLB 040300Z 10016KT CAVOK 27/18 A2985 NOSIG=
201603040400 METAR MRLB 040400Z 10014KT CAVOK 27/17 A2985 NOSIG=
201603040500 METAR MRLB 040500Z 10009KT CAVOK 27/16 A2987 NOSIG=
201603040600 METAR MRLB 040600Z 11012KT CAVOK 26/17 A2985 NOSIG=
201603040700 METAR MRLB NIL=
201603040800 METAR MRLB NIL=
201603040900 METAR MRLB NIL=
201603041000 METAR MRLB NIL=
201603041100 METAR MRLB NIL=
201603041200 METAR MRLB 041200Z 07003KT CAVOK 23/17 A2984 NOSIG=
201603041300 METAR MRLB 041300Z 28002KT CAVOK 27/17 A2986 NOSIG=
201603041400 METAR MRLB 041400Z 29004KT CAVOK 27/18 A2987 TEMPO 08010KT=
201603041500 METAR MRLB 041500Z 28003KT CAVOK 30/17 A2989 NOSIG=
201603041600 METAR MRLB 041600Z 03006KT CAVOK 33/17 A2987 NOSIG=
201603041700 METAR MRLB 041700Z 10016G26KT CAVOK 34/16 A2986 WSR07 NOSIG=
201603041800 METAR MRLB 041800Z 08012G22KT CAVOK 34/16 A2984 NOSIG=
201603041900 METAR MRLB 041900Z 10015KT 9999 FEW035 34/17 A2981 NOSIG=
201603042000 METAR MRLB 042000Z 09015G25KT 9999 FEW035 34/17 A2978 WSR07 NOSIG=
201603042100 METAR MRLB 042100Z 09016KT 9999 FEW035 34/18 A2977 NOSIG=
201603042200 METAR MRLB 042200Z 09012G22KT 9999 FEW035 33/18 A2977 NOSIG=
201603042300 METAR MRLB 042300Z 09012KT CAVOK 32/18 A2978 NOSIG=
201603042351 METAR MRLB 050000Z 09015KT CAVOK 30/18 A2978 NOSIG=
201603050000 METAR MRLB 050000Z 09015KT CAVOK 30/18 A2978 NOSIG=
201603050100 METAR MRLB 050100Z 09009KT CAVOK 29/18 A2982 NOSIG=
201603050200 METAR MRLB 050200Z 10011KT CAVOK 28/18 A2984 NOSIG=
201603050300 METAR MRLB 050300Z 08008KT CAVOK 28/18 A2987 NOSIG=
201603050400 METAR MRLB 050400Z 08008KT CAVOK 27/17 A2988 NOSIG=
201603050500 METAR MRLB 050500Z 13006KT CAVOK 26/17 A2988 NOSIG=
201603050600 METAR MRLB 050600Z 04003KT CAVOK 25/17 A2987 NOSIG=
201603050700 METAR MRLB NIL=
201603050800 METAR MRLB NIL=
201603050900 METAR MRLB NIL=
201603051000 METAR MRLB NIL=
201603051100 METAR MRLB NIL=
201603051200 METAR MRLB 051200Z 09004KT CAVOK 25/18 A2986 NOSIG=
201603051300 METAR MRLB 051300Z 06006KT CAVOK 26/18 A2988 NOSIG=
201603051400 METAR MRLB 051400Z 07005KT CAVOK 27/18 A2990 NOSIG=
201603051600 METAR MRLB 051600Z 08017KT CAVOK 32/17 A2991 NOSIG=
201603051700 METAR MRLB 051700Z 09015KT CAVOK 33/16 A2990 NOSIG=
201603051800 METAR MRLB 051800Z 08014KT CAVOK 33/16 A2988 NOSIG=
201603051900 METAR MRLB 051900Z 08013KT CAVOK 34/16 A2985 NOSIG=
201603052000 METAR MRLB 052000Z 08013KT 9999 FEW040 BKN250 33/16 A2983 NOSIG=
201603052100 METAR MRLB 052100Z 08013KT 9999 FEW040 SCT250 34/16 A2981 NOSIG=
201603052200 METAR MRLB 052200Z 09011KT 9999 FEW040 34/16 A2981 NOSIG=
201603052300 METAR MRLB 052300Z 07011KT 9999 FEW040 33/16 A2983 NOSIG=
201603052354 METAR MRLB 060000Z 09008KT 9999 FEW040 SCT250 31/16 A2983 NOSIG=
201603060000 METAR MRLB 060000Z 09008KT 9999 FEW040 SCT250 31/16 A2983 NOSIG=
201603060100 METAR MRLB 060100Z 09006KT CAVOK 29/17 A2986 NOSIG=
201603060200 METAR MRLB 060200Z 12003KT CAVOK 28/16 A2988 NOSIG=
201603060300 METAR MRLB 060300Z 13005KT CAVOK 27716 A2989 NOSIG=
201603060400 METAR MRLB 060400Z 10007KT CAVOK 27/17 A2991 NOSIG=
201603060500 METAR MRLB 060500Z 08004KT CAVOK 26/17 A2991 NOSIG=
201603060600 METAR MRLB 060600Z 10008KT CAVOK 26/16 A2991 NOSIG=
201603060700 METAR MRLB NIL=
201603060800 METAR MRLB NIL=
201603060900 METAR MRLB NIL=
201603061000 METAR MRLB NIL=
201603061100 METAR MRLB NIL=
201603061200 METAR MRLB 061200Z 06004KT CAVOK 21/17 A2991 NOSIG=
201603061300 METAR MRLB 061300Z 00000KT CAVOK 25/17 A2994 NOSIG=
201603061400 METAR MRLB 061400Z 13005KT CAVOK 30/18 A2994 NOSIG=
201603061500 METAR MRLB 061500Z 07015KT CAVOK 31/18 A2995 NOSIG=
201603061600 METAR MRLB 061600Z 08015KT 9999 FEW030 SCT250 32/17 A2994 NOSIG=
201603061700 METAR MRLB 061700Z 07012KT 9999 FEW030 SCT250 33/17 A2992 NOSIG=
201603061800 METAR MRLB 061800Z 07013G23 9999 FEW030 SCT250 34/17 A2990 NOSIG=
201603061900 METAR MRLB 061900Z 06013KT 9999 FEW030 SCT250 34/17 A2986 NOSIG=
201603062000 METAR MRLB 062000Z 08015KT 9999 FEW035 SCT250 35/17 A2984 NOSIG=
201603062100 METAR MRLB 062100Z 07016KT 9999 FEW035 SCT120 35/17 A2982 NOSIG=
201603062200 METAR MRLB 062200Z 07017KT 9999 FEW035 BKN110 33/17 A2982 NOSIG=
201603062300 METAR MRLB 062300Z 07016KT 9999 FEW035 BKN100 32/18 A2983 NOSIG=
201603062353 METAR MRLB 070000Z 07014KT CAVOK 30/18 A2985 NOSIG=
201603070000 METAR MRLB 070000Z 07014KT CAVOK 30/18 A2985 NOSIG=
201603070100 METAR MRLB 070100Z 08011KT CAVOK 30/18 A2986 NOSIG=
201603070200 METAR MRLB 070200Z 10009KT CAVOK 29/18 A2988 NOSIG=
201603070300 METAR MRLB 070300Z 10005KT CAVOK 28/18 A2991 NOSIG=
201603070400 METAR MRLB 070400Z 10006KT CAVOK 27/18 A2992 NOSIG=
201603070500 METAR MRLB 070500Z 09006KT CAVOK 27/17 A2993 NOSIG=
201603070600 METAR MRLB 070600Z 12007KT CAVOK 26/18 A2993 NOSIG=
201603070700 METAR MRLB NIL=
201603070800 METAR MRLB NIL=
201603070900 METAR MRLB NIL=
201603071000 METAR MRLB NIL=
201603071100 METAR MRLB NIL=
201603071200 METAR MRLB 071200Z 08004KT CAVOK 23/18 A2991 NOSIG=
201603071300 METAR MRLB 071300Z 01002KT CAVOK 25/18 A2994 NOSIG=
201603071400 METAR MRLB 071400Z 00000KT CAVOK 28/18 A2995 NOSIG=
201603071500 METAR MRLB 071500Z 08003KT CAVOK 31/17 A2996 NOSIG=
201603071600 METAR MRLB 071600Z 11006KT 9999 FEW040 33/17 A2996 NOSIG=
201603071700 METAR MRLB 071700Z 08006KT 9999 FEW035 33/17 A2994 NOSIG=
201603071800 METAR MRLB 071800Z 07009KT 9999 FEW035 35/16 A2990 NOSIG=
201603071900 METAR MRLB 071900Z 08006KT 9999 SCT035 36/15 A2987 NOSIG=
201603072000 METAR MRLB 072000Z 09005KT 9999 FEW035 SCT250 35/15 A2983 NOSIG=
201603072100 METAR MRLB 072100Z 29010KT 9999 FEW035 SCT250 34/17 A2991 NOSIG=
201603072200 METAR MRLB 072200Z 30010KT 9999 FEW035 SCT250 32/17 A2981 NOSIG=
201603072300 METAR MRLB 072300Z 30010KT 9999 FEW045 31/20 A2982 NOSIG=
201603072352 METAR MRLB 080000Z 30008KT 9999 SCT045 29/20 A2983 NOSIG=
201603080000 METAR MRLB 080000Z 30008KT 9999 SCT045 29/20 A2983 NOSIG=
201603080100 METAR MRLB 080100Z 00000KT 9999 FEW045 29/21 A2986 NOSIG=
201603080200 METAR MRLB 080200Z 07002KT CAVOK 28/20 A2988 NOSIG=
201603080300 METAR MRLB 080300Z 09009KT CAVOK 28/19 A2990 NOSIG=
201603080400 METAR MRLB 080400Z 11009KT CAVOK 28/17 A2990 NOSIG=
201603080500 METAR MRLB 080500Z 08009KT CAVOK 27/17 A2992 NOSIG=
201603080600 METAR MRLB 080600Z 13007KT CAVOK 26/18 A2991 NOSIG=
201603080700 METAR MRLB NIL=
201603080800 METAR MRLB NIL=
201603080900 METAR MRLB NIL=
201603081000 METAR MRLB NIL=
201603081100 METAR MRLB NIL=
201603081200 METAR MRLB 081200Z 14003KT CAVOK 22/16 A2987 NOSIG=
201603081300 METAR MRLB 081300Z 01002KT CAVOK 24/18 A2989 NOSIG=
201603081400 METAR MRLB 081400Z 13005KT CAVOK 30/16 A2990 NOSIG=
201603081500 METAR MRLB 081500Z 10008KT CAVOK 32/16 A2992 NOSIG=
201603081600 METAR MRLB 081600Z 10010KT CAVOK 34/16 A2993 NOSIG=
201603081700 METAR MRLB 081700Z 11011KT CAVOK 34/15 A2990 NOSIG=
201603081800 METAR MRLB 081800Z 11012G22KT 9999 FEW035 SCT250 35/14 A2987 NOSIG=
201603081900 METAR MRLB 081900Z 13012G22KT 9999 FEW035 SCT250 36/14 A2985 NOSIG=
201603082000 METAR MRLB 082000Z 13007KT 9999 FEW035 SCT250 36/15 A2981 NOSIG=
201603082100 METAR MRLB 082100Z 29011KT 9999 FEW035 BKN250 32/19 A2980 NOSIG=
201603082200 METAR MRLB 082200Z 30009KT 9999 FEW035 BKN250 31/19 A2979 NOSIG=
201603082300 METAR MRLB 082300Z 30009KT 9999 FEW035 BKN250 31/18 A2979 NOSIG=
201603082349 METAR MRLB 090000Z 29006KT 9999 FEW035 BKN250 30/18 A2980 NOSIG=
201603090000 METAR MRLB 090000Z 29006KT 9999 FEW035 BKN250 30/18 A2980 NOSIG=
201603090100 METAR MRLB 090100Z 07012KT 9999 FEW035 30/18 A2982 NOSIG=
201603090200 METAR MRLB 090200Z 09015KT 9999 FEW035 29/17 A2982 NOSIG=
201603090300 METAR MRLB 090300Z 08013KT 9999 FEW035 28/18 A2985 NOSIG=
201603090400 METAR MRLB 090400Z 10012KT 9999 FEW035 27/17 A2985 NOSIG=
201603090500 METAR MRLB 090500Z 08008KT 9999 FEW035 26/17 A2986 NOSIG=
201603090600 METAR MRLB 090600Z 12007KT CAVOK 26/17 A2986 NOSIG=
201603090700 METAR MRLB NIL=
201603090800 METAR MRLB NIL=
201603090900 METAR MRLB NIL=
201603091000 METAR MRLB NIL=
201603091100 METAR MRLB NIL=
201603091200 METAR MRLB 091200Z 12004KT CAVOK 24/17 A2985 NOSIG=
201603091300 METAR MRLB 091300Z 32003KT CAVOK 24/17 A2987 NOSIG=
201603091400 METAR MRLB 091400Z 09011KT CAVOK 29/17 A2988 NOSIG=
201603091500 METAR MRLB 091500Z 08012KT CAVOK 31/17 A2989 NOSIG=
201603091600 METAR MRLB 091600Z 09014KT CAVOK 33/16 A2989 NOSIG=
201603091700 METAR MRLB 091700Z 10013KT CAVOK 34/14 A2988 NOSIG=
201603091800 METAR MRLB 091800Z 09008KT CAVOK 35/15 A2986 NOSIG=
201603091900 METAR MRLB 091900Z 09009KT 9999 FEW035 SCT250 35/16 A2984 NOSIG=
201603092000 METAR MRLB 092000Z 10009KT 9999 FEW035 SCT250 35/16 A2980 NOSIG=
201603092100 METAR MRLB 092100Z 11008KT 9999 FEW035 SCT250 36/15 A2977 NOSIG=
201603092200 METAR MRLB 092200Z 07010KT 9999 FEW035 SCT250 35/16 A2976 NOSIG=
201603092300 METAR MRLB 092300Z 06012KT 9999 FEW035 SCT250 34/16 A2979 NOSIG=
201603092354 METAR MRLB 100000Z 30007KT 9999 FEW035 SCT250 29/21 A2982 NOSIG=
201603100000 METAR MRLB 100000Z 30007KT 9999 FEW035 SCT250 29/21 A2982 NOSIG=
201603100100 METAR MRLB 100100Z 27002KT 9999 FEW035 29/21 A2984 NOSIG=
201603100200 METAR MRLB 100200Z 00000KT 9999 FEW035 28/22 A2986 NOSIG=
201603100300 METAR MRLB 100300Z 07005KT 9999 FEW035 27/22 A2989 NOSIG=
201603100400 METAR MRLB 100400Z 31003KT 9999 FEW035 27/22 A2991 NOSIG=
201603100500 METAR MRLB 100500Z 08002KT 9999 FEW035 26/20 A2992 NOSIG=
201603100600 METAR MRLB 100600Z 09004KT 9999 FEW035 26/18 A2992 NOSIG=
201603100700 METAR MRLB NIL=
201603100800 METAR MRLB NIL=
201603100900 METAR MRLB NIL=
201603101000 METAR MRLB NIL=
201603101100 METAR MRLB NIL=
201603101200 METAR MRLB 101200Z 28002KT CAVOK 22/18 A2990 NOSIG=
201603101300 METAR MRLB 101300Z 01002KT CAVOK 24/19 A2991 NOSIG=
201603101400 METAR MRLB 101400Z 00000KT CAVOK 28/18 A2992 NOSIG=
201603101500 METAR MRLB 101500Z 32003KT CAVOK 30/18 A2992 NOSIG=
201603101600 METAR MRLB 101600Z 08008KT 9999 FEW035 34/17 A2992 NOSIG=
201603101700 METAR MRLB 101700Z COR 12012KT 9999 FEW035 35/15 A2988 NOSIG=
201603101800 METAR MRLB 101800Z 14011KT 9999 FEW035 36/15 A2987 NOSIG=
201603101900 METAR MRLB 101900Z 11009KT 9999 FEW035 37/15 A2984 NOSIG=
201603102000 METAR MRLB 102000Z 07008KT 9999 FEW035 36/15 A2982 NOSIG=
201603102100 METAR MRLB 102100Z 31007KT 9999 FEW035 34/18 A2981 NOSIG=
201603102200 METAR MRLB 102200Z 19005KT 9999 SCT035 34/17 A2980 NOSIG=
201603102300 METAR MRLB 102300Z 06011KT 9999 SCT040 34/18 A2980 NOSIG=
201603102352 METAR MRLB 110000Z 07013KT 9999 FEW040 SCT140 31/19 A2981 NOSIG=
201603110000 METAR MRLB 110000Z 07013KT 9999 FEW040 SCT140 31/19 A2981 NOSIG=
201603110100 METAR MRLB 110100Z 08013KT 9999 FEW040 30/18 A2983 NOSIG=
201603110200 METAR MRLB 110200Z 08011KT 9999 FEW040 29/19 A2986 NOSIG=
201603110300 METAR MRLB 110300Z 10008KT 9999 FEW035 28/18 A2987 NOSIG=
201603110400 METAR MRLB 110400Z 12005KT 9999 FEW035 28/18 A2988 NOSIG=
201603110500 METAR MRLB 110500Z 11006KT CAVOK 27/18 A2989 NOSIG=
201603110600 METAR MRLB 110600Z 12008KT CAVOK 27/18 A2988 NOSIG=
201603110700 METAR MRLB NIL=
201603110800 METAR MRLB NIL=
201603110900 METAR MRLB NIL=
201603111000 METAR MRLB NIL=
201603111100 METAR MRLB NIL=
201603111200 METAR MRLB 111200Z 10006KT CAVOK 25/19 A2989 NOSIG=
201603111300 METAR MRLB 111300Z 10007KT CAVOK 27/19 A2989 NOSIG=
201603111400 METAR MRLB 111400Z 10011KT CAVOK 30/19 A2990 NOSIG=
201603111500 METAR MRLB 111500Z 09012KT 9999 FEW040 32/19 A2991 NOSIG=
201603111600 METAR MRLB 111600Z 10010KT 9999 FEW035 33/18 A2991 NOSIG=
201603111700 METAR MRLB 111700Z 08013KT 9999 SCT035 34/18 A2989 NOSIG=
201603111800 METAR MRLB 111800Z 08011G21KT 9999 FEW035 34/17 A2986 NOSIG=
201603111900 METAR MRLB 111900Z 10012KT 9999 SCT035 35/16 A2983 NOSIG=
201603112000 METAR MRLB 112000Z 08012KT 9999 SCT035 34/18 A2981 NOSIG=
201603112100 METAR MRLB 112100Z 09012KT 9999 SCT035 35/17 A2979 NOSIG=
201603112200 METAR MRLB 112200Z 08011KT 9999 SCT040 34/17 A2979 NOSIG=
201603112300 METAR MRLB 112300Z 07014KT 9999 FEW040 33/18 A2980 NOSIG=
201603112352 METAR MRLB 120000Z 07014KT CAVOK 31/18 A2981 NOSIG=
201603120000 METAR MRLB 120000Z 07014KT CAVOK 31/18 A2981 NOSIG=
201603120100 METAR MRLB 120100Z 08014KT CAVOK 29/19 A2984 NOSIG=
201603120200 METAR MRLB 120200Z 07015KT CAVOK 28/19 A2986 NOSIG=
201603120300 METAR MRLB 120300Z 07014KT CAVOK 28/19 A2988 NOSIG=
201603120400 METAR MRLB 120400Z 08010KT CAVOK 28/18 A2989 NOSIG=
201603120500 METAR MRLB 120500Z 08009KT CAVOK 27/19 A2989 NOSIG=
201603120600 METAR MRLB 120600Z 10010KT CAVOK 27719 A2988 NOSIG=
201603120700 METAR MRLB NIL=
201603120800 METAR MRLB NIL=
201603120900 METAR MRLB NIL=
201603121000 METAR MRLB NIL=
201603121100 METAR MRLB NIL=
201603121200 METAR MRLB 121200Z 08004KT CAVOK 23/19 A2989 NOSIG=
201603121300 METAR MRLB 121300Z 14003KT CAVOK 27/18 A2991 NOSIG=
201603121400 METAR MRLB 121400Z 07011KT CAVOK 30/18 A2992 NOSIG=
201603121500 METAR MRLB 121500Z 09011KT 9999 FEW035 31/18 A2993 NOSIG=
201603121600 METAR MRLB 121600Z 08010KT 9999 FEW035 32/18 A2992 NOSIG=
201603121700 METAR MRLB 121700Z 08009KT 9999 FEW035 33/18 A2990 NOSIG=
201603121800 METAR MRLB 121800Z 08010KT 9999 FEW035 34/18 A2987 NOSIG=
201603121900 METAR MRLB 121900Z 10008KT 9999 FEW035 34/18 A2984 NOSIG=
201603122000 METAR MRLB 122000Z 09013KT 9999 FEW035 35/18 A2981 NOSIG=
201603122100 METAR MRLB 122100Z 09013KT 9999 FEW035 33/18 A2979 NOSIG=
201603122200 METAR MRLB 122200Z 09013KT 9999 FEW035 34/18 A2978 NOSIG=
201603122300 METAR MRLB 122300Z 08011KT 9999 FEW035 32/17 A2979 NOSIG=
201603122351 METAR MRLB 130000Z 08010KT CAVOK 31/17 A2981 NOSIG=
201603130000 METAR MRLB 130000Z 08010KT CAVOK 31/17 A2981 NOSIG=
201603130100 METAR MRLB 130100Z 09009KT CAVOK 28/18 A2983 NOSIG=
201603130200 METAR MRLB 130200Z 10007KT CAVOK 28/17 A2985 NOSIG=
201603130300 METAR MRLB 130300Z 10006KT CAVOK 28/17 A2986 NOSIG=
201603130400 METAR MRLB 130400Z 10006KT CAVOK 27/17 A2988 NOSIG=
201603130500 METAR MRLB 130500Z 00000KT CAVOK 26/17 A2988 NOSIG=
201603130600 METAR MRLB 130600Z 11004KT CAVOK 25/16 A2987 NOSIG=
201603130700 METAR MRLB NIL=
201603130800 METAR MRLB NIL=
201603130900 METAR MRLB NIL=
201603131000 METAR MRLB NIL=
201603131100 METAR MRLB NIL=
201603131200 METAR MRLB 131200Z 07003KT CAVOK 21/17 A2987 NOSIG=
201603131300 METAR MRLB 131300Z 27003KT CAVOK 23/17 A2989 NOSIG=
201603131400 METAR MRLB 131400Z 10003KT CAVOK 28/17 A2990 NOSIG=
201603131500 METAR MRLB 131500Z 10004KT CAVOK 30/16 A2991 NOSIG=
201603131600 METAR MRLB 131600Z 36003KT CAVOK 32/15 A2990 NOSIG=
201603131700 METAR MRLB 131700Z 29005KT CAVOK 34/16 A2987 NOSIG=
201603131800 METAR MRLB 131800Z 13010KT 9999 FEW035 36/15 A2984 NOSIG=
201603131900 METAR MRLB 131900Z 09006KT 9999 FEW035 34/15 A2983 NOSIG=
201603132000 METAR MRLB 132000Z 12010G20KT 9999 SCT035 35/16 A2979 NOSIG=
201603132100 METAR MRLB 132100Z 10007KT 9999 SCT035 35/16 A2977 NOSIG=
201603132200 METAR MRLB 132200Z 09008KT 9999 FEW040 SCT250 34/16 A2978 NOSIG=
201603132300 METAR MRLB 132300Z 10011KT 9999 FEW040 SCT250 32/16 A2979 NOSIG=
201603132351 METAR MRLB 140000Z 09007KT CAVOK 31/16 A2981 NOSIG=
201603140000 METAR MRLB 140000Z 09007KT CAVOK 31/16 A2981 NOSIG=
201603140100 METAR MRLB 140100Z 10008KT CAVOK 28/17 A2984 NOSIG=
201603140200 METAR MRLB 140200Z 10006KT CAVOK 28/17 A2986 NOSIG=
201603140300 METAR MRLB 140300Z 11006KT CAVOK 27/16 A2989 NOSIG=
201603140400 METAR MRLB 140400Z 13003KT CAVOK 27/16 A2990 NOSIG=
201603140500 METAR MRLB 140500Z 15003KT CAVOK 26/16 A2991 NOSIG=
201603140600 METAR MRLB 140600Z 15003KT CAVOK 25/16 A2991 NOSIG=
201603140700 METAR MRLB NIL=
201603140800 METAR MRLB NIL=
201603140900 METAR MRLB NIL=
201603141000 METAR MRLB NIL=
201603141100 METAR MRLB NIL=
201603141200 METAR MRLB 141200Z 06004KT CAVOK 20/16 A2990 NOSIG=
201603141300 METAR MRLB 141300Z 05005KT CAVOK 22/16 A2992 NOSIG=
201603141400 METAR MRLB 141400Z 22003KT CAVOK 26/15 A2995 NOSIG=
201603141500 METAR MRLB 141500Z 28003KT CAVOK 29/15 A2995 NOSIG=
201603141600 METAR MRLB 141600Z 19003KT CAVOK 32/14 A2993 NOSIG=
201603141700 METAR MRLB 141700Z 32005KT CAVOK 33/13 A2991 NOSIG=
201603141800 METAR MRLB 141800Z 03004KT CAVOK 34/13 A2986 NOSIG=
201603141900 METAR MRLB 141900Z 25004KT CAVOK 36/12 A2983 NOSIG=
201603142000 METAR MRLB 142000Z 33007KT CAVOK 36/12 A2979 NOSIG=
201603142100 METAR MRLB 142100Z 31008KT CAVOK 36/14 A2978 NOSIG=
201603142200 METAR MRLB 142200Z 10008KT CAVOK 35/13 A2977 NOSIG=
201603142300 METAR MRLB 142300Z 09013KT CAVOK 33/14 A2977 NOSIG=
201603142353 METAR MRLB 150000Z 09010KT CAVOK 31/15 A2979 NOSIG=
201603150000 METAR MRLB 150000Z 09010KT CAVOK 31/15 A2979 NOSIG=
201603150100 METAR MRLB 150100Z 08008KT CAVOK 29/16 A2981 NOSIG=
201603150200 METAR MRLB 150200Z 08010KT CAVOK 29/16 A2984 NOSIG=
201603150300 METAR MRLB 150300Z 09008KT CAVOK 27/17 A2986 NOSIG=
201603150400 METAR MRLB 150400Z 10010KT CAVOK 27/14 A2988 NOSIG=
201603150500 METAR MRLB 150500Z 10010KT CAVOK 27/13 A2987 NOSIG=
201603150600 METAR MRLB 150600Z 11008KT CAVOK 26/14 A2988 NOSIG=
201603150700 METAR MRLB NIL=
201603150800 METAR MRLB NIL=
201603150900 METAR MRLB NIL=
201603151000 METAR MRLB NIL=
201603151100 METAR MRLB NIL=
201603151200 METAR MRLB 151200Z 07002KT CAVOK 21/15 A2986 NOSIG=
201603151300 METAR MRLB 151300Z 00000KT CAVOK 23/15 A2987 NOSIG=
201603151400 METAR MRLB 151400Z 31002KT 9999 FEW010 26/15 A2989 NOSIG=
201603151500 METAR MRLB 151500Z 05002KT 9999 FEW010 30/13 A2990 NOSIG=
201603151600 METAR MRLB 151600Z 08005KT 9999 FEW010 33/12 A2987 NOSIG=
201603151700 METAR MRLB 151700Z 10014KT CAVOK 33/11 A2985 NOSIG=
201603151800 METAR MRLB 151800Z 10011KT 9999 FEW005 35/11 A2983 NOSIG=
201603151900 METAR MRLB 151900Z 10010KT CAVOK 35/12 A2980 NOSIG=
201603152000 METAR MRLB 152000Z 10010KT CAVOK 35/12 A2977 NOSIG=
201603152100 METAR MRLB 152100Z 08013KT CAVOK 35/12 A2975 NOSIG=
201603152200 METAR MRLB 152200Z 08012G22KT CAVOK 34/13 A2975 NOSIG=
201603152300 METAR MRLB 152300Z 08014KT CAVOK 33/12 A976 NOSIG=
201603160000 METAR MRLB 160000Z 08012G22KT CAVOK 30/13 A2978 NOSIG=
201603160100 METAR MRLB 160100Z 08014KT CAVOK 29/13 A2980 NOSIG=
201603160200 METAR MRLB 160200Z 08011KT CAVOK 28/15 A2983 NOSIG=
201603160300 METAR MRLB 160300Z 10013KT CAVOK 27/16 A2984 NOSIG=
201603160400 METAR MRLB 160400Z 10014KT CAVOK 27/14 A2985 NOSIG=
201603160500 METAR MRLB 160500Z 09016KT CAVOK 26/15 A2984 NOSIG=
201603160600 METAR MRLB 160600Z 08015KT CAVOK 26/15 A2984 NOSIG=
201603160700 METAR MRLB NIL=
201603160800 METAR MRLB NIL=
201603160900 METAR MRLB NIL=
201603161000 METAR MRLB NIL=
201603161100 METAR MRLB NIL=
201603161200 METAR MRLB 161200Z 07003KT CAVOK 19/14 A2983 NOSIG=
201603161300 METAR MRLB 161300Z 07002KT CAVOK 22/15 A2986 NOSIG=
201603161400 METAR MRLB 161400Z 00000KT CAVOK 26/15 A2988 NOSIG=
201603161500 METAR MRLB 161500Z 06005KT CAVOK 30/14 A2989 NOSIG=
201603161600 METAR MRLB 161600Z 06006KT CAVOK 32/13 A2988 NOSIG=
201603161700 METAR MRLB 161700Z 10010KT CAVOK 34/10 A2986 NOSIG=
201603161800 METAR MRLB 161800Z 08007KT CAVOK 35/11 A2984 NOSIG=
201603161900 METAR MRLB 161900Z 12010KT CAVOK 35/12 A2980 NOSIG=
201603162000 METAR MRLB 162000Z 09009KT CAVOK 36/13 A2977 NOSIG=
201603162100 METAR MRLB 162100Z 15005KT CAVOK 35/13 A2976 NOSIG=
201603162200 METAR MRLB 162200Z 29009KT CAVOK 34/13 A2975 NOSIG=
201603162300 METAR MRLB 162300Z 32008KT CAVOK 33/12 A2977 NOSIG=
201603162350 METAR MRLB 170000Z 26003KT CAVOK 32/13 A2979 NOSIG=
201603170000 METAR MRLB 170000Z 26003KT CAVOK 32/13 A2979 NOSIG=
201603170100 METAR MRLB 170100Z 19004KT CAVOK 30/13 A2981 NOSIG=
201603170200 METAR MRLB 170200Z 14004KT CAVOK 29/16 A2983 NOSIG=
201603170300 METAR MRLB 170300Z 10007KT CAVOK 28/16 A2984 NOSIG=
201603170400 METAR MRLB 170400Z 00000KT CAVOK 27/16 A2986 NOSIG=
201603170500 METAR MRLB 170500Z 12002KT CAVOK 25/16 A2986 NOSIG=
201603170600 METAR MRLB 170600Z 28003KT CAVOK 24/16 A2984 NOSIG=
201603170700 METAR MRLB NIL=
201603170800 METAR MRLB NIL=
201603170900 METAR MRLB NIL=
201603171000 METAR MRLB NIL=
201603171100 METAR MRLB NIL=
201603171200 METAR MRLB 171200Z 04003KT CAVOK 20/16 A2985 NOSIG=
201603171300 METAR MRLB 171300Z 29003KT CAVOK 23/16 A2987 NOSIG=
201603171400 METAR MRLB 171400Z 14003KT CAVOK 26/16 A2989 NOSIG=
201603171500 METAR MRLB 171500Z 34003KT CAVOK 30/15 A2990 NOSIG=
201603171600 METAR MRLB 171600Z 09010KT CAVOK 32/14 A2989 NOSIG=
201603171700 METAR MRLB 171700Z 09007KT CAVOK 33/12 A2988 NOSIG=
201603171800 METAR MRLB 171800Z 06005KT 9999 FEW035 34/14 A2985 NOSIG=
201603171900 METAR MRLB 171900Z 31006KT 9999 FEW035 34/14 A2982 NOSIG=
201603172000 METAR MRLB 172000Z 27009KT 9999 FEW035 33/15 A2978 NOSIG=
201603172100 METAR MRLB 172100Z 28013KT 9999 FEW035 32/14 A2976 NOSIG=
201603172200 METAR MRLB 172200Z 28010KT 9999 FEW035 33/15 A2976 NOSIG=
201603172300 METAR MRLB 172300Z 30007KT 9999 FEW035 32/15 A2976 NOSIG=
201603172355 METAR MRLB 180000Z 29004KT 9999 FEW040 SCT250 31/14 A2977 NOSIG=
201603180000 METAR MRLB 180000Z 29004KT 9999 FEW040 SCT250 31/14 A2977 NOSIG=
201603180100 METAR MRLB 180100Z 22002KT CAVOK 29/15 A2979 NOSIG=
201603180200 METAR MRLB 180200Z 20003KT CAVOK 28/16 A2980 NOSIG=
201603180300 METAR MRLB 180300Z 20002KT CAVOK 27/17 A2983 NOSIG=
201603180400 METAR MRLB 180400Z 00000KT CAVOK 26/17 A2985 NOSIG=
201603180500 METAR MRLB 180500Z 13004KT CAVOK 26/18 A2984 NOSIG=
201603180600 METAR MRLB 180600Z 11004KT CAVOK 25/19 A2983 NOSIG=
201603180700 METAR MRLB NIL=
201603180800 METAR MRLB NIL=
201603180900 METAR MRLB NIL=
201603181000 METAR MRLB NIL=
201603181100 METAR MRLB NIL=
201603181200 METAR MRLB 181200Z 04003KT 9999 FEW045 SCT250 21/17 A2985 NOSIG=
201603181300 METAR MRLB 181300Z 00000KT CAVOK 24/18 A2986 NOSIG=
201603181400 METAR MRLB 181400Z 00000KT CAVOK 28/19 A2987 NOSIG=
201603181500 METAR MRLB 181500Z 23002KT CAVOK 30/19 A2988 NOSIG=
201603181600 METAR MRLB 181600Z 07005KT CAVOK 33/18 A2987 NOSIG=
201603181700 METAR MRLB 181700Z 08003KT 9999 FEW040 33/18 A2984 NOSIG=
201603181800 METAR MRLB 181800Z 29012KT 9999 FEW040 33/19 A2981 NOSIG=
201603181900 METAR MRLB 181900Z 29011KT 9999 SCT040 33/19 A2978 NOSIG=
201603182000 METAR MRLB 182000Z 30013KT 9999 SCT040 33/18 A2975 NOSIG=
201603182100 METAR MRLB 182100Z 29013KT 9999 SCT035 32/17 A2973 NOSIG=
201603182200 METAR MRLB 182200Z 29012KT 9999 SCT035 32/18 A2973 NOSIG=
201603182300 METAR MRLB 182300Z 28008KT 9999 BKN035 31/18 A2974 NOSIG=
201603182354 METAR MRLB 190000Z 30005KT 9999 SCT035 30/19 A2976 NOSIG=
201603190000 METAR MRLB 190000Z 30005KT 9999 SCT035 30/19 A2976 NOSIG=
201603190100 METAR MRLB 190100Z 00000KT 9999 FEW035 29/20 A2978 NOSIG=
201603190200 METAR MRLB 190200Z 36003KT 9999 FEW035 28/20 A2980 NOSIG=
201603190300 METAR MRLB 190300Z 16003KT 9999 FEW035 27/19 A2983 NOSIG=
201603190400 METAR MRLB 190400Z 06003KT 9999 FEW035 26/19 A2984 NOSIG=
201603190500 METAR MRLB 190500Z 04004KT 9999 FEW035 26/19 A2984 NOSIG=
201603190600 METAR MRLB 190600Z 07003KT 9999 FEW035 24/19 A2982 NOSIG=
201603190700 METAR MRLB NIL=
201603190800 METAR MRLB NIL=
201603190900 METAR MRLB NIL=
201603191000 METAR MRLB NIL=
201603191100 METAR MRLB NIL=
201603191200 METAR MRLB 191200Z 12002KT CAVOK 22/19 A2982 NOSIG=
201603191300 METAR MRLB 191300Z 21002KT CAVOK 25/20 A2985 NOSIG=
201603191400 METAR MRLB 191400Z 27003KT CAVOK 29/19 A2984 NOSIG=
201603191500 METAR MRLB 191500Z 06004KT CAVOK 31/19 A2985 NOSIG=
201603191600 METAR MRLB 191600Z 16004KT CAVOK 33/18 A2984 NOSIG=
201603191700 METAR MRLB 191700Z 09008KT 9999 FEW040 SCT250 35/18 A2982 NOSIG=
201603191800 METAR MRLB 191800Z 07009KT 9999 SCT040 SCT250 35/18 A2978 NOSIG=
201603191900 METAR MRLB 191900Z 10008KT 9999 SCT040 SCT250 36/17 A2975 NOSIG=
201603192000 METAR MRLB 192000Z 14012KT 9999 FEW040 SCT250 36/17 A2972 NOSIG=
201603192100 METAR MRLB 192100Z 15008KT 9999 FEW040 SCT250 35/17 A2971 NOSIG=
201603192200 METAR MRLB 192200Z 28012KT 9999 FEW040 SCT250 34/20 A2971 NOSIG=
201603192300 METAR MRLB 192300Z 29009KT CAVOK 31/20 A2973 NOSIG=
201603200000 METAR MRLB NIL=
201603200100 METAR MRLB 200100Z 27002KT CAVOK 29/21 A2977 NOSIG=
201603200200 METAR MRLB 200200Z 18003KT CAVOK 29/20 A2980 NOSIG=
201603200300 METAR MRLB 200300Z 10002KT CAVOK 28/21 A2983 NOSIG=
201603200400 METAR MRLB 200400Z 11004KT CAVOK 28/20 A2983 NOSIG=
201603200500 METAR MRLB 200500Z 00000KT CAVOK 28/20 A2983 NOSIG=
201603200600 METAR MRLB 200600Z 00000KT CAVOK 26/20 A2983 NOSIG=
201603200700 METAR MRLB NIL=
201603200800 METAR MRLB NIL=
201603200900 METAR MRLB NIL=
201603201000 METAR MRLB NIL=
201603201100 METAR MRLB NIL=
201603201200 METAR MRLB 201200Z 23002KT CAVOK 24/20 A2986 NOSIG=
201603201300 METAR MRLB 201300Z 19003KT CAVOK 26/20 A2987 NOSIG=
201603201400 METAR MRLB 201400Z 24003KT CAVOK 29/20 A2987 NOSIG=
201603201500 METAR MRLB 201500Z 22002KT CAVOK 31/20 A2988 NOSIG=
201603201600 METAR MRLB 201600Z 17005KT CAVOK 33/19 A2987 NOSIG=
201603201700 METAR MRLB 201700Z 11008KT 9999 FEW035 BKN250 34/18 A2984 NOSIG=
201603201800 METAR MRLB 201800Z 12009KT 9999 FEW040 BKN250 35/18 A2981 NOSIG=
201603201900 METAR MRLB 201900Z 13006KT 9999 FEW040 BKN250 36/18 A2977 NOSIG=
201603202000 METAR MRLB 202000Z 06009KT 9999 FEW035 BKN250 36/17 A2974 NOSIG=
201603202100 METAR MRLB 202100Z 08011KT 9999 FEW035 BKN250 36/17 A2972 NOSIG=
201603202200 METAR MRLB 202200Z 07013KT 9999 FEW035 BKN250 35/17 A2971 NOSIG=
201603202300 METAR MRLB 202300Z 06014KT 9999 FEW035 BKN250 35/18 A2973 NOSIG=
201603202350 METAR MRLB 210000Z 08013KT CAVOK 32/19 A2976 NOSIG=
201603210000 METAR MRLB 210000Z 08013KT CAVOK 32/19 A2976 NOSIG=
201603210100 METAR MRLB 210100Z 08017G27KT CAVOK 30/20 A2978 NOSIG=
201603210200 METAR MRLB 210200Z 08017KT CAVOK 29/18 A2980 NOSIG=
201603210300 METAR MRLB 210300Z 09015KT CAVOK 29/18 A2983 NOSIG=
201603210400 METAR MRLB 210400Z 10012KT CAVOK 28/19 A2983 NOSIG=
201603210500 METAR MRLB 210500Z 10010KT CAVOK 28/18 A2984 NOSIG=
201603210600 METAR MRLB 210600Z 11009KT CAVOK 28/17 A2984 NOSIG=
201603210700 METAR MRLB NIL=
201603210800 METAR MRLB NIL=
201603210900 METAR MRLB NIL=
201603211000 METAR MRLB NIL=
201603211100 METAR MRLB NIL=
201603211200 METAR MRLB 211200Z 08004KT CAVOK 23/17 A2984 NOSIG=
201603211300 METAR MRLB 211300Z 09003KT CAVOK 26/17 A2988 NOSIG=
201603211400 METAR MRLB 211400Z 07008KT CAVOK 30/17 A2989 NOSIG=
201603211500 METAR MRLB 211500Z 09017KT CAVOK 32/17 A2989 NOSIG=
201603211600 METAR MRLB 211600Z 09018KT CAVOK 33/17 A2989 NOSIG=
201603211700 METAR MRLB 211700Z 09020G30KT CAVOK 34/16 A2988 NOSIG=
201603211800 METAR MRLB 211800Z 09021G31KT CAVOK 35/15 A2985 NOSIG=
201603211900 METAR MRLB 211900Z 09018G28KT CAVOK 36/16 A2982 NOSIG=
201603212000 METAR MRLB 212000Z 07021G31KT 9999 FEW035 SCT250 36/15 A2980 NOSIG=
201603212100 METAR MRLB 212100Z 08020KT 9999 FEW035 SCT250 35/17 A2978 NOSIG=
201603212200 METAR MRLB 212200Z 08018KT CAVOK 34/17 A2977 NOSIG=
201603212300 METAR MRLB 212300Z 08018KT CAVOK 32/17 A2978 NOSIG=
201603212357 METAR MRLB 220000Z 08015KT CAVOK 31/17 A2981 NOSIG=
201603220000 METAR MRLB 220000Z 08015KT CAVOK 31/17 A2981 NOSIG=
201603220100 METAR MRLB 220100Z 09020KT CAVOK 30/17 A2983 NOSIG=
201603220200 METAR MRLB 220200Z 09018G28KT CAVOK 28/17 A2986 NOSIG=
201603220300 METAR MRLB 220300Z 09018G28KT CAVOK 28/16 A2987 WSR07 NOSIG=
201603220400 METAR MRLB 220400Z 09016G26KT CAVOK 28/16 A2988 WSR07 NOSIG=
201603220500 METAR MRLB 220500Z 10016G26KT CAVOK 28/16 A2988 WSR07 NOSIG=
201603220600 METAR MRLB 220600Z 10016KT CAVOK 28/16 A2987 NOSIG=
201603220700 METAR MRLB NIL=
201603220800 METAR MRLB NIL=
201603220900 METAR MRLB NIL=
201603221000 METAR MRLB NIL=
201603221100 METAR MRLB NIL=
201603221200 METAR MRLB 221200Z 09021KT CAVOK 27/16 A2982 NOSIG=
201603221300 METAR MRLB 221300Z 09023KT CAVOK 28/15 A2985 NOSIG=
201603221400 METAR MRLB 221400Z 09025KT CAVOK 29/17 A2986 NOSIG=
201603221500 METAR MRLB 221500Z 09024G34KT CAVOK 31/16 A2986 NOSIG=
201603221600 METAR MRLB 221600Z 09024G35KT CAVOK 32/16 A2987 NOSIG=
201603221700 METAR MRLB 221700Z 08027G38KT 9999 FEW035 33/16 A2987 NOSIG=
201603221800 METAR MRLB 221800Z 08026G38KT 9999 2000E FU FEW035 34/16 A2985 NOSIG=
201603221900 METAR MRLB 221900Z 08026G38KT 9999 0800S FU FEW035 SCT250 34/16 A2982 NOSIG=
201603222000 METAR MRLB 222000Z 08025G35KT 9999 1000E FU FEW040 SCT250 35/16 A2979 NOSIG=
201603222100 METAR MRLB 222100Z 08022KT 9999 2000E FU FEW040 SCT250 35/15 A2977 NOSIG=
201603222200 METAR MRLB 222200Z 07023G33KT 9999 2000W FU FEW035 SCT250 33/15 A2978 NOSIG=
201603222300 METAR MRLB 222300Z 08024KT 9999 3000W FU NSC 31/16 A2980 NOSIG=
201603222354 METAR MRLB 230000Z 08021G32KT 9999 2000NE FU NSC 30/17 A2981 NOSIG=
201603230000 METAR MRLB 230000Z 08021G32KT 9999 2000NE FU NSC 30/17 A2981 NOSIG=
201603230100 METAR MRLB 230100Z 08025G35KT CAVOK 29/17 A2982 NOSIG=
201603230200 METAR MRLB 230200Z 09021G33KT CAVOK 28/17 A2983 NOSIG=
201603230300 METAR MRLB 230300Z 09021G31KT CAVOK 28/18 A2984 NOSIG=
201603230400 METAR MRLB 230400Z 09018KT CAVOK 28/17 A2986 NOSIG=
201603230500 METAR MRLB 230500Z 08019KT CAVOK 27/18 A2986 NOSIG=
201603230600 METAR MRLB 230600Z 10016G26KT CAVOK 28/17 A2985 NOSIG=
201603230700 METAR MRLB NIL=
201603230800 METAR MRLB NIL=
201603230900 METAR MRLB NIL=
201603231000 METAR MRLB NIL=
201603231100 METAR MRLB NIL=
201603231200 METAR MRLB 231200Z 04003KT CAVOK 24/18 A2984 NOSIG=
201603231300 METAR MRLB 231300Z 09017KT CAVOK 28/19 A2985 NOSIG=
201603231400 METAR MRLB 231400Z 09019G30KT 9999 FEW030 30/19 A2987 NOSIG=
201603231500 METAR MRLB 231500Z 08018G28KT 9999 FEW030 32/18 A2986 NOSIG=
201603231600 METAR MRLB 231600Z 08020KT 9999 FEW030 33/18 A2987 NOSIG=
201603231700 METAR MRLB 231700Z 07020KT 9999 FEW030 34/17 A2984 NOSIG=
201603231800 METAR MRLB 231800Z 07022KT 9999 FEW030 34/17 A2982 NOSIG=
201603231900 METAR MRLB 231900Z 07020G30KT CAVOK 35/18 A2978 NOSIG=
201603232000 METAR MRLB 232000Z 07024KT CAVOK 34/17 A2976 NOSIG=
201603232100 METAR MRLB 232100Z 08019G29KT CAVOK 34/16 A2975 NOSIG=
201603232200 METAR MRLB 232200Z 07016G26KT CAVOK 33/16 A2974 NOSI=
201603232300 METAR MRLB 232300Z 08019G29KT CAVOK 31/17 A2975 NOSIG=
201603232351 METAR MRLB 240000Z 08018G28KT CAVOK 29/17 A2977 NOSIG=
201603240000 METAR MRLB 240000Z 08018G28KT CAVOK 29/17 A2977 NOSIG=
201603240100 METAR MRLB 240100Z 09019KT CAVOK 29/17 A2978 NOSIG=
201603240200 METAR MRLB 240200Z 08021KT CAVOK 28/15 A2981 NOSIG=
201603240300 METAR MRLB 240300Z 08019KT CAVOK 28/16 A2983 NOSIG=
201603240400 METAR MRLB 240400Z 09016KT CAVOK 28/16 A2984 NOSIG=
201603240500 METAR MRLB 240500Z 09014KT CAVOK 28/16 A2984 NOSIG=
201603240600 METAR MRLB 240600Z 09010KT CAVOK 28/17 A2983 NOSIG=
201603240700 METAR MRLB NIL=
201603240800 METAR MRLB NIL=
201603240900 METAR MRLB NIL=
201603241000 METAR MRLB NIL=
201603241100 METAR MRLB NIL=
201603241200 METAR MRLB 241200Z 33003KT CAVOK 23/16 A2981 NOSIG=
201603241300 METAR MRLB 241300Z 30002KT CAVOK 26/17 A2983 NOSIG=
201603241400 METAR MRLB 241400Z 27003KT CAVOK 29/17 A2985 NOSIG=
201603241500 METAR MRLB 241500Z 09012KT CAVOK 33/16 A2984 NOSIG=
201603241600 METAR MRLB 241600Z 09010G20KT CAVOK 33/16 A2983 NOSIG=
201603241700 METAR MRLB 241700Z 09012G22KT CAVOK 34/17 A2981 NOSIG=
201603241800 METAR MRLB 241800Z 10010G20KT 9999 FEW030 34/17 A2979 NOSIG=
201603241900 METAR MRLB 241900Z 09012G22KT 9999 FEW035 35/17 A2976 NOSIG=
201603242000 METAR MRLB 242000Z 09011KT CAVOK 36/16 A2973 NOSIG=
201603242100 METAR MRLB 242100Z 07015KT 9999 FEW035 35/16 A2971 NOSIG=
201603242200 METAR MRLB 242200Z 08017KT 9999 FEW035 34/16 A2970 NOSIG=
201603242300 METAR MRLB 242300Z 08015KT CAVOK 33/17 A2970 NOSIG=
201603242350 METAR MRLB 250000Z 09014KT CAVOK 31/18 A2972 NOSIG=
201603250000 METAR MRLB 250000Z 09014KT CAVOK 31/18 A2972 NOSIG=
201603250100 METAR MRLB 250100Z 08014KT CAVOK 29/18 A2974 NOSIG=
201603250200 METAR MRLB 250200Z 09013KT CAVOK 29/18 A2975 NOSIG=
201603250300 METAR MRLB 250300Z 09014KT CAVOK 28/18 A2977 NOSIG=
201603250400 METAR MRLB 250400Z 10013KT CAVOK 28/17 A2978 NOSIG=
201603250500 METAR MRLB 250500Z 09013KT CAVOK 27/17 A2979 NOSIG=
201603250600 METAR MRLB 250600Z 09012KT CAVOK 27/17 A2977 NOSIG=
201603250700 METAR MRLB NIL=
201603250800 METAR MRLB NIL=
201603250900 METAR MRLB NIL=
201603251000 METAR MRLB NIL=
201603251100 METAR MRLB NIL=
201603251200 METAR MRLB 251200Z 06003KT CAVOK 22/17 A2977 NOSIG=
201603251300 METAR MRLB 251300Z 28003KT CAVOK 25/17 A2979 NOSIG=
201603251400 METAR MRLB 251400Z 24003KT CAVOK 28/17 A2981 NOSIG=
201603251500 METAR MRLB 251500Z 08012KT CAVOK 32/16 A2981 NOSIG=
201603251600 METAR MRLB 251600Z 10012KT CAVOK 33/16 A2981 NOSIG=
201603251700 METAR MRLB 251700Z 09010KT CAVOK 33/16 A2979 NOSIG=
201603251800 METAR MRLB 251800Z 08011KT CAVOK 35/16 A2977 NOSIG=
201603251900 METAR MRLB 251900Z 08013KT 9999 FEW035 35/16 A2974 NOSIG=
201603252000 METAR MRLB 252000Z 09011KT 9999 SCT035 BKN250 35/16 A2971 NOSIG=
201603252100 METAR MRLB 252100Z 09011KT 9999 SCT035 BKN250 35/25 A2970 NOSIG=
201603252200 METAR MRLB 252200Z 06014KT 9999 FEW035 BKN250 34/17 A2970 NOSIG=
201603252300 METAR MRLB 252300Z 06014KT CAVOK 33/17 A2972 NOSIG=
201603252352 METAR MRLB 260000Z 09014KT CAVOK 31/17 A2973 NOSIG=
201603260000 METAR MRLB 260000Z 09014KT CAVOK 31/17 A2973 NOSIG=
201603260100 METAR MRLB 260100Z 09010KT CAVOK 29/17 A2976 NOSIG=
201603260200 METAR MRLB 260200Z 09013KT CAVOK 29/18 A2978 NOSIG=
201603260300 METAR MRLB 260300Z 09015KT CAVOK 28/18 A2979 NOSIG=
201603260400 METAR MRLB 260400Z 09013KT CAVOK 28/19 A2980 NOSIG=
201603260500 METAR MRLB 260500Z 09012KT CAVOK 28/19 A2980 NOSIG=
201603260600 METAR MRLB 260600Z 10011KT CAVOK 27/19 A2981 NOSIG=
201603260700 METAR MRLB NIL=
201603260800 METAR MRLB NIL=
201603260900 METAR MRLB NIL=
201603261000 METAR MRLB NIL=
201603261100 METAR MRLB NIL=
201603261200 METAR MRLB 261200Z 00000KT CAVOK 24/19 A2982 NOSIG=
201603261300 METAR MRLB 261300Z 06005KT CAVOK 26/19 A2984 NOSIG=
201603261400 METAR MRLB 261400Z 09011KT CAVOK 31/18 A2985 NOSIG=
201603261500 METAR MRLB 261500Z 08017KT CAVOK 32/18 A2986 NOSIG=
201603261600 METAR MRLB 261600Z 09012KT CAVOK 33/18 A2985 NOSIG=
201603261700 METAR MRLB 261700Z 07011KT 9999 FEW035 OVC250 34/18 A2984 NOSIG=
201603261800 METAR MRLB 261800Z 06014KT 9999 FEW035 OVC250 35/18 A2982 NOSIG=
201603261900 METAR MRLB 261900Z 09014KT 9999 SCT035 BKN250 34/18 A2979 NOSIG=
201603262000 METAR MRLB 262000Z 05016KT 9999 SCT035 BKN250 36/17 A2976 NOSIG=
201603262100 METAR MRLB 262100Z 07016KT 9999 SCT035 BKN250 35/17 A2976 NOSIG=
201603262200 METAR MRLB 262200Z 07017KT 9999 FEW035 BKN250 35/17 A2976 NOSIG=
201603262300 METAR MRLB 262300Z 07017KT 9999 FEW045 BKN250 33/17 A2977 NOSIG=
201603262352 METAR MRLB 270000Z 08013KT 9999 FEW045 BKN220 31/18 A2978 NOSIG=
201603270000 METAR MRLB 270000Z 08013KT 9999 FEW045 BKN220 31/18 A2978 NOSIG=
201603270100 METAR MRLB 270100Z 08010KT CAVOK 30/18 A2980 NOSIG=
201603270200 METAR MRLB 270200Z 10010KT CAVOK 29/17 A2982 NOSIG=
201603270300 METAR MRLB 270300Z 10007KT CAVOK 28/18 A2984 NOSIG=
201603270400 METAR MRLB 270400Z 08009KT CAVOK 28/18 A2986 NOSIG=
201603270500 METAR MRLB 270500Z 04003KT CAVOK 27/17 A2988 NOSIG=
201603270600 METAR MRLB 270600Z 07003KT CAVOK 27/18 A2987 NOSIG=
201603270700 METAR MRLB NIL=
201603270800 METAR MRLB NIL=
201603270900 METAR MRLB NIL=
201603271000 METAR MRLB NIL=
201603271100 METAR MRLB NIL=
201603271200 METAR MRLB 271200Z 00000KT CAVOK 22/18 A2989 NOSIG=
201603271300 METAR MRLB 271300Z 03003KT CAVOK 25/19 A2992 NOSIG=
201603271400 METAR MRLB 271400Z 28005KT CAVOK 29/18 A2993 NOSIG=
201603271500 METAR MRLB 271500Z 07002KT CAVOK 32/18 A2993 NOSIG=
201603271600 METAR MRLB 271600Z 03005KT CAVOK 33/17 A2991 NOSIG=
201603271700 METAR MRLB 271700Z 11010KT 9999 FEW035 35/17 A2988 NOSIG=
201603271800 METAR MRLB 271800Z 12011KT 9999 FEW035 36/17 A2986 NOSIG=
201603271900 METAR MRLB 271900Z 11008KT 9999 SCT040 35/17 A2983 NOSIG=
201603272000 METAR MRLB 272000Z 12007KT 9999 SCT035 36/17 A2981 NOSIG=
201603272100 METAR MRLB 272100Z 12005KT 9999 SCT035 35/17 A2980 NOSIG=
201603272200 METAR MRLB 272200Z 10008KT 9999 SCT040 35/17 A2980 NOSIG=
201603272300 METAR MRLB 272300Z 09010K 9999 FEW040 33/17 A2981 NOSIG=
201603272354 METAR MRLB 280000Z 10009KT CAVOK 32/17 A2982 NOSIG=
201603280000 METAR MRLB 280000Z 10009KT CAVOK 32/17 A2982 NOSIG=
201603280100 METAR MRLB 280100Z 09010KT CAVOK 30/17 A2984 NOSIG=
201603280200 METAR MRLB NIL=
201603280300 METAR MRLB 280300Z 11007KT CAVOK 28/18 A2987 NOSIG=
201603280400 METAR MRLB 280400Z 14004KT CAVOK 28/19 A2989 NOSIG=
201603280500 METAR MRLB 280500Z 10005KT CAVOK 27/18 A2988 NOSIG=
201603280600 METAR MRLB 280600Z 11005KT CAVOK 27/18 A2988 NOSIG=
201603280700 METAR MRLB NIL=
201603280800 METAR MRLB NIL=
201603280900 METAR MRLB NIL=
201603281000 METAR MRLB NIL=
201603281100 METAR MRLB NIL=
201603281200 METAR MRLB 281200Z 00000KT CAVOK 23/19 A2987 NOSIG=
201603281300 METAR MRLB 281300Z 00000KT CAVOK 25/19 A2990 NOSIG=
201603281400 METAR MRLB 281400Z 01003KT CAVOK 30/19 A2992 NOSIG=
201603281500 METAR MRLB 281500Z 06009KT CAVOK 32/18 A2992 NOSIG=
201603281600 METAR MRLB 281600Z 08010KT CAVOK 33/17 A2991 NOSIG=
201603281700 METAR MRLB 281700Z 06011KT 9999 FEW035 35/17 A2989 NOSIG=
201603281800 METAR MRLB 281800Z 08011G21KT 9999 SCT035 35/17 A2986 NOSIG=
201603281900 METAR MRLB 281900Z 09009KT 9999 FEW035 36/17 A2984 NOSIG=
201603282000 METAR MRLB 282000Z 09009KT 9999 FEW035 35/17 A2981 NOSIG=
201603282100 METAR MRLB 282100Z 08007KT 9999 SCT035 35/16 A2979 NOSIG=
201603282200 METAR MRLB 282200Z 08011KT 9999 SCT035 34/16 A2978 NOSIG=
201603282300 METAR MRLB 282300Z 08012KT 9999 FEW035 34/17 A2979 NOSIG=
201603290000 METAR MRLB NIL=
201603290100 METAR MRLB NIL=
201603290200 METAR MRLB NIL=
201603290300 METAR MRLB 290300Z 10010KT 9999 FEW040 29/18 A2986 NOSIG=
201603290400 METAR MRLB 290400Z 09008KT 9999 FEW040 28/16 A2987 NOSIG=
201603290500 METAR MRLB 290500Z 10008KT CAVOK 28/16 A2988 NOSIG=
201603290600 METAR MRLB 290600Z 10009KT CAVOK 27/16 A2986 NOSIG=
201603290700 METAR MRLB NIL=
201603290800 METAR MRLB NIL=
201603290900 METAR MRLB NIL=
201603291000 METAR MRLB NIL=
201603291100 METAR MRLB NIL=
201603291200 METAR MRLB 291200Z 08003KT CAVOK 22/17 A2986 NOSIG=
201603291300 METAR MRLB 291300Z 25003KT CAVOK 26/18 A2988 NOSIG=
201603291400 METAR MRLB 291400Z 32005KT CAVOK 29/18 A2989 NOSIG=
201603291500 METAR MRLB 291500Z 12003KT CAVOK 31/18 A2989 NOSIG=
201603291600 METAR MRLB 291600Z 10011KT CAVOK 33/17 A2988 NOSIG=
201603291700 METAR MRLB 291700Z 09013KT CAVOK 34/16 A2986 NOSIG=
201603291800 METAR MRLB 291800Z 09012KT 9999 FEW035 BKN250 35/16 A2983 NOSIG=
201603291900 METAR MRLB 291900Z 09011KT 9999 FEW035 BKN250 35/17 A2979 NOSIG=
201603292000 METAR MRLB 292000Z 11007KT 9999 SCT035 BKN250 35/16 A2976=
201603292100 METAR MRLB 292100Z 13007KT 9999 SCT035 BKN250 35/16 A2975 NOSIG=
201603292200 METAR MRLB 292200Z 09007KT 9999 SCT035 SCT250 35/16 A2974 NOSIG=
201603292300 METAR MRLB 292300Z 08010KT 9999 SCT035 SCT250 33/16 A2975 NOSIG=
201603292352 METAR MRLB 300000Z 08009KT 9999 FEW035 SCT250 32/17 A2976 NOSIG=
201603300000 METAR MRLB 300000Z 08009KT 9999 FEW035 SCT250 32/17 A2976 NOSIG=
201603300100 METAR MRLB 300100Z 11005KT CAVOK 30/18 A2979 NOSIG=
201603300200 METAR MRLB 300200Z 12007KT CAVOK 29/18 A2981 NOSIG=
201603300300 METAR MRLB 300300Z 10008KT CAVOK 28/18 A2982 NOSIG=
201603300400 METAR MRLB 300400Z 10007KT CAVOK 28/16 A2983 NOSIG=
201603300500 METAR MRLB 300500Z 09005KT CAVOK 28/14 A2983 NOSIG=
201603300600 METAR MRLB 300600Z 12005KT CAVOK 27/14 A2982 NOSIG=
201603300700 METAR MRLB NIL=
201603300800 METAR MRLB NIL=
201603300900 METAR MRLB NIL=
201603301000 METAR MRLB NIL=
201603301100 METAR MRLB NIL=
201603301200 METAR MRLB 301200Z 06002KT CAVOK 21/16 A2986 NOSIG=
201603301300 METAR MRLB 301300Z 07002KT CAVOK 24/16 A2987 NOSIG=
201603301400 METAR MRLB 301400Z 28002KT CAVOK 27/16 A2990 NOSIG=
201603301500 METAR MRLB 301500Z 05002KT CAVOK 30/15 A2991 NOSIG=
201603301600 METAR MRLB 301600Z 28002KT CAVOK 34/13 A2990 NOSIG=
201603301700 METAR MRLB 301700Z 30004KT CAVOK 35/10 A2988 NOSIG=
201603301800 METAR MRLB 301800Z 29007KT CAVOK 36/12 A2985 NOSIG=
201603301900 METAR MRLB 301900Z 28010KT CAVOK 36/13 A2981 NOSIG=
201603302000 METAR MRLB 302000Z 28009KT 9999 FEW035 35/16 A2979 NOSIG=
201603302100 METAR MRLB 302100Z 28011KT 9999 FEW035 34/16 A2977 NOSIG=
201603302200 METAR MRLB 302200Z 27008KT 9999 FEW035 34/15 A2978 NOSIG=
201603302300 METAR MRLB 302300Z 27009KT 9999 FEW040 33/14 A2978 NOSIG=
201603302354 METAR MRLB 310000Z 23006KT 9999 FEW045 32/15 A2980 NOSIG=
201603310000 METAR MRLB 310000Z 23006KT 9999 FEW045 32/15 A2980 NOSIG=
201603310100 METAR MRLB 310100Z 20005KT 9999 FEW045 30/15 A2983 NOSIG=
201603310200 METAR MRLB 310200Z 16005KT 9999 FEW035 29/15 A2986 NOSIG=
201603310300 METAR MRLB 310300Z 17004KT 9999 FEW035 28/17 A2987 NOSIG=
201603310400 METAR MRLB 310400Z 18004KT 9999 FEW035 27/18 A2989 NOSIG=
201603310500 METAR MRLB 310500Z 09004KT CAVOK 27/19 A2990 NOSIG=
201603310600 METAR MRLB 310600Z 12004KT CAVOK 27/19 A2989 NOSIG=
201603310700 METAR MRLB NIL=
201603310800 METAR MRLB NIL=
201603310900 METAR MRLB NIL=
201603311000 METAR MRLB NIL=
201603311100 METAR MRLB NIL=
201603311200 METAR MRLB 311200Z 05004KT CAVOK 23/18 A2988 NOSIG=
201603311300 METAR MRLB 311300Z 06004KT CAVOK 26/18 A2990 NOSIG=
201603311400 METAR MRLB 311400Z 17003KT CAVOK 28/20 A2991 NOSIG=
201603311500 METAR MRLB 311500Z 22006KT CAVOK 30/20 A2990 NOSIG=
201603311600 METAR MRLB 311600Z 20008KT 9999 FEW035 33/19 A2988 NOSIG=
201603311700 METAR MRLB 311700Z 09006KT 9999 FEW035 35/15 A2986 NOSIG=
201603311800 METAR MRLB 311800Z 19004KT 9999 FEW035 36/15 A2983 NOSIG=
201603311900 METAR MRLB 311900Z 29012KT 9999 SCT035 34/20 A2981 NOSIG=
201603312000 METAR MRLB 312000Z 29014KT 9999 SCT035 33/20 A2980 NOSIG=
201603312100 METAR MRLB 312100Z 28016KT 9999 SCT035 32/19 A2979 NOSIG=
201603312200 METAR MRLB 312200Z 27013KT 9999 FEW040 33/19 A2978 NOSIG=
201603312300 METAR MRLB 312300Z 27011KT CAVOK 31/19 A2979 NOSIG=
201603312354 METAR MRLB 010000Z 26005KT CAVOK 30/19 A2981 NOSIG=
201604010000 METAR MRLB 010000Z 26005KT CAVOK 30/19 A2981 NOSIG=
201604010100 METAR MRLB 010100Z 24006KT CAVOK 29/20 A2984 NOSIG=
201604010200 METAR MRLB 010200Z 25004KT CAVOK 28/21 A2987 NOSIG=
201604010300 METAR MRLB 010300Z 00000KT CAVOK 28/21 A2989 NOSIG=
201604010400 METAR MRLB 010400Z 05004KT CAVOK 27/21 A2992 NOSIG=
201604010500 METAR MRLB 010500Z 02002KT CAVOK 27/21 A2992 NOSIG=
201604010600 METAR MRLB 010600Z 05003KT CAVOK 26/21 A2991 NOSIG=
201604010700 METAR MRLB NIL=
201604010800 METAR MRLB NIL=
201604010900 METAR MRLB NIL=
201604011000 METAR MRLB NIL=
201604011100 METAR MRLB NIL=
201604011200 METAR MRLB 011200Z 06005KT 9999 FEW020 SCT100 25/21 A2990 NOSIG=
201604011300 METAR MRLB 011300Z 35007KT 8000 DZ SCT015 BKN060 24/22 A2993 NOSIG=
201604011400 METAR MRLB 011400Z 08003KT 9999 SCT020 BKN100 24/22 A2995 RERA NOSIG=
201604011500 METAR MRLB 011500Z 34003KT 9999 FEW025 BKN100 25/22 A2996 NOSIG=
201604011600 METAR MRLB 011600Z 32002KT 9999 FEW040 BKN100 28/21 A2994 NOSIG=
201604011700 METAR MRLB 011700Z 06003KT 9999 FEW035 BKN140 29/22 A2993 NOSIG=
201604011800 METAR MRLB 011800Z 02004KT 9999 FEW035 BKN140 31/21 A2990 NOSIG=
201604011900 METAR MRLB 011900Z 34008KT 9999 FEW035 BKN140 32/19 A2986 NOSIG=
201604012000 METAR MRLB 012000Z 30009KT 9999 FEW035 BKN140 33/18 A2983 NOSIG=
201604012100 METAR MRLB 012100Z 29011KT 9999 FEW035 SCT250 32/18 A2981 NOSIG=
201604012200 METAR MRLB 012200Z 29012KT CAVOK 31/20 A2979 NOSIG=
201604012300 METAR MRLB 012300Z 27011KT CAVOK 30/21 A2980 NOSIG=
201604012352 METAR MRLB 020000Z 27009KT CAVOK 28/21 A2982 NOSIG=
201604020000 METAR MRLB 020000Z 27009KT CAVOK 28/21 A2982 NOSIG=
201604020100 METAR MRLB 020100Z COR 28002KT CAVOK 28/21 A2986 NOSIG=
201604020200 METAR MRLB 020200Z 34002KT CAVOK 27/21 A2989 NOSIG=
201604020300 METAR MRLB 020300Z 02002KT CAVOK 26/22 A2990 NOSIG=
201604020400 METAR MRLB 020400Z 02003KT CAVOK 25/22 A2991 NOSIG=
201604020500 METAR MRLB 020500Z 04003KT CAVOK 25/22 A2991 NOSIG=
201604020600 METAR MRLB 020600Z 06004KT CAVOK 24/21 A2989 NOSIG=
201604020700 METAR MRLB NIL=
201604020800 METAR MRLB NIL=
201604020900 METAR MRLB NIL=
201604021000 METAR MRLB NIL=
201604021100 METAR MRLB NIL=
201604021200 METAR MRLB 021200Z 06003KT CAVOK 22/18 A2990 NOSIG=
201604021300 METAR MRLB 021300Z 15003KT 9999 SCT035 24/20 A2993 NOSIG=
201604021400 METAR MRLB 021400Z 07003KT 9999 FEW035 28/20 A2994 NOSIG=
201604021500 METAR MRLB 021500Z 13003KT 9999 FEW035 30/20 A2994 NOSIG=
201604021600 METAR MRLB 021600Z 07003KT 9999 FEW035 32/20 A2992 NOSIG=
201604021700 METAR MRLB 021700Z 03004KT 9999 SCT035 31/19 A2990 NOSIG=
201604021800 METAR MRLB 021800Z 27010KT 9999 FEW035 34/17 A2987 NOSIG=
201604021900 METAR MRLB 021900Z 27010KT 9999 FEW035 33/18 A2983 NOSIG=
201604022000 METAR MRLB 022000Z 28011KT 9999 FEW035 34/17 A2980 NOSIG=
201604022100 METAR MRLB 022100Z 29012KT 9999 FEW035 33/17 A2978 NOSIG=
201604022200 METAR MRLB 022200Z 30013KT 9999 FEW035 32/19 A2978 NOSIG=
201604022300 METAR MRLB 022300Z 31011KT CAVOK 31/19 A2978 NOSIG=
201604022352 METAR MRLB 030000Z 29009KT CAVOK 29/21 A2980 NOSIG=
201604030000 METAR MRLB 030000Z 29009KT CAVOK 29/21 A2980 NOSIG=
201604030100 METAR MRLB 030100Z 30006KT CAVOK 28/22 A2983 NOSIG=
201604030200 METAR MRLB 030200Z 30005KT CAVOK 28/22 A2985 NOSIG=
201604030300 METAR MRLB 030300Z 28003KT CAVOK 27/22 A2987 NOSIG=
201604030400 METAR MRLB 030400Z 35002KT CAVOK 27/22 A2989 NOSIG=
201604030500 METAR MRLB 030500Z 17004KT CAVOK 26/22 A2988 NOSIG=
201604030600 METAR MRLB 030600Z 05002KT CAVOK 26/22 A2986 NOSIG=
201604030700 METAR MRLB NIL=
201604030800 METAR MRLB NIL=
201604030900 METAR MRLB NIL=
201604031000 METAR MRLB NIL=
201604031100 METAR MRLB NIL=
201604031200 METAR MRLB 031200Z 20002KT 9999 FEW030 BKN250 24/21 A2982 NOSIG=
201604031300 METAR MRLB 031300Z 15005KT 9999 FEW030 BKN250 25/21 A2990 NOSIG=
201604031400 METAR MRLB 031400Z 12004KT CAVOK 29/21 A2991 NOSIG=
201604031500 METAR MRLB 031500Z 08010KT 9999 FEW035 BKN250 32/20 A2992 NOSIG=
201604031600 METAR MRLB 031600Z 09007KT 9999 SCT035 SCT250 33/19 A2991 NOSIG=
201604031700 METAR MRLB 031700Z 07007KT 9999 SCT035 SCT250 34/19 A2988 NOSIG=
201604031800 METAR MRLB 031800Z 07009KT 9999 SCT035 SCT250 36/17 A2984 NOSIG=
201604031900 METAR MRLB 031900Z 08017KT 9999 SCT035 SCT250 37/16 A2980 NOSIG=
201604032000 METAR MRLB 032000Z 06016KT 9999 SCT035 SCT250 37/15 A2976 NOSIG=
201604032100 METAR MRLB 032100Z 10009KT 9999 SCT040 SCT250 36/16 A2974 NOSIG=
201604032200 METAR MRLB 032200Z 08012KT 9999 FEW040 SCT250 36/16 A2973 NOSIG=
201604032300 METAR MRLB 032300Z 07014KT 9999 FEW040 35/17 A2975 NOSIG=
201604032353 METAR MRLB 040000Z 07013KT CAVOK 32/19 A2979 NOSIG=
201604040000 METAR MRLB 040000Z 07013KT CAVOK 32/19 A2979 NOSIG=
201604040100 METAR MRLB 040100Z 07011KT CAVOK 31/20 A2983 NOSIG=
201604040200 METAR MRLB 040200Z 06014KT CAVOK 30/19 A2986 NOSIG=
201604040300 METAR MRLB 040300Z 08009KT CAVOK 29/19 A2989 NOSIG=
201604040400 METAR MRLB 040400Z 07011KT CAVOK 28/19 A2991 NOSIG=
201604040500 METAR MRLB 040500Z 10004KT CAVOK 28/19 A2990 NOSIG=
201604040600 METAR MRLB 040600Z 15006KT CAVOK 28/19 A2989 NOSIG=
201604040700 METAR MRLB NIL=
201604040800 METAR MRLB NIL=
201604040900 METAR MRLB NIL=
201604041000 METAR MRLB NIL=
201604041100 METAR MRLB NIL=
201604041200 METAR MRLB 041200Z 09015G26KT CAVOK 27/18 A2988 NOSIG=
201604041300 METAR MRLB 041300Z 10015KT CAVOK 28/19 A2989 NOSIG=
201604041400 METAR MRLB 041400Z 10016KT CAVOK 30/18 A2990 NOSIG=
201604041500 METAR MRLB 041500Z 09017G27KT 9999 FEW035 32/16 A2991 NOSIG=
201604041600 METAR MRLB 041600Z 08021KT 9999 FEW035 33/18 A2992 NOSIG=
201604041700 METAR MRLB 041700Z 07021KT 9999 FEW035 33/18 A2991 NOSIG=
201604041800 METAR MRLB 041800Z 07017KT 9999 FEW035 34/17 A2988 NOSIG=
201604041900 METAR MRLB 041900Z 07022G32KT 9999 FEW040 34/17 A2985 NOSIG=
201604042000 METAR MRLB 042000Z 07016KT 9999 FEW035 34/16 A2982 NOSIG=
201604042100 METAR MRLB 042100Z 07018G28KT 9999 FEW045 34/16 A2980 NOSIG=
201604042200 METAR MRLB 042200Z 07019KT 9999 FEW045 34/15 A2980 NOSIG=
201604042300 METAR MRLB 042300Z 09015KT 9999 FEW045 31/17 A2982 NOSIG=
201604042352 METAR MRLB 050000Z 09015G25KT CAVOK 30/17 A2983 NOSIG=
201604050000 METAR MRLB 050000Z 09015G25KT CAVOK 30/17 A2983 NOSIG=
201604050100 METAR MRLB 050100Z 10014KT CAVOK 29/17 A2986 NOSIG=
201604050200 METAR MRLB 050200Z 09014G24KT CAVOK 29/17 A2988 NOSIG=
201604050300 METAR MRLB 050300Z 09016G26KT CAVOK 28/17 A2989 NOSIG=
201604050400 METAR MRLB 050400Z 09012G22KT CAVOK 28/17 A2991 NOSIG=
201604050500 METAR MRLB 050500Z 10010KT CAVOK 28/16 A2990 NOSIG=
201604050600 METAR MRLB 050600Z 10007KT CAVOK 28/16 A2989 NOSIG=
201604050700 METAR MRLB NIL=
201604050800 METAR MRLB NIL=
201604050900 METAR MRLB NIL=
201604051000 METAR MRLB NIL=
201604051100 METAR MRLB NIL=
201604051200 METAR MRLB 051200Z 33005KT CAVOK 24/17 A2989 NOSIG=
201604051300 METAR MRLB 051300Z 09016KT CAVOK 28/18 A2991 NOSIG=
201604051400 METAR MRLB 051400Z 09018G28KT CAVOK 30/18 A2991 NOSIG=
201604051500 METAR MRLB 051500Z 09015G25KT CAVOK 31/17 A2991 NOSIG=
201604051600 METAR MRLB 051600Z 09025G35KT CAVOK 31/18 A2991 WSR07 NOSIG=
201604051700 METAR MRLB 051700Z 08026G36KT 9999 FEW030 33/17 A2991 WSR07 NOSIG=
201604051800 METAR MRLB 051800Z 07021G31KT 9999 FEW030 34/16 A2988 WSR07 NOSIG=
201604051900 METAR MRLB 051900Z 07022G32KT 9999 FEW030 35/18 A2983 WSR07 NOSIG=
201604052000 METAR MRLB 052000Z 07026G38KT 9999 FEW035 34/17 A2981 WSR07 NOSIG=
201604052100 METAR MRLB 052100Z 07025KT 9999 FEW035 35/15 A2978 NOSIG=
201604052200 METAR MRLB 052200Z 07022G34KT CAVOK 34/17 A2977 WSR07 NOSIG=
201604052300 METAR MRLB 052300Z 07023G33KT CAVOK 32/16 A2978 WSR07 NOSIG=
201604052350 METAR MRLB 060000Z 08021KT CAVOK 30/16 A2979 NOSIG=
201604060000 METAR MRLB 060000Z 08021KT CAVOK 30/16 A2979 NOSIG=
201604060100 METAR MRLB 060100Z 08020KT CAVOK 29/17 A2982 NOSIG=
201604060200 METAR MRLB 060200Z 09017G27KT CAVOK 29/16 A2984 NOSIG=
201604060300 METAR MRLB 060300Z 09014KT CAVOK 28/16 A2986 NOSIG=
201604060400 METAR MRLB 060400Z 09014KT CAVOK 28/17 A2986 NOSIG=
201604060500 METAR MRLB 060500Z 08020KT CAVOK 27/17 A2985 NOSIG=
201604060600 METAR MRLB 060600Z 08019G29KT CAVOK 27/18 A2985 NOSIG=
201604060700 METAR MRLB NIL=
201604060800 METAR MRLB NIL=
201604060900 METAR MRLB NIL=
201604061000 METAR MRLB NIL=
201604061100 METAR MRLB NIL=
201604061200 METAR MRLB 061200Z 10010KT CAVOK 27/17 A2984 NOSIG=
201604061300 METAR MRLB 061300Z 10015G25KT CAVOK 28/17 A2985 NOSIG=
201604061400 METAR MRLB 061400Z 08017KT CAVOK 30/16 A2987 NOSIG=
201604061500 METAR MRLB 061500Z 07018KT CAVOK 32/15 A2987 NOSIG=
201604061600 METAR MRLB 061600Z 06021KT CAVOK 32/15 A2987 NOSIG=
201604061700 METAR MRLB 061700Z 07018KT CAVOK 34/15 A2986 NOSIG=
201604061800 METAR MRLB 061800Z 06020KT CAVOK 35/16 A2983 NOSIG=
201604061900 METAR MRLB 061900Z 07018KT 9999 FEW035 35/16 A2979 NOSIG=
201604062000 METAR MRLB 062000Z 07022KT 9999 FEW035 35/16 A2977 NOSIG=
201604062100 METAR MRLB 062100Z 07016G26KT 9999 FEW035 36/16 A2976 NOSIG=
201604062200 METAR MRLB 062200Z 07019KT CAVOK 35/16 A2974 NOSIG=
201604062300 METAR MRLB 062300Z 06019KT CAVOK 34/15 A2975 NOSIG=
201604062352 METAR MRLB 070000Z 07017KT CAVOK 31/16 A2977 NOSIG=
201604070000 METAR MRLB 070000Z 07017KT CAVOK 31/16 A2977 NOSIG=
201604070100 METAR MRLB 070100Z 07018KT CAVOK 29/17 A2980 NOSIG=
201604070200 METAR MRLB 070200Z 07021KT CAVOK 28/17 A2981 NOSIG=
201604070300 METAR MRLB 070300Z 08019KT CAVOK 28/17 A2983 NOSIG=
201604070400 METAR MRLB 070400Z 09017KT CAVOK 27/17 A2984 NOSIG=
201604070500 METAR MRLB 070500Z 09015KT CAVOK 27/17 A2984 NOSIG=
201604070600 METAR MRLB 070600Z 10015G25KT CAVOK 27/17 A2983 NOSIG=
201604070700 METAR MRLB NIL=
201604070800 METAR MRLB NIL=
201604070900 METAR MRLB NIL=
201604071000 METAR MRLB NIL=
201604071100 METAR MRLB NIL=
201604071200 METAR MRLB 071200Z 10022KT CAVOK 27/17 A2980 NOSIG=
201604071300 METAR MRLB 071300Z 09019G29KT CAVOK 28/17 A2983 NOSIG=
201604071400 METAR MRLB 071400Z 09019G29KT CAVOK 30/16 A2984 NOSIG=
201604071500 METAR MRLB 071500Z 08020KT CAVOK 32/15 A2985 NOSIG=
201604071600 METAR MRLB 071600Z 07023KT CAVOK 34/15 A2984 NOSIG=
201604071700 METAR MRLB 071700Z 07023KT CAVOK 34/15 A2982 NOSIG=
201604071800 METAR MRLB 071800Z 09018KT CAVOK 36/15 A2980 NOSIG=
201604071900 METAR MRLB 071900Z 06021KT CAVOK 35/15 A2976 NOSIG=
201604072000 METAR MRLB 072000Z 07021G32KT 9999 FEW040 36/15 A2973 NOSIG=
201604072100 METAR MRLB 072100Z 07022G33KT 9999 FEW040 36/15 A2971 NOSIG=
201604072200 METAR MRLB 072200Z 07022KT CAVOK 35/13 A2970 NOSIG=
201604072300 METAR MRLB 072300Z COR 07023KT CAVOK 33/14 A2971 NOSIG=
201604072352 METAR MRLB 080000Z 07021KT 9999 FEW020 31/15 A2973 NOSIG=
201604080000 METAR MRLB 080000Z 07021KT 9999 FEW020 31/15 A2973 NOSIG=
201604080100 METAR MRLB 080100Z 09019G29KT CAVOK 30/14 A2975 NOSIG=
201604080200 METAR MRLB 080200Z 09021G31KT CAVOK 29/15 A2976 NOSIG=
201604080300 METAR MRLB 080300Z 09020G30KT CAVOK 28/15 A2978 NOSIG=
201604080400 METAR MRLB 080400Z 09020G31KT CAVOK 27/16 A2979 NOSIG=
201604080500 METAR MRLB 080500Z 10020G30KT CAVOK 27/17 A2979 NOSIG=
201604080600 METAR MRLB 080600Z 10020G32KT CAVOK 27/17 A2979 NOSIG=
201604080700 METAR MRLB NIL=
201604080800 METAR MRLB NIL=
201604080900 METAR MRLB NIL=
201604081000 METAR MRLB NIL=
201604081100 METAR MRLB NIL=
201604081200 METAR MRLB 081200Z 10016KT CAVOK 27/16 A2979 NOSIG=
201604081300 METAR MRLB 081300Z 09015KT CAVOK 28/16 A2982 NOSIG=
201604081400 METAR MRLB 081400Z 08017KT CAVOK 30/16 A2984 NOSIG=
201604081500 METAR MRLB 081500Z 09017G27KT CAVOK 32/15 A2986 NOSIG=
201604081600 METAR MRLB 081600Z 10017KT CAVOK 33/15 A2984 NOSIG=
201604081700 METAR MRLB 081700Z 07018G29KT CAVOK 34/15 A2983 NOSIG=
201604081800 METAR MRLB 081800Z 05016KT 9999 FEW040 34/15 A2981 NOSIG=
201604081900 METAR MRLB 081900Z 08016G26KT 9999 FEW040 35/15 A2978=
201604082000 METAR MRLB 082000Z 08014KT 9999 FEW040 35/16 A2975 NOSIG=
201604082100 METAR MRLB 082100Z 08018KT 9999 FEW040 35/16 A2973 NOSIG=
201604082200 METAR MRLB 082200Z 07022KT 9999 FEW040 35/16 A2973 NOSIG=
201604082300 METAR MRLB 082300Z 08019KT 9999 FEW040 33/15 A2974 NOSIG=
201604082353 METAR MRLB 090000Z 08020KT CAVOK 31/16 A2975 NOSIG=
201604090000 METAR MRLB 090000Z 08020KT CAVOK 31/16 A2975 NOSIG=
201604090100 METAR MRLB NIL=
201604090200 METAR MRLB NIL=
201604090300 METAR MRLB 090300Z 09021KT CAVOK 29/16 A2981 NOSIG=
201604090400 METAR MRLB 090400Z 09020G31KT CAVOK 28/17 A2981 NOSIG=
201604090500 METAR MRLB 090500Z 09020G30KT CAVOK 28/17 A2981 NOSIG=
201604090600 METAR MRLB 090600Z 08020KT CAVOK 28/17 A2980 NOSIG=
201604090700 METAR MRLB NIL=
201604090800 METAR MRLB NIL=
201604090900 METAR MRLB NIL=
201604091000 METAR MRLB NIL=
201604091100 METAR MRLB NIL=
201604091200 METAR MRLB 091200Z 12005KT CAVOK 23/16 A2980 NOSIG=
201604091300 METAR MRLB 091300Z 01005KT CAVOK 27/17 A2981 NOSIG=
201604091400 METAR MRLB 091400Z 33002KT CAVOK 30/15 A2982 NOSIG=
201604091500 METAR MRLB 091500Z 09014KT CAVOK 32/15 A2982 NOSIG=
201604091600 METAR MRLB 091600Z COR 09018KT CAVOK 33/17 A2981 NOSIG=
201604091700 METAR MRLB 091700Z 09020G30KT CAVOK 33/17 A2979 NOSIG=
201604091800 METAR MRLB 091800Z 08022KT CAVOK 36/15 A2978 NOSIG=
201604091900 METAR MRLB 091900Z 08022G32KT 9999 FEW040 36/16 A2976 NOSIG=
201604092000 METAR MRLB 092000Z 08022G32KT 9999 FEW040 36/16 A2973 NOSIG=
201604092100 METAR MRLB 092100Z 07020KT CAVOK 36/13 A2971 NOSIG=
201604092200 METAR MRLB 092200Z 07024KT CAVOK 34/14 A2971 WSR07 NOSIG=
201604092300 METAR MRLB 092300Z 07024G34KT CAVOK 33/14 A2972 NOSIG=
201604092351 METAR MRLB 100000Z 08020G33KT CAVOK 31/14 A2974 WSR07 NOSIG=
201604100000 METAR MRLB 100000Z 08020G33KT CAVOK 31/14 A2974 WSR07 NOSIG=
201604100100 METAR MRLB 100100Z 09019G29KT CAVOK 29/15 A2976 NOSIG=
201604100200 METAR MRLB 100200Z 08022G32KT CAVOK 28/15 A2977 NOSIG=
201604100300 METAR MRLB 100300Z 09024G38KT CAVOK 28/15 A2980 WSR07 NOSIG=
201604100400 METAR MRLB 100400Z 08023G37KT CAVOK 27/16 A2982 WSR07 NOSIG=
201604100500 METAR MRLB 100500Z 09017G27KT CAVOK 27/16 A2982 WSR07 NOSIG=
201604100600 METAR MRLB 100600Z 09019G31KT CAVOK 27/17 A2981 NOSIG=
201604100700 METAR MRLB NIL=
201604100800 METAR MRLB NIL=
201604100900 METAR MRLB NIL=
201604101000 METAR MRLB NIL=
201604101100 METAR MRLB NIL=
201604101200 METAR MRLB 101200Z 09019G30KT CAVOK 27/17 A2983 NOSIG=
201604101300 METAR MRLB 101300Z 09017KT CAVOK 28/16 A2985 NOSIG=
201604101400 METAR MRLB 101400Z 08020KT CAVOK 30/17 A2987 NOSIG=
201604101500 METAR MRLB 101500Z 07022G32KT CAVOK 31/16 A2987 NOSIG=
201604101600 METAR MRLB 101600Z 08020G30KT CAVOK 33/15 A2986 NOSIG=
201604101700 METAR MRLB 101700Z 06024KT CAVOK 34/14 A2986 NOSIG=
201604101800 METAR MRLB 101800Z 07021KT CAVOK 35/14 A2983 NOSIG=
201604101900 METAR MRLB 101900Z 07021KT CAVOK 35/13 A2979 NOSIG=
201604102000 METAR MRLB 102000Z 06023KT CAVOK 36/13 A2978 NOSIG=
201604102100 METAR MRLB 102100Z 07021KT CAVOK 36/13 A2977 NOSIG=
201604102200 METAR MRLB 102200Z 07020KT CAVOK 35/12 A2977 NOSIG=
201604102300 METAR MRLB 102300Z 07020KT CAVOK 34/11 A2978 NOSIG=
201604102352 METAR MRLB 110000Z 07019KT CAVOK 31/14 A2980 NOSIG=
201604110000 METAR MRLB 110000Z 07019KT CAVOK 31/14 A2980 NOSIG=
201604110100 METAR MRLB 110100Z 08017KT CAVOK 29/15 A2983 NOSIG=
201604110200 METAR MRLB 110200Z 08020KT CAVOK 28/16 A2985 NOSIG=
201604110300 METAR MRLB 110300Z 08021KT CAVOK 28/17 A2987 NOSIG=
201604110400 METAR MRLB 110400Z 08019KT CAVOK 27/17 A2990 NOSIG=
201604110500 METAR MRLB 110500Z 08016KT CAVOK 27/18 A2990 NOSIG=
201604110600 METAR MRLB 110600Z 09016KT CAVOK 27/18 A2988 NOSIG=
201604110700 METAR MRLB NIL=
201604110800 METAR MRLB NIL=
201604110900 METAR MRLB NIL=
201604111000 METAR MRLB NIL=
201604111100 METAR MRLB NIL=
201604111200 METAR MRLB 111200Z 08016KT CAVOK 27/17 A2984 NOSIG=
201604111300 METAR MRLB 111300Z 09018KT CAVOK 28/17 A2984 NOSIG=
201604111400 METAR MRLB 111400Z 09020G30KT CAVOK 30/16 A2985 NOSIG=
201604111500 METAR MRLB 111500Z 08024G36KT CAVOK 31/17 A2987 NOSIG=
201604111600 METAR MRLB 111600Z 09023KT CAVOK 32/15 A2987 NOSIG=
201604111700 METAR MRLB 111700Z 07023KT CAVOK 34/15 A2986 NOSIG=
201604111800 METAR MRLB 111800Z 08018KT CAVOK 34/14 A2984 NOSIG=
201604111900 METAR MRLB 111900Z 08020G32KT CAVOK 35/14 A2982 NOSIG=
201604112000 METAR MRLB 112000Z 08017KT CAVOK 35/13 A2981 NOSIG=
201604112100 METAR MRLB 112100Z 08018KT CAVOK 35/12 A2980 NOSIG=
201604112200 METAR MRLB 112200Z 07018KT CAVOK 35/13 A2979 NOSIG=
201604112300 METAR MRLB 112300Z 07015KT CAVOK 33/14 A2981 NOSIG=
201604112353 METAR MRLB 120000Z 08013KT CAVOK 31/15 A2982 NOSIG=
201604120000 METAR MRLB 120000Z 08013KT CAVOK 31/15 A2982 NOSIG=
201604120100 METAR MRLB 120100Z 09013KT CAVOK 30/15 A2985 NOSIG=
201604120200 METAR MRLB 120200Z 10011KT CAVOK 28/17 A2987 NOSIG=
201604120300 METAR MRLB 120300Z 11007KT CAVOK 28/16 A2989 NOSIG=
201604120400 METAR MRLB 120400Z 12009KT CAVOK 28/14 A2990 NOSIG=
201604120500 METAR MRLB 120500Z 10008KT CAVOK 27/14 A2991 NOSIG=
201604120600 METAR MRLB 120600Z 17004KT CAVOK 27/14 A2990 NOSIG=
201604120700 METAR MRLB NIL=
201604120800 METAR MRLB NIL=
201604120900 METAR MRLB NIL=
201604121000 METAR MRLB NIL=
201604121100 METAR MRLB NIL=
201604121200 METAR MRLB 121200Z 11002KT CAVOK 21/15 A2991 NOSIG=
201604121300 METAR MRLB 121300Z 05003KT CAVOK 25/15 A2993 NOSIG=
201604121400 METAR MRLB 121400Z 34003KT CAVOK 28/15 A2994 NOSIG=
201604121500 METAR MRLB 121500Z 34003KT CAVOK 32/14 A2993 NOSIG=
201604121600 METAR MRLB 121600Z 10009KT CAVOK 34/14 A2992 NOSIG=
201604121700 METAR MRLB 121700Z 09012KT CAVOK 34/14 A2989 NOSIG=
201604121800 METAR MRLB 121800Z 09014KT 9999 FEW040 35/14 A2986 NOSIG=
201604121900 METAR MRLB 121900Z 09012KT 9999 FEW040 36/14 A2984 NOSIG=
201604122000 METAR MRLB 122000Z 07015KT 9999 FEW040 36/14 A2981 NOSIG=
201604122100 METAR MRLB 122100Z 08011KT 9999 FEW040 36/15 A2978 NOSIG=
201604122200 METAR MRLB 122200Z 06013KT 9999 FEW040 36/ 14 A2977 NOSIG=
201604122300 METAR MRLB 122300Z 06017KT 9999 FEW040 34/15 A2979 NOSIG=
201604122353 METAR MRLB 130000Z 07013KT 9999 FEW040 32/16 A2980 NOSIG=
201604130000 METAR MRLB 130000Z 07013KT 9999 FEW040 32/16 A2980 NOSIG=
201604130100 METAR MRLB 130100Z 08014KT CAVOK 31/17 A2983 NOSIG=
201604130200 METAR MRLB 130200Z 10011KT CAVOK 30/17 A2985 NOSIG=
201604130300 METAR MRLB 130300Z 12008KT CAVOK 28/17 A2987 NOSIG=
201604130400 METAR MRLB 130400Z 12011KT CAVOK 28/17 A2988 NOSIG=
201604130500 METAR MRLB 130500Z 12007KT CAVOK 27/17 A2989 NOSIG=
201604130600 METAR MRLB 130600Z 10008KT CAVOK 26/17 A2989 NOSIG=
201604130700 METAR MRLB NIL=
201604130800 METAR MRLB NIL=
201604130900 METAR MRLB NIL=
201604131000 METAR MRLB NIL=
201604131100 METAR MRLB NIL=
201604131200 METAR MRLB 131200Z 03002KT CAVOK 23/17 A2989 NOSIG=
201604131300 METAR MRLB 131300Z 06002KT CAVOK 27/17 A2991 NOSIG=
201604131400 METAR MRLB 131400Z 10008KT CAVOK 29/17 A2991 NOSIG=
201604131500 METAR MRLB 131500Z 10008KT CAVOK 31/16 A2992 NOSIG=
201604131600 METAR MRLB 131600Z 09010KT 9999 FEW035 33/15 A2989 NOSIG=
201604131700 METAR MRLB 131700Z 10009KT 9999 FEW035 34/14 A2987 NOSIG=
201604131800 METAR MRLB 131800Z 12010G20KT 9999 FEW035 36/13 A2984 NOSIG=
201604131900 METAR MRLB 131900Z 11008KT 9999 FEW035 36/13 A2980 NOSIG=
201604132000 METAR MRLB 132000Z 28015KT 9999 SCT035 31/18 A2979 NOSIG=
201604132100 METAR MRLB 132100Z 29014KT 9999 SCT035 32/20 A2978 NOSIG=
201604132200 METAR MRLB 132200Z 30012KT 9999 SCT035 31/21 A2977 NOSIG=
201604132300 METAR MRLB 132300Z 30009KT 9999 SCT035 30/21 A2978 NOSIG=
201604132350 METAR MRLB 140000Z 30008KT 9999 SCT030 BKN250 29/22 A2981 NOSIG=
201604140000 METAR MRLB 140000Z 30008KT 9999 SCT030 BKN250 29/22 A2981 NOSIG=
201604140100 METAR MRLB 140100Z 21006KT 9999 SCT030 SCT240 28/20 A2983 NOSIG=
201604140200 METAR MRLB 140200Z 15003KT 9999 SCT030 27/20 A2984 NOSIG=
201604140300 METAR MRLB 140300Z 05006KT 9999 FEW035 27/22 A2986 NOSIG=
201604140400 METAR MRLB 140400Z 04004KT 9999 FEW035 27/22 A2987 NOSIG=
201604140500 METAR MRLB 140500Z 07002KT 9999 FEW035 26/22 A2986 NOSIG=
201604140600 METAR MRLB 140600Z 00000KT 9999 FEW035 25/22 A2984 NOSIG=
201604140700 METAR MRLB NIL=
201604140800 METAR MRLB NIL=
201604140900 METAR MRLB NIL=
201604141000 METAR MRLB NIL=
201604141100 METAR MRLB NIL=
201604141200 METAR MRLB 141200Z 16003KT CAVOK 22/19 A2984 NOSIG=
201604141300 METAR MRLB 141300Z 22004KT CAVOK 25/19 A2986 NOSIG=
201604141400 METAR MRLB 141400Z 32003KT CAVOK 27/19 A2988 NOSIG=
201604141500 METAR MRLB 141500Z 32003KT CAVOK 30/18 A2987 NOSIG=
201604141600 METAR MRLB 141600Z 10008KT CAVOK 33/16 A2986 NOSIG=
201604141700 METAR MRLB 141700Z 09008KT 9999 FEW035 34/16 A2983 NOSIG=
201604141800 METAR MRLB 141800Z 06008KT 9999 FEW035 35/15 A2981 NOSIG=
201604141900 METAR MRLB 141900Z 27011KT 9999 SCT035 34/18 A2977 NOSIG=
201604142000 METAR MRLB 142000Z 29010KT 9999 SCT035 35/18 A2974 NOSIG=
201604142100 METAR MRLB 142100Z 27008KT 9999 SCT035 35/17 A2972 NOSIG=
201604142200 METAR MRLB 142200Z 30009KT 9999 SCT035 34/17 A2971 NOSIG=
201604142300 METAR MRLB 142300Z 31008KT 9999 SCT035 32/18 A2972 NOSIG=
201604142352 METAR MRLB 150000Z 27004KT 9999 BKN030 32/18 A2980 NOSIG=
201604150000 METAR MRLB 150000Z 27004KT 9999 BKN030 32/18 A2980 NOSIG=
201604150100 METAR MRLB 150100Z 15006KT 9999 SCT030 31/17 A2976 NOSIG=
201604150200 METAR MRLB 150200Z 17006KT 9999 FEW030 29/18 A2977 NOSIG=
201604150300 METAR MRLB 150300Z 12012KT 9999 FEW030 29/18 A2978 NOSIG=
201604150400 METAR MRLB 150400Z 11009KT CAVOK 28/18 A2980 NOSIG=
201604150500 METAR MRLB 150500Z 13006KT CAVOK 27/17 A2980 NOSIG=
201604150600 METAR MRLB 150600Z 16003KT CAVOK 26/17 A2978 NOSIG=
201604150700 METAR MRLB NIL=
201604150800 METAR MRLB NIL=
201604150900 METAR MRLB NIL=
201604151000 METAR MRLB NIL=
201604151100 METAR MRLB NIL=
201604151200 METAR MRLB 151200Z 17005KT CAVOK 22/17 A2978 NOSIG=
201604151300 METAR MRLB 151300Z 36003KT CAVOK 25/17 A2981 NOSIG=
201604151400 METAR MRLB 151400Z 35002KT CAVOK 28/17 A2983 NOSIG=
201604151500 METAR MRLB 151500Z 11003KT CAVOK 31/16 A2982 NOSIG=
201604151600 METAR MRLB 151600Z 12006KT CAVOK 33/15 A2982 NOSIG=
201604151700 METAR MRLB 151700Z COR 12009KT 9999 FEW035 SCT250 34/14 A2980 NOSIG=
201604151800 METAR MRLB 151800Z 09009KT 9999 FEW035 35/13 A2977 NOSIG=
201604151900 METAR MRLB 151900Z 05009KT SCT035 35/14 A2973 NOSIG=
201604152000 METAR MRLB 152000Z 08007KT 9999 SCT035 35/14 A2970 NOSIG=
201604152100 METAR MRLB 152100Z 28009KT 9999 SCT035 34/17 A2968 NOSIG=
201604152200 METAR MRLB 152200Z 28010KT 9999 SCT040 33/17 A2968 NOSIG=
201604152300 METAR MRLB 152300Z 26006KT 9999 SCT040 33/18 A2971 NOSIG=
201604152354 METAR MRLB 160000Z 14005KT 9999 SCT040 32/16 A2974 NOSIG=
201604160000 METAR MRLB 160000Z 14005KT 9999 SCT040 32/16 A2974 NOSIG=
201604160100 METAR MRLB 160100Z 14006KT 9999 FEW040 30/17 A2976 NOSIG=
201604160200 METAR MRLB 160200Z 15005KT 9999 FEW040 29/17 A2978 NOSIG=
201604160300 METAR MRLB 160300Z 09003KT 9999 FEW035 28/17 A2979 NOSIG=
201604160400 METAR MRLB 160400Z 10007KT 9999 FEW035 28/15 A2981 NOSIG=
201604160500 METAR MRLB 160500Z 12007KT 9999 FEW035 27/16 A2980 NOSIG=
201604160600 METAR MRLB 160600Z 09003KT 9999 FEW035 26/14 A2980 NOSIG=
201604160700 METAR MRLB NIL=
201604160800 METAR MRLB NIL=
201604160900 METAR MRLB NIL=
201604161000 METAR MRLB NIL=
201604161100 METAR MRLB NIL=
201604161200 METAR MRLB 161200Z 00000KT 9999 BKN045 23/16 A2981 NOSIG=
201604161300 METAR MRLB 161300Z 22005KT 9999 FEW045 SCT080 27/16 A2983 NOSIG=
201604161400 METAR MRLB 161400Z 23004KT 9999 FEW045 SCT080 28/16 A2984 NOSIG=
201604161500 METAR MRLB 161500Z 28003KT CAVOK 31/16 A2983 NOSIG=
201604161600 METAR MRLB 161600Z 06006KT 9999 FEW040 33/15 A2982 NOSIG=
201604161700 METAR MRLB 161700Z 08005KT 9999 FEW040 35/15 A2980 NOSIG=
201604161800 METAR MRLB 161800Z 14004KT 9999 FEW040 34/16 A2976 NOSIG=
201604161900 METAR MRLB 161900Z 29011KT 9999 BKN040 34/17 A2974 NOSIG=
201604162000 METAR MRLB 162000Z 27007KT 9999 BKN035 34/17 A2972 NOSIG=
201604162100 METAR MRLB 162100Z 28011KT 9999 BKN035 34/17 A2970 NOSIG=
201604162200 METAR MRLB 162200Z 28012KT 9999 BKN035 33/16 A2971 NOSIG=
201604162300 METAR MRLB 162300Z 27009KT 9999 FEW025TCU SCT035 33/18 A2972 NOSIG=
201604162352 METAR MRLB 170000Z 24008KT 9999 BKN030 31/17 A2975 NOSIG=
201604170000 METAR MRLB 170000Z 24008KT 9999 BKN030 31/17 A2975 NOSIG=
201604170100 METAR MRLB 170100Z 19007 9999 SCT030 30/20 A2979 NOSIG=
201604170200 METAR MRLB 170200Z 19007KT 9999 SCT030 29/20 A2981 NOSIG=
201604170300 METAR MRLB 170300Z 15006KT 9999 SCT030 29/19 A2982 NOSIG=
201604170400 METAR MRLB 170400Z 06005KT 9999 FEW035 28/20 A2983 NOSIG=
201604170500 METAR MRLB 170500Z 13003KT CAVOK 27/18 A2984 NOSIG=
201604170600 METAR MRLB 170600Z 09003KT CAVOK 27/18 A2984 NOSIG=
201604170700 METAR MRLB NIL=
201604170800 METAR MRLB NIL=
201604170900 METAR MRLB NIL=
201604171000 METAR MRLB NIL=
201604171100 METAR MRLB NIL=
201604171200 METAR MRLB 171200Z 19003KT 9999 FEW030 25/18 A2987 NOSIG=
201604171300 METAR MRLB 171300Z 21003KT CAVOK 27/18 A2988 NOSIG=
201604171400 METAR MRLB 171400Z 24003KT CAVOK 29/18 A2989 NOSIG=
201604171500 METAR MRLB 171500Z 14004KT CAVOK 32/17 A2989 NOSIG=
201604171600 METAR MRLB 171600Z 10003KT CAVOK 33/16 A2987 NOSIG=
201604171700 METAR MRLB 171700Z 20006KT 9999 FEW030 35/16 A2984 NOSIG=
201604171800 METAR MRLB 171800Z 29002KT 9999 FEW030 35/16 A2981 NOSIG=
201604171900 METAR MRLB 171900Z 29011KT 9999 FEW030 35/18 A2979 NOSIG=
201604172000 METAR MRLB 172000Z 29009KT 9999 SCT035 36/17 A2976 NOSIG=
201604172100 METAR MRLB 172100Z 29007KT 9999 SCT035 36/17 A2974 NOSIG=
201604172200 METAR MRLB 172200Z 29009KT 9999 BKN030 34/18 A2973 NOSIG=
201604172300 METAR MRLB 172300Z 27006KT 9999 BKN030 33/19 A2974 NOSIG=
201604172354 METAR MRLB 180000Z 26008KT 9999 BKN030 31/18 A2977 NOSIG=
201604180000 METAR MRLB 180000Z 26008KT 9999 BKN030 31/18 A2977 NOSIG=
201604180100 METAR MRLB NIL=
201604180200 METAR MRLB 180200Z 08006KT 9999 SCT035 30/19 A2983 NOSIG=
201604180300 METAR MRLB NIL=
201604180400 METAR MRLB 180400Z 12003KT 9999 FEW035 28/19 A2986 NOSIG=
201604180500 METAR MRLB 180500Z 00000KT 9999 FEW035 27/19 A2987 NOSIG=
201604180600 METAR MRLB 180600Z 25004KT CAVOK 26/19 A2987 NOSIG=
201604180700 METAR MRLB NIL=
201604180800 METAR MRLB NIL=
201604180900 METAR MRLB NIL=
201604181000 METAR MRLB NIL=
201604181100 METAR MRLB NIL=
201604181200 METAR MRLB 181200Z 12003KT CAVOK 23/19 A2987 NOSIG=
201604181300 METAR MRLB 181300Z 30003KT CAVOK 27/19 A2988 NOSIG=
201604181400 METAR MRLB 181400Z 29004KT CAVOK 29/19 A2989 NOSIG=
201604181500 METAR MRLB 181500Z 09014KT CAVOK 32/17 A2988 NOSIG=
201604181600 METAR MRLB 181600Z 03009KT CAVOK 34/17 A2987 NOSIG=
201604181700 METAR MRLB 181700Z 09010KT 9999 FEW035 SCT250 34/18 A2986 NOSIG=
201604181800 METAR MRLB 181800Z 07008KT 9999 FEW035 SCT250 35/17 A2983 NOSIG=
201604181900 METAR MRLB 181900Z 08008KT 9999 OVC035 35/18 A2981 NOSIG=
201604182000 METAR MRLB 182000Z 11009KT 9999 BKN035 35/18 A2978 NOSIG=
201604182100 METAR MRLB 182100Z 10008KT 9999 SCT035 SCT250 36/17 A2976 NOSIG=
201604182200 METAR MRLB 182200Z 06016KT 9999 SCT035 SCT250 35/18 A2975 NOSIG=
201604182300 METAR MRLB 182300Z 08012KT 9999 SCT035 BKN250 33/17 A2976 NOSIG=
201604182352 METAR MRLB 190000Z 09011KT 9999 SCT035 BKN250 31/18 A2979 NOSIG=
201604190000 METAR MRLB 190000Z 09011KT 9999 SCT035 BKN250 31/18 A2979 NOSIG=
201604190100 METAR MRLB 190100Z 10009KT 9999 FEW035 BKN250 30/18 A2982 NOSIG=
201604190200 METAR MRLB 190200Z 09011KT CAVOK 30/16 A2983 NOSIG=
201604190300 METAR MRLB 190300Z 09011KT CAVOK 30/16 A2984 NOSIG=
201604190400 METAR MRLB 190400Z 11005KT CAVOK 29/17 A2986 NOSIG=
201604190500 METAR MRLB 190500Z 10010KT CAVOK 28/18 A2983 NOSIG=
201604190600 METAR MRLB 190600Z 10007KT CAVOK 28/17 A2983 NOSIG=
201604190700 METAR MRLB NIL=
201604190800 METAR MRLB NIL=
201604190900 METAR MRLB NIL=
201604191000 METAR MRLB NIL=
201604191100 METAR MRLB NIL=
201604191200 METAR MRLB 191200Z 00000KT CAVOK 24/17 A2983 NOSIG=
201604191300 METAR MRLB 191300Z 24003KT CAVOK 25/18 A2985 NOSIG=
201604191400 METAR MRLB 191400Z 29005KT CAVOK 30/17 A2987 NOSIG=
201604191500 METAR MRLB 191500Z 33002KT CAVOK 32/17 A2988 NOSIG=
201604191600 METAR MRLB 191600Z 09014KT CAVOK 34/16 A2986 NOSIG=
201604191700 METAR MRLB 191700Z 09015KT CAVOK 35/16 A2985 NOSIG=
201604191800 METAR MRLB 191800Z 09014KT 9999 FEW035 OVC250 36/16 A2983 NOSIG=
201604191900 METAR MRLB 191900Z 09012KT 9999 FEW035 OVC250 36/16 A2979 NOSIG=
201604192000 METAR MRLB 192000Z 08012KT 9999 FEW035 BKN250 36/16 A2975 NOSIG=
201604192100 METAR MRLB 192100Z 08012KT 9999 FEW035 BKN250 36/16 A2972 NOSIG=
201604192200 METAR MRLB 192200Z 07014KT 9999 FEW035 BKN250 35/16 A2973 NOSIG=
201604192300 METAR MRLB 192300Z 09012KT 9999 FEW035 BKN240 33/18 A2974 NOSIG=
201604192353 METAR MRLB 200000Z 09016KT 9999 FEW035 BKN200 31/18 A2976 NOSIG=
201604200000 METAR MRLB 200000Z 09016KT 9999 FEW035 BKN200 31/18 A2976 NOSIG=
201604200100 METAR MRLB 200100Z 09015KT 9999 FEW035 BKN200 30/18 A2979 NOSIG=
201604200200 METAR MRLB 200200Z 09014KT 9999 FEW035 BKN200 30/16 A2979 NOSIG=
201604200300 METAR MRLB 200300Z 09010KT CAVOK 30/14 A2981 NOSIG=
201604200400 METAR MRLB 200400Z 12011KT CAVOK 28/16 A2982 NOSIG=
201604200500 METAR MRLB 200500Z 12014KT CAVOK 28/17 A2983 NOSIG=
201604200600 METAR MRLB 200600Z 11011KT CAVOK 28/17 A2982 NOSIG=
201604200700 METAR MRLB NIL=
201604200800 METAR MRLB NIL=
201604200900 METAR MRLB NIL=
201604201000 METAR MRLB NIL=
201604201100 METAR MRLB NIL=
201604201200 METAR MRLB 201200Z 04003KT CAVOK 23/17 A2981 NOSIG=
201604201300 METAR MRLB 201300Z 12003KT CAVOK 26/17 A2983 NOSIG=
201604201400 METAR MRLB 201400Z 20005KT CAVOK 28/18 A2985 NOSIG=
201604201500 METAR MRLB 201500Z 07002KT CAVOK 31/17 A2986 NOSIG=
201604201600 METAR MRLB 201600Z 08007KT CAVOK 33/16 A2984 NOSIG=
201604201700 METAR MRLB 201700Z 10014KT CAVOK 34/15 A2981 NOSIG=
201604201800 METAR MRLB 201800Z 09011KT 9999 FEW040 SCT250 35/15 A2979 NOSIG=
201604201900 METAR MRLB 201900Z 09010KT 9999 FEW040 SCT250 36/15 A2976 NOSIG=
201604202000 METAR MRLB 202000Z 11009KT 9999 FEW040 37/15 A2973 NOSIG=
201604202100 METAR MRLB 202100Z 06012KT 9999 FEW040 36/15 A2972 NOSIG=
201604202200 METAR MRLB 202200Z 06015KT 9999 FEW040 36/14 A2970 NOSIG=
201604202300 METAR MRLB 202300Z 07018KT 9999 FEW040 SCT250 34/15 A2970=
201604202356 METAR MRLB 210000Z 09015KT CAVOK 33/16 A2973 NOSIG=
201604210000 METAR MRLB 210000Z 09015KT CAVOK 33/16 A2973 NOSIG=
201604210100 METAR MRLB 210100Z 08017KT CAVOK 31/16 A2976 NOSIG=
201604210200 METAR MRLB 210200Z 09018KT CAVOK 30/17 A2978 NOSIG=
201604210300 METAR MRLB 210300Z 09016KT CAVOK 29/17 A2981 NOSIG=
201604210400 METAR MRLB 210400Z 10014KT CAVOK 29/15 A2981 NOSIG=
201604210500 METAR MRLB 210500Z 12010KT CAVOK 28/15 A2981 NOSIG=
201604210600 METAR MRLB 210600Z 13007KT CAVOK 27/16 A2981 NOSIG=
201604210700 METAR MRLB NIL=
201604210800 METAR MRLB NIL=
201604210900 METAR MRLB NIL=
201604211000 METAR MRLB NIL=
201604211100 METAR MRLB NIL=
201604211200 METAR MRLB 211200Z 07005KT CAVOK 23/16 A2979 NOSIG=
201604211300 METAR MRLB 211300Z 02002KT CAVOK 27/15 A2981 NOSIG=
201604211400 METAR MRLB 211400Z 30002KT CAVOK 30/15 A2983 NOSIG=
201604211500 METAR MRLB 211500Z 08005KT CAVOK 32/15 A2984 NOSIG=
201604211600 METAR MRLB 211600Z 10012KT CAVOK 34/15 A2983 NOSIG=
201604211700 METAR MRLB 211700Z 03009KT CAVOK 35/15 A2980 NOSIG=
201604211800 METAR MRLB 211800Z 08009KT CAVOK 35/15 A2978 NOSIG=
201604211900 METAR MRLB 211900Z 11009KT CAVOK 35/16 A2974 NOSIG=
201604212000 METAR MRLB 212000Z 09008KT 9999 FEW035 SCT250 36/16 A2972 NOSIG=
201604212100 METAR MRLB 212100Z 28008KT 9999 FEW035 BKN250 34/17 A2970 NOSIG=
201604212200 METAR MRLB 212200Z 30009KT 9999 FEW035 BKN250 34/17 A2970 NOSIG=
201604212300 METAR MRLB 212300Z 27007KT 9999 FEW035 BKN250 33/17 A2971 NOSIG=
201604212351 METAR MRLB 220000Z 27004KT 9999 SCT035 BKN250 32/16 A2974 NOSIG=
201604220000 METAR MRLB 220000Z 27004KT 9999 SCT035 BKN250 32/16 A2974 NOSIG=
201604220100 METAR MRLB 220100Z 31004KT 9999 FEW035 BKN250 31/18 A2977 NOSIG=
201604220200 METAR MRLB 220200Z 25005KT 9999 FEW035 30/19 A2981 NOSIG=
201604220300 METAR MRLB 220300Z 21004KT 9999 FEW040 29/19 A2983 NOSIG=
201604220400 METAR MRLB 220400Z 03004KT 9999 FEW040 29/17 A2984 NOSIG=
201604220500 METAR MRLB 220500Z 12004KT 9999 FEW040 28/18 A2984 NOSIG=
201604220600 METAR MRLB 220600Z 13005KT 9999 FEW040 27/15 A2982 NOSIG=
201604220700 METAR MRLB NIL=
201604220800 METAR MRLB NIL=
201604220900 METAR MRLB NIL=
201604221000 METAR MRLB NIL=
201604221100 METAR MRLB NIL=
201604221200 METAR MRLB 221200Z 23004KT CAVOK 23/17 A2983 NOSIG=
201604221300 METAR MRLB 221300Z 08003KT CAVOK 26/17 A2985 NOSIG=
201604221400 METAR MRLB 221400Z 30003KT CAVOK 29/17 A2986 NOSIG=
201604221500 METAR MRLB 221500Z 04005KT CAVOK 32/17 A2987 NOSIG=
201604221600 METAR MRLB 221600Z 08006KT CAVOK 33/16 A2986 NOSIG=
201604221700 METAR MRLB 221700Z 09011KT CAVOK 35/15 A2983 NOSIG=
201604221800 METAR MRLB 221800Z 08010KT CAVOK 36/15 A2980 NOSIG=
201604221900 METAR MRLB 221900Z 09008KT 9999 FEW040 BKN140 37/15 A2977 NOSIG=
201604222000 METAR MRLB 222000Z 09011KT 9999 FEW040 SCT130 37/15 A2976 NOSIG=
201604222100 METAR MRLB 222100Z 07008KT 9999 SCT035 36/16 A2974 NOSIG=
201604222200 METAR MRLB 222200Z 10011KT 9999 SCT035 SCT130 36/15 A2973 NOSIG=
201604222300 METAR MRLB 222300Z 13006KT 9999 SCT035 SCT130 36/16 A2973 NOSIG=
201604222352 METAR MRLB 230000Z 25005KT 9999 SCT035 BKN130 33/18 A2976 NOSIG=
201604230000 METAR MRLB 230000Z 25005KT 9999 SCT035 BKN130 33/18 A2976 NOSIG=
201604230100 METAR MRLB 230100Z 16005KT CAVOK 32/18 A2978 NOSIG=
201604230200 METAR MRLB 230200Z 11009KT CAVOK 32/18 A2981 NOSIG=
201604230252 METAR MRLB 250300Z 15006KT 9999 FEW035 BKN250 28/22 A2985 NOSIG=
201604230300 METAR MRLB 230300Z 11012KT CAVOK 31/18 A2985 NOSIG=
201604230400 METAR MRLB 230400Z 12011KT CAVOK 29/19 A2987 NOSIG=
201604230500 METAR MRLB 230500Z 11007KT CAVOK 29/18 A2988 NOSIG=
201604230600 METAR MRLB 230600Z 13004KT CAVOK 28/18 A2986 NOSIG=
201604230700 METAR MRLB NIL=
201604230800 METAR MRLB NIL=
201604230900 METAR MRLB NIL=
201604231000 METAR MRLB NIL=
201604231100 METAR MRLB NIL=
201604231200 METAR MRLB 231200Z 20002KT CAVOK 25/18 A2984 NOSIG=
201604231300 METAR MRLB 231300Z 080002KT CAVOK 26/18 A2986 NOSIG=
201604231400 METAR MRLB 231400Z 22002KT CAVOK 28/18 A2989 NOSIG=
201604231500 METAR MRLB 231500Z 20003KT CAVOK 30/18 A2988 NOSIG=
201604231600 METAR MRLB 231600Z 28004KT CAVOK 31/18 A2987 NOSIG=
201604231700 METAR MRLB 231700Z 25004KT CAVOK 32/18 A2985 NOSIG=
201604231800 METAR MRLB 231800Z 16004KT 9999 FEW035 OVC150 33/18 A2983 NOSIG=
201604231900 METAR MRLB 231900Z 25003KT 9999 FEW035 BKN220 34/18 A2979 NOSIG=
201604232000 METAR MRLB 232000Z 10009KT 9999 SCT035 BKN220 35/16 A2976 NOSIG=
201604232100 METAR MRLB 232100Z 11008KT 9999 FEW035 BKN220 35/16 A2975 NOSIG=
201604232200 METAR MRLB 232200Z 09008KT 9999 FEW035 BKN220 34/17 A2976 NOSIG=
201604232300 METAR MRLB 232300Z 09010KT 9999 FEW035 BKN220 33/18 A2977 NOSIG=
201604232355 METAR MRLB 240000Z 09010KT 9999 FEW04 BKN200 32/19 A2979 NOSIG=
201604240000 METAR MRLB 240000Z 09010KT 9999 FEW04 BKN200 32/19 A2979 NOSIG=
201604240100 METAR MRLB 240100Z 14010KT 9999 FEW035 BKN200 31/20 A2984 NOSIG=
201604240200 METAR MRLB 240200Z 14007KT 9999 FEW035 BKN200 30/21 A2985 NOSIG=
201604240300 METAR MRLB 240300Z 11005KT 9999 FEW035 BKN200 29/22 A2987 NOSIG=
201604240400 METAR MRLB 240400Z 09007KT 9999 FEW035 BKN200 28/21 A2988 NOSIG=
201604240500 METAR MRLB 240500Z 08005KT 9999 FEW035 BKN200 28/21 A2987 NOSIG=
201604240600 METAR MRLB 240600Z 19003KT 9999 FEW035 BKN200 28/21 A2986 NOSIG=
201604240700 METAR MRLB NIL=
201604240800 METAR MRLB NIL=
201604240900 METAR MRLB NIL=
201604241000 METAR MRLB NIL=
201604241100 METAR MRLB NIL=
201604241200 METAR MRLB 241200Z 04004KT CAVOK 26/22 A2984 NOSIG=
201604241300 METAR MRLB 241300Z 01003KT CAVOK 28/21 A2988 NOSIG=
201604241400 METAR MRLB 241400Z 22002KT 9999 FEW030 BKN250 29/21 A2989 NOSIG=
201604241500 METAR MRLB 241500Z 35005KT 9999 FEW030 BKN250 30/21 A2989 NOSIG=
201604241600 METAR MRLB 241600Z 06004KT 9999 FEW030 BKN250 32/20 A2988 NOSIG=
201604241700 METAR MRLB 241700Z 02003KT 9999 FEW030 BKN250 32/20 A2986 NOSIG=
201604241800 METAR MRLB 241800Z 08009KT 9999 FEW030 BKN250 34/19 A2983 NOSIG=
201604241900 METAR MRLB 241900Z 14005KT 9999 FEW030 BKN250 34/19 A2979 NOSIG=
201604242000 METAR MRLB 242000Z 21008KT 9999 SCT030 BKN250 36/19 A2976 NOSIG=
201604242100 METAR MRLB 242100Z 11007KT 9999 FEW030 BKN250 34/19 A2974 NOSIG=
201604242200 METAR MRLB 242200Z 33005KT 9999 FEW030 BKN250 32/21 A2974 NOSIG=
201604242300 METAR MRLB 242300Z 09008KT 9999 FEW035 BKN250 34/19 A2975 NOSIG=
201604242356 METAR MRLB 250000Z 13010KT 9999 FEW035 BKN250 32/20 A2977 NOSIG=
201604250000 METAR MRLB 250000Z 13010KT 9999 FEW035 BKN250 32/20 A2977 NOSIG=
201604250100 METAR MRLB 250100Z 16007KT 9999 FEW035 BKN250 30/21 A2980 NOSIG=
201604250200 METAR MRLB 250200Z 15008KT 9999 FEW035 BKN250 29/22 A2983 NOSIG=
201604250300 METAR MRLB 250300Z 15006KT 9999 FEW035 BKN250 28/22 A2985 NOSIG=
201604250400 METAR MRLB 250400Z 14008KT CAVOK 28/22 A2985 NOSIG=
201604250500 METAR MRLB 250500Z 14008KT CAVOK 28/23 A2986 NOSIG=
201604250600 METAR MRLB 250600Z 13005KT CAVOK 27/23 A2986 NOSIG=
201604250700 METAR MRLB NIL=
201604250800 METAR MRLB NIL=
201604250900 METAR MRLB NIL=
201604251000 METAR MRLB NIL=
201604251100 METAR MRLB NIL=
201604251200 METAR MRLB 251200Z 11002KT CAVOK 25/21 A2982 NOSIG=
201604251300 METAR MRLB 251300Z 22004KT CAVOK 27/21 A2983 NOSIG=
201604251400 METAR MRLB 251400Z 20002KT CAVOK 29/21 A2985 NOSIG=
201604251500 METAR MRLB 251500Z 16003KT CAVOK 30/21 A2985 NOSIG=
201604251600 METAR MRLB 251600Z 07004KT 9999 FEW035 BKN250 34/19 A2983 NOSIG=
201604251700 METAR MRLB 251700Z 05010KT 9999 SCT035 BKN250 35/18 A2981 NOSIG=
201604251800 METAR MRLB 251800Z 05004KT 9999 SCT035 BKN250 35/18 A2979 NOSIG=
201604251900 METAR MRLB 251900Z 35005KT 9999 SCT035 BKN250 35/20 A2975 NOSIG=
201604252000 METAR MRLB 252000Z 06007KT 9999 SCT035 BKN250 37/18 A2971 NOSIG=
201604252100 METAR MRLB 252100Z 29010KT 9999 SCT035 BKN200 34/20 A2970 NOSIG=
201604252200 METAR MRLB 252200Z 27011KT 9999 SCT035 BKN200 33/20 A2970 NOSIG=
201604252300 METAR MRLB 252300Z 24009KT 9999 SCT030 BKN200 32/22 A2972 NOSIG=
201604252350 METAR MRLB 260000Z 21004KT 9999 SCT035 BKN200 30/21 A2974 NOSIG=
201604260000 METAR MRLB 260000Z 21004KT 9999 SCT035 BKN200 30/21 A2974 NOSIG=
201604260100 METAR MRLB 260100Z 20002KT 9999 SCT035 SCT200 30/22 A2975 NOSIG=
201604260200 METAR MRLB 260200Z 16003KT 9999 FEW035 SCT200 29/22 A2978 NOSIG=
201604260300 METAR MRLB 260300Z 13003KT 9999 FEW035 SCT200 30/22 A2980 NOSIG=
201604260400 METAR MRLB 260400Z 18005KT 9999 FEW040 28/23 A2981 NOSIG=
201604260500 METAR MRLB 260500Z 16003KT 9999 FEW040 28/22 A2981 NOSIG=
201604260600 METAR MRLB 260600Z 12005KT 9999 FEW040 28/20 A2980 NOSIG=
201604260700 METAR MRLB NIL=
201604260800 METAR MRLB NIL=
201604260900 METAR MRLB NIL=
201604261000 METAR MRLB NIL=
201604261100 METAR MRLB NIL=
201604261200 METAR MRLB 261200Z 20003KT CAVOK 25/20 A2977 NOSIG=
201604261300 METAR MRLB 261300Z 36003KT CAVOK 27/20 A2977 NOSIG=
201604261400 METAR MRLB 261400Z 27003KT CAVOK 30/20 A2981 NOSIG=
201604261500 METAR MRLB 261500Z 20003KT CAVOK 32/19 A2983 NOSIG=
201604261600 METAR MRLB 261600Z 26005KT 9999 SCT035 BKN250 33/19 A2980 NOSIG=
201604261700 METAR MRLB 261700Z 15003KT 9999 SCT035 BKN250 34/18 A2979 NOSIG=
201604261800 METAR MRLB 261800Z 14003KT 9999 SCT035 BKN250 36/17 A2976 NOSIG=
201604261900 METAR MRLB 261900Z 28006KT 9999 SCT035 BKN250 35/20 A2973 NOSIG=
201604261952 METAR MRLB 262000AZ 28013KT 9999 SCT035 BKN250 33/21 A2971 NOSIG=
201604262000 METAR MRLB 262000AZ 28013KT 9999 SCT035 BKN250 33/21 A2971 NOSIG=
201604262100 METAR MRLB 262100Z 29012KT 9999 -RA VCTS FEW020CB SCT030 SCT120 33/21 A2969 NOSIG=
201604262200 METAR MRLB 262200Z 11002KT 9999 2000E RA SCT020 BKN100 28/24 A2973 NOSIG=
201604262300 METAR MRLB 262300Z 17004KT 9999 -RA SCT020 SCT100 26/24 A2974 NOSIG=
201604262352 METAR MRLB 270000Z 36004KT 9999 FEW030 OVC120 27/24 A2976 NOSIG=
201604270000 METAR MRLB 270000Z 36004KT 9999 FEW030 OVC120 27/24 A2976 NOSIG=
201604270100 METAR MRLB 270100Z 00000KT 9999 FEW030 BKN120 26/24 A2979 NOSIG=
201604270200 METAR MRLB 270200Z 34002KT 9999 FEW030 OVC100 27/24 A2980 NOSIG=
201604270300 METAR MRLB 270300Z 07003KT 9999 FEW030 OVC120 27/23 A2982 NOSIG=
201604270400 METAR MRLB 270400Z 12005KT 9999 -RA FEW020 BKN100 27/23 A2983 NOSIG=
201604270500 METAR MRLB 270500Z 11004KT 9999 FEW030 BKN120 26/22 A2984 NOSIG=
201604270600 METAR MRLB 270600Z 10004KT 9999 FEW035 BKN120 26/22 A2983 NOSIG=
201604270700 METAR MRLB NIL=
201604270800 METAR MRLB NIL=
201604270900 METAR MRLB NIL=
201604271000 METAR MRLB NIL=
201604271100 METAR MRLB NIL=
201604271200 METAR MRLB 271200Z 06004KT 9999 -RA OVC020 25/22 A2980 NOSIG=
201604271300 METAR MRLB 271300Z 19003KT 9999 BKN020 25/23 A2981 NOSIG=
201604271400 METAR MRLB 271400Z 04004KT 9999 SCT020 SCT100 26/23 A2983 NOSIG=
201604271500 METAR MRLB 271500Z 14004KT 9999 SCT020 BKN120 28/23 A2983 NOSIG=
201604271600 METAR MRLB 271600Z 16003KT 9999 SCT025 BKN250 30/23 A2982 NOSIG=
201604271700 METAR MRLB 271700Z 20007KT 9999 SCT030 BKN250 30/22 A2981 NOSIG=
201604271800 METAR MRLB 271800Z 20006KT 9999 SCT030 BKN250 32/20 A2978 NOSIG=
201604271900 METAR MRLB 271900Z 31012KT 9999 SCT030 BKN220 30/23 A2976 NOSIG=
201604272000 METAR MRLB 272000Z 32009KT 9999 SCT030 BKN220 29/23 A2975 NOSIG=
201604272100 METAR MRLB 272100Z 28008KT 9999 SCT030 BKN200 29/23 A2974 NOSIG=
201604272200 METAR MRLB 272200Z 21004KT 9999 VCSH FEW015 SCT030 BKN200 28/23 A2974 NOSIG=
201604272300 METAR MRLB 272300Z 16005KT 9999 SCT030 BKN200 26/22 A2975 NOSIG=
201604272351 METAR MRLB 280000Z 12002KT 9999 SCT030 BKN200 26/22 A2977 NOSIG=
201604280000 METAR MRLB 280000Z 12002KT 9999 SCT030 BKN200 26/22 A2977 NOSIG=
201604280100 METAR MRLB 280100Z 16003KT 9999 SCT030 BKN200 26/21 A2979 NOSIG=
201604280200 METAR MRLB 280200Z 10003KT 9999 SCT030 BKN140 26/22 A2982 NOSIG=
201604280300 METAR MRLB 280300Z 14003KT 9999 SCT030 BKN140 26/22 A2983 NOSIG=
201604280400 METAR MRLB 280400Z 22003KT 9999 FEW030 BKN140 26/23 A2985 NOSIG=
201604280500 METAR MRLB 280500Z 18004KT 9999 SCT025 BKN120 26/23 A2985 RERA NOSIG=
201604280600 METAR MRLB 280600Z 13004KT 9999 SCT030 BKN120 25/23 A2984 NOSIG=
201604280700 METAR MRLB NIL=
201604280800 METAR MRLB NIL=
201604280900 METAR MRLB NIL=
201604281000 METAR MRLB NIL=
201604281100 METAR MRLB NIL=
201604281200 METAR MRLB 281200Z 00000KT CAVOK 25/22 A2983 NOSIG=
201604281300 METAR MRLB 281300Z 00000KT CAVOK 27/22 A2985 NOSIG=
201604281400 METAR MRLB 281400Z 11002KT CAVOK 28/22 A2987 NOSIG=
201604281500 METAR MRLB 281500Z 22003KT 9999 FEW020 BKN250 29/22 A2988 NOSIG=
201604281600 METAR MRLB 281600Z 16004KT 9999 SCT020 BKN220 32/21 A2986 NOSIG=
201604281700 METAR MRLB 281700Z 18006KT 9999 SCT020TCU SCT200 33/21 A2985 NOSIG=
201604281800 METAR MRLB 281800Z 15007KT 9999 SCT020TCU SCT200 33/21 A2983 NOSIG=
201604281900 METAR MRLB 281900Z 06013KT 9999 -RA FEW015TCU SCT030 BKN150 28/22 A2981 NOSIG=
201604282000 METAR MRLB 282000Z 28008KT 9999 FEW020TCU SCT030 BKN150 27/23 A2979 NOSIG=
201604282100 METAR MRLB 282100Z 30006KT 9999 FEW030 BKN200 28/23 A2976 NOSIG=
201604282200 METAR MRLB 282200Z 24008KT 9999 FEW030 BKN200 28/23 A2977 NOSIG=
201604282300 METAR MRLB 282300Z 31004KT 9999 FEW030 BKN200 28/23 A2979 NOSIG=
201604282357 METAR MRLB 290000Z 05003KT 9999 BKN030 28/23 A2981 NOSIG=
201604290000 METAR MRLB 290000Z 05003KT 9999 BKN030 28/23 A2981 NOSIG=
201604290100 METAR MRLB 290100Z 05003KT 9999 BKN030 27/23 A2983 NOSIG=
201604290200 METAR MRLB 290200Z 12002KT 9999 SCT030 BKN120 27/23 A2985 NOSIG=
201604290300 METAR MRLB 290300Z 14003KT 9999 FEW030 BKN120 27/24 A2987 NOSIG=
201604290400 METAR MRLB 290400Z 13002KT 9999 -RA SCT025 BKN120 27/24 A2988 NOSIG=
201604290500 METAR MRLB 290500Z 13006KT 9999 SCT025 BKN120 26/23 A2986 NOSIG=
201604290600 METAR MRLB 290600Z 12005KT 9999 SCT025 BKN120 25/23 A2985 NOSIG=
201604290700 METAR MRLB NIL=
201604290800 METAR MRLB NIL=
201604290900 METAR MRLB NIL=
201604291000 METAR MRLB NIL=
201604291100 METAR MRLB NIL=
201604291200 METAR MRLB 291200Z 04003KT 9999 FEW030 BKN120 24/23 A2984 NOSIG=
201604291258 METAR MRLB 231300Z 06004KT 9999 FEW030 SCT120 27/22 A2986 NOSIG=
201604291300 METAR MRLB NIL=
201604291400 METAR MRLB 291400Z COR 09005KT 9999 FEW030 SCT120 29/22 A2987 NOSIG=
201604291500 METAR MRLB 291500Z 17006KT 9999 FEW030 SCT250 31/22 A2987 NOSIG=
201604291600 METAR MRLB 291600Z 17002KT 9999 FEW030 SCT250 31/21 A2986 NOSIG=
201604291700 METAR MRLB 291700Z 12003KT 9999 FEW030 SCT250 33/21 A2983 NOSIG=
201604291800 METAR MRLB 291800Z 27006KT 9999 FEW030 SCT250 33/21 A2981 NOSIG=
201604291900 METAR MRLB 291900Z 29014KT 9999 FEW030 BKN250 32/22 A2978 NOSIG=
201604292000 METAR MRLB 292000Z 29012KT 9999 SCT030 BKN250 31/22 A2976 NOSIG=
201604292100 METAR MRLB 292100Z 29014KT 9999 FEW035 BKN250 31/23 A2975 NOSIG=
201604292200 METAR MRLB 292200Z 28013KT 9999 FEW035 BKN250 30/23 A2972 NOSIG=
201604292300 METAR MRLB 292300Z 28009KT 9999 SCT030 BKN250 29/23 A2974 NOSIG=
201604292352 METAR MRLB 300000Z 12003KT 9999 SCT025 BKN130 28/22 A2978 TEMPO RA=
201604300000 METAR MRLB 300000Z 12003KT 9999 SCT025 BKN130 28/22 A2978 TEMPO RA=
201604300100 METAR MRLB 300100Z 30005KT 9999 FEW020 SCT035 28/23 A2978 NOSIG=
201604300200 METAR MRLB 300200Z 17003KT CAVOK 27/22 A2981 NOSIG=
201604300300 METAR MRLB 300300Z 19002KT CAVOK 26/22 A2983 NOSIG=
201604300400 METAR MRLB 300400Z 11003KT 9999 FEW020CB BKN140 26/23 A2984 NOSIG=
201604300500 METAR MRLB 300500Z 11005KT 9999 FEW030 SCT100 26/23 A2984 RERA NOSIG=
201604300600 METAR MRLB 300600Z 12003KT 9999 FEW018 SCT100 25/23 A2982 NOSIG=
201604300700 METAR MRLB NIL=
201604300800 METAR MRLB NIL=
201604300900 METAR MRLB NIL=
201604301000 METAR MRLB NIL=
201604301100 METAR MRLB NIL=
201604301200 METAR MRLB 301200Z 08003KT 9999 FEW030 BKN140 24/22 A2980 NOSIG=
201604301300 METAR MRLB 301300Z 04003KT 9999 FEW030 BKN200 26/23 A2982 NOSIG=
201604301400 METAR MRLB 301400Z 10003KT 9999 FEW030 BKN200 28/22 A2983 NOSIG=
201604301500 METAR MRLB 301500Z 18004KT 9999 FEW030 BKN200 29/22 A2983 NOSIG=
201604301600 METAR MRLB 301600Z 30004KT 9999 SCT030 BKN200 31/21 A2982 NOSIG=
201604301700 METAR MRLB 301700Z 21003KT 9999 SCT030 BKN200 32/20 A2980 NOSIG=
201604301800 METAR MRLB 301800Z 25006KT 9999 SCT030 BKN200 33/20 A2977 NOSIG=
201604301900 METAR MRLB 301900Z 28012KT 9999 SCT030 BKN250 32/22 A2975=
201604302000 METAR MRLB 302000Z 28014KT 9999 SCT030 BKN250 32/23 A2973 NOSIG=
201604302100 METAR MRLB 302100Z 29013KT 9999 FEW030 SCT120 32/22 A2972 NOSIG=
201604302200 METAR MRLB 302200Z 29011KT 9999 SCT030 BKN120 30/22 A2972 NOSIG=
201604302300 METAR MRLB 302300Z 27008KT 9999 BKN025 SCT120 30/23 A2975 NOSIG=
201604302352 METAR MRLB 010000Z 29006KT 9999 SCT025 BKN120 29/23 A2976 NOSIG=
201605010000 METAR MRLB 010000Z 29006KT 9999 SCT025 BKN120 29/23 A2976 NOSIG=
201605010100 METAR MRLB 010100Z 27005KT 9999 FEW025 BKN120 28/23 A2978 NOSIG=
201605010200 METAR MRLB 010200Z 21003KT 9999 FEW025 BKN120 27/23 A2980 NOSIG=
201605010300 METAR MRLB 010300Z 17004KT 9999 SCT020 BKN120 26/23 A2982 NOSIG=
201605010400 METAR MRLB 010400Z 14005KT 9999 SCT020 BKN120 26/22 A2982 NOSIG=
201605010500 METAR MRLB 010500Z 33006KT 9999 -RA BKN020 26/24 A2984 NOSIG=
201605010600 METAR MRLB 010600Z 00000KT 9999 -RA BKN020 23/22 A2982 NOSIG=
201605010700 METAR MRLB NIL=
201605010800 METAR MRLB NIL=
201605010900 METAR MRLB NIL=
201605011000 METAR MRLB NIL=
201605011100 METAR MRLB NIL=
201605011200 METAR MRLB 011200Z 08003KT 9999 VCFG FEW012 SCT035 BKN140 24/23 A2982 NOSIG=
201605011300 METAR MRLB 011300Z 08002KT 9999 VCFG FEW020 BKN140 26/23 A2982 NOSIG=
201605011400 METAR MRLB 011400Z 02002KT 9999 VCFG FEW030 BKN140 27/23 A2984 NOSIG=
201605011500 METAR MRLB 011500Z 19002KT 9999 FEW035 BKN140 29/23 A2984 NOSIG=
201605011600 METAR MRLB 011600Z 19004KT 9999 FEW035 BKN140 30/23 A2984 NOSIG=
201605011700 METAR MRLB 011700Z 16003KT 9999 FEW030 BKN140 32/23 A2982 NOSIG=
201605011800 METAR MRLB 011800Z 05005KT 9999 FEW035 BKN140 33/20 A2980 NOSIG=
201605011900 METAR MRLB 011900Z 20006KT 9999 FEW030 BKN140 33/21 A2977 NOSIG=
201605011951 METAR MRLB 01200Z 31010KT 9999 SCT025TCU BKN140 30/23 A2975 NOSIG=
201605012000 METAR MRLB 012000Z 30010KT 9999 SCT025TCU BKN140 30/23 A2975 NOSIG=
201605012100 METAR MRLB 012100Z 15007KT 9999 VCTS VCSH FEW020CB SCT035 BKN140 26/23 A2976 NOSIG=
201605012200 METAR MRLB 012200Z 22006KT 9999 FEW020 BKN140 26/22 A29.74 NOSIG=
201605012300 METAR MRLB 012300Z 19004KT 9999 FEW040 BKN200 27/22 A2975 NOSIG=
201605012356 METAR MRLB 020000Z 13004KT 9999 SCT035CB BKN120 26/22 A2977 NOSIG=
201605020000 METAR MRLB 020000Z 13004KT 9999 SCT035CB BKN120 26/22 A2977 NOSIG=
201605020100 METAR MRLB 020100Z 16004KT 9999 SCT030 BKN120 26/21 A2981 NOSIG=
201605020200 METAR MRLB 020200Z 06012KT 5000 RA FEW020TCU SCT030 BKN100 25/23 A2984 NOSIG=
201605020300 METAR MRLB 020300Z 07003KT 9999 SCT030 BKN100 23/22 A2985 RERA NOSIG=
201605020400 METAR MRLB 020400Z 09004KT 9999 SCT030 BKN120 23/21 A2985 NOSIG=
201605020500 METAR MRLB 020500Z 03003KT 9999 FEW030 BKN120 24/22 A2984 NOSIG=
201605020600 METAR MRLB 020600Z 06004KT 9999 FEW030 BKN130 23/22 A2983 NOSIG=
201605020700 METAR MRLB NIL=
201605020800 METAR MRLB NIL=
201605020900 METAR MRLB NIL=
201605021000 METAR MRLB NIL=
201605021100 METAR MRLB NIL=
201605021200 METAR MRLB 021200Z 00000KT 8000 VCFG FEW012 BKN120 24/23 A2983 NOSIG=
201605021300 METAR MRLB 021300Z 00000KT 9999 FEW020 OVC250 25/24 A2985 NOSIG=
201605021400 METAR MRLB 021400Z 15005KT 9999 SCT012 BKN100 27/24 A2988 NOSIG=
201605021500 METAR MRLB 021500Z 17002KT 9999 SCT015 BKN250 28/24 A2990 NOSIG=
201605021600 METAR MRLB 021600Z 20002KT 9999 SCT020 BKN250 30/23 A2989 NOSIG=
201605021700 METAR MRLB 021700Z 20004KT 9999 SCT025 BKN250 31/22 A2987 NOSIG=
201605021800 METAR MRLB 021800Z 20004KT 9999 SCT025 BKN250 32/22 A2984 NOSIG=
201605021900 METAR MRLB 021900Z 29007KT 9999 SCT025 BKN250 32/23 A2979 NOSIG=
201605022000 METAR MRLB 022000Z 30012KT 9999 SCT025 BKN250 31/23 A2976 NOSIG=
201605022100 METAR MRLB 022100Z 28008KT 9999 FEW030 BKN250 31/22 A2976 NOSIG=
201605022200 METAR MRLB 022200Z 29011KT 9999 FEW030 SCT250 30/23 A2974 NOSIG=
201605022300 METAR MRLB 022300Z 30009KT 9999 SCT030 SCT250 29/23 A2977 NOSIG=
201605030000 METAR MRLB 030000Z 25007KT 9999 SCT030 SCT250 29/23 A2978 NOSIG=
201605030100 METAR MRLB 030100Z COR 23002KT 9999 -RA OVC030 28/23 A2982 NOSIG=
201605030200 METAR MRLB 030200Z 09011KT 8000 RA OVC020 23/21 A2987 NOSIG=
201605030300 METAR MRLB 030300Z 04005KT 9999 SCT020 BKN100 23/21 A2989 NOSIG=
201605030400 METAR MRLB 030400Z 13007KT 9999 -RA SCT020 SCT100 24/22 A2990 NOSIG=
201605030500 METAR MRLB 030500Z 10002KT 9999 -RA SCT020 BKN100 24/22 A2988 NOSIG=
201605030600 METAR MRLB 030600Z 19002KT 9999 SCT020 BKN100 24/22 A2989 NOSIG=
201605030700 METAR MRLB NIL=
201605030800 METAR MRLB NIL=
201605030900 METAR MRLB NIL=
201605031000 METAR MRLB NIL=
201605031100 METAR MRLB NIL=
201605031200 METAR MRLB 031200Z 10004KT 9999 FEW035 BKN120 23/21 A2987 NOSIG=
201605031300 METAR MRLB 031300Z 14003KT 9999 FEW035 BKN250 25/22 A2989 NOSIG=
201605031400 METAR MRLB 031400Z 13006KT 9999 FEW030 BKN250 26/22 A2991 NOSIG=
201605031500 METAR MRLB 031500Z 17005KT 9999 FEW030 BKN250 28/22 A2993=
201605031600 METAR MRLB 031600Z 13003KT 9999 FEW030 BKN250 30/21 A2991 NOSIG=
201605031700 METAR MRLB 031700Z 17005KT 9999 FEW030 BKN250 31/21 A2989 NOSIG=
201605031800 METAR MRLB 031800Z 19007KT 9999 FEW030 BKN250 31/20 A2987 NOSIG=
201605031900 METAR MRLB 031900Z 18004KT 9999 FEW030 BKN250 32/19 A2984 NOSIG=
201605032000 METAR MRLB 032000Z 29007KT 9999 FEW020TCU SCT030 BKN200 32/21 A2981 TEMPO RA=
201605032100 METAR MRLB 032100Z 19007KT 9999 VCSH FEW020TCU SCT030 BKN130 30/22 A2980 NOSIG=
201605032200 METAR MRLB 032200Z 22008KT 9999 VCSH SCT025 BKN120 28/22 A2980 NOSIG=
201605032300 METAR MRLB 032300Z 26005KT 9999 SCT030 BKN120 27/22 A2984 NOSIG=
201605032352 METAR MRLB 040000Z 04005KT 9999 SCT030 BKN130 25/23 A2985 NOSIG=
201605040000 METAR MRLB 040000Z 04005KT 9999 SCT030 BKN130 25/23 A2985 NOSIG=
201605040100 METAR MRLB 040100Z 06003KT 9999 FEW025CB SCT100 25/23 A2988 NOSIG=
201605040200 METAR MRLB 040200Z 04005KT 9999 FEW020 25/23 A2989 NOSIG=
201605040300 METAR MRLB 040300Z 08005KT CAVOK 25/23 A2989 NOSIG=
201605040400 METAR MRLB 040400Z 10004KT CAVOK 25/22 A2991 NOSIG=
201605040500 METAR MRLB 040500Z 09004KT CAVOK 25/22 A2991 NOSIG=
201605040600 METAR MRLB 040600Z 12004KT CAVOK 25/22 A2990 NOSIG=
201605040700 METAR MRLB NIL=
201605040800 METAR MRLB NIL=
201605040900 METAR MRLB NIL=
201605041000 METAR MRLB NIL=
201605041100 METAR MRLB NIL=
201605041200 METAR MRLB 041200Z 29003KT 9999 FEW035 BKN200 24/23 A2987 NOSIG=
201605041300 METAR MRLB 041300Z 07003KT CAVOK 26/22 A2989 NOSIG=
201605041400 METAR MRLB 041400Z 19003KT CAVOK 28/22 A2991 NOSIG=
201605041500 METAR MRLB NIL=
201605041600 METAR MRLB NIL=
201605041700 METAR MRLB 041700Z 25004KT 9999 SCT030 BKN250 31/21 A2989 NOSIG=
201605041800 METAR MRLB 041800Z 29009KT 9999 SCT030 BKN200 32/21 A2986 NOSIG=
201605041900 METAR MRLB 041900Z 29009KT 9999 SCT030 BKN250 32/21 A2982 NOSIG=
201605042000 METAR MRLB 042000Z 29011KT 9999 FEW030 SCT120 BKN250 31/21 A2979 NOSIG=
201605042052 METAR MRLB 042100 31013KT 9999 SCT025TCU BKN120 30/22 A2978 NOSIG=
201605042100 METAR MRLB 042100Z 31013KT 9999 SCT025TCU BKN120 30/22 A2978 NOSIG=
201605042200 METAR MRLB 042200Z 28010KT 9999 FEW025 BKN120 29/23 A2978 NOSIG=
201605042300 METAR MRLB 042300Z 29009KT 9999 FEW020 SCT100 28/22 A2980 NOSIG=
201605042352 METAR MRLB 050000Z 18005KT 9999 BKN025 SCT100 27/23 A2981 NOSIG=
201605050000 METAR MRLB 050000Z 18005KT 9999 BKN025 SCT100 27/23 A2981 NOSIG=
201605050100 METAR MRLB 050100Z 17002KT 9999 BKN025 SCT100 26/23 A2984 NOSIG=
201605050200 METAR MRLB 050200Z 13002KT 9999 BKN025 26/23 A2987 NOSIG=
201605050300 METAR MRLB 050300Z 13002KT 9999 BKN030 26/23 A2988 NOSIG=
201605050400 METAR MRLB 050400Z 15002KT 9999 BKN030 27/23 A2989 NOSIG=
201605050500 METAR MRLB 050500Z 00000KT 9999 BKN030 26/23 A2989 NOSIG=
201605050600 METAR MRLB 050600Z 05005KT 9999 FEW025 BKN030 26/24 A2988 NOSIG=
201605050700 METAR MRLB NIL=
201605050800 METAR MRLB NIL=
201605050900 METAR MRLB NIL=
201605051000 METAR MRLB NIL=
201605051100 METAR MRLB NIL=
201605051200 METAR MRLB 051200Z 10004KT 9999 -RA OVC020 25/23 A2987 NOSIG=
201605051300 METAR MRLB 051300Z 13003KT 9999 VCSH SCT020 BKN100 25/24 A2990 NOSIG=
201605051400 METAR MRLB 051400Z 16006KT 9999 VCTS FEW010CB SCT020 SCT100 25/23 A2992 NOSIG=
201605051500 METAR MRLB 051500Z 17007KT 9999 FEW010 SCT025 23/22 A2995 NOSIG=
201605051600 METAR MRLB 051600Z 19006KT 9999 FEW010 BKN100 23/21 A2991 NOSIG=
201605051700 METAR MRLB 051700Z 00000KT 9999 FEW025 OVC120 24/21 A2992 NOSIG=
201605051800 METAR MRLB 051800Z 21003KT CAVOK 25/21 A2989 NOSIG=
201605051900 METAR MRLB 051900Z 17002KT CAVOK 26/21 A2985 NOSIG=
201605052000 METAR MRLB 052000Z 32003KT CAVOK 27/21 A2984 NOSIG=
201605052100 METAR MRLB 052100Z 19007KT CAVOK 26/22 A2981 NOSIG=
201605052200 METAR MRLB 052200Z 14004KT CAVOK 26/21 A2980 NOSIG=
201605052300 METAR MRLB 052300Z 17002KT 9999 FEW025 OVC200 26/21 A2981 NOSIG=
201605052355 METAR MRLB 060000Z 24002KT CAVOK 26/22 A2983 NOSIG=
201605060000 METAR MRLB 060000Z 24002KT CAVOK 26/22 A2983 NOSIG=
201605060100 METAR MRLB 060100Z 12003KT CAVOK 25/22 A2985 NOSIG=
201605060200 METAR MRLB 060200Z 12003KT CAVOK 25/22 A2985 NOSIG=
201605060300 METAR MRLB 060300Z 14003KT CAVOK 24/22 A2986 NOSIG=
201605060400 METAR MRLB 060400Z 18003KT CAVOK 24/22 A2986 NOSIG=
201605060500 METAR MRLB 060500Z 03003KT 9999 FEW030 BKN200 24/22 A2985 NOSIG=
201605060600 METAR MRLB 060600Z 08003KT 9999 FEW030 BKN200 24/22 A2985 NOSIG=
201605060700 METAR MRLB NIL=
201605060800 METAR MRLB NIL=
201605060900 METAR MRLB NIL=
201605061000 METAR MRLB NIL=
201605061100 METAR MRLB NIL=
201605061200 METAR MRLB 061200Z 00000KT 0500 FG VV/// 23/22 A2983 NOSIG=
201605061300 METAR MRLB 061300Z 00000KT 9999 SCT020 OVC200 23/22 A2988 NOSIG=
201605061400 METAR MRLB 061400Z 00000KT 9999 SCT020 OVC140 24/23 A2991 NOSIG=
201605061500 METAR MRLB 061500Z 02002KT 9000 -RA SCT020 OVC100 24/23 A2990 NOSIG=
201605061600 METAR MRLB 061600Z 15002KT 9999 SCT020 OVC100 26/23 A2989 NOSIG=
201605061700 METAR MRLB 061700Z 20002KT 9999 VCTS VCSH SCT020CB BKN140 27/22 A2990 NOSIG=
201605061800 METAR MRLB 061800Z 22005KT 9999 FEW025 OVC140 27/23 A2988 NOSIG=
201605061900 METAR MRLB 061900Z 21006KT 9999 FEW030 OVC200 29/23 A2984 NOSIG=
201605062000 METAR MRLB 062000Z 19007KT 9999 FEW030 BKN200 31/22 A2981 NOSIG=
201605062100 METAR MRLB 062100Z 17006KT 9999 FEW030 BKN200 32/22 A2979 NOSIG=
201605062200 METAR MRLB 062200Z 20005KT 9999 VCTS VCSH FEW020CB BKN120 31/22 A2979 NOSIG=
201605062210 METAR MRLB 062210Z 16015KT 9999 1000SW RA SCT010CB BKN120 24/22 A2979 NOSIG=
201605062230 METAR MRLB 062230Z 17008KT 0800 RA VV/// 24/22 A2982 NOSIG=
201605062300 METAR MRLB 062300Z 28007KT 8000 2000SW -TSRA FEW010CB FEW030 BKN120 24/22 A2981 NOSIG=
201605062357 METAR MRLB 070000Z 28004KT 8000 VCFG FEW030 BKN100 24/23 A2982 RETS NOSIG=
201605070000 METAR MRLB 070000Z 28004KT 8000 VCFG FEW030 BKN100 24/23 A2982 RETS NOSIG=
201605070100 METAR MRLB 070100Z COR 18002KT 9999 -RA FEW030 BKN100 24/22 A2984 NOSIG=
201605070200 METAR MRLB 070200Z 17004KT 9999 FEW030 BKN100 24/22 A2986 NOSIG=
201605070300 METAR MRLB 070300Z 00000KT 9999 FEW030 BKN100 24/23 A2989 NOSIG=
201605070400 METAR MRLB 070400Z 11002KT 9999 FEW030 BKN100 25/23 A2991 NOSIG=
201605070500 METAR MRLB 070500Z 33002KT 9999 FEW030 BKN100 25/23 A2990 NOSIG=
201605070600 METAR MRLB 070600Z 09008KT CAVOK 26/21 A2989 NOSIG=
201605070700 METAR MRLB NIL=
201605070800 METAR MRLB NIL=
201605070900 METAR MRLB NIL=
201605071000 METAR MRLB NIL=
201605071100 METAR MRLB NIL=
201605071200 METAR MRLB 071200Z 15005KT CAVOK 24/19 A2984 NOSIG=
201605071300 METAR MRLB 071300Z 24004KT CAVOK 27/20 A2986 NOSIG=
201605071400 METAR MRLB 071400Z 28005KT CAVOK 28/19 A2988 NOSIG=
201605071500 METAR MRLB 071500Z 28004KT CAVOK 29/19 A2989 NOSIG=
201605071600 METAR MRLB 071600Z 35003KT CAVOK 30/17 A2988 NOSIG=
201605071700 METAR MRLB 071700Z 10012KT 9999 FEW040 BKN110 32/17 A2987 NOSIG=
201605071800 METAR MRLB 071800Z 10009KT 9999 FEW040 BKN120 33/18 A2985 NOSIG=
201605071900 METAR MRLB 071900Z 09009KT CAVOK 33/17 A2984 NOSIG=
201605072000 METAR MRLB 072000Z 11008KT 9999 FEW040 BKN200 33/17 A2982 NOSIG=
201605072100 METAR MRLB 072100Z 11008KT 9999 FEW040 BKN200 33/17 A2982 NOSIG=
201605072200 METAR MRLB 072200Z 09009KT 9999 FEW040 BKN140 32/16 A2979 NOSIG=
201605072300 METAR MRLB 072300Z 09010KT 9999 FEW040 BKN140 32/17 A2981 NOSIG=
201605072350 METAR MRLB 080000Z 09008KT 9999 FEW040 BKN140 31/17 A2983 NOSIG=
201605080000 METAR MRLB 080000Z 09008KT 9999 FEW040 BKN140 31/17 A2983 NOSIG=
201605080100 METAR MRLB 080100Z 09008KT CAVOK 29/16 A2984 NOSIG=
201605080200 METAR MRLB 080200Z 12009KT CAVOK 28/17 A2988 NOSIG=
201605080300 METAR MRLB 080300Z 12011KT CAVOK 27/16 A2990 NOSIG=
201605080400 METAR MRLB 080400Z 11011KT CAVOK 26/16 A2992 NOSIG=
201605080500 METAR MRLB 080500Z 12013KT CAVOK 26/16 A2993 NOSIG=
201605080600 METAR MRLB NIL=
201605080700 METAR MRLB NIL=
201605080800 METAR MRLB NIL=
201605080900 METAR MRLB NIL=
201605081000 METAR MRLB NIL=
201605081100 METAR MRLB NIL=
201605081200 METAR MRLB 081200Z 08004KT CAVOK 22/19 A2985 NOSIG=
201605081300 METAR MRLB 081300Z 03003KT CAVOK 24/19 A2988 NOSIG=
201605081400 METAR MRLB 081400Z 35003KT CAVOK 27/17 A2989 NOSIG=
201605081500 METAR MRLB 081500Z 15003KT CAVOK 29/17 A2989 NOSIG=
201605081600 METAR MRLB 081600Z 10011KT CAVOK 31/16 A2989 NOSIG=
201605081700 METAR MRLB 081700Z 09012KT CAVOK 31/17 A2988 NOSIG=
201605081800 METAR MRLB 081800Z 10011KT CAVOK 32/17 A2987 NOSIG=
201605081900 METAR MRLB 081900Z 09009KT CAVOK 33/18 A2984 NOSIG=
201605082000 METAR MRLB 082000Z 07010KT 9999 FEW030 OVC250 33/17 A2982 NOSIG=
201605082100 METAR MRLB 082100Z 08011KT 9999 FEW035 OVC250 33/17 A2980 NOSIG=
201605082200 METAR MRLB 082200Z 09010KT 9999 FEW035 OVC250 33/17 A2979 NOSIG=
201605082300 METAR MRLB 082300Z 09008KT CAVOK 32/17 A2979 NOSIG=
201605082352 METAR MRLB 090000Z 10010KT CAVOK 30/17 A2980 NOSIG=
201605090000 METAR MRLB 090000Z 10010KT CAVOK 30/17 A2980 NOSIG=
201605090100 METAR MRLB 090100Z 10008KT CAVOK 29/17 A2983 NOSIG=
201605090200 METAR MRLB 090200Z 11007KT CAVOK 28/18 A2986 NOSIG=
201605090300 METAR MRLB 090300Z 12006KT CAVOK 27/17 A2989 NOSIG=
201605090400 METAR MRLB 090400Z 15002KT CAVOK 26/18 A2992 NOSIG=
201605090500 METAR MRLB 090500Z 13006KT CAVOK 26/18 A2992 NOSIG=
201605090600 METAR MRLB 090600Z 00000KT CAVOK 25/18 A2990 NOSIG=
201605090700 METAR MRLB NIL=
201605090800 METAR MRLB NIL=
201605090900 METAR MRLB NIL=
201605091000 METAR MRLB NIL=
201605091100 METAR MRLB NIL=
201605091200 METAR MRLB 091200Z 05002KT CAVOK 22/19 A2989 NOSIG=
201605091300 METAR MRLB 091300Z 12002KT CAVOK 24/19 A2991 NOSIG=
201605091400 METAR MRLB 091400Z 21002KT CAVOK 27/18 A2992 NOSIG=
201605091500 METAR MRLB 091500Z 24002KT CAVOK 29/17 A2991 NOSIG=
201605091600 METAR MRLB 091600Z 03004KT CAVOK 31/18 A2991 NOSIG=
201605091700 METAR MRLB 091700Z COR 11008KT CAVOK 33/17 A2989 NOSIG=
201605091800 METAR MRLB 091800Z 11008KT CAVOK 33/17 A2987 NOSIG=
201605091900 METAR MRLB 091900Z 15005KT 9999 FEW035 BKN250 34/17 A2984 NOSIG=
201605092000 METAR MRLB 092000Z 12006KT 9999 FEW035 SCT250 34/17 A2981 NOSIG=
201605092100 METAR MRLB 092100Z 29010KT 9999 FEW035 SCT250 33/20 A2979 NOSIG=
201605092200 METAR MRLB 092200Z 28010KT 9999 FEW035 SCT250 31/18 A2979 NOSIG=
201605092300 METAR MRLB 092300Z 24009KT 9999 FEW035 SCT250 30/20 A2979 NOSIG=
201605092356 METAR MRLB 100000Z 24006KT 9999 FEW035 SCT250 29/19 A2981 NOSIG=
201605100000 METAR MRLB 100000Z 24006KT 9999 FEW035 SCT250 29/19 A2981 NOSIG=
201605100100 METAR MRLB 100100Z 25004KT 9999 FEW035 SCT250 28/20 A2984 NOSIG=
201605100200 METAR MRLB 100200Z 20003KT 9999 FEW035 BKN250 27/20 A2987 NOSIG=
201605100300 METAR MRLB 100300Z 34003KT 9999 FEW035 BKN250 27/21 A2989 NOSIG=
201605100400 METAR MRLB 100400Z 08003KT 9999 FEW035 SCT250 26/21 A2991 NOSIG=
201605100500 METAR MRLB 100500Z 17003KT 9999 FEW035 SCT250 26/21 A2991 NOSIG=
201605100600 METAR MRLB 100600Z COR 00000KT 9999 FEW035 BKN250 25/21 A2990 NOSIG=
201605100700 METAR MRLB NIL=
201605100800 METAR MRLB NIL=
201605100900 METAR MRLB NIL=
201605101000 METAR MRLB NIL=
201605101100 METAR MRLB NIL=
201605101200 METAR MRLB 101200Z 06003KT CAVOK 23/20 A2988 NOSIG=
201605101300 METAR MRLB 101300Z 35002KT CAVOK 24/20 A2990 NOSIG=
201605101400 METAR MRLB 101400Z 26002KT CAVOK 27/20 A2991 NOSIG=
201605101500 METAR MRLB 101500Z 24003KT CAVOK 29/19 A2991 NOSIG=
201605101600 METAR MRLB 101600Z 06009KT CAVOK 32/17 A2991 NOSIG=
201605101700 METAR MRLB 101700Z 08006KT CAVOK 33/17 A2990 NOSIG=
201605101800 METAR MRLB 101800Z 10006KT CAVOK 34/17 A2988 NOSIG=
201605101900 METAR MRLB 101900Z 12006KT 9999 FEW035 SCT250 35/17 A2984 NOSIG=
201605102000 METAR MRLB 102000Z 09005KT 9999 FEW035 SCT250 34/17 A2983 NOSIG=
201605102100 METAR MRLB 102100Z 11006KT 9999 FEW035 SCT250 35/16 A2980 NOSIG=
201605102200 METAR MRLB 102200Z 31007KT 9999 FEW045 SCT250 32/20 A2980 NOSIG=
201605102300 METAR MRLB 102300Z 31008KT CAVOK 30/20 A2981 NOSIG=
201605102355 METAR MRLB 110000Z 30006KT 9999 SCT030 29/22 A2983 NOSIG=
201605110000 METAR MRLB 110000Z 30006KT 9999 SCT030 29/22 A2983 NOSIG=
201605110100 METAR MRLB 110100Z 25002KT CAVOK 28/22 A2986 NOSIG=
201605110200 METAR MRLB 110200Z 00000KT CAVOK 27/23 A2988 NOSIG=
201605110300 METAR MRLB 110300Z 00000KT CAVOK 27/22 A2991 NOSIG=
201605110400 METAR MRLB 110400Z 13007KT CAVOK 27/18 A2991 NOSIG=
201605110500 METAR MRLB 110500Z 12007KT CAVOK 26/19 A2992 NOSIG=
201605110600 METAR MRLB 110600Z 11007KT CAVOK 26/19 A2992 NOSIG=
201605110700 METAR MRLB NIL=
201605110800 METAR MRLB NIL=
201605110900 METAR MRLB NIL=
201605111000 METAR MRLB NIL=
201605111100 METAR MRLB NIL=
201605111200 METAR MRLB 111200Z 25002KT CAVOK 23/19 A2990 NOSIG=
201605111300 METAR MRLB 111300Z 29004KT CAVOK 25/20 A2990 NOSIG=
201605111400 METAR MRLB 111400Z 22002KT CAVOK 28/19 A2990 NOSIG=
201605111500 METAR MRLB 111500Z 11011KT 9999 FEW030 31/18 A2989 NOSIG=
201605111600 METAR MRLB 111600Z 10010KT 9999 FEW030 32/19 A2988 NOSIG=
201605111700 METAR MRLB 111700Z 10010KT 9999 SCT030 33/19 A2986 NOSIG=
201605111800 METAR MRLB 111800Z 11006KT 9999 SCT030 33/19 A2985 NOSIG=
201605111900 METAR MRLB 111900Z 11008KT 9999 SCT030 34/19 A2983 NOSIG=
201605112000 METAR MRLB 112000Z 12008KT 9999 SCT035 35/19 A2980 NOSIG=
201605112100 METAR MRLB 112100Z 29012KT 9999 SCT035 32/21 A2979 NOSIG=
201605112200 METAR MRLB 112200Z 29010KT 9999 SCT035 32/21 A2978 NOSIG=
201605112300 METAR MRLB 112300Z 32009KT 9999 VCSH SCT030 SCT250 30/22 A2979 NOSIG=
201605112351 METAR MRLB 120000Z 18006KT 9999 SCT025TCU BKN250 26/21 A2984 NOSIG=
201605120000 METAR MRLB 120000Z 18006KT 9999 SCT025TCU BKN250 26/21 A2984 NOSIG=
201605120100 METAR MRLB 120100Z 17002KT 9999 FEW025TCU 26/22 A2986 NOSIG=
201605120200 METAR MRLB 120200Z 17004KT CAVOK 26/22 A2990 NOSIG=
201605120300 METAR MRLB 120300Z 18004KT CAVOK 25/22 A2991 NOSIG=
201605120400 METAR MRLB 120400Z 16003KT CAVOK 25/22 A2992=
201605120500 METAR MRLB 120500Z 13003KT CAVOK 25/22 A2992 NOSIG=
201605120600 METAR MRLB 120600Z 13003KT CAVOK 25/21 A2991 NOSIG=
201605120700 METAR MRLB NIL=
201605120800 METAR MRLB NIL=
201605120900 METAR MRLB NIL=
201605121000 METAR MRLB NIL=
201605121100 METAR MRLB NIL=
201605121200 METAR MRLB 121200Z 08006KT CAVOK 24/20 A2986 NOSIG=
201605121300 METAR MRLB 121300Z 12004KT CAVOK 26/21 A2989 NOSIG=
201605121400 METAR MRLB 121400Z 05004KT 9999 FEW035 SCT250 28/20 A2990 NOSIG=
201605121500 METAR MRLB 121500Z 10009KT 9999 SCT035 31/20 A2990 NOSIG=
201605121600 METAR MRLB 121600Z 05005KT 9999 SCT035 31/20 A2990 NOSIG=
201605121700 METAR MRLB 121700Z 14006KT 9999 BKN030 32/20 A2988 NOSIG=
201605121800 METAR MRLB 121800Z 12008KT 9999 BKN035 32/20 A2986 NOSIG=
201605121900 METAR MRLB 121900Z 11007KT 9999 BKN035 33/19 A2983 NOSIG=
201605122000 METAR MRLB 122000Z 07015KT 9999 BKN030 32/20 A2981 NOSIG=
201605122100 METAR MRLB 122100Z 09008KT 9999 SCT035 33/19 A2980 NOSIG=
201605122200 METAR MRLB 122200Z 06015KT 9999 BKN035 33/19 A2979 NOSIG=
201605122300 METAR MRLB 122300Z 08020KT 9999 FEW035 BKN120 31/19 A2979 NOSIG=
201605122352 METAR MRLB 130000Z 09017KT 9999 SCT035 30/18 A2980 NOSIG=
201605130000 METAR MRLB 130000Z 09017KT 9999 SCT035 30/18 A2980 NOSIG=
201605130100 METAR MRLB 130100Z 12008KT 9999 FEW035 29/18 A2981 NOSIG=
201605130200 METAR MRLB 130200Z 11006KT CAVOK 28/19 A2984 NOSIG=
201605130300 METAR MRLB 130300Z 10011KT CAVOK 28/19 A2985 NOSIG=
201605130400 METAR MRLB 130400Z 08013G24KT CAVOK 28/19 A2986 NOSIG=
201605130500 METAR MRLB 130500Z 09018KT CAVOK 28/19 A2985 NOSIG=
201605130600 METAR MRLB 130600Z 10012KT CAVOK 27/19 A2985 NOSIG=
201605130700 METAR MRLB NIL=
201605130800 METAR MRLB NIL=
201605130900 METAR MRLB NIL=
201605131000 METAR MRLB NIL=
201605131100 METAR MRLB NIL=
201605131200 METAR MRLB 131200Z 08014KT 9999 FEW035 OVC250 27/19 A2983 NOSIG=
201605131300 METAR MRLB 131300Z 10012KT 9999 FEW035 BKN250 29/19 A2985 NOSIG=
201605131400 METAR MRLB 131400Z 08016KT 9999 FEW035 BKN250 30/20 A2986 NOSIG=
201605131500 METAR MRLB 131500Z 09012KT 9999 FEW035 SCT250 31/19 A2986 NOSIG=
201605131600 METAR MRLB 131600Z 10010KT 9999 FEW035 SCT250 32/19 A2984 NOSIG=
201605131700 METAR MRLB 131700Z 08012KT 9999 FEW035 34/19 A2983 NOSIG=
201605131800 METAR MRLB 131800Z 10008KT 9999 FEW035 34/19 A2982 NOSIG=
201605131900 METAR MRLB 131900Z 10010KT 9999 SCT035 34/19 A2980 NOSIG=
201605132000 METAR MRLB 132000Z 05012KT 9999 SCT035 35/18 A2977 NOSIG=
201605132100 METAR MRLB 132100Z 13005KT 9999 FEW035 34/18 A2975 NOSIG=
201605132200 METAR MRLB 132200Z 08012KT 9999 SCT035 34/19 A2975 NOSIG=
201605132300 METAR MRLB 132300Z 08014KT 9999 FEW035 SCT250 33/17 A2976 NOSIG=
201605132352 METAR MRLB 170000Z 09010KT 9999 SCT035 BKN130 30/21 A2979 NOSIG=
201605132354 METAR MRLB 140000Z 09012KT 9999 FEW040 SCT250 31/17 A2977 NOSIG=
201605140000 METAR MRLB 140000Z 09012KT 9999 FEW040 SCT250 31/17 A2977 NOSIG=
201605140100 METAR MRLB 140100Z 09013KT 9999 FEW040 30/18 A2980 NOSIG=
201605140200 METAR MRLB 140200Z 10013KT 9999 FEW035 SCT250 29/18 A2981 NOSIG=
201605140300 METAR MRLB 140300Z 09014KT 9999 FEW035 SCT250 29/18 A2983 NOSIG=
201605140400 METAR MRLB 140400Z 08011KT CAVOK 28/17 A2985 NOSIG=
201605140500 METAR MRLB 140500Z 09013KT CAVOK 28/18 A2984 NOSIG=
201605140600 METAR MRLB 140600Z 05008KT CAVOK 27/19 A2984 NOSIG=
201605140700 METAR MRLB NIL=
201605140800 METAR MRLB NIL=
201605140900 METAR MRLB NIL=
201605141000 METAR MRLB NIL=
201605141100 METAR MRLB NIL=
201605141200 METAR MRLB 141200Z 06002KT CAVOK 24/20 A2982 NOSIG=
201605141300 METAR MRLB 141300Z 23002KT CAVOK 28/20 A2984 NOSIG=
201605141353 METAR MRLB 171400Z 20003KT CAVOK 30/22 A2987 NOSIG=
201605141400 METAR MRLB 141400Z 30004KT CAVOK 29/20 A2985 NOSIG=
201605141500 METAR MRLB 141500Z 29004KT 9999 FEW030 BKN250 30/19 A2986 NOSIG=
201605141600 METAR MRLB 141600Z 35006KT 9999 FEW030 BKN250 32/19 A2983 NOSIG=
201605141700 METAR MRLB 141700Z 10012G22KT 9999 FEW030 SCT250 33/18 A2981 NOSIG=
201605141752 METAR MRLB 171800Z 09014G25KT 9999 FEW030 SCT250 34/19 A2978 NOSIG=
201605141800 METAR MRLB 141800Z 09014G25KT 9999 FEW030 SCT250 34/19 A2978 NOSIG=
201605141900 METAR MRLB 141900Z 10016KT 9999 FEW030 34/20 A2977 NOSIG=
201605142000 METAR MRLB 142000Z 08022G32KT 9999 FEW030 34/18 A2976 NOSIG=
201605142100 METAR MRLB 142100Z 08020G30KT 9999 FEW030 33/20 A2975 NOSIG=
201605142200 METAR MRLB 142200Z 08019G31KT 9999 FEW030 33/17 A2975 NOSIG=
201605142300 METAR MRLB 142300Z 10017G27KT 9999 FEW040 32/18 A2975 NOSIG=
201605142356 METAR MRLB 150000Z 09016KT 9999 FEW040 31/18 A2978 NOSIG=
201605150000 METAR MRLB 150000Z 09016KT 9999 FEW040 31/18 A2978 NOSIG=
201605150100 METAR MRLB 150100Z 09016KT 9999 SCT040 BKN250 31/18 A2979 NOSIG=
201605150200 METAR MRLB 150200Z 12011KT 9999 FEW040 BKN250 29/17 A2983 NOSIG=
201605150300 METAR MRLB 150300Z 12015KT 9999 FEW040 BKN250 29/18 A2984 NOSIG=
201605150400 METAR MRLB 150400Z 11013KT 9999 FEW040 SCT250 29/19 A2987 NOSIG=
201605150500 METAR MRLB 150500Z 10010KT CAVOK 28/20 A2987 NOSIG=
201605150600 METAR MRLB 150600Z 1208KT CAVOK 27/20 A2984 NOSIG=
201605150700 METAR MRLB NIL=
201605150800 METAR MRLB NIL=
201605150900 METAR MRLB NIL=
201605151000 METAR MRLB NIL=
201605151100 METAR MRLB NIL=
201605151200 METAR MRLB 151200Z 24004KT CAVOK 25/21 A2981 NOSIG=
201605151300 METAR MRLB 151300Z 31005KT 9999 FEW030 SCT100 27/21 A2984 NOSIG=
201605151400 METAR MRLB 151400Z COR 27004KT 9999 FEW030 SCT120 30/21 A2986 NOSIG=
201605151500 METAR MRLB 151500Z 33005KT 9999 FEW030 SCT120 31/21 A2985 NOSIG=
201605151600 METAR MRLB 151600Z 11012G23KT 9999 FEW030 SCT120 32/20 A2984 NOSIG=
201605151700 METAR MRLB 151700Z 10013G23KT 9999 FEW030 BKN200 33/21 A2983 NOSIG=
201605151800 METAR MRLB 151800Z 10013KT 9999 FEW030 BKN200 33/21 A2981 NOSIG=
201605151900 METAR MRLB 151900Z 10013KT 9999 SCT030 BKN200 33/21 A2980 NOSIG=
201605152000 METAR MRLB 152000Z 31006KT 9999 SCT030 BKN200 30/22 A2980 NOSIG=
201605152100 METAR MRLB 152100Z 09013KT 9999 SCT030 BKN200 33/20 A2978 NOSIG=
201605152200 METAR MRLB 152200Z 09014KT 9999 FEW030 SCT130 BKN200 33/19 A2976 NOSIG=
201605152300 METAR MRLB 152300Z 15007KT 9999 SCT035 BKN200 32/20 A2977 NOSIG=
201605152352 METAR MRLB 160000Z 10006KT 9999 SCT035 BKN250 30/20 A2980 NOSIG=
201605160000 METAR MRLB 160000Z 10006KT 9999 SCT035 BKN250 30/20 A2980 NOSIG=
201605160100 METAR MRLB 160100Z 11003KT 9999 SCT035 29/19 A2981 NOSIG=
201605160200 METAR MRLB 160200Z 09002KT 9999 SCT035 28/20 A2983 NOSIG=
201605160300 METAR MRLB 160300Z 23003KT 9999 FEW035 27/19 A2983 NOSIG=
201605160400 METAR MRLB 160400Z 20004KT 9999 FEW035 26/20 A2985 NOSIG=
201605160500 METAR MRLB 160500Z 19004KT 9999 SCT035 25/20 A2985 NOSIG=
201605160600 METAR MRLB 160600Z 19003KT 9999 FEW035 25/20 A2984 NOSIG=
201605160700 METAR MRLB NIL=
201605160800 METAR MRLB NIL=
201605160900 METAR MRLB NIL=
201605161000 METAR MRLB NIL=
201605161100 METAR MRLB NIL=
201605161200 METAR MRLB 161200Z 04007KT 9999 SCT030 BKN250 25/21 A2984 NOSIG=
201605161300 METAR MRLB 161300Z 04005KT 9999 SCT030 BKN200 25/21 A2986 NOSIG=
201605161400 METAR MRLB 161400Z 26005KT 9999 SCT030 BKN250 28/21 A2985 NOSIG=
201605161500 METAR MRLB 161500Z 28003KT 9999 FEW035 BKN250 31/21 A2986 NOSIG=
201605161600 METAR MRLB 161600Z 07007KT 9999 SCT035 BKN250 32/20 A2985 NOSIG=
201605161700 METAR MRLB 161700Z 10011KT 9999 SCT035 BKN250 34/21 A2984 NOSIG=
201605161800 METAR MRLB 161800Z 11009KT 9999 SCT035 BKN250 34/20 A2983 NOSIG=
201605161900 METAR MRLB 161900Z 11012KT 9999 FEW035 SCT130 BKN250 34/20 A2981 NOSIG=
201605162000 METAR MRLB 162000Z 08013KT 9999 SCT035 BKN250 34/20 A2977 NOSIG=
201605162100 METAR MRLB 162100Z 07014KT 9999 SCT035 BKN250 33/21 A2977 NOSIG=
201605162200 METAR MRLB 162200Z 07014KT 9999 FEW035 SCT130 BKN250 33/21 A2976 NOSIG=
201605162300 METAR MRLB 162300Z 08014KT 9999 SCT030 BKN130 32/21 A2978 NOSIG=
201605170000 METAR MRLB 170000Z 09010KT 9999 SCT035 BKN130 30/21 A2979 NOSIG=
201605170100 METAR MRLB 170100Z COR 12007KT 9999 FEW035 BKN130 29/21 A2983 NOSIG=
201605170200 METAR MRLB 170200Z 14006KT 9999 FEW035 BKN130 29/21 A2987 NOSIG=
201605170300 METAR MRLB 170300Z 13006KT 9999 FEW035 BKN130 28/21 A2988 NOSIG=
201605170400 METAR MRLB 170400Z 13007KT 9999 FEW035 SCT140 28/21 A2990 NOSIG=
201605170500 METAR MRLB 170500Z 08002KT 9999 FEW035 SCT140 27/21 A2988 NOSIG=
201605170600 METAR MRLB 170600Z 33002KT 9999 FEW035 SCT140 26/21 A2985 NOSIG=
201605170700 METAR MRLB NIL=
201605170800 METAR MRLB NIL=
201605170900 METAR MRLB NIL=
201605171000 METAR MRLB NIL=
201605171100 METAR MRLB NIL=
201605171200 METAR MRLB 171200Z 24002KT CAVOK 24/22 A2984 NOSIG=
201605171300 METAR MRLB 171300Z 24003KT CAVOK 27/22 A2987 NOSIG=
201605171400 METAR MRLB 171400Z 20003KT CAVOK 30/22 A2987 NOSIG=
201605171500 METAR MRLB 171500Z 13008KT 9999 FEW035 OVC250 32/21 A2987 NOSIG=
201605171600 METAR MRLB 171600Z 10011KT 9999 SCT035 BKN250 34/21 A2987 NOSIG=
201605171700 METAR MRLB 171700Z 10010KT 9999 FEW040 OVC250 33/020 A2985 NOSIG=
201605171800 METAR MRLB 171800Z 09014KT 9999 SCT035 BKN250 34/20 A2985 NOSIG=
201605171900 METAR MRLB 171900Z 14006KT 9999 FEW035 BKN250 34/21 A2979 NOSIG=
201605172000 METAR MRLB 172000Z 13010KT 9999 SCT035 SCT250 35/20 A2977 NOSIG=
201605172100 METAR MRLB 172100Z 31012KT 9999 BKN030 32/23 A2975 NOSIG=
201605172200 METAR MRLB 172200Z 30010KT 9999 BKN030 31/24 A2975 NOSIG=
201605172300 METAR MRLB 172300Z 30007KT 9999 FEW020TCU BKN030 31/24 A2975 NOSIG=
201605172357 METAR MRLB 180000Z 29003KT 9999 -TSRA VCSH FEW010 FEW020TCU BKN025 29/23 A2983 NOSIG=
201605180000 METAR MRLB 180000Z 29003KT 9999 -TSRA VCSH FEW010 FEW020TCU BKN025 29/23 A2983 NOSIG=
201605180100 METAR MRLB 180100Z 20007KT 9999 -TS VCSH FEW020TCU BKN025 25/21 A2987 RETSRA NOSIG=
201605180200 METAR MRLB 180200Z 17003KT 9999 -RA SCT020 BKN100 24/23 A2988 RETSRA NOSIG=
201605180300 METAR MRLB 180300Z 13005KT 9999 -RA SCT020 BKN100 24/23 A2993 NOSIG=
201605180400 METAR MRLB 180400Z 06007KT 9999 RA FEW010 SCT020 BKN100 23/22 A2991 NOSIG=
201605180500 METAR MRLB 180500Z 13004KT 9999 SCT025 BKN100 23/22 A2991 RERA NOSIG=
201605180600 METAR MRLB 180600Z 22003KT 9999 SCT025 BKN120 24/22 A2990 NOSIG=
201605180700 METAR MRLB NIL=
201605180800 METAR MRLB NIL=
201605180900 METAR MRLB NIL=
201605181000 METAR MRLB NIL=
201605181100 METAR MRLB NIL=
201605181200 METAR MRLB 181200Z 19003KT CAVOK 23/22 A2981 NOSIG=
201605181300 METAR MRLB 181300Z 00000KT 9999 SCT010 BKN200 24/23 A2984 NOSIG=
201605181400 METAR MRLB 181400Z 00000KT 9999 SCT015 SCT250 26/23 A2986 NOSIG=
201605181500 METAR MRLB 181500Z 26002KT 9999 FEW020 BKN140 29/24 A2986 NOSIG=
201605181600 METAR MRLB 181600Z 08003KT 9999 FEW020 BKN120 31/23 A2986 NOSIG=
201605181700 METAR MRLB 181700Z 11010KT 9999 FEW025 BKN120 31/22 A2985 NOSIG=
201605181800 METAR MRLB 181800Z 13007KT 9999 FEW025 BKN120 31/23 A2984 NOSIG=
201605181900 METAR MRLB 181900Z 12005KT 9999 FEW025 BKN120 32/22 A2982 NOSIG=
201605182000 METAR MRLB 182000Z COR 10006KT 9999 FEW025 BKN120 31/22 A2981 NOSIG=
201605182100 METAR MRLB 182100Z 12005KT 9999 FEW025 BKN120 31/22 A2979 NOSIG=
201605182200 METAR MRLB 182200Z 20004KT 9999 FEW025 BKN120 30/24 A2979 NOSIG=
201605182300 METAR MRLB 182300Z 12006KT 9999 FEW025 BKN120 30/22 A2980 NOSIG=
201605182354 METAR MRLB 190000Z 12007KT 9999 FEW025 BKN120 29/22 A2982 NOSIG=
201605190000 METAR MRLB 190000Z 12007KT 9999 FEW025 BKN120 29/22 A2982 NOSIG=
201605190100 METAR MRLB 190100Z 13005KT 9999 FEW030 BKN120 28/23 A2983 NOSIG=
201605190200 METAR MRLB 190200Z 17006KT 9999 FEW030 BKN130 27/22 A2984 NOSIG=
201605190300 METAR MRLB 190300Z 24003KT 9999 FEW030 BKN130 26/22 A2986 NOSIG=
201605190400 METAR MRLB 190400Z 23004KT 9999 FEW030 BKN130 26/22 A2987 NOSIG=
201605190500 METAR MRLB 190500Z 19004KT CAVOK 26/22 A2986 NOSIG=
201605190600 METAR MRLB 190600Z 05003KT CAVOK 25/22 A2985 NOSIG=
201605190700 METAR MRLB NIL=
201605190800 METAR MRLB NIL=
201605190900 METAR MRLB NIL=
201605191000 METAR MRLB NIL=
201605191100 METAR MRLB NIL=
201605191200 METAR MRLB 191200Z 02004KT 9999 FEW030 BKN200 24//22 A2983 NOSIG=
201605191300 METAR MRLB 191300Z 00000KT 9999 FEW030 BKN200 26/22 A2985 NOSIG=
201605191400 METAR MRLB 191400Z 19002KT 9999 FEW030 SCT120 BKN200 25/23 A2986 NOSIG=
201605191500 METAR MRLB 191500Z 04003KT 9999 FEW025 SCT120 BKN250 29/22 A2985 NOSIG=
201605191600 METAR MRLB 191600Z 03005KT 9999 FEW025 SCT100 BKN250 31/22 A2983 NOSIG=
201605191700 METAR MRLB 191700Z 11009KT 9999 FEW025 SCT100 BKN250 32/21 A2982 NOSIG=
201605191800 METAR MRLB 191800Z 09016KT 9999 FEW025 SCT100 BKN250 33/20 A2980 NOSIG=
201605191900 METAR MRLB 191900Z 10010KT 9999 FEW030 BKN250 32/19 A2979 NOSIG=
201605192000 METAR MRLB 192000Z 12007KT 9999 FEW035 BKN250 33/20 A2977 NOSIG=
201605192100 METAR MRLB 192100Z 13006KT 9999 FEW035 BKN250 33/19 A2975 NOSIG=
201605192200 METAR MRLB 192200Z 08007KT 9999 FEW035 BKN200 32/20 A2975 NOSIG=
201605192300 METAR MRLB 192300Z 32006KT 9999 FEW035 BKN200 29/24 A2978 NOSIG=
201605192350 METAR MRLB 200000Z 31006KT 9999 FEW035 BKN200 29/24 A2979 NOSIG=
201605200000 METAR MRLB 200000Z 31006KT 9999 FEW035 BKN200 29/24 A2979 NOSIG=
201605200100 METAR MRLB 200100Z 31006KT 9999 FEW035 SCT200 28/24 A2980 NOSIG=
201605200200 METAR MRLB 200200Z 30003KT 9999 FEW035 SCT200 28/25 A2985 NOSIG=
201605200300 METAR MRLB 200300Z 04002KT 9999 FEW035 SCT200 28/24 A2986 NOSIG=
201605200400 METAR MRLB 200400Z 12002KT 9999 FEW035 27/25 A2986 NOSIG=
201605200500 METAR MRLB 200500Z 10003KT 9999 FEW035 27/24 A2986 NOSIG=
201605200600 METAR MRLB 200600Z 24003KT 9999 FEW035 26/23 A2984 NOSIG=
201605200700 METAR MRLB NIL=
201605200800 METAR MRLB NIL=
201605200900 METAR MRLB NIL=
201605201000 METAR MRLB NIL=
201605201100 METAR MRLB NIL=
201605201200 METAR MRLB 201200Z 12003KT 9999 FEW030 BKN200 24/23 A2985 NOSIG=
201605201300 METAR MRLB 201300Z 25003KT 9999 FEW030 BKN200 25/23 A2985 NOSIG=
201605201400 METAR MRLB 201400Z 20003KT 9999 FEW035 BKN200 27/23 A2987 NOSIG=
201605201500 METAR MRLB 201500Z 22004KT 9999 FEW035 BKN250 30/23 A2987 NOSIG=
201605201600 METAR MRLB 201600Z 10013KT 9999 SCT035 BKN250 32/21 A2988 NOSIG=
201605201700 METAR MRLB 201700Z 10011KT 9999 SCT030 BKN250 32/21 A2987 NOSIG=
201605201800 METAR MRLB 201800Z 08018KT 9999 SCT030 BKN200 32/21 A2984 NOSIG=
201605201900 METAR MRLB 201900Z 09014KT 9999 SCT030 BKN120 30/21 A2984 NOSIG=
201605202000 METAR MRLB 202000Z 08016KT 9999 FEW035 BKN120 31/21 A2981 NOSIG=
201605202100 METAR MRLB 202100Z 12011KT 9999 FEW035 BKN120 31/21 A2979 NOSIG=
201605202200 METAR MRLB 202200Z 11009KT 9999 FEW035 BKN130 30/21 A2978 NOSIG=
201605202300 METAR MRLB 202300Z 12007KT 9999 FEW035 BKN130 29/21 A2981 NOSIG=
201605202352 METAR MRLB 210000Z 11007KT 9999 FEW035 BKN130 29/21 A2981 NOSIG=
201605210000 METAR MRLB 210000Z 11007KT 9999 FEW035 BKN130 29/21 A2981 NOSIG=
201605210100 METAR MRLB 210100Z 10008KT 9999 FEW035 BKN130 28/21 A2983 NOSIG=
201605210200 METAR MRLB 210200Z 08009KT 9999 FEW035 BKN130 28/21 A2984 NOSIG=
201605210300 METAR MRLB 210300Z 09010KT 9999 FEW035 28/21 A2985 NOSIG=
201605210400 METAR MRLB 210400Z 11006KT CAVOK 27/21 A2984 NOSIG=
201605210500 METAR MRLB 210500Z 10009KT CAVOK 27/21 A2983 NOSIG=
201605210600 METAR MRLB 210600Z 09009KT CAVOK 28/21 A2982 NOSIG=
201605210700 METAR MRLB NIL=
201605210800 METAR MRLB NIL=
201605210900 METAR MRLB NIL=
201605211000 METAR MRLB NIL=
201605211100 METAR MRLB NIL=
201605211200 METAR MRLB 211200Z 12006KT 9999 SCT035 BKN250 26/21 A2986 NOSIG=
201605211300 METAR MRLB 211300Z 04006KT CAVOK 27/22 A2987 NOSIG=
201605211400 METAR MRLB 211400Z 01003KT CAVOK 30/22 A2988 NOSIG=
201605211500 METAR MRLB 211500Z 07004KT 9999 FEW035 32/21 A2987 NOSIG=
201605211600 METAR MRLB 211600Z 02007KT 9999 SCT035 SCT100 32/22 A2987 NOSIG=
201605211700 METAR MRLB 211700Z 11012KT 9999 SCT035 SCT120 33/22 A2984 NOSIG=
201605211800 METAR MRLB 211800Z 08016KT 9999 SCT035 BKN120 32/21 A2984 NOSIG=
201605211900 METAR MRLB 211900Z 08013KT 9999 SCT035 BKN120 32/21 A2983 NOSIG=
201605212000 METAR MRLB 212000Z 08015KT 9999 SCT035 33/21 A2980 NOSIG=
201605212100 METAR MRLB 212100Z 09013KT 9999 BKN030 33/21 A2978 NOSIG=
201605212200 METAR MRLB 212200Z 10010KT 9999 SCT030 SCT120 32/21 A2979 NOSIG=
201605212300 METAR MRLB 212300Z 10014KT 9999 FEW030 SCT120 31/21 A2978 NOSIG=
201605212354 METAR MRLB 220000Z 12013KT 9999 FEW035 30/20 A2979 NOSIG=
201605220000 METAR MRLB 220000Z 12013KT 9999 FEW035 30/20 A2979 NOSIG=
201605220100 METAR MRLB 220100Z 10010KT 9999 FEW035 29/20 A2981 NOSIG=
201605220200 METAR MRLB 220200Z 10010KT 9999 FEW035 29/19 A2982 NOSIG=
201605220300 METAR MRLB 220300Z 10012KT CAVOK 28/19 A2983 NOSIG=
201605220400 METAR MRLB 220400Z 08010KT CAVOK 28/19 A2985 NOSIG=
201605220500 METAR MRLB 220500Z 09011KT CAVOK 28/19 A2984 NOSIG=
201605220600 METAR MRLB 220600Z 08009KT CAVOK 27/19 A2983 NOSIG=
201605220700 METAR MRLB NIL=
201605220800 METAR MRLB NIL=
201605220900 METAR MRLB NIL=
201605221000 METAR MRLB NIL=
201605221100 METAR MRLB NIL=
201605221200 METAR MRLB 221200Z COR 00000KT CAVOK 24/21 A2983 NOSIG=
201605221300 METAR MRLB 221300Z 28004KT CAVOK 26/21 A2984 NOSIG=
201605221400 METAR MRLB 221400Z 28004KT CAVOK 29/21 A2985 NOSIG=
201605221500 METAR MRLB 221500Z 00000KT CAVOK 31/21 A2985 NOSIG=
201605221600 METAR MRLB 221600Z 16002KT CAVOK 33/20 A2983 NOSIG=
201605221700 METAR MRLB 221700Z 10010G20KT 9999 FEW035 SCT250 34/19 A2981 NOSIG=
201605221800 METAR MRLB 221800Z 10012KT 9999 FEW035 SCT250 34/18 A2980 NOSIG=
201605221900 METAR MRLB 221900Z 09007KT 9999 FEW035 SCT250 35/20 A2978 NOSIG=
201605222000 METAR MRLB 222000Z 10009KT 9999 FEW035 SCT250 34/20 A2976 NOSIG=
201605222100 METAR MRLB 222100Z 10005KT 9999 FEW035 SCT250 35/20 A2984 NOSIG=
201605222200 METAR MRLB 222200Z 08009KT 9999 FEW035 SCT250 34/19 A2974 NOSIG=
201605222300 METAR MRLB 222300Z 08008KT 9999 FEW035 SCT250 34/19 A2975 NOSIG=
201605222355 METAR MRLB 230000Z 11007KT 9999 FEW045 SCT250 32/19 A2976 NOSIG=
201605230000 METAR MRLB 230000Z 11007KT 9999 FEW045 SCT250 32/19 A2976 NOSIG=
201605230100 METAR MRLB 230100Z 11006KT CAVOK 30/20 A2979 NOSIG=
201605230200 METAR MRLB 230200Z 08003KT CAVOK 29/20 A2982 NOSIG=
201605230300 METAR MRLB 230300Z 12002KT CAVOK 29/20 A2983 NOSIG=
201605230400 METAR MRLB 230400Z 00000KT CAVOK 27/20 A2984 NOSIG=
201605230500 METAR MRLB 230500Z 14003KT CAVOK 27/21 A2986 NOSIG=
201605230600 METAR MRLB 230600Z 28004KT CAVOK 26/21 A2985 NOSIG=
201605230700 METAR MRLB NIL=
201605230800 METAR MRLB NIL=
201605230900 METAR MRLB NIL=
201605231000 METAR MRLB NIL=
201605231100 METAR MRLB NIL=
201605231200 METAR MRLB 231200Z 04006KT CAVOK 24/21 A2981 NOSIG=
201605231300 METAR MRLB 231300Z 24002KT CAVOK 27/21 A2982 NOSIG=
201605231400 METAR MRLB 231400Z 31004KT CAVOK 29/21 A2983 NOSIG=
201605231500 METAR MRLB 231500Z 13006KT 9999 FEW035 SCT120 BKN250 31/21 A2986 NOSIG=
201605231600 METAR MRLB 231600Z 11010KT 9999 FEW035 SCT120 BKN250 33/20 A2985 NOSIG=
201605231700 METAR MRLB 231700Z 12010KT 9999 SCT035 BKN250 32/21 A2985 NOSIG=
201605231800 METAR MRLB 231800Z 11009KT 9999 FEW035 BKN250 33/21 A2982 NOSIG=
201605231900 METAR MRLB 231900Z 08008KT 9999 SCT030 BKN250 34/20 A2980 NOSIG=
201605232000 METAR MRLB 232000Z 27009KT 9999 SCT030 BKN250 32/22 A2978 NOSIG=
201605232100 METAR MRLB 232100Z 9999 SCT030 BKN250 32/22 A2977 NOSIG=
201605232200 METAR MRLB 232200Z 30009KT 9999 FEW030 BKN250 32/22 A2977 NOSIG=
201605232300 METAR MRLB 232300Z 27007KT 9999 FEW030 SCT250 31/22 A2977 NOSIG=
201605232352 METAR MRLB 240000Z 29005KT 9999 SCT030 SCT250 30/22 A2980 NOSIG=
201605240000 METAR MRLB 240000Z 29005KT 9999 SCT030 SCT250 30/22 A2980 NOSIG=
201605240100 METAR MRLB 240100Z 22003KT 9999 FEW025TCU FEW030 29/24 A2982 RETS NOSIG=
201605240200 METAR MRLB 240200Z 16002KT 9999 SCT030 27/22 A2984 NOSIG=
201605240300 METAR MRLB 240300Z 17003KT 9999 FEW030 27/22 A2986 NOSIG=
201605240400 METAR MRLB 240400Z 18003KT 9999 FEW030 27/23 A2989 NOSIG=
201605240500 METAR MRLB 240500Z VRB01KT 9999 FEW030 26/23 A2990 NOSIG=
201605240600 METAR MRLB 240600Z 30002KT 9999 FEW030 26/23 A2990 NOSIG=
201605240700 METAR MRLB NIL=
201605240800 METAR MRLB NIL=
201605240900 METAR MRLB NIL=
201605241000 METAR MRLB NIL=
201605241100 METAR MRLB NIL=
201605241200 METAR MRLB 241200Z 00000KT 9999 FEW025 BKN250 25/23 A2989 NOSIG=
201605241300 METAR MRLB 241300Z 33002KT CAVOK 27/23 A2990 NOSIG=
201605241400 METAR MRLB 241400Z 23003KT CAVOK 29/23 A2991 NOSIG=
201605241500 METAR MRLB 241500Z 23003KT 99999 SCT025 BKN250 30/22 A2993 NOSIG=
201605241600 METAR MRLB 241600Z 04004KT 9999 FEW030 BKN250 32/22 A2992 NOSIG=
201605241700 METAR MRLB 241700Z 08004KT 9999 FEW030 SCT250 34/20 A2991 NOSIG=
201605241800 METAR MRLB 241800Z 11008KT 9999 FEW030 SCT250 35/19 A2988 NOSIG=
201605241900 METAR MRLB NIL=
201605242000 METAR MRLB NIL=
201605242100 METAR MRLB 242100Z 28009KT 9999 SCT030 BKN250 34/22 A2982=
201605242200 METAR MRLB 242200Z 29006KT 9999 BKN030 SCT250 33/21 A2980=
201605242300 METAR MRLB 242300Z 29004KT 9999 SCT030 BKN250 32/22 A2982 NOSIG=
201605250000 METAR MRLB 250000Z 05003KT 9999 VCSH FEW020TCU SCT030 SCT250 31/22 A2986 NOSIG=
201605250100 METAR MRLB 250100Z 15004KT 9999 SCT030 BKN250 31/23 A2988 NOSIG=
201605250200 METAR MRLB 250200Z 18004KT 9999 FEW030 29/24 A2992 NOSIG=
201605250300 METAR MRLB 250300Z 14005KT CAVOK 29/23 A2993 NOSIG=
201605250400 METAR MRLB 250400Z 16007KT 9999 FEW030 SCT100 28/24 A2995 NOSIG=
201605250500 METAR MRLB 250500Z 14006KT 9999 FEW030 SCT100 27/22 A2993 NOSIG=
201605250600 METAR MRLB 250600Z 10003KT 9999 FEW030 BKN100 26/22 A2992 NOSIG=
201605250700 METAR MRLB NIL=
201605250800 METAR MRLB NIL=
201605250900 METAR MRLB NIL=
201605251000 METAR MRLB NIL=
201605251100 METAR MRLB NIL=
201605251200 METAR MRLB 251200Z 16004KT CAVOK 25/22 2991 NOSIG=
201605251300 METAR MRLB 251300Z 20004KT CAVOK 26/22 A2992 NOSIG=
201605251400 METAR MRLB NIL=
201605251452 METAR MRLB 291500Z 33002KT 9999 FEW020 OVC250 29/22 A2992 NOSIG=
201605251500 METAR MRLB 251500Z 08003KT 9999 FEW030 OVC250 32/22 A2993 NOSIG=
201605251600 METAR MRLB 251600Z 11011KT 9999 FEW030 BKN250 33/21 A2991 NOSIG=
201605251700 METAR MRLB 251700Z 10015KT 9999 SCT030 BKN250 34/20 A2988 NOSIG=
201605251800 METAR MRLB 251800Z 09002KT 9999 SCT030 SCT250 34/20 A2986 NOSIG=
201605251900 METAR MRLB 251900Z 22007KT 9999 BKN030 SCT250 33/22 A2984 NOSIG=
201605252000 METAR MRLB 252000Z 32005KT 9999 SCT030 34/22 A2982 NOSIG=
201605252100 METAR MRLB 252100Z 11006KT 9999 SCT030 SCT250 34/19 A2980 NOSIG=
201605252200 METAR MRLB 252200Z 09013KT 9999 SCT030 SCT250 34/20 A2980 NOSIG=
201605252300 METAR MRLB 252300Z 05007KT 9999 SCT030 BKN250 33/19 A2982 NOSIG=
201605252352 METAR MRLB 260000Z 10010KT 9999 FEW035 BKN250 32/20 A2983 NOSIG=
201605260000 METAR MRLB 260000Z 10010KT 9999 FEW035 BKN250 32/20 A2983 NOSIG=
201605260100 METAR MRLB 260100Z 09010KT 9999 FEW035 BKN250 31/20 A2986 NOSIG=
201605260200 METAR MRLB 260200Z 09010KT CAVOK 31/21 A2988 NOSIG=
201605260300 METAR MRLB 260300Z 14009KT CAVOK 28/20 A2985 NOSIG=
201605260400 METAR MRLB 260400Z 14005KT CAVOK 28/21 A2989 NOSIG=
201605260500 METAR MRLB 260500Z 11006KT CAVOK 28/21 A2988 NOSIG=
201605260600 METAR MRLB 260600Z 15004KT CAVOK 27/21 A2986 NOSIG=
201605260700 METAR MRLB NIL=
201605260800 METAR MRLB NIL=
201605260900 METAR MRLB NIL=
201605261000 METAR MRLB NIL=
201605261100 METAR MRLB NIL=
201605261200 METAR MRLB 261200Z 09003KT 9999 FEW035 OVC200 26/22 A2984 NOSIG=
201605261300 METAR MRLB 261300Z 34005KT 9999 BKN030 27/22 A2987 NOSIG=
201605261400 METAR MRLB 261400Z 25004KT 9999 SCT030 SCT200 29/22 A2988 NOSIG=
201605261500 METAR MRLB 261500Z 23004KT 9999 SCT030 SCT240 31/22 A2989 NOSIG=
201605261600 METAR MRLB 261600Z 07007KT 9999 SCT030 SCT240 32/21 A2987 NOSIG=
201605261700 METAR MRLB 261700Z 08006KT 9999 SCT030 SCT240 32/21 A2985 NOSIG=
201605261800 METAR MRLB 261800Z 03004KT 9999 SCT030 SCT250 33/21 A2984 NOSIG=
201605261900 METAR MRLB 261900Z 10005KT 9999 SCT030 BKN250 35/21 A2980 NOSIG=
201605262000 METAR MRLB 262000Z 08006KT 9999 SCT030 SCT250 35/20 A2977 NOSIG=
201605262100 METAR MRLB 262100Z 11006KT 9999 SCT030 SCT250 34/21 A2976 NOSIG=
201605262200 METAR MRLB 262200Z 36004KT 9999 VCSH FEW020TCU SCT030 BKN250 29/23 A2978 NOSIG=
201605262300 METAR MRLB 262300Z 17005KT 9999 FEW030 BKN250 32/20 A2977 NOSIG=
201605262352 METAR MRLB 270000Z 18009KT 9999 FEW035 SCT120 BKN250 29/22 A2978 NOSIG=
201605270000 METAR MRLB 270000Z 18009KT 9999 FEW035 SCT120 BKN250 29/22 A2978 NOSIG=
201605270100 METAR MRLB 270100Z 16004KT CAVOK 29/21 A2981 NOSIG=
201605270200 METAR MRLB 270200Z 12008KT CAVOK 28/21 A2982 NOSIG=
201605270300 METAR MRLB NIL=
201605270400 METAR MRLB 270400Z 13007KT CAVOK 27/20 A2985 NOSIG=
201605270500 METAR MRLB 270500Z 11005KT CAVOK 26/20 A2984 NOSIG=
201605270600 METAR MRLB 270600Z 13004KT CAVOK 26/21 A2983 NOSIG=
201605270700 METAR MRLB NIL=
201605270800 METAR MRLB NIL=
201605270900 METAR MRLB NIL=
201605271000 METAR MRLB NIL=
201605271100 METAR MRLB NIL=
201605271200 METAR MRLB 271200Z 02002KT CAVOK 24/22 A2983 NOSIG=
201605271300 METAR MRLB 271300Z 01003KT CAVOK 25/21 A2984 NOSIG=
201605271400 METAR MRLB 271400Z 19003KT CAVOK 28/22 A2983 NOSIG=
201605271500 METAR MRLB 271500Z 11008KT 9999 FEW030 BKN200 30/21 A2984 NOSIG=
201605271600 METAR MRLB 271600Z 18006KT 9999 SCT030 BKN200 31/22 A2983 NOSIG=
201605271700 METAR MRLB 271700Z 25003KT 9999 SCT030 BKN250 31/22 A2982 NOSIG=
201605271800 METAR MRLB 271800Z 23003KT 9999 SCT030 BKN250 33/21 A2980 NOSIG=
201605271900 METAR MRLB 271900Z 28012KT 9999 SCT030 BKN250 33/22 A2978 NOSIG=
201605272000 METAR MRLB 272000Z 27014KT 9999 VCSH FEW025TCU FEW030 SCT250 32/22 A2975 NOSIG=
201605272100 METAR MRLB 272100Z 27013KT 9999 FEW015 SCT020TCU SCT030 31/23 A2975 NOSIG=
201605272200 METAR MRLB 272200Z 19007KT 9999 -TS VCSH SCT020CB SCT030 28/22 A2977 NOSIG=
201605272300 METAR MRLB 272300Z COR 16006KT 9999 VCSH FEW015 FEW020CB BKN030 25/22 A2981 RETS NOSIG=
201605272351 METAR MRLB 280000Z 08003KT 9999 SCT030 SCT100 25/22 A2981 NOSIG=
201605280000 METAR MRLB 280000Z 08003KT 9999 SCT030 SCT100 25/22 A2981 NOSIG=
201605280100 METAR MRLB 280100Z 17004KT 9999 FEW030 SCT100 25/22 A2983 NOSIG=
201605280200 METAR MRLB 280200Z 18004KT CAVOK 24/22 A2985 NOSIG=
201605280300 METAR MRLB 280300Z 10006KT CAVOK 25/22 A2985 NOSIG=
201605280400 METAR MRLB 280400Z 13006KT CAVOK 25/22 A2987 NOSIG=
201605280500 METAR MRLB 280500Z 14004KT CAVOK 25/22 A2988 NOSIG=
201605280600 METAR MRLB 280600Z 15004KT CAVOK 25/22 A2987 NOSIG=
201605280700 METAR MRLB NIL=
201605280800 METAR MRLB NIL=
201605280900 METAR MRLB NIL=
201605281000 METAR MRLB NIL=
201605281100 METAR MRLB NIL=
201605281200 METAR MRLB 281200Z 12003KT 9999 FEW020 BKN070 24/22 A2986 NOSIG=
201605281300 METAR MRLB 281300Z 13003KT 9999 FEW020 BKN100 26/22 A2988 NOSIG=
201605281400 METAR MRLB 281400Z 12006KT 9999 FEW018 SCT035 BKN100 28/22 A2990 NOSIG=
201605281500 METAR MRLB 281500Z 18005KT 9999 SCT025 BKN100 28/23 A2992 NOSIG=
201605281600 METAR MRLB 281600Z 16004KT 9999 SCT015 BKN120 29/22 A2992 NOSIG=
201605281700 METAR MRLB 281700Z 19005KT 9999 SCT015 BKN140 31/21 A2990 NOSIG=
201605281800 METAR MRLB 281800Z 20005KT 9999 SCT015 BKN140 31/21 A2989 NOSIG=
201605281900 METAR MRLB 281900Z 29010KT 9999 RA FEW015TCU SCT025 SCT130 30/22 A2987 NOSIG=
201605282000 METAR MRLB 282000Z 33006KT 9999 -RA FEW015TCU BKN130 27/24 A2985 RERA NOSIG=
201605282100 METAR MRLB 282100Z 31007KT 9999 VCSH SCT015TCU BKN130 29/23 A2984 NOSIG=
201605282200 METAR MRLB 282200Z 28006KT 9999 VCTS VCSH FEW010CB FEW015TCU BKN120 28/23 A2985 NOSIG=
201605282300 METAR MRLB 282300Z 17006KT 9999 -RA FEW010 OVC120 25/23 A2985 NOSIG=
201605282353 METAR MRLB 290000Z 12005KT 9999 -RA FEW015 OVC120 24/23 A2988 NOSIG=
201605290000 METAR MRLB 290000Z 12005KT 9999 -RA FEW015 OVC120 24/23 A2988 NOSIG=
201605290100 METAR MRLB 290100Z 10005KT 9999 FEW020 OVC120 24/23 A2990 NOSIG=
201605290200 METAR MRLB 290200Z 18003KT 9999 FEW030 BKN120 24/23 A2993 NOSIG=
201605290300 METAR MRLB 290300Z 18003KT 9999 FEW030 SCT120 24/22 A2994 NOSIG=
201605290400 METAR MRLB 290400Z 17003KT CAVOK 24/23 A2996 NOSIG=
201605290500 METAR MRLB 290500Z 16003KT CAVOK 24/23 A2994 NOSIG=
201605290600 METAR MRLB 290600Z 11004KT CAVOK 24/23 A2993 NOSIG=
201605290700 METAR MRLB NIL=
201605290800 METAR MRLB NIL=
201605290900 METAR MRLB NIL=
201605291000 METAR MRLB NIL=
201605291100 METAR MRLB NIL=
201605291200 METAR MRLB 291200Z 00000KT CAVOK 23/22 A2988 NOSIG=
201605291300 METAR MRLB 291300Z 35002KT 9999 FEW005 SCT130 BKN250 25/23 A2990 NOSIG=
201605291400 METAR MRLB 291400Z 02003KT 9999 FEW008 OVC250 27/23 A2991 NOSIG=
201605291500 METAR MRLB 291500Z 33002KT 9999 FEW020 OVC250 29/22 A2992 NOSIG=
201605291600 METAR MRLB 291600Z 24004KT 9999 FEW025 SCT140 BKN250 30/22 A2992 NOSIG=
201605291700 METAR MRLB 291700Z 27007KT 9999 SCT030 SCT130 31/22 A2991 NOSIG=
201605291800 METAR MRLB 291800Z 29008KT 9999 SCT030 BKN250 30/22 A2990 NOSIG=
201605291900 METAR MRLB 291900Z 30004KT 9999 SCT030 BKN250 32/22 A2987 NOSIG=
201605292000 METAR MRLB 292000Z 29006KT 9999 SCT025 SCT250 32/22 A2984 NOSIG=
201605292100 METAR MRLB 292100Z 29008KT 9999 VCSH FEW020TCU BKN030 32/22 A2982 NOSIG=
201605292200 METAR MRLB 292200Z 34003KT 9999 FEW020TCU FEW030 SCT100 30/22 A2982 NOSIG=
201605292300 METAR MRLB 292300Z 28010KT 9999 FEW025TCU BKN100 29/23 A2984 NOSIG=
201605292353 METAR MRLB 300000Z 27006KT 9999 FEW020TCU BKN030 29/23 A2986 NOSIG=
201605300000 METAR MRLB 300000Z 27006KT 9999 FEW020TCU BKN030 29/23 A2986 NOSIG=
201605300100 METAR MRLB 300100Z 20003KT 5000 RA SCT015CB OVC070 24/23 A2987 NOSIG=
201605300200 METAR MRLB 300200Z 06009KT 3000 TSRA SCT010CB OVC030 23/22 A2995 NOSIG=
201605300300 METAR MRLB 300300Z 19004KT 8000 DZ VCTS SCT020CB OVC100 23/22 A2993 RETSRA NOSIG=
201605300400 METAR MRLB 300400Z 04003KT 9000 -TSRA SCT018CB OVC100 23/22 A2993 NOSIG=
201605300500 METAR MRLB 300500Z 07002KT 9000 RA FEW010 SCT025CB OVC100 23/22 A2993 RETS NOSIG=
201605300600 METAR MRLB NIL=
201605300700 METAR MRLB NIL=
201605300800 METAR MRLB NIL=
201605300900 METAR MRLB NIL=
201605301000 METAR MRLB NIL=
201605301100 METAR MRLB NIL=
201605301200 METAR MRLB 301200Z 01003KT 2000 BR SCT005 SCT080 23/23 A2986 NOSIG=
201605301300 METAR MRLB 301300Z 06003KT 9999 VCFG FEW010 BKN020 24/23 A2991 NOSIG=
201605301400 METAR MRLB 301400Z 09003KT 9999 FEW010 BKN020 25/24 A2992 NOSIG=
201605301500 METAR MRLB 301500Z 01003KT 9999 SCT020 SCT100 26/24 A2992 NOSIG=
201605301600 METAR MRLB 301600Z 07003KT 9999 FEW020 BKN100 28/24 A2990 NOSIG=
201605301700 METAR MRLB 301700Z 29003KT 9999 BKN020 29/23 A2988 NOSIG=
201605301800 METAR MRLB 301800Z 22006KT 9999 SCT025 SCT100 29/24 A2986 NOSIG=
201605301900 METAR MRLB 301900Z 25003KT 9999 SCT025 SCT100 30/23 A2983 NOSIG=
201605302000 METAR MRLB 302000Z 28002KT 9999 SCT025 BKN100 30/23 A2981 NOSIG=
201605302100 METAR MRLB 302100Z 29007KT 9999 FEW025 SCT100 30/23 A2979 NOSIG=
201605302200 METAR MRLB 302200Z 30007KT 9999 FEW025 SCT100 29/24 A2979 NOSIG=
201605302300 METAR MRLB 302300Z 29007KT 9999 FEW025 BKN100 28/23 A2981 NOSIG=
201605302353 METAR MRLB 310000Z 28005KT 9999 FEW025 BKN120 28/23 A2983 NOSIG=
201605310000 METAR MRLB 310000Z 28005KT 9999 FEW025 BKN120 28/23 A2983 NOSIG=
201605310100 METAR MRLB 310100Z 09008KT 9999 VCSH FEW010 SCT020TCU 25/21 A2985 NOSIG=
201605310120 METAR MRLB 310120Z COR 11007KT 5000 2000E RA FEW015 SCT020TCU BKN100 23/22 A2987 NOSIG=
201605310200 METAR MRLB 310200Z 17006KT 9999 -RA SCT020 BKN100 23/22 A2987 RERA NOSIG=
201605310300 METAR MRLB 310300Z 36002KT 9999 FEW025 OVC100 23/22 A2988 NOSIG=
201605310400 METAR MRLB 310400Z 15002KT 9999 FEW025 OVC100 23/22 A2989 NOSIG=
201605310500 METAR MRLB 310500Z 14002KT 9999 FEW025 BKN100 23/22 A2987 NOSIG=
201605310600 METAR MRLB 310600Z 20002KT 9999 FEW025 BKN100 23/22 A2985 NOSIG=
201605310700 METAR MRLB NIL=
201605310800 METAR MRLB NIL=
201605310900 METAR MRLB NIL=
201605311000 METAR MRLB NIL=
201605311100 METAR MRLB NIL=
201605311200 METAR MRLB 311200Z 18002KT 9999 VCFG FEW010 SCT100 BKN250 23/22 A2984 NOSIG=
201605311300 METAR MRLB 311300Z 16002KT 9999 FEW020 BKN100 25/23 A2985 NOSIG=
201605311400 METAR MRLB 311400Z 00000KT 9999 FEW020 BKN100 24/22 A2987 NOSIG=
201605311500 METAR MRLB 311500Z 20003KT 9999 FEW020 BKN250 27/23 A2987 NOSIG=
201605311600 METAR MRLB 311600Z 23004KT 9999 FEW020 SCT120 BKN250 29/23 A2984 NOSIG=
201605311700 METAR MRLB 311700Z 27005KT 9999 FEW025 SCT120 BKN250 29/22 A2982 NOSIG=
201605311800 METAR MRLB 311800Z 27007KT 9999 FEW025 SCT120 BKN250 29/23 A2980 NOSIG=
201605311900 METAR MRLB 311900Z 28006KT 9999 VCTS VCSH SCT025CB BKN140 29/23 A2979 NOSIG=
201605312000 METAR MRLB 312000Z 32006KT 9999 VCSH FEW015 SCT025 BKN120 28/23 A2979 TEMPO RA=
201605312100 METAR MRLB 312100Z 03006KT 9999 SCT025 BKN120 27/23 A2977 NOSIG=
201605312200 METAR MRLB 312200Z 19003KT 9999 SCT030 BKN120 27/23 A2976 NOSIG=
201605312300 METAR MRLB 312300Z 20005KT 9999 VCSH SCT020 BKN120 27/23 A2978 NOSIG=
201605312351 METAR MRLB 010000Z 20004KT 9999 RA SCT015 BKN100 25/23 A2980 NOSIG=
201606010000 METAR MRLB 010000Z 20004KT 9999 RA SCT015 BKN100 25/23 A2980 NOSIG=
201606010100 METAR MRLB 010100Z 15009KT 9999 DZ VCSH SCT020 SCT100 24/22 A2984 RERA NOSIG=
201606010200 METAR MRLB 010200Z 07003KT 9999 -RA SCT020 SCT100 23/22 A2985 NOSIG=
201606010300 METAR MRLB 010300Z 09005KT 9999 -RA SCT020 SCT100 23/22 A2989 NOSIG=
201606010400 METAR MRLB 010400Z 13004KT 8000 RA SCT015 SCT060 23/22 A2988 NOSIG=
201606010500 METAR MRLB 010500Z 19002KT 9999 -RA SCT020 SCT060 23/22 A2987 NOSIG=
201606010600 METAR MRLB 010600Z 00000KT 9999 DZ SCT020 SCT080 23/22 A2985 RERA NOSIG=
201606010700 METAR MRLB NIL=
201606010800 METAR MRLB NIL=
201606010900 METAR MRLB NIL=
201606011000 METAR MRLB NIL=
201606011100 METAR MRLB NIL=
201606011200 METAR MRLB 011200Z 15003KT 9999 SCT020 BKN120 23/22 A2985 NOSIG=
201606011300 METAR MRLB 011300Z 20003KT 9999 FEW025 BKN120 23/22 A2989 NOSIG=
201606011400 METAR MRLB 011400Z 18005KT 9999 FEW025 BKN120 24/23 A2990 NOSIG=
201606011500 METAR MRLB 011500Z 19006KT 9999 FEW020 BKN120 25/23 A2991 NOSIG=
201606011600 METAR MRLB 011600Z 16003KT 9999 SCT025 BKN120 26/23 A2991 NOSIG=
201606011700 METAR MRLB 011700Z 18003KT 9999 SCT030 BKN200 29/22 A2989 NOSIG=
201606011800 METAR MRLB 011800Z 24003KT 9999 VCSH SCT025 BKN140 29/22 A2987 NOSIG=
201606011900 METAR MRLB 011900Z 29008KT 9999 SCT025 BKN140 28/23 A2983 NOSIG=
201606012000 METAR MRLB 012000Z 28007KT 9999 SCT025 BKN130 28/23 A2983 NOSIG=
201606012100 METAR MRLB 012100Z 30005KT 9999 SCT025 BKN130 28/23 A2981 NOSIG=
201606012200 METAR MRLB 012200Z 03006KT 9999 FEW025TCU BKN130 27/22 A2981 NOSIG=
201606012300 METAR MRLB 012300Z 02004KT 9999 VCTS VCSH FEW010CB FEW020 BKN130 26/23 A2981 NOSIG=
201606012352 METAR MRLB 020000Z 00000KT 9999 FEW020 BKN120 26/23 A2983 NOSIG=
201606020000 METAR MRLB 020000Z 00000KT 9999 FEW020 BKN120 26/23 A2983 NOSIG=
201606020100 METAR MRLB 020100Z 15003KT 9999 FEW020 BKN120 25/22 A2985 NOSIG=
201606020200 METAR MRLB 020200Z 07003KT 9999 FEW020 BKN120 25/22 A2987 NOSIG=
201606020300 METAR MRLB 020300Z 07003KT 9999 FEW020 BKN120 25/23 A2989 NOSIG=
201606020400 METAR MRLB 020400Z 22004KT 9999 FEW030 BKN120 24/23 A2990 NOSIG=
201606020500 METAR MRLB 020500Z 17003KT 9999 FEW030 BKN120 24/23 A2989 NOSIG=
201606020600 METAR MRLB 020600Z 00000KT 9999 FEW030 BKN120 24/22 A2988 NOSIG=
201606020700 METAR MRLB NIL=
201606020800 METAR MRLB NIL=
201606020900 METAR MRLB NIL=
201606021000 METAR MRLB NIL=
201606021100 METAR MRLB NIL=
201606021200 METAR MRLB 021200Z 08004KT 9999 VCFG FEW030 OVC100 24/22 A2986 NOSIG=
201606021300 METAR MRLB 021300Z 00000KT 9999 FEW005 OVC100 25/22 A2987 NOSIG=
201606021400 METAR MRLB 021400Z 00000KT 9999 FEW010 OVC100 26/23 A2988 NOSIG=
201606021500 METAR MRLB 021500Z 15002KT 9999 FEW015 SCT120 BKN250 28/23 A2990 NOSIG=
201606021600 METAR MRLB 021600Z 07002KT 9999 SCT020 BKN120 30/22 A2990 NOSIG=
201606021700 METAR MRLB 021700Z 21002KT 9999 BKN030 SCT120 31/22 A2988 NOSIG=
201606021800 METAR MRLB 021800Z 19005KT 9999 BKN030 SCT120 30/22 A2987 NOSIG=
201606021900 METAR MRLB 021900Z 25007KT 9999 SCT025TCU BKN120 31/23 A2984 NOSIG=
201606022000 METAR MRLB 022000Z 31010KT 9999 VCSH SCT020TCU SCT040 29/22 A2984 BECMG RA=
201606022100 METAR MRLB 022100Z 01005KT 9999 SCT020TCU FEW030 SCT100 26/21 A2982 NOSIG=
201606022200 METAR MRLB 022200Z 06008KT 9999 -RA SCT020CB BKN040 24/23 A2983 RESHRA NOSIG=
201606022300 METAR MRLB 022300Z 08006KT 9999 FEW020 SCT040 BKN100 24/23 A2984 NOSIG=
201606022353 METAR MRLB 030000Z 09007KT 9999 FEW020 BKN100 25/23 A2985 NOSIG=
201606030000 METAR MRLB 030000Z 09007KT 9999 FEW020 BKN100 25/23 A2985 NOSIG=
201606030100 METAR MRLB 030100Z 10005KT 9999 FEW025 BKN100 24/23 A2987 NOSIG=
201606030200 METAR MRLB 030200Z 10003KT 9999 FEW030 BKN100 24/22 A2989 NOSIG=
201606030300 METAR MRLB 030300Z 14003KT 9999 -RA SCT025 BKN100 24/22 A2991 NOSIG=
201606030400 METAR MRLB 030400Z 13004KT 9999 SCT020 BKN100 24/22 A2993 NOSIG=
201606030500 METAR MRLB 030500Z 12004KT 9999 FEW025 BKN120 24/22 A2992 NOSIG=
201606030600 METAR MRLB 030600Z 12005KT 9999 FEW030 BKN120 24/22 A2990 NOSIG=
201606030700 METAR MRLB NIL=
201606030800 METAR MRLB NIL=
201606030900 METAR MRLB NIL=
201606031000 METAR MRLB NIL=
201606031100 METAR MRLB NIL=
201606031200 METAR MRLB 031200Z 07003KT CAVOK 23/22 A2985 NOSIG=
201606031300 METAR MRLB 031300Z 06004KT 9999 FEW005 SCT130 BKN200 24/22 A2985 NOSIG=
201606031400 METAR MRLB 031400Z 13003KT 9999 FEW010 BKN200 26/23 A2988 NOSIG=
201606031500 METAR MRLB 031500Z 13003KT 9999 FEW025 BKN240 28/23 A2990 NOSIG=
201606031600 METAR MRLB 031600Z 20002KT 9999 SCT025 SCT240 29/23 A2989 NOSIG=
201606031700 METAR MRLB 031700Z 18009KT 9999 FEW025TCU FEW030 BKN120 28/24 A2988 NOSIG=
201606031800 METAR MRLB 031800Z 18006KT 9999 FEW025TCU FEW030 BKN120 28/22 A2986 NOSIG=
201606031900 METAR MRLB 031900Z 19004KT 9999 FEW030 SCT100 29/22 A2983 NOSIG=
201606032000 METAR MRLB 032000Z 26003KT 9999 SCT030 BKN100 30/23 A2980 NOSIG=
201606032100 METAR MRLB 032100Z 30009KT 9999 VCSH FEW025TCU FEW030 BKN100 30/22 A2979 NOSIG=
201606032200 METAR MRLB 032200Z 28009KT 9999 -RA FEW020TCU SCT030 BKN100 24/22 A2981 NOSIG=
201606032300 METAR MRLB 032300Z 29005KT 9999 5000E VCSH FEW020TCU SCT025 BKN100 23/22 A2983 NOSIG RERA=
201606032355 METAR MRLB 040000Z 04006KT 9999 -RA SCT025 BKN100 24/22 A2985 NOSIG=
201606040000 METAR MRLB 040000Z 04006KT 9999 -RA SCT025 BKN100 24/22 A2985 NOSIG=
201606040100 METAR MRLB 040100Z 35002KT 9999 -RA FEW020 BKN100 23/22 A2988 NOSIG=
201606040200 METAR MRLB 040200Z 07004KT 9999 -RA FEW020 BKN100 24/22 A2990 NOSIG=
201606040300 METAR MRLB 040300Z 10004KT 9999 -RA FEW020 BKN100 24/22 A2991 NOSIG=
201606040400 METAR MRLB 040400Z 14004KT 9999 FEW020 BKN100 24/22 A2990 NOSIG=
201606040500 METAR MRLB 040500Z 00000KT 9999 FEW025 BKN100 23/22 A2987 NOSIG=
201606040600 METAR MRLB 040600Z 26004KT 9999 -RA FEW025 BKN100 23/22 A2987 NOSIG=
201606040700 METAR MRLB NIL=
201606040800 METAR MRLB NIL=
201606040900 METAR MRLB NIL=
201606041000 METAR MRLB NIL=
201606041100 METAR MRLB NIL=
201606041200 METAR MRLB 041200Z 12004KT 9999 VCFG FEW010 SCT080 24/22 A2983 NOSIG=
201606041300 METAR MRLB 041300Z 19003KT 9999 VCFG FEW020 BKN100 24/22 A2986 NOSIG=
201606041400 METAR MRLB 041400Z 14004KT 9999 FEW020 BKN100 26/24 A2988 NOSIG=
201606041500 METAR MRLB 041500Z 15003KT 9999 FEW030 BKN100 26/24 A2987 NOSIG=
201606041600 METAR MRLB 041600Z 15004KT 9999 SCT030 SCT100 28/23 A2987 NOSIG=
201606041700 METAR MRLB 041700Z 16004KT 9999 SCT030 SCT120 30/22 A2986 NOSIG=
201606041800 METAR MRLB 041800Z 20004KT 9999 FEW030 SCT200 30/22 A2983 NOSIG=
201606041900 METAR MRLB 041900Z 14008KT 9999 RA FEW010CB SCT020 BKN120 29/23 A2980 NOSIG=
201606041910 METAR MRLB 041910Z 21007KT 9999 4000SW RA FEW010CB SCT020 BKN120 26/23 2981 NOSIG=
201606042000 METAR MRLB 042000Z 29004KT 9999 VCSH SCT020 BKN100 26/23 A2980 NOSIG RERA=
201606042100 METAR MRLB 042100Z 30003KT 9999 4000S RA FEW010 SCT020 BKN100 25/24 A2989 NOSIG=
201606042200 METAR MRLB 042200Z 25003KT 9999 4000SW -RA FEW008 SCT015 BKN100 24/23 A2978 NOSIG RERA=
201606042300 METAR MRLB 042300Z 35003KT 9999 SCT025 BKN120 25/23 A2979 NOSIG=
201606042351 METAR MRLB 050000Z 04005KT 9999 FEW025 BKN120 25/24 A2980 NOSIG=
201606050000 METAR MRLB 050000Z 04005KT 9999 FEW025 BKN120 25/24 A2980 NOSIG=
201606050100 METAR MRLB 050100Z 00000KT 9999 FEW040 SCT120 25/23 A2981 NOSIG=
201606050200 METAR MRLB 050200Z 00000KT 9999 FEW040 SCT120 24/23 A2984 NOSIG=
201606050300 METAR MRLB 050300Z 00000KT 9999 FEW040 SCT120 24/23 A2987 NOSIG=
201606050333 METAR MRLB 050333Z COR 00000KT 1000 0500W FG VV/// 24/23 A2987 NOSIG=
201606050400 METAR MRLB 050400Z 18002KT 2000 0500W BR BKN001 24/23 A2987 NOSIG=
201606050500 METAR MRLB 050500Z 00000KT 0500 FG BKN001 24/23 A2988 NOSIG=
201606050600 METAR MRLB 050600Z 07002KT 0100 FG VV/// 24/23 A2986 NOSIG=
201606050700 METAR MRLB NIL=
201606050800 METAR MRLB NIL=
201606050900 METAR MRLB NIL=
201606051000 METAR MRLB NIL=
201606051100 METAR MRLB NIL=
201606051200 METAR MRLB 051200Z COR 12003KT 2000 BR SCT0500 BKN080 24/23 A2985 NOSIG=
201606051300 METAR MRLB 051300Z 24003KT 3000 BR SCT010 BKN100 24/23 A2988 NOSIG=
201606051400 METAR MRLB 051400Z 26004KT 9999 4000SW -RA FEW008 SCT015 BKN100 24/23 A2992 NOSIG=
201606051420 METAR MRLB 051420Z 27006KT 3000 RA BR FEW005 SCT015 BKN100 24/23 A2992 NOSIG=
201606051440 METAR MRLB 051440Z 28006KT 2000 600W RA BR FEW005 SCT010 BKN080 23/23 A2993 NOSIG=
201606051500 METAR MRLB 051500Z 25006KT 0500 RA FG VV/// 23/22 A2993 NOSIG=
201606051600 METAR MRLB 051600Z 23006KT 0600 RA FG VV/// 23/22 A2995 NOSIG=
201606051610 METAR MRLB 051610Z 29006KT 2000 RA BR SCT015 BKN080 23/22 A2995 NOSIG=
201606051700 METAR MRLB 051700Z 33004KT 4000 RA BR FEW010 SCT020 BKN080 23/22 A2995 NOSIG=
201606051800 METAR MRLB 051800Z 03003KT 5000 -RA BR FEW010 SCT020 BKN035 23/22 2992 NOSIG=
201606051900 METAR MRLB 051900Z 07007KT 9999 -RA SCT010 BKN080 23/22 A2988 NOSIG=
201606052000 METAR MRLB 052000Z 00000KT 9999 FEW015 OVC120 25/22 A2985 NOSIG=
201606052100 METAR MRLB 052100Z 31003KT 9999 FEW015 OVC120 25/22 A2981 NOSIG=
201606052200 METAR MRLB 052200Z 17003KT 9999 FEW015 OVC120 25/22 A2981 NOSIG=
201606052300 METAR MRLB 052300Z 16004KT 9999 FEW020 OVC120 25/22 A2984 NOSIG=
201606052352 METAR MRLB 060000Z 00000KT CAVOK 25/22 A2984 NOSIG=
201606060000 METAR MRLB 060000Z 00000KT CAVOK 25/22 A2984 NOSIG=
201606060100 METAR MRLB 060100Z COR 00000KT CAVOK 24/22 A2980 NOSIG=
201606060200 METAR MRLB 060200Z 00000KT CAVOK 24/22 A2988 NOSIG=
201606060300 METAR MRLB 060300Z 12002KT CAVOK 24/22 A2991 NOSIG=
201606060400 METAR MRLB 060400Z 00000KT CAVOK 23/22 A2993 NOSIG=
201606060500 METAR MRLB 060500Z 03002KT CAVOK 23/22 A2992 NOSIG=
201606060600 METAR MRLB 060600Z 04002KT CAVOK 23/22 A2991 NOSIG=
201606060700 METAR MRLB NIL=
201606060800 METAR MRLB NIL=
201606060900 METAR MRLB NIL=
201606061000 METAR MRLB NIL=
201606061100 METAR MRLB NIL=
201606061200 METAR MRLB 061200Z 06004KT CAVOK 21/20 A2987 NOSIG=
201606061300 METAR MRLB 061300Z 01002KT CAVOK 22/21 A2990 NOSIG=
201606061400 METAR MRLB 061400Z 36002KT CAVOK 24/21 A2991 NOSIG=
201606061500 METAR MRLB 061500Z 03002KT CAVOK 27/22 A2994 NOSIG=
201606061600 METAR MRLB 061600Z 31003KT 9999 FEW025 BKN130 28/22 A2994 NOSIG=
201606061700 METAR MRLB 061700Z 31006KT 9999 FEW030 SCT250 30/22 A2992 NOSIG=
201606061800 METAR MRLB 061800Z 29006KT 9999 FEW030 BKN250 30/22 A2990 NOSIG=
201606061900 METAR MRLB 061900Z 29008KT 9999 SCT030 BKN250 30/23 A2988 NOSIG=
201606062000 METAR MRLB 062000Z 27011KT 9999 FEW025TCU SCT250 30/23 A2987 NOSIG=
201606062100 METAR MRLB 062100Z 29012KT 9999 VCSH FEW020TCU FEW030 SCT100 29/23 A2986 NOSIG=
201606062200 METAR MRLB 062200Z 32006KT 9999 FEW020TCU BKN030 27/24 A2986 NOSIG=
201606062300 METAR MRLB 062300Z 28007KT 9999 SCT025 SCT100 28/24 A2985 NOSIG=
201606062352 METAR MRLB 070000Z 28006KT 9999 FEW025 SCT100 27/24 A2987 NOSIG=
201606070000 METAR MRLB 070000Z 28006KT 9999 FEW025 SCT100 27/24 A2987 NOSIG=
201606070100 METAR MRLB 070100Z 27004KT 9999 SCT018 26/24 A2990 NOSIG=
201606070200 METAR MRLB 070200Z 29008KT 5000 RA FEW010 SCT025 25/23 A2993 NOSIG=
201606070300 METAR MRLB 070300Z 24003KT 9999 DZ SCT018 OVC100 24/23 A2995 RERA NOSIG=
201606070400 METAR MRLB 070400Z 16003KT 9999 -DZ FEW020 SCT100 25/24 A2997 REDZ NOSIG=
201606070500 METAR MRLB 070500Z 14004KT 9999 FEW020 SCT120 24/23 A2996 NOSIG=
201606070600 METAR MRLB 070600Z 13003KT 9999 FEW025 SCT140 24/23 A2994 NOSIG=
201606070700 METAR MRLB NIL=
201606070800 METAR MRLB NIL=
201606070900 METAR MRLB NIL=
201606071000 METAR MRLB NIL=
201606071100 METAR MRLB NIL=
201606071200 METAR MRLB 071200Z 00000KT 9999 4000W BCFG FEW001 SCT250 23/22 A2988 NOSIG=
201606071300 METAR MRLB 071300Z 00000KT 9999 FEW005 SCT250 25/23 A2990 NOSIG=
201606071400 METAR MRLB 071400Z 24002KT 9999 FEW010 SCT120 25/23 A2991 NOSIG=
201606071500 METAR MRLB 071500Z 00000KT 9999 FEW020 BKN130 27/23 A2993 NOSIG=
201606071600 METAR MRLB 071600Z 23002KT 9999 FEW020 BKN130 28/23 A2992 NOSIG=
201606071700 METAR MRLB 071700Z 28003KT 9999 SCT025 SCT130 30/24 A2990 NOSIG=
201606071800 METAR MRLB 071800Z 29005KT 9999 SCT025 SCT250 30/23 A2988 NOSIG=
201606071900 METAR MRLB 071900Z 28008KT 9999 FEW020TCU FEW030 SCT250 31/24 A2986 NOSIG=
201606072000 METAR MRLB 072000Z 28010KT 9999 VCSH FEW020TCU SCT030 BKN250 30/24 A2985 NOSIG=
201606072100 METAR MRLB 072100Z 29011KT 9999 TS VCSH FEW020TCU SCT030 BKN250 29/24 A2983 NOSIG=
201606072200 METAR MRLB 072200Z COR 11008KT 0300 +TSRA VV/// 24/22 A2986 NOSIG=
201606072300 METAR MRLB 072300Z 31008KT 9999 3000W -RA FEW010 BKN030 24/23 A2987 NOSIG=
201606080000 METAR MRLB NIL=
201606080100 METAR MRLB 080100Z 06004KT 9999 FEW025 BKN120 24/23 A2989 NOSIG=
201606080153 METAR MRLB 0800200Z 36003KT 9999 FEW025 BKN120 24/22 A2992 NOSIG=
201606080200 METAR MRLB 080200Z COR 36003KT 9999 FEW025 BKN120 24/22 A2992 NOSIG=
201606080300 METAR MRLB 080300Z 34003KT 9999 FEW025 BKN120 24/23 A2993 NOSIG=
201606080400 METAR MRLB 080400Z 04004KT 9999 FEW030 BKN250 24/23 A2994 NOSIG=
201606080500 METAR MRLB 080500Z 24003KT 9999 FEW030 SCT120 23/22 A2993 NOSIG=
201606080600 METAR MRLB 080600Z 00000KT 9999 FEW030 SCT120 23/22 A2991 NOSIG=
201606080700 METAR MRLB NIL=
201606080800 METAR MRLB NIL=
201606080900 METAR MRLB NIL=
201606081000 METAR MRLB NIL=
201606081100 METAR MRLB NIL=
201606081200 METAR MRLB 081200Z 00000KT 9999 4000E BCFG FEW001 SCT035 BKN250 24/23 A2991 NOSIG=
201606081300 METAR MRLB 081300Z 00000KT 9999 FEW005 SCT100 SCT250 25/23 A2992 NOSIG=
201606081400 METAR MRLB 081400Z 02003KT 9999 FEW010 SCT100 SCT250 26/24 A2994 NOSIG=
201606081500 METAR MRLB 081500Z COR 00000KT 9999 FEW015 BKN250 29/23 A2992 NOSIG=
201606081600 METAR MRLB 081600Z 18002KT 9999 FEW020 BKN250 30/23 A2994 NOSIG=
201606081700 METAR MRLB 081700Z 23004KT 9999 FEW025 BKN250 30/22 A2992 NOSIG=
201606081800 METAR MRLB 081800Z 27004KT 9999 FEW020 BKN250 31/22 A2990 NOSIG=
201606081900 METAR MRLB 081900Z 30007KT 9999 VCSH FEW015CB SCT020 BKN250 31/23 A2987 NOSIG=
201606081940 METAR MRLB 081940Z 34006KT 9999 -TSRA FEW010CB SCT020 BKN140 28/24 A2987 NOSIG=
201606082000 METAR MRLB 082000Z 34003KT 9999 -RA FEW015TCU SCT025 BKN200 27/24 A2986 NOSIG=
201606082100 METAR MRLB 082100Z 32007KT 9999 SCT025 BKN200 27/23 A2984 NOSIG=
201606082200 METAR MRLB 082200Z 28010KT 9999 VCSH SCT025 BKN130 28/23 A2983 NOSIG=
201606082300 METAR MRLB 082300Z 14008KT 1000 TSRA SCT010CB BKN020 25/22 A2985 NOSIG=
201606082349 METAR MRLB 090000Z 35007KT 9999 -RA FEW010 SCT020 BKN100 23/22 A2989 NOSIG RETSRA=
201606090000 METAR MRLB 090000Z 35007KT 9999 -RA FEW010 SCT020 BKN100 23/22 A2989 NOSIG RETSRA=
201606090100 METAR MRLB 090100Z 07004KT 9999 -RA VCTS FEW010 FEW015CB SCT020 SCT100 23/22 A2992 NOSIG=
201606090200 METAR MRLB 090200Z 09006KT 9999 FEW010 SCT020 SCT080 23/22 A2995 NOSIG=
201606090300 METAR MRLB 090300Z COR 11002KT 8000 -RA FEW010 SCT020 BKN080 23/23 A2996 NOSIG=
201606090400 METAR MRLB 090400Z 21003KT 9999 SCT020 BKN100 24/23 A2995 NOSIG=
201606090500 METAR MRLB 090500Z 35003KT 9999 FEW030 SCT100 23/23 A2993 NOSIG=
201606090600 METAR MRLB 090600Z 00000KT 9999 FEW030 SCT100 23/22 A2992 NOSIG=
201606090700 METAR MRLB NIL=
201606090800 METAR MRLB NIL=
201606090900 METAR MRLB NIL=
201606091000 METAR MRLB NIL=
201606091100 METAR MRLB NIL=
201606091200 METAR MRLB 091200Z 16003KT 0200 FG VV/// 23/22 A2993 NOSIG=
201606091300 METAR MRLB 091300Z 16003KT 0700 FG VV/// 23/22 A2995 NOSIG=
201606091400 METAR MRLB 091400Z 27003KT 9999 SCT020 SCT250 24/23 A2996 NOSIG=
201606091500 METAR MRLB 091500Z 31003KT 9999 SCT020 SCT250 27/24 A2997 NOSIG=
201606091600 METAR MRLB 091600Z 19003KT 9999 SCT025 SCT250 28/23 A2998 NOSIG=
201606091700 METAR MRLB 091700Z 30003KT 9999 SCT030 SCT250 30/22 A2995 NOSIG=
201606091800 METAR MRLB 091800Z 08004KT 9999 SCT030 SCT250 31/22 A2992 NOSIG=
201606091900 METAR MRLB 091900Z 09003KT 9999 FEW025 BKN120 28/22 A2988 NOSIG=
201606092000 METAR MRLB 092000Z 00000KT 9999 FEW030 BKN130 29/25 A2986 NOSIG=
201606092100 METAR MRLB 092100Z 15002KT 9999 FEW025TCU BKN130 30/25 A2984 NOSIG=
201606092200 METAR MRLB 092200Z 29005KT 9999 2000E RA VCTS FEW015CB SCT020 SCT120 30/24 A2984 NOSIG=
201606092300 METAR MRLB 092300Z 16007KT 4000 1000SE TSRA FEW010CB SCT020 SCT100 22/20 A2990 NOSIG=
201606092354 METAR MRLB 100000Z 24004KT 9999 -RA FEW030 OVC100 21/20 A2990 NOSIG=
201606100000 METAR MRLB 100000Z 24004KT 9999 -RA FEW030 OVC100 21/20 A2990 NOSIG=
201606100100 METAR MRLB 100100Z 27004KT 9999 -RA FEW030 OVC100 21/20 A2990 NOSIG=
201606100200 METAR MRLB 100200Z 06005KT 9999 -RA FEW030 OVC100 21/20 A2989 NOSIG=
201606100300 METAR MRLB 100300Z 00000KT 9999 FEW030 OVC100 22/21 A2991 NOSIG=
201606100400 METAR MRLB 100400Z 27003KT 9999 FEW030 OVC100 22/21 A2993 NOSIG=
201606100500 METAR MRLB 100500Z 05003KT 9999 FEW030 SCT100 22/21 A2993 NOSIG=
201606100600 METAR MRLB 100600Z 35002KT CAVOK 22/21 A2992 NOSIG=
201606100700 METAR MRLB NIL=
201606100800 METAR MRLB NIL=
201606100900 METAR MRLB NIL=
201606101000 METAR MRLB NIL=
201606101100 METAR MRLB NIL=
201606101200 METAR MRLB 101200Z 00000KT 0500 FG FEW001 BKN130 22/21 A2992 NOSIG=
201606101300 METAR MRLB 101300Z 03002KT 9999 3000W BCFG FEW005 BKN250 23/22 A2993 NOSIG=
201606101400 METAR MRLB 101400Z 36002KT 9999 FEW010 BKN250 25/23 A2994 NOSIG=
201606101500 METAR MRLB 101500Z 00000KT 9999 FEW020 BKN250 28/24 A2994 NOSIG=
201606101600 METAR MRLB 101600Z 29003KT 9999 FEW025 BKN250 29/23 A2992 NOSIG=
201606101700 METAR MRLB 101700Z 05002KT 9999 FEW025 OVC250 30/23 A2991 NOSIG=
201606101800 METAR MRLB 101800Z 19003KT 9999 FEW025 OVC240 31/23 A2989 NOSIG=
201606101905 METAR MRLB 101905Z 10007KT 9999 FEW025 OVC250 31/23 A2987 NOSIG=
201606101959 METAR MRLB 10200Z 10007KT 9999 FEW025 OVC250 30/23 A2987 NOSIG=
201606102000 METAR MRLB 102000Z 13006KT 9999 FEW025 OVC220 31/23 A2985 NOSIG=
201606102100 METAR MRLB 102100Z 13007KT 9999 FEW025 BKN220 31/22 A2985 NOSIG=
201606102200 METAR MRLB 102200Z 28005KT 9999 VCSH SCT025 BKN220 29/24 A2987 BECMG RA=
201606102300 METAR MRLB 102300Z 18009KT 9999 VCTS FEW020CB BKN030 27/22 A2989 NOSIG=
201606102354 METAR MRLB 110000Z 15005KT 9999 VCTS SCT010 SCT030 23/21 A2992 NOSIG=
201606110000 METAR MRLB 110000Z 15005KT 9999 VCTS SCT010 SCT030 23/21 A2992 NOSIG=
201606110100 METAR MRLB 110100Z 08005KT 9999 FEW015 BKN030 23/22 A2993 NOSIG=
201606110200 METAR MRLB 110200Z 05003KT 9999 FEW020 BKN100 23/22 A2995 NOSIG=
201606110300 METAR MRLB 110300Z 18003KT 9999 SCT025 BKN100 23/22 A2994 NOSIG=
201606110400 METAR MRLB 110400Z 10004KT 9999 FEW025 BKN100 23/22 A2996 NOSIG=
201606110500 METAR MRLB 110500Z 09006KT 9999 FEW030 BKN120 23/22 A2997 NOSIG=
201606110600 METAR MRLB 110600Z 10004KT 9999 FEW030 BKN120 23/22 A2996 NOSIG=
201606110700 METAR MRLB NIL=
201606110800 METAR MRLB NIL=
201606110900 METAR MRLB NIL=
201606111000 METAR MRLB NIL=
201606111100 METAR MRLB NIL=
201606111200 METAR MRLB 111200Z 35002KT CAVOK 23/22 A2994 NOSIG=
201606111300 METAR MRLB 111300Z 24002KT 9999 FEW010 OVC120 23/22 A2996 NOSIG=
201606111400 METAR MRLB 111400Z 00000KT 9999 FEW020 BKN120 26/24 A2997 NOSIG=
201606111500 METAR MRLB 111500Z 09002KT 9999 FEW020 BKN240 27/24 A2998 NOSIG=
201606111600 METAR MRLB 111600Z 31003KT 9999 FEW025 BKN250 29/24 A2997 NOSIG=
201606111700 METAR MRLB 111700Z 26005KT 9999 FEW020TCU FEW025 BKN250 30/23 A2996 NOSIG=
201606111800 METAR MRLB 111800Z 30004KT 9999 -RA VCSH SCT020CB BKN030 29/22 A2994 NOSIG=
201606111900 METAR MRLB 111900Z 20003KT 9999 -DZ VCTS SCT020 SCT100 22/21 A2994 RERA NOSIG=
201606112000 METAR MRLB 112000Z 24004KT 9999 -DZ VCTS SCT020 SCT100 23/22 A2994 NOSIG=
201606112100 METAR MRLB 112100Z 32004KT 9999 FEW020 BKN100 24/23 A2991 NOSIG=
201606112200 METAR MRLB 112200Z 16003KT 9999 FEW020 BKN120 25/23 A2991 NOSIG=
201606112300 METAR MRLB 112300Z 20004KT 9999 -DZ FEW020 BKN120 25/23 A2993 NOSIG=
201606112354 METAR MRLB 120000Z 23003KT 9999 FEW010 BKN120 24/23 A2994 NOSIG=
201606120000 METAR MRLB 120000Z 23003KT 9999 FEW010 BKN120 24/23 A2994 NOSIG=
201606120100 METAR MRLB 120100Z 23002KT 9999 FEW025 BKN120 24/22 A2994 NOSIG=
201606120200 METAR MRLB 120200Z 18003KT 9999 FEW025 BKN120 24/22 A2993 NOSIG=
201606120300 METAR MRLB 120300Z 18002KT 9999 FEW025 BKN120 24/22 A2996 NOSIG=
201606120400 METAR MRLB 120400Z 11003KT 9999 FEW030 BKN120 24/22 A2999 NOSIG=
201606120500 METAR MRLB 120500Z 07004KT 9999 FEW030 BKN120 23/22 A2999 NOSIG=
201606120600 METAR MRLB 120600Z 09003KT 9999 FEW030 BKN120 23/22 A2997 NOSIG=
201606120700 METAR MRLB NIL=
201606120800 METAR MRLB NIL=
201606120900 METAR MRLB NIL=
201606121000 METAR MRLB NIL=
201606121100 METAR MRLB NIL=
201606121200 METAR MRLB 121200Z 08002KT 9999 VCFG FEW001 SCT015 SCT250 23/22 A2996 NOSIG=
201606121300 METAR MRLB 121300Z 08003KT 3000 BR SCT005 BKN015 23/22 A2997 NOSIG=
201606121400 METAR MRLB 121400Z 00000KT 9999 FEW015 SCT250 26/24 A2998 NOSIG=
201606121500 METAR MRLB 121500Z 00000KT 9999 FEW015 SCT250 28/25 A2998 NOSIG=
201606121600 METAR MRLB 121600Z 17006KT 9999 FEW025 SCT120 28/23 A2996 NOSIG=
201606121700 METAR MRLB 121700Z 13006KT 9999 FEW030 BKN120 29/23 A2996 NOSIG=
201606121800 METAR MRLB 121800Z 10006KT 9999 FEW030 BKN140 29/25 A2996 NOSIG=
201606121900 METAR MRLB 121900Z 07005KT 9999 FEW025 SCT120 BKN250 30/22 A2994 NOSIG=
201606122000 METAR MRLB 122000Z 05004KT 9999 SCT030 BKN140 31/22 A2992 NOSIG=
201606122100 METAR MRLB 122100Z 28007KT 9999 SCT025 BKN140 29/23 A2991 NOSIG=
201606122200 METAR MRLB 122200Z 24005KT 9999 SCT025 BKN120 28/23 A2992 NOSIG=
201606122300 METAR MRLB 122300Z 20004KT 9999 FEW030 BKN120 26/23 A2993 NOSIG=
201606122350 METAR MRLB 130000Z 20003KT 9999 FEW030 BKN120 26/23 A2993 NOSIG=
201606130000 METAR MRLB 130000Z 20003KT 9999 FEW030 BKN120 26/23 A2993 NOSIG=
201606130100 METAR MRLB 130100Z 29002KT 9999 FEW030 BKN120 25/23 A2993 NOSIG=
201606130200 METAR MRLB 130200Z 00000KT 9999 FEW030 BKN120 25/23 A2993 NOSIG=
201606130300 METAR MRLB 130300Z 14003KT 9999 FEW030 SCT120 25/23 A2996 NOSIG=
201606130400 METAR MRLB 130400Z COR 20004KT 9999 FEW030 SCT120 25/23 A2998 NOSIG=
201606130500 METAR MRLB 130500Z 14005KT 9999 FEW030 SCT120 24/23 A2997 NOSIG=
201606130600 METAR MRLB 130600Z 01003KT 9999 FEW030 SCT120 24/23 A2996 NOSIG=
201606130700 METAR MRLB NIL=
201606130800 METAR MRLB NIL=
201606130900 METAR MRLB NIL=
201606131000 METAR MRLB NIL=
201606131100 METAR MRLB NIL=
201606131200 METAR MRLB 131200Z 18003KT 9999 -RA SCT020 BKN100 22/21 A2993 NOSIG=
201606131300 METAR MRLB 131300Z 25007KT 9999 FEW030 BKN120 22/21 A2993 NOSIG=
201606131400 METAR MRLB 131400Z 03003KT 9999 FEW030 BKN130 24/22 A2994 NOSIG=
201606131500 METAR MRLB 131500Z 17005KT 9999 FEW030 SCT130 26/24 A2995 NOSIG=
201606131600 METAR MRLB 131600Z 16005KT 9999 FEW035 SCT250 29/24 A2994 NOSIG=
201606131700 METAR MRLB 131700Z 13009KT 9999 FEW035 SCT130 30/22 A2993 NOSIG=
201606131800 METAR MRLB 131800Z 12009KT 9999 FEW035 SCT130 31/21 A2992 NOSIG=
201606131900 METAR MRLB 131900Z 10009KT 9999 FEW025 BKN120 31/22 A2990 NOSIG=
201606132000 METAR MRLB 132000Z 10011KT 9999 FEW025 BKN130 31/21 A2987 NOSIG=
201606132100 METAR MRLB 132100Z 07011KT 9999 FEW030 BKN130 31/21 A2986 NOSIG=
201606132200 METAR MRLB 132200Z 10013KT 9999 FEW035 BKN130 30/20 A2985 NOSIG=
201606132300 METAR MRLB 132300Z 09007KT 9999 SCT045 BKN100 28/20 A2987 NOSIG=
201606132353 METAR MRLB 140000Z 09008KT 9999 FEW045 BKN100 28/20 A2989 NOSIG=
201606140000 METAR MRLB 140000Z 09008KT 9999 FEW045 BKN100 28/20 A2989 NOSIG=
201606140100 METAR MRLB 140100Z 09005KT 9999 FEW045 BKN100 27/20 A2990 NOSIG=
201606140200 METAR MRLB 140200Z 10002KT 9999 FEW040 BKN100 26/20 A2990 NOSIG=
201606140300 METAR MRLB 140300Z 21003KT 9999 FEW035 SCT250 25/20 A2992 NOSIG=
201606140400 METAR MRLB 140400Z 12007KT CAVOK 25/21 A2994 NOSIG=
201606140500 METAR MRLB 140500Z 13004KT CAVOK 25/20 A2993 NOSIG=
201606140600 METAR MRLB 140600Z 04003KT CAVOK 24/20 A2992 NOSIG=
201606140700 METAR MRLB NIL=
201606140800 METAR MRLB NIL=
201606140900 METAR MRLB NIL=
201606141000 METAR MRLB NIL=
201606141100 METAR MRLB NIL=
201606141200 METAR MRLB 141200Z 05002KT CAVOK 22/20 A2991 NOSIG=
201606141300 METAR MRLB 141300Z 00000KT CAVOK 24/22 A2992 NOSIG=
201606141400 METAR MRLB 141400Z 09002KT CAVOK 26/22 A2993 NOSIG=
201606141500 METAR MRLB 141500Z 20003KT 9999 FEW030 OVC250 28/24 A2995 NOSIG=
201606141600 METAR MRLB 141600Z 33003KT 9999 SCT030 BKN250 29/23 A2994 NOSIG=
201606141700 METAR MRLB 141700Z 27002KT 9999 SCT030 BKN250 31/23 A2992 NOSIG=
201606141800 METAR MRLB 141800Z 25004KT 9999 SCT030 BKN250 31/22 A2991 NOSIG=
201606141900 METAR MRLB 141900Z 12005KT 9999 SCT025 BKN180 30/22 A2990 NOSIG=
201606142000 METAR MRLB 142000Z 29008KT 9999 FEW025TCU FEW030 SCT250 30/23 A2987 NOSIG=
201606142100 METAR MRLB 142100Z 27006KT 9999 VCSH SCT020TCU FEW030 SCT250 28/23 A2986 RERA NOSIG=
201606142200 METAR MRLB 142200Z 21007KT 9999 -TSRA FEW010CB BKN015 23/21 A2989 NOSIG=
201606142300 METAR MRLB 142300Z 35002KT 9999 FEW010 SCT030 BKN100 24/22 A2990 NOSIG=
201606142354 METAR MRLB 150000Z 09003KT 9999 -RA VCTS FEW015 FEW020CB BKN030 24/22 A2994 NOSIG=
201606150000 METAR MRLB 150000Z 09003KT 9999 -RA VCTS FEW015 FEW020CB BKN030 24/22 A2994 NOSIG=
201606150100 METAR MRLB 150100Z 05005KT 8000 RA VCTS FEW010 FEW020CB BKN030 23/22 A2995 NOSIG=
201606150200 METAR MRLB 150200Z 05003KT 9999 SCT020 BKN100 23/22 A2997 NOSIG RERA=
201606150300 METAR MRLB 150300Z 07004KT 9999 FEW025 BKN100 23/22 A2998 NOSIG=
201606150400 METAR MRLB 150400Z 05003KT 9999 FEW025 BKN120 23/22 A2999 NOSIG=
201606150500 METAR MRLB 150500Z 13003KT 9999 FEW025 BKN120 23/22 A3000 NOSIG=
201606150600 METAR MRLB 150600Z 10003KT 9999 FEW030 BKN120 23/22 A2998 NOSIG=
201606150700 METAR MRLB NIL=
201606150800 METAR MRLB NIL=
201606150900 METAR MRLB NIL=
201606151000 METAR MRLB NIL=
201606151100 METAR MRLB NIL=
201606151200 METAR MRLB 151200Z 04002KT 9999 1000N BCFG SCT001 SCT250 22/21 A2992 NOSIG=
201606151300 METAR MRLB 151300Z 07003KT 9999 FEW005 BKN250 24/22 A2995 NOSIG=
201606151400 METAR MRLB 151400Z 18002KT 9999 FEW015 BKN240 26/24 A2997 NOSIG=
201606151500 METAR MRLB 151500Z 00000KT 9999 FEW020 BKN140 27/24 A2998 NOSIG=
201606151600 METAR MRLB 151600Z 22002KT 9999 SCT025 BKN140 28/24 A2997 NOSIG=
201606151700 METAR MRLB 151700Z 31003KT 9999 SCT025 SCT120 30/24 A2996 NOSIG=
201606151800 METAR MRLB 151800Z 25002KT 9999 SCT025 BKN120 31/22 A2995 NOSIG=
201606151900 METAR MRLB 151900Z 27006KT 9999 FEW020TCU SCT025 SCT250 30/24 A2992 NOSIG=
201606152000 METAR MRLB 152000Z 29008KT 9999 FEW020TCU SCT025 SCT250 30/23 A2989 NOSIG=
201606152100 METAR MRLB 152100Z 35008KT 9999 3000E TSRA SCT020CB BKN025 26/23 A2990 NOSIG=
201606152200 METAR MRLB 152200Z 20004KT 9999 4000SW -RA VCTS FEW015 SCT020CB BKN030 23/20 A2989 NOSIG=
201606152300 METAR MRLB 152300Z 18007KT 9999 -RA FEW010 SCT030 BKN100 22/21 A2991 NOSIG=
201606152353 METAR MRLB 160000Z 04005KT 9999 -RA FEW010 SCT030 BKN100 23/21 A2992 NOSIG=
201606160000 METAR MRLB 160000Z 04005KT 9999 -RA FEW010 SCT030 BKN100 23/21 A2992 NOSIG=
201606160100 METAR MRLB 160100Z 07003KT 9999 FEW001 SCT030 BKN100 23/21 A2995 NOSIG=
201606160200 METAR MRLB 160200Z 15003KT 9999 FEW010 BKN100 23/22 A2996 NOSIG=
201606160300 METAR MRLB 160300Z 24002KT 9999 FEW001 SCT120 22/21 A2997 NOSIG=
201606160400 METAR MRLB 160400Z 06002KT 0600 FG BKN001 22/21 A2998 NOSIG=
201606160500 METAR MRLB 160500Z 10002KT 9999 FEW001 SCT120 22/21 A2998 NOSIG=
201606160600 METAR MRLB 160600Z 00000KT 0500 FG BKN001 22/21 A2996 NOSIG=
201606160800 METAR MRLB NIL=
201606160900 METAR MRLB NIL=
201606161000 METAR MRLB NIL=
201606161100 METAR MRLB NIL=
201606161200 METAR MRLB 161200Z COR 00000KT 9999 2000W BCFG SCT001 SCT250 22/21 A2993 NOSIG=
201606161300 METAR MRLB 161300Z 00000KT 9999 VCFG SCT001 SCT250 23/22 A2995 NOSIG=
201606161400 METAR MRLB 161400Z 25002KT 9999 FEW0500 SCT250 25/24 A2996 NOSIG=
201606161500 METAR MRLB 161500Z 26002KT 9999 FEW010 27/24 A2995 NOSIG=
201606161600 METAR MRLB 161600Z 27002KT 9999 FEW015 29/24 2994 NOSIG=
201606161700 METAR MRLB 161700Z 21002KT 9999 FEW025 30/24 A2993 NOSIG=
201606161800 METAR MRLB 161800Z 13002KT 9999 SCT020 31/24 A2991 NOSIG=
201606161900 METAR MRLB 161900Z 24004KT 9999 SCT020 31/23 A2988 NOSIG=
201606162000 METAR MRLB 162000Z 28006KT 9999 SCT025 SCT250 31/23 A2984 NOSIG=
201606162100 METAR MRLB 162100Z 30009KT 9999 SCT030 SCT250 31/23 A2983 NOSIG=
201606162200 METAR MRLB 162200Z 28009KT 9999 VCSH SCT025 BKN200 30/23 A2983 NOSIG=
201606162300 METAR MRLB 162300Z 08012KT 9999 1000E RA FEW010CB SCT020 BKN100 25/20 A2987 NOSIG=
201606162349 METAR MRLB 170000Z 18004KT 9999 VCSH SCT025 BKN120 23/20 A2987 NOSIG=
201606170000 METAR MRLB 170000Z 18004KT 9999 VCSH SCT025 BKN120 23/20 A2987 NOSIG=
201606170100 METAR MRLB 170100Z 03004KT 9999 FEW030 BKN120 23/21 A2989 NOSIG=
201606170200 METAR MRLB 170200Z 00000KT 9999 SCT030 BKN120 24/22 A2991 NOSIG=
201606170300 METAR MRLB 170300Z 19003KT 9999 VCTS SCT015 FEW020CB SCT100 23/22 A2991 NOSIG=
201606170400 METAR MRLB 170400Z COR 07004KT 5000 RA VCTS FEW015 SCT020CB SCT030 24/22 A2995 NOSIG=
201606170500 METAR MRLB 170500Z 19004KT 9999 VCTS FEW010 BKN030 23/22 A2994 NOSIG=
201606170600 METAR MRLB 170600Z 26005KT 9999 FEW015 BKN030 23/22 A2992 NOSIG=
201606170700 METAR MRLB NIL=
201606170800 METAR MRLB NIL=
201606170900 METAR MRLB NIL=
201606171000 METAR MRLB NIL=
201606171100 METAR MRLB NIL=
201606171200 METAR MRLB 171200Z 10003KT 9999 FEW025 BKN120 23/22 A2987 NOSIG=
201606171300 METAR MRLB 171300Z 22003KT 9999 FEW025 BKN130 24/23 A2987 NOSIG=
201606171400 METAR MRLB 171400Z 24003KT 9999 FEW030 SCT250 26/24 A2990 NOSIG=
201606171500 METAR MRLB 171500Z 03004KT 9999 FEW030 SCT250 28/25 A2991 NOSIG=
201606171600 METAR MRLB 171600Z 27003KT 9999 SCT030 SCT250 30/24 A2991 NOSIG=
201606171700 METAR MRLB 171700Z 21004KT 9999 SCT030 SCT130 30/23 A2990 NOSIG=
201606171800 METAR MRLB 171800Z 09011KT 9999 VCSH SCT025 BKN130 29/22 A2988 NOSIG=
201606171900 METAR MRLB 171900Z 12009KT 9999 FEW025 BKN120 29/20 A298 NOSIG=
201606172000 METAR MRLB 172000Z 09009KT 9999 FEW030 SCT120 BKN250 30/22 A2983 NOSIG=
201606172100 METAR MRLB 172100Z 10009KT 9999 FEW030 SCT120 BKN250 31/22 A2981 NOSIG=
201606172200 METAR MRLB 172200Z 00000KT 9999 FEW030 BKN120 31/22 A2981 NOSIG=
201606172300 METAR MRLB 172300Z 09004KT CAVOK 29/21 A2980 NOSIG=
201606172355 METAR MRLB 180000Z 00000KT CAVOK 28/22 A2982 NOSIG=
201606180000 METAR MRLB 180000Z 00000KT CAVOK 28/22 A2982 NOSIG=
201606180100 METAR MRLB 180100Z 12005KT CAVOK 27/21 A2985 NOSIG=
201606180200 METAR MRLB 180200Z 14005KT CAVOK 26/21 A2986 NOSIG=
201606180300 METAR MRLB 180300Z 14003KT CAVOK 25/21 A2987 NOSIG=
201606180400 METAR MRLB 180400Z 12004KT CAVOK 25/21 A2987 NOSIG=
201606180500 METAR MRLB 180500Z 16003KT CAVOK 25/21 A2987 NOSIG 0=
201606180600 METAR MRLB 180600Z 32002KT CAVOK 24/21 A2987 NOSIG=
201606180700 METAR MRLB NIL=
201606180800 METAR MRLB NIL=
201606180900 METAR MRLB NIL=
201606181000 METAR MRLB NIL=
201606181100 METAR MRLB NIL=
201606181200 METAR MRLB 181200Z 28002KT CAVOK 22/21 A2986 NOSIG=
201606181300 METAR MRLB 181300Z 00000KT CAVOK 24/23 A2988 NOSIG=
201606181400 METAR MRLB 181400Z 19004KT CAVOK 26/23 A2990 NOSIG=
201606181500 METAR MRLB 181500Z 11002KT 9999 FEW030 OVC250 28/24 A2990 NOSIG=
201606181600 METAR MRLB 181600Z 12007KT 9999 FEW030 OVC250 30/22 A2988 NOSIG=
201606181700 METAR MRLB 181700Z 13006KT 9999 SCT030 BKN250 31/22 A2986 NOSIG=
201606181800 METAR MRLB 181800Z 18004KT 9999 SCT030 BKN250 31/23 A2985 NOSIG=
201606181900 METAR MRLB 181900Z 25004KT 9999 VCSH FEW020TCU SCT025 SCT50 32/23 A2984 NOSIG=
201606182000 METAR MRLB 182000Z 33005KT 9999 FEW020TCU SCT025 SCT250 27/23 A2982 RERA NOSIG=
201606182100 METAR MRLB 182100Z 28006KT 9999 VCSH SCT020TCU SCT030 29/25 A2980 NOSIG=
201606182200 METAR MRLB 182200Z 14006KT 9999 VCSH FEW015CB SCT025 SCT100 25/22 A2981 NOSIG=
201606182300 METAR MRLB 182300Z 20003KT 9999 FEW030 BKN100 25/23 A2981 NOSIG=
201606182353 METAR MRLB 190000Z 09003KT 9999 FEW030 BKN200 24/22 A2984 NOSIG=
201606190000 METAR MRLB 190000Z 09003KT 9999 FEW030 BKN200 24/22 A2984 NOSIG=
201606190100 METAR MRLB 190100Z 11002KT 9999 FEW030 SCT100 25/22 A2987 NOSIG=
201606190200 METAR MRLB 190200Z 07004KT 9999 SCT025 BKN100 25/22 A2989 NOSIG=
201606190300 METAR MRLB 190300Z 13003KT 9999 SCT025 BKN120 24/22 A2991 NOSIG=
201606190400 METAR MRLB 190400Z 03004KT 9999 FEW030 BKN130 24/22 A2990 NOSIG=
201606190500 METAR MRLB 190500Z 28003KT 9999 FEW030 BKN130 24/22 A2989 NOSIG=
201606190600 METAR MRLB 190600Z 27003KT 9999 FEW030 BKN130 24/22 A2988 NOSIG=
201606190700 METAR MRLB NIL=
201606190800 METAR MRLB NIL=
201606190900 METAR MRLB NIL=
201606191000 METAR MRLB NIL=
201606191100 METAR MRLB NIL=
201606191200 METAR MRLB 191200Z 25003KT 9999 FEW001 OVC240 23/22 A2985 NOSIG=
201606191300 METAR MRLB 191300Z 21002KT 9999 FEW005 BKN250 25/23 A2987 NOSIG=
201606191400 METAR MRLB 191400Z 19004KT 9999 FEW020 BKN250 26/24 A2988 NOSIG=
201606191500 METAR MRLB 191500Z 15002KT 9999 SCT020 SCT250 28/24 A2988 NOSIG=
201606191600 METAR MRLB 191600Z 09013KT 9999 FEW025 SCT250 30/23 A2987 NOSIG=
201606191700 METAR MRLB 191700Z 07013KT 9999 FEW030 SCT250 30/22 A2986 NOSIG=
201606191800 METAR MRLB 191800Z 08010KT 9999 SCT025 SCT250 32/22 A2986 NOSIG=
201606191900 METAR MRLB 191900Z 09008KT 9999 SCT025 SCT250 32/22 A2983 NOSIG=
201606192000 METAR MRLB 192000Z 09007KT 9999 FEW030 SCT250 33/21 A2981 NOSIG=
201606192100 METAR MRLB 192100Z 10010KT 9999 FEW030 BKN250 32/21 A2979 NOSIG=
201606192200 METAR MRLB 192200Z 07010KT 9999 FEW025 BKN250 32/20 A2980 NOSIG=
201606192300 METAR MRLB 192300Z 07009KT 9999 FEW025 BKN250 31/21 A2980 NOSIG=
201606192351 METAR MRLB 200000Z 10004KT 9999 FEW040 BKN250 30/21 A2982 NOSIG=
201606200000 METAR MRLB 200000Z 10004KT 9999 FEW040 BKN250 30/21 A2982 NOSIG=
201606200100 METAR MRLB 200100Z 11004KT 9999 FEW040 BKN250 28/21 A2987 NOSIG=
201606200200 METAR MRLB 200200Z 15005KT CAVOK 27/21 A2989 NOSIG=
201606200300 METAR MRLB 200300Z 15004KT CAVOK 26/21 A2990 NOSIG=
201606200400 METAR MRLB 200400Z 11006KT CAVOK 26/22 A2992 NOSIG=
201606200500 METAR MRLB 200500Z 12004KT CAVOK 26/22 A2992 NOSIG=
201606200600 METAR MRLB 200600Z 20003KT CAVOK 25/22 A2991 NOSIG=
201606200700 METAR MRLB NIL=
201606200800 METAR MRLB NIL=
201606200900 METAR MRLB NIL=
201606201000 METAR MRLB NIL=
201606201100 METAR MRLB NIL=
201606201200 METAR MRLB 201200Z 22002KT 9999 FEW025 SCT100 BKN250 23/22 A2986 NOSIG=
201606201300 METAR MRLB 201300Z 26003KT 9999 FEW025 BKN100 24/23 A2987 NOSIG=
201606201400 METAR MRLB 201400Z 15006KT 9999 FEW025 BKN100 26/22 A2989 NOSIG=
201606201500 METAR MRLB 201500Z 10010KT 9999 FEW025 BKN140 28/22 A2990 NOSIG=
201606201600 METAR MRLB 201600Z 12009KT 9999 FEW025 BKN140 27/21 2990 NOSIG=
201606201700 METAR MRLB 201700Z 12009KT 9999 FEW025 BKN140 29/22 A2988 NOSIG=
201606201800 METAR MRLB 201800Z 14008KT 9999 FEW025 BKN140 28/21 A2988 NOSIG=
201606201900 METAR MRLB 201900Z 12008KT 9999 FEW025 BKN200 29/21 A2986 NOSIG=
201606202000 METAR MRLB 202000Z 10008KT 9999 FEW030 BKN200 29/20 A2984 NOSIG=
201606202100 METAR MRLB 202100Z 12006KT 9999 FEW030 BKN200 29/21 A2982 NOSIG=
201606202200 METAR MRLB 202200Z 13005KT 9999 FEW030 BKN140 29/21 A2981 NOSIG=
201606202300 METAR MRLB 202300Z 09007KT 9999 FEW025 BKN140 28/20 A2982 NOSIG=
201606202353 METAR MRLB 210000Z 07005KT 9999 FEW030 BKN140 27/21 A2984 NOSIG=
201606210000 METAR MRLB 210000Z 07005KT 9999 FEW030 BKN140 27/21 A2984 NOSIG=
201606210100 METAR MRLB 210100Z 09007KT 9999 FEW030 BKN140 27/20 A2987 NOSIG=
201606210200 METAR MRLB 210200Z 13005KT 9999 FEW030 SCT140 26/20 A2989 NOSIG=
201606210300 METAR MRLB 210300Z 14004KT 9999 FEW030 BKN120 26/20 A2990 NOSIG=
201606210400 METAR MRLB 210400Z COR 11004KT 9999 FEW030 BKN120 25/20 A2990 NOSIG=
201606210500 METAR MRLB 210500Z 09004KT 9999 FEW030 BKN120 25/21 A2991 NOSIG=
201606210600 METAR MRLB 210600Z 13004KT 9999 FEW030 SCT140 25/21 A2989 NOSIG=
201606210700 METAR MRLB NIL=
201606210800 METAR MRLB NIL=
201606210900 METAR MRLB NIL=
201606211000 METAR MRLB NIL=
201606211100 METAR MRLB NIL=
201606211200 METAR MRLB 211200Z 08003KT 9999 DZ SCT020 BKN100 24/22 A2986 NOSIG=
201606211300 METAR MRLB 211300Z 12009KT 9999 FEW025 BKN100 25/22 A2984 NOSIG REDZ=
201606211400 METAR MRLB 211400Z 08006KT 9999 FEW030 BKN120 27/21 A2986 NOSIG=
201606211500 METAR MRLB 211500Z 07004KT 9999 FEW030 BKN120 28/21 A2986 NOSIG=
201606211600 METAR MRLB 211600Z 04006KT 9999 FEW030 BKN140 30/22 A2986 NOSIG=
201606211700 METAR MRLB 211700Z 09011KT 9999 FEW030 BKN200 30/21 A2987 NOSIG=
201606211800 METAR MRLB 211800Z 08009KT 9999 FEW030 BKN200 31/21 A2986 NOSIG=
201606211900 METAR MRLB 211900Z 08009KT 9999 SCT030 BKN250 31/21 A2983 NOSIG=
201606212000 METAR MRLB 212000Z 04009KT 9999 SCT030 BKN120 30/20 A2982 NOSIG=
201606212100 METAR MRLB 212100Z 09005KT 9999 4000N RA SCT020 SCT030 31/20 A2981 NOSIG=
201606212200 METAR MRLB 212200Z 13007KT 9999 -RA SCT020 SCT030 26/22 A2982 NOSIG RERA=
201606212300 METAR MRLB 212300Z 13007KT 9999 VCSH SCT020TCU BKN100 25/22 A2985 NOSIG=
201606212353 METAR MRLB 220000Z 18005KT 9999 -RA SCT025 BKN100 25/21 A2986 NOSIG=
201606220000 METAR MRLB 220000Z 18005KT 9999 -RA SCT025 BKN100 25/21 A2986 NOSIG=
201606220100 METAR MRLB 220100Z 11004KT 9999 -RA FEW010 BKN100 24/21 A2990 NOSIG=
201606220200 METAR MRLB 220200Z 08003KT 9999 -RA FEW010 BKN100 23/22 A2992 NOSIG=
201606220300 METAR MRLB 220300Z 07002KT 9999 FEW010 BKN100 23/22 A2992 NOSIG=
201606220400 METAR MRLB 220400Z 00000KT 9999 FEW010 BKN100 23/22 A2992 NOSIG=
201606220500 METAR MRLB 220500Z 00000KT 9999 FEW010 BKN100 23/22 A2992 NOSIG=
201606220600 METAR MRLB 220600Z 00000KT 9999 FEW025 BKN100 23/22 A2991 NOSIG=
201606220700 METAR MRLB NIL=
201606220800 METAR MRLB NIL=
201606220900 METAR MRLB NIL=
201606221000 METAR MRLB NIL=
201606221100 METAR MRLB NIL=
201606221200 METAR MRLB 221200Z 11004KT 9999 FEW005 SCT250 22/21 A2986 NOSIG=
201606221300 METAR MRLB 221300Z 15004KT 9999 FEW010 23/22 A2988 NOSIG=
201606221400 METAR MRLB 221400Z 13004KT 9999 FEW015 SCT140 25/23 A2989 NOSIG=
201606221500 METAR MRLB 221500Z 16004KT 9999 FEW020 SCT130 27/23 A2991 NOSIG=
201606221600 METAR MRLB 221600Z 21007KT 9999 FEW025 BKN130 28/23 A2992 NOSIG=
201606221700 METAR MRLB 221700Z 21006KT 9999 BKN030 29/23 A2992 NOSIG=
201606221800 METAR MRLB 221800Z 15004KT 9999 BKN030 30/24 A2990 NOSIG=
201606221900 METAR MRLB 221900Z 30009KT 9999 FEW020TCU SCT030 30/23 A2988 NOSIG=
201606222000 METAR MRLB 222000Z 29007KT 9999 FEW020TCU SCT030 30/23 A2986 NOSIG=
201606222100 METAR MRLB 222100Z 28009KT 9999 FEW020TCU SCT030 30/23 A2984 NOSIG=
201606222200 METAR MRLB 222200Z 29007KT 9999 SCT020TCU FEW030 29/22 A2985 NOSIG=
201606222300 METAR MRLB 222300Z COR 30005KT 9999 DZ VCTS FEW020CB BKN025 29/22 A2985 NOSIG=
201606222353 METAR MRLB 230000Z 00000KT 9999 FEW020TCU FEW030 BKN120 27/23 A2987 NOSIG=
201606230000 METAR MRLB 230000Z 00000KT 9999 FEW020TCU FEW030 BKN120 27/23 A2987 NOSIG=
201606230100 METAR MRLB 230100Z 13003KT 9999 -RA FEW020TCU FEW030 BKN100 26/23 A2990 NOSIG=
201606230200 METAR MRLB 230200Z 06003KT 9999 SCT020 BKN100 26/23 A2993 NOSIG=
201606230300 METAR MRLB 230300Z 17006KT 9999 -RA SCT015 BKN100 23/22 A2995 NOSIG RERA=
201606230400 METAR MRLB 230400Z 12003KT 9999 SCT025 BKN100 23/22 A2996 NOSIG=
201606230500 METAR MRLB 230500Z 03002KT 9999 SCT025 BKN120 23/22 A2996 NOSIG=
201606230600 METAR MRLB 230600Z 28003KT 9999 FEW025 BKN120 23/22 A2994 NOSIG=
201606230700 METAR MRLB NIL=
201606230800 METAR MRLB NIL=
201606230900 METAR MRLB NIL=
201606231000 METAR MRLB NIL=
201606231100 METAR MRLB NIL=
201606231200 METAR MRLB 231200Z 00000KT 9999 BCFG FEW001 SCT030 BKN220 22/22 A2992 NOSIG=
201606231300 METAR MRLB 231300Z 00000KT 9999 BCFG FEW002 SCT030 BKN220 23/22 A2991 NOSIG=
201606231400 METAR MRLB 231400Z 22002KT 9999 FEW005 SCT030 BKN200 24/23 A2992 NOSIG=
201606231500 METAR MRLB 231500Z 21003KT 9999 FEW030 BKN200 26/24 A2992 NOSIG=
201606231600 METAR MRLB 231600Z 01003KT 9999 FEW030 BKN200 29/25 A2990 NOSIG=
201606231700 METAR MRLB 231700Z 07003KT 9999 SCT025 SCT120 29/23 A2991 NOSIG=
201606231800 METAR MRLB 231800Z 08010KT 9999 SCT025 BKN120 29/22 A2990 NOSIG=
201606231900 METAR MRLB 231900Z 07007KT 9999 SCT030 SCT120 29/22 A2989 NOSIG=
201606232000 METAR MRLB 232000Z 04007KT 9999 SCT030 SCT120 30/22 A2986 NOSIG=
201606232100 METAR MRLB 232100Z 03007KT 9999 SCT030 SCT120 30/22 A2984 NOSIG=
201606232200 METAR MRLB 232200Z 06004KT 9999 FEW025 BKN120 29/22 A2982 NOSIG=
201606232300 METAR MRLB 232300Z 07011KT 9999 FEW030 BKN200 28/21 A2984 NOSIG=
201606232350 METAR MRLB 240000Z 07008KT 9999 FEW030 BKN200 28/21 A2984 NOSIG=
201606240000 METAR MRLB 240000Z 07008KT 9999 FEW030 BKN200 28/21 A2984 NOSIG=
201606240100 METAR MRLB 240100Z 07010KT 9999 FEW030 BKN120 27/21 A2986 NOSIG=
201606240200 METAR MRLB 240200Z 08009KT 9999 FEW020 BKN120 27/21 A2988 NOSIG/=
201606240300 METAR MRLB 240300Z 11006KT 9999 SCT020 BKN120 26/21 A2989 NOSIG=
201606240400 METAR MRLB 240400Z 07007KT 9999 FEW025 BKN120 26/22 A2992 NOSIG=
201606240500 METAR MRLB 240500Z 13002KT 9999 FEW025 BKN120 26/22 A2991 NOSIG=
201606240600 METAR MRLB 240600Z 13002KT 9999 FEW025 BKN120 26/22 A2991 NOSIG=
201606240700 METAR MRLB NIL=
201606240800 METAR MRLB NIL=
201606240900 METAR MRLB NIL=
201606241000 METAR MRLB NIL=
201606241100 METAR MRLB NIL=
201606241200 METAR MRLB 241200Z 06003KT 9999 SCT025 CT250 26/22 A2984 NOSIG=
201606241300 METAR MRLB 241300Z 01004KT 9999 SCT025 SCT250 26/22 A2985 NOSIG=
201606241400 METAR MRLB 241400Z 09010KT 9999 SCT025 SCT250 27/22 A2986 NOSIG=
201606241500 METAR MRLB 241500Z 29002KT 9999 SCT025 SCT250 29/22 A2987 NOSIG=
201606241600 METAR MRLB 241600Z 09012KT 9999 SCT025 SCT250 29/22 A2987 NOSIG=
201606241700 METAR MRLB 241700Z 09012KT 9999 SCT025 SCT120 29/22 A2987 NOSIG=
201606241800 METAR MRLB 241800Z 04010KT 9999 SCT025 SCT120 30/22 A2985 NOSIG=
201606241900 METAR MRLB 241900Z 07009KT 9999 SCT030 BKN140 30/22 A2985 NOSIG=
201606242000 METAR MRLB 242000Z 07006KT 9999 SCT030 BKN140 29/22 A2983 NOSIG=
201606242100 METAR MRLB 242100Z 08006KT 9999 FEW030 BKN130 29/22 A2982 NOSIG=
201606242200 METAR MRLB 242200Z 12005KT 9999 FEW030 BKN130 29/22 A2981 NOSIG=
201606242300 METAR MRLB 242300Z 10008KT 9999 SCT025 BKN120 26/21 A2983 NOSIG=
201606242353 METAR MRLB 250000Z 12006KT 9999 SCT025 BKN120 26/22 A2983 NOSIG=
201606250000 METAR MRLB 250000Z 12006KT 9999 SCT025 BKN120 26/22 A2983 NOSIG=
201606250100 METAR MRLB 250100Z 08005KT 9999 FEW030 BKN120 26/22 A2986 NOSIG=
201606250200 METAR MRLB 250200Z 11005KT 9999 FEW030 BKN120 25/22 A2988 NOSIG=
201606250300 METAR MRLB 250300Z 07004KT 9999 FEW030 SCT120 25/22 A2990 NOSIG=
201606250400 METAR MRLB 250400Z 16004KT 9999 FEW030 SCT120 25/22 A2990 NOSIG=
201606250500 METAR MRLB 250500Z 13007KT 9999 FEW030 SCT120 24/22 A2990 NOSIG=
201606250600 METAR MRLB 250600Z 23002KT CAVOK 24/20 A2985 NOSIG=
201606250700 METAR MRLB NIL=
201606250800 METAR MRLB NIL=
201606250900 METAR MRLB NIL=
201606251000 METAR MRLB NIL=
201606251100 METAR MRLB NIL=
201606251200 METAR MRLB 251200Z 00000KT 9999 FEW025 BKN200 23/22 A2984 NOSIG=
201606251300 METAR MRLB 251300Z 26004KT 9999 FEW030 SCT250 25/23 A2985 NOSIG=
201606251400 METAR MRLB 251400Z 24005KT 9999 FEW030 SCT250 26/23 A2987 NOSIG=
201606251500 METAR MRLB 251500Z 14007KT 9999 FEW030 BKN250 29/23 A2987 NOSIG=
201606251600 METAR MRLB 251600Z 03006KT 9999 SCT030 BKN200 30/22 A2988 NOSIG=
201606251700 METAR MRLB 251700Z 10011KT 9999 VCSH SCT025 BKN130 29/21 A2988 NOSIG=
201606251800 METAR MRLB 251800Z 15009KT 9999 SCT030 BKN130 26/22 A2984 NOSIG=
201606251900 METAR MRLB 251900Z 23007KT 9999 -RA SCT025 BKN120 26/22 A2983 NOSIG=
201606252000 METAR MRLB 252000Z 16003KT 9999 FEW030 OVC120 26/23 A2983 NOSIG=
201606252100 METAR MRLB 252100Z 04005KT 9999 FEW030 OVC120 27/22 A2982 NOSIG=
201606252200 METAR MRLB 252200Z 08008KT 9999 -RA BKN020 SCT120 26/21 A2981 NOSIG=
201606252300 METAR MRLB 252300Z 10006KT 9999 FEW025 OVC120 26/21 A2980 NOSIG=
201606252355 METAR MRLB 260000Z 04006KT 9999 FEW025 BKN120 25/21 A2984 NOSIG=
201606260000 METAR MRLB 260000Z 04006KT 9999 FEW025 BKN120 25/21 A2984 NOSIG=
201606260100 METAR MRLB 260100Z 08005KT 9999 FEW025 BKN120 25/20 A2985 NOSIG=
201606260200 METAR MRLB 260200Z 10006KT 9999 FEW025 BKN120 26/19 A2985 NOSIG=
201606260300 METAR MRLB 260300Z 11005KT CAVOK 25/19 A2986 NOSIG=
201606260400 METAR MRLB 260400Z 12007KT CAVOK 26/20 A2986 NOSIG=
201606260500 METAR MRLB NIL=
201606260600 METAR MRLB NIL=
201606260700 METAR MRLB NIL=
201606260800 METAR MRLB NIL=
201606260900 METAR MRLB NIL=
201606261000 METAR MRLB NIL=
201606261100 METAR MRLB NIL=
201606261200 METAR MRLB 261200Z 12002KT 9999 FEW035 OVC120 23/20 A2984 NOSIG=
201606261300 METAR MRLB 261300Z 12006KT 9999 FEW035 BKN120 26/22 A2986 NOSIG=
201606261400 METAR MRLB 261400Z 11007KT 9999 FEW035 BKN120 27/21 A2988 NOSIG=
201606261500 METAR MRLB 261500Z 11005KT 9999 FEW035 BKN250 29/22 A2989 NOSIG=
201606261600 METAR MRLB 261600Z 06005KT 9999 SCT035 SCT130 30/23 A2986 NOSIG=
201606261700 METAR MRLB 261700Z 10008KT 9999 FEW035 BKN130 31/22 A2986 NOSIG=
201606261800 METAR MRLB 261800Z 08007KT 9999 SCT035 BKN130 32/23 A2984 NOSIG=
201606261900 METAR MRLB 261900Z 10007KT 9999 SCT035 SCT130 31/21 A2983 NOSIG=
201606262000 METAR MRLB 262000Z 05009KT 9999 -RA SCT020 SCT120 26/21 A2982 NOSIG=
201606262100 METAR MRLB 262100Z 07007KT 9999 SCT025 SCT120 28/23 A2982 NOSIG=
201606262200 METAR MRLB 262200Z 09007KT 9999 FEW030 SCT100 BKN250 28/22 A2980 NOSIG=
201606262300 METAR MRLB 262300Z 12007KT 9999 FEW030 SCT100 29/21 A2981 NOSIG=
201606262345 METAR MRLB 270000Z 09007KT 9999 FEW035 SCT120 27/20 A2982 NOSIG=
201606270000 METAR MRLB 270000Z 09007KT 9999 FEW035 SCT120 27/20 A2982 NOSIG=
201606270100 METAR MRLB 270100Z 10005KT 9999 FEW030 SCT120 26/20 A2983 NOSIG=
201606270200 METAR MRLB 270200Z 16003KT 9999 FEW030 SCT130 25/20 A2984 NOSIG=
201606270300 METAR MRLB 270300Z 14003KT 9999 SCT030 BKN130 24/20 A2986 NOSIG=
201606270400 METAR MRLB 270400Z 24003KT 9999 FEW030 BKN130 23/20 A2986 NOSIG=
201606270500 METAR MRLB 270500Z 20003KT 9999 FEW030 SCT130 23/20 A2985 NOSIG=
201606270600 METAR MRLB 270600Z 20004KT 9999 FEW030 BKN140 23/20 A2985 NOSIG=
201606270700 METAR MRLB NIL=
201606270800 METAR MRLB NIL=
201606270900 METAR MRLB NIL=
201606271000 METAR MRLB NIL=
201606271100 METAR MRLB NIL=
201606271200 METAR MRLB 271200Z 00000KT CAVOK 22/20 A2981 NOSIG=
201606271300 METAR MRLB 271300Z 27002KT CAVOK 25/22 A2982 NOSIG=
201606271400 METAR MRLB 271400Z 27003KT CAVOK 27/22 A2984 NOSIG=
201606271500 METAR MRLB 271500Z 13006KT CAVOK 29/22 A2984 NOSIG=
201606271600 METAR MRLB 271600Z 12004KT 9999 FEW030 BKN250 30/22 A2984 NOSIG=
201606271700 METAR MRLB 271700Z 09004KT 9999 FEW030 BKN250 31/22 A2983 NOSIG=
201606271800 METAR MRLB 271800Z 08007KT 9999 FEW030 BKN250 32/21 A2981 NOSIG=
201606271900 METAR MRLB 271900Z 10009KT 9999 FEW030 BKN250 32/21 A2979 NOSIG=
201606272000 METAR MRLB 272000Z 10008KT 9999 FEW030 BKN250 32/21 A2977 NOSIG=
201606272100 METAR MRLB 272100Z 10006KT 9999 FEW030 BKN250 32/21 A2976 NOSIG=
201606272200 METAR MRLB 272200Z 30008KT 9999 FEW030 BKN250 30/22 A2977 NOSIG=
201606272300 METAR MRLB 272300Z 09010KT 9999 3000N RA SCT020TCU SCT030 28/21 A2979=
201606272353 METAR MRLB 280000Z 06006KT 9999 -RA FEW025 BKN100 24/21 A2979 NOSIG=
201606272357 METAR MRLB COR 280000Z 06006KT 9999 -RA FEW025 BKN100 24/21 A2979 NOSIG RERA=
201606280000 METAR MRLB 280000Z COR 06006KT 9999 -RA FEW025 BKN100 24/21 A2979 NOSIG RERA=
201606280100 METAR MRLB 280100Z 15003KT 9999 FEW025 BKN100 24/22 A2982 NOSIG=
201606280200 METAR MRLB 280200Z 12004KT 9999 FEW030 BKN120 24/21 A2982 NOSIG=
201606280300 METAR MRLB 280300Z 13007KT 9999 FEW030 BKN250 24/21 A2982 NOSIG=
201606280400 METAR MRLB 280400Z 15002KT 9999 FEW030 BKN250 24/20 A2984 NOSIG=
201606280500 METAR MRLB 280500Z 14006KT 9999 FEW030 BKN250 24/21 A2983 NOSIG=
201606280600 METAR MRLB 280600Z 03003KT 9999 FEW030 BKN250 24/20 A2983 NOSIG=
201606280700 METAR MRLB NIL=
201606280800 METAR MRLB NIL=
201606280900 METAR MRLB NIL=
201606281000 METAR MRLB NIL=
201606281100 METAR MRLB NIL=
201606281200 METAR MRLB 281200Z 22003KT 9999 FEW030 BKN250 23/21 A2983 NOSIG=
201606281300 METAR MRLB 281300Z 00000KT 9999 FEW030 BKN250 25/23 A2985 NOSIG=
201606281400 METAR MRLB 281400Z 01002KT CAVOK 27/23 A2986 NOSIG=
201606281500 METAR MRLB 281500Z 10002KT CAVOK 30/23 A2986 NOSIG=
201606281600 METAR MRLB 281600Z 10009KT 9999 FEW030 BKN250 31/22 A2985 NOSIG=
201606281700 METAR MRLB 281700Z 08011KT 9999 FEW030 SCT250 31/22 A2984 NOSIG=
201606281800 METAR MRLB 281800Z 08011KT 9999 FEW030 SCT250 32/22 A2982 NOSIG=
201606281900 METAR MRLB 281900Z 09011KT 9999 FEW030 SCT250 32/21 A2980 NOSIG=
201606282000 METAR MRLB 282000Z 09010KT 9999 FEW030 SCT250 32/21 A2978 NOSIG=
201606282100 METAR MRLB 282100Z 08014KT 9999 FEW030 SCT250 32/21 A2976 NOSIG=
201606282200 METAR MRLB 282200Z 10008KT 9999 FEW030 BKN250 32/21 A2975 NOSIG=
201606282300 METAR MRLB 282300Z 12010KT 9999 FEW030 BKN250 30/20 A2976 NOSIG=
201606282351 METAR MRLB 290000Z 08006KT 9999 FEW030 BKN250 30/19 A2978 NOSIG=
201606290000 METAR MRLB 290000Z 08006KT 9999 FEW030 BKN250 30/19 A2978 NOSIG=
201606290100 METAR MRLB 290100Z 32006KT 9999 FEW030 28/20 A2979 NOSIG=
201606290200 METAR MRLB 290200Z 17003KT 9999 FEW030 26/21 A2981 NOSIG=
201606290300 METAR MRLB 290300Z 31005KT 9999 FEW030 25/20 A2982 NOSIG=
201606290400 METAR MRLB 290400Z 18004KT 9999 FEW035 24/21 A2983 NOSIG=
201606290500 METAR MRLB 290500Z 17006KT 9999 FEW035 25/21 A2985 NOSIG=
201606290600 METAR MRLB 290600Z 09007KT 9999 FEW040 25/21 A2982 NOSIG=
201606290700 METAR MRLB NIL=
201606290800 METAR MRLB NIL=
201606290900 METAR MRLB NIL=
201606291000 METAR MRLB NIL=
201606291100 METAR MRLB NIL=
201606291200 METAR MRLB 291200Z 00000KT 9999 FEW030 BKN250 24/21 A2976 NOSIG=
201606291300 METAR MRLB 291300Z 09004KT 9999 FEW035 BKN250 26/22 A2979 NOSIG=
201606291400 METAR MRLB 291400Z 07012KT 9999 FEW035 BKN250 30/22 A2980 NOSIG=
201606291500 METAR MRLB 291500Z 09014KT 9999 FEW035 SCT250 30/21 A2982 NOSIG=
201606291600 METAR MRLB 291600Z 10014KT 9999 FEW035 SCT250 31/22 A2982 NOSIG=
201606291700 METAR MRLB 291700Z 09013KT 9999 SCT035 SCT250 32/23 A2982 NOSIG=
201606291800 METAR MRLB NIL=
201606291900 METAR MRLB 291900Z 09013KT 9999 FEW030 SCT140 32/22 A2979 NOSIG=
201606292000 METAR MRLB 292000Z 10010KT 9999 FEW035 BKN130 32/22 A2979 NOSIG=
201606292100 METAR MRLB 292100Z 09012KT 9999 FEW035 BKN130 32/21 A2977 NOSIG=
201606292200 METAR MRLB 292200Z 07012KT 9999 FEW035 SCT130 BKN250 32/22 A2978 NOSIG=
201606292300 METAR MRLB 292300Z 06013KT 9999 FEW035 BKN120 31/22 A2978 NOSIG=
201606292352 METAR MRLB 300000Z 08008KT 9999 FEW035 OVC120 29/22 A2980 NOSIG=
201606300000 METAR MRLB 300000Z 08008KT 9999 FEW035 OVC120 29/22 A2980 NOSIG=
201606300100 METAR MRLB 300100Z 18003KT 9999 FEW035 BKN120 28/23 A2982 NOSIG=
201606300200 METAR MRLB 300200Z 13007KT 9999 FEW035 BKN120 28/23 A2985 NOSIG=
201606300300 METAR MRLB 300300Z 13003KT 9999 FEW030 BKN120 28/23 A2986 NOSIG=
201606300400 METAR MRLB 300400Z 13006KT 9999 FEW030 BKN120 27/22 A2985 NOSIG=
201606300500 METAR MRLB 300500Z 11005KT 9999 FEW030 BKN120 27/23 A2985 NOSIG=
201606300600 METAR MRLB 300600Z 00000KT 9999 FEW030 BKN120 26/23 A2985 NOSIG=
201606300700 METAR MRLB NIL=
201606300800 METAR MRLB NIL=
201606300900 METAR MRLB NIL=
201606301000 METAR MRLB NIL=
201606301100 METAR MRLB NIL=
201606301200 METAR MRLB 301200Z 35002KT 9999 SCT030 SCT250 25/23 A2982 NOSIG=
201606301300 METAR MRLB 301300Z 00000KT 9999 BKN030 26/24 A2983 NOSIG=
201606301400 METAR MRLB 301400Z 10003KT 9999 BKN030 SCT250 28/24 A2984 NOSIG=
201606301500 METAR MRLB 301500Z 05006KT 9999 FEW035 OVC250 30/23 A2984 NOSIG=
201606301600 METAR MRLB 301600Z 08007KT 9999 FEW035 OVC250 31/24 A2982 NOSIG=
201606301700 METAR MRLB 301700Z 07010KT 9999 BKN035 SCT250 32/23 A2982 NOSIG=
201606301800 METAR MRLB 301800Z 06012KT 9999 BKN035 32/23 A2982 NOSIG=
201606301900 METAR MRLB 301900Z 10007KT 9999 SCT035 SCT250 32/23 A2979 NOSIG=
201606302000 METAR MRLB 302000Z 06010KT 9999 FEW030 SCT250 32/24 A2977 NOSIG=
201606302100 METAR MRLB 302100Z 07011KT 9999 SCT030 SCT240 32/23 A2976 NOSIG=
201606302200 METAR MRLB 302200Z 06015KT 9999 FEW035 BKN240 31/22 A2975 NOSIG=
201606302300 METAR MRLB 302300Z 08008KT 9999 SCT040 BKN240 30/23 A2977 NOSIG=
201606302354 METAR MRLB 010000Z 09005KT 9999 FEW035 SCT120 BKN240 29/23 A2979 NOSIG=
201607010000 METAR MRLB 010000Z 09005KT 9999 FEW035 SCT120 BKN240 29/23 A2979 NOSIG=
201607010100 METAR MRLB 010100Z 10003KT 9999 FEW035 SCT120 28/23 A2983 NOSIG=
201607010200 METAR MRLB 010200Z 14003KT 9999 FEW035 SCT130 27/23 A2984 NOSIG=
201607010300 METAR MRLB 010300Z 08007KT 9999 FEW035 SCT250 27/23 A2984 NOSIG=
201607010400 METAR MRLB 010400Z 09005KT 9999 SCT035 SCT250 27/23 A2986 NOSIG=
201607010500 METAR MRLB 010500Z 10003KT 9999 -RA SCT020 BKN100 25/23 A2987 NOSIG RERA=
201607010600 METAR MRLB 010600Z 03004KT 9999 DZ SCT025 BKN100 25/24 A2986 NOSIG=
201607010700 METAR MRLB NIL=
201607010800 METAR MRLB NIL=
201607010900 METAR MRLB NIL=
201607011000 METAR MRLB NIL=
201607011100 METAR MRLB NIL=
201607011200 METAR MRLB 011200Z 12003KT 9999 SCT025 SCT120 25/24 A2986 NOSIG=
201607011300 METAR MRLB 011300Z 00000KT 9999 SCT020 BKN200 26/24 A2989 NOSIG=
201607011400 METAR MRLB 011400Z 01004KT 9999 BKN020 26/24 A2991 NOSIG=
201607011500 METAR MRLB 011500Z 34002KT 9999 SCT020 SCT240 27/24 A2991 NOSIG=
201607011600 METAR MRLB 011600Z 28003KT 9999 SCT025 BKN220 29/24 A2989 NOSIG=
201607011700 METAR MRLB 011700Z 21003KT 9999 BKN025 30/24 A2989 NOSIG=
201607011800 METAR MRLB 011800Z 32005KT 9999 VCSH FEW020TCU SCT025 BKN120 30/25 A2987 NOSIG=
201607011900 METAR MRLB 011900Z 27006KT 9999 FEW020TCU SCT025 SCT100 28/24 A2986 NOSIG=
201607012000 METAR MRLB 012000Z 34004KT 9999 FEW020TCU SCT025 BKN100 28/25 A2987 NOSIG=
201607012100 METAR MRLB 012100Z 17002KT 9999 FEW025 BKN100 28/23 A2983 NOSIG=
201607012200 METAR MRLB 012200Z 21004KT 9999 FEW025 BKN100 27/24 A2984 NOSIG=
201607012300 METAR MRLB 012300Z 27002KT 9999 FEW030 BKN120 27/25 A2985 NOSIG=
201607012351 METAR MRLB 020000Z 10002KT 9999 FEW040 OVC120 27/25 A2986 NOSIG=
201607020000 METAR MRLB 020000Z 10002KT 9999 FEW040 OVC120 27/25 A2986 NOSIG=
201607020100 METAR MRLB 020100Z 17004KT 9999 FEW040 BKN250 26/24 A2987 NOSIG=
201607020200 METAR MRLB 020200Z 19003KT CAVOK 25/23 A2990 NOSIG=
201607020300 METAR MRLB 020300Z 14004KT CAVOK 25/23 A2991 NOSIG=
201607020400 METAR MRLB 020400Z 18004KT CAVOK 25/22 A2993 NOSIG=
201607020500 METAR MRLB 020500Z 16005KT CAVOK 24/22 A2993 NOSIG=
201607020600 METAR MRLB 020600Z 14005KT CAVOK 25/22 A2991 NOSIG=
201607020700 METAR MRLB NIL=
201607020800 METAR MRLB NIL=
201607020900 METAR MRLB NIL=
201607021000 METAR MRLB NIL=
201607021100 METAR MRLB NIL=
201607021200 METAR MRLB 021200Z 12004KT 9999 FEW030 BKN250 23/22 A2989 NOSIG=
201607021300 METAR MRLB 021300Z 22003KT 9999 FEW030 BKN250 24/23 A2991 NOSIG=
201607021353 METAR MRLB 031400Z 22004KT 9999 SCT030 SCT120 26/23 A2993 NOSIG=
201607021400 METAR MRLB NIL=
201607021500 METAR MRLB 021500Z 10012KT 9999 FEW030 BKN120 28/22 A2991 NOSIG=
201607021600 METAR MRLB 021600Z 09006KT 9999 FEW025 SCT120 BKN250 28/23 A2992 NOSIG=
201607021700 METAR MRLB 021700Z 08005KT 9999 FEW025 SCT120 BKN250 29/22 A2992 NOSIG=
201607021800 METAR MRLB 021800Z 10014G24KT 9999 FEW020 SCT120 BKN250 28/21 A2992 NOSIG=
201607021900 METAR MRLB 021900Z 07017G27KT 9999 FEW020 BKN120 28/19 A2992 NOSIG=
201607022000 METAR MRLB 022000Z 13008KT 9999 FEW030 BKN130 28/20 A2990 NOSIG=
201607022100 METAR MRLB 022100Z 16007KT 9999 FEW030 BKN130 27/21 A2988 NOSIG=
201607022200 METAR MRLB 022200Z 15008KT 9999 FEW035 BKN120 27/21 A2986 NOSIG=
201607022300 METAR MRLB 022300Z 14003KT 9999 FEW035 BKN120 26/21 A2986 NOSIG=
201607022348 METAR MRLB 030000Z 27003KT 9999 FEW035 BKN120 27/22 A2987 NOSIG=
201607030000 METAR MRLB 030000Z 27003KT 9999 FEW035 BKN120 27/22 A2987 NOSIG=
201607030100 METAR MRLB 030100Z 13003KT 9999 FEW045 BKN120 25/22 A2989 NOSIG=
201607030200 METAR MRLB 030200Z 08004KT 9999 FEW045 BKN120 25/23 A2992 NOSIG=
201607030300 METAR MRLB 030300Z 05002KT CAVOK 25/22 A2994 NOSIG=
201607030400 METAR MRLB 030400Z 00000KT CAVOK 24/22 A2997 NOSIG=
201607030500 METAR MRLB 030500Z 14005KT CAVOK 25/19 A2998 NOSIG=
201607030600 METAR MRLB 030600Z 15005KT CAVOK 24/19 A2996 NOSIG=
201607030700 METAR MRLB NIL=
201607030800 METAR MRLB NIL=
201607030900 METAR MRLB NIL=
201607031000 METAR MRLB NIL=
201607031100 METAR MRLB NIL=
201607031200 METAR MRLB 031200Z 06003KT 9999 FEW030 SCT130 23/21 A2992 NOSIG=
201607031300 METAR MRLB 031300Z 35003KT 9999 FEW030 BKN130 24/21 A2995 NOSIG=
201607031400 METAR MRLB 031400Z 00000KT 9999 FEW030 BKN140 25/22 A2996 NOSIG=
201607031500 METAR MRLB 031500Z 00000KT 9999 FEW030 BKN140 27/22 A2997 NOSIG=
201607031600 METAR MRLB 031600Z 29003KT 9999 FEW030 BKN140 29/23 A2995 NOSIG=
201607031700 METAR MRLB 031700Z 12006KT 9999 FEW035 BKN140 31/22 A2995 NOSIG=
201607031800 METAR MRLB 031800Z 07012KT 9999 FEW035 BKN130 31/22 A2993 NOSIG=
201607031900 METAR MRLB 031900Z 10012KT 9999 FEW035 BKN130 31/23 A2991 NOSIG=
201607032000 METAR MRLB 032000Z 10010KT 9999 FEW030 BKN120 31/23 A2989 NOSIG=
201607032100 METAR MRLB 032100Z 07012KT 9999 FEW030 BKN120 31/22 A2988 NOSIG=
201607032200 METAR MRLB 032200Z 08008KT 9999 FEW030 BKN120 30/22 A2986 NOSIG=
201607032300 METAR MRLB 032300Z 10005KT 9999 FEW030 BKN120 30/23 A2987 NOSIG=
201607032352 METAR MRLB 040000Z 09007KT 9999 FEW030 OVC120 29/22 A2987 NOSIG=
201607040000 METAR MRLB 040000Z 09007KT 9999 FEW030 OVC120 29/22 A2987 NOSIG=
201607040100 METAR MRLB 040100Z 10006KT 9999 FEW030 BKN120 28/22 A2988 NOSIG=
201607040200 METAR MRLB 040200Z 11004KT CAVOK 27/22 A2990 NOSIG=
201607040300 METAR MRLB 040300Z 15003KT CAVOK 26/22 A2992 NOSIG=
201607040400 METAR MRLB 040400Z 12005KT 9999 FEW030 BKN120 26/22 A2994 NOSIG=
201607040500 METAR MRLB 040500Z 14004KT CAVOK 26/22 A2994 NOSIG=
201607040600 METAR MRLB 040600Z 13003KT CAVOK 26/22 A2994 NOSIG=
201607040700 METAR MRLB NIL=
201607040800 METAR MRLB NIL=
201607040900 METAR MRLB NIL=
201607041000 METAR MRLB NIL=
201607041100 METAR MRLB NIL=
201607041200 METAR MRLB 041200Z 10007KT 9999 FEW030 BKN100 27/21 A 2988 NOSIG=
201607041300 METAR MRLB 041300Z 09007KT 9999 FEW030 BKN120 27/21 A2992 NOSIG=
201607041400 METAR MRLB 041400Z 08008KT 9999 FEW030 BKN120 28/22 A2992 NOSIG=
201607041500 METAR MRLB 041500Z 07014KT 9999 FEW030 SCT130 BKN250 30/20 A2993 NOSIG=
201607041600 METAR MRLB 041600Z COR 08011KT 9999 FEW035 SCT130 BKN250 31/21 A2994 NOSIG=
201607041700 METAR MRLB 041700Z 10012KT 9999 FEW035 SCT130 BKN240 30/21 A2992 NOSIG=
201607041800 METAR MRLB 041800Z 10014G24KT 9999 FEW035 BKN240 31/22 A2990 NOSIG=
201607041900 METAR MRLB 041900Z 09018G28KT 9999 SCT030 BKN250 32/22 A2989 NOSIG=
201607042000 METAR MRLB 042000Z 08018KT 9999 FEW035 BKN200 31/21 A2987 NOSIG=
201607042100 METAR MRLB 042100Z 08013KT 9999 FEW045 BKN100 30/21 A2985 NOSIG=
201607042200 METAR MRLB 042200Z 08014KT 9999 FEW045 BKN100 30/21 A2985 NOSIG=
201607042300 METAR MRLB 042300Z 08020G30KT 9999 FEW045 BKN100 29/21 A2985 NOSIG=
201607042352 METAR MRLB 050000Z 09016KT 9999 FEW045 BKN100 29/20 A2986 NOSIG=
201607050000 METAR MRLB 050000Z 30006KT 9999 FEW035 BKN250 29/25 A2987 NOSIG=
201607050100 METAR MRLB 050100Z 08020G30KT CAVOK 29/20 A2986 NOSIG=
201607050200 METAR MRLB 050200Z 09014KT 9999 FEW035 SCT130 28/20 A2988 NOSIG=
201607050300 METAR MRLB 050300Z 10008KT 9999 FEW035 BKN120 28/20 A2988 NOSIG=
201607050400 METAR MRLB 050400Z 13004KT 9999 FEW035 SCT120 26/20 A2990 NOSIG=
201607050500 METAR MRLB 050500Z 14007KT 9999 FEW035 SCT120 26/21 A2992 NOSIG=
201607050600 METAR MRLB 050600Z 10004KT 9999 FEW035 SCT120 26/21 A2992 NOSIG=
201607050700 METAR MRLB NIL=
201607050800 METAR MRLB NIL=
201607050900 METAR MRLB NIL=
201607051000 METAR MRLB NIL=
201607051100 METAR MRLB NIL=
201607051200 METAR MRLB 051200Z 00000KT CAVOK 26/21 A2987 NOSIG=
201607051300 METAR MRLB 051300Z 25003KT CAVOK 25/22 A2988 NOSIG=
201607051400 METAR MRLB 051400Z 05006KT 9999 FEW040 BKN250 29/22 A2989 NOSIG=
201607051500 METAR MRLB 051500Z 09016KT 9999 FEW040 BKN250 30/21 A2989 NOSIG=
201607051600 METAR MRLB 051600Z 09018G29KT 9999 FEW040 31/21 A2990 NOSIG=
201607051654 METAR MRLB 061700Z 07013KT 9999 FEW035 32/22 A2990 NOSIG=
201607051700 METAR MRLB NIL=
201607051800 METAR MRLB 051800Z 09011KT 9999 FEW035 SCT250 33/22 A2989 NOSIG=
201607051900 METAR MRLB 051900Z 08009KT 9999 SCT035 34/21 A2987 NOSIG=
201607052000 METAR MRLB 052000Z 12011KT 9999 FEW035 BKN250 33/22 A2985 NOSIG=
201607052100 METAR MRLB 052100Z 09008KT 9999 FEW035 BKN250 34/22 A2984 NOSIG=
201607052200 METAR MRLB 052200Z 09007KT 9999 FEW035 BKN250 32/21 A2984 NOSIG=
201607052300 METAR MRLB 052300Z 05006KT 9999 FEW035 BKN250 31/23 A2986 NOSIG=
201607060000 METAR MRLB NIL=
201607060100 METAR MRLB 060100Z 33006KT 9999 FEW035 BKN250 28/25 A2989 NOSIG=
201607060200 METAR MRLB 060200Z 33004KT 9999 FEW035 BKN250 27/25 A2990 NOSIG=
201607060300 METAR MRLB 060300Z 33006KT 9999 FEW035 BKN250 28/25 A2991 NOSIG=
201607060400 METAR MRLB 060400Z 28002KT 9999 FEW035 BKN250 27/25 A2992 NOSIG=
201607060500 METAR MRLB 060500Z 11003KT 9999 FEW035 BKN250 27/22 A2992 NOSIG=
201607060600 METAR MRLB 060600Z 16004KT 9999 FEW035 BKN250 26/22 A2991 NOSIG=
201607060700 METAR MRLB NIL=
201607060800 METAR MRLB NIL=
201607060900 METAR MRLB NIL=
201607061000 METAR MRLB NIL=
201607061100 METAR MRLB NIL=
201607061200 METAR MRLB 061200Z 10007KT 9999 FEW030 SCT250 27/22 A2987 NOSIG=
201607061300 METAR MRLB 061300Z 11008KT CAVOK 28/22 A2988 NOSIG=
201607061400 METAR MRLB 061400Z 10004KT 9999 FEW035 30/23 A2989 NOSIG=
201607061500 METAR MRLB 061500Z 07011KT 9999 FEW025 SCT250 31/23 A2988 NOSIG=
201607061600 METAR MRLB 061600Z 09009KT 9999 SCT025 SCT250 31/22 A2990 NOSIG=
201607061700 METAR MRLB 061700Z 08010KT 9999 FEW025 SCT250 32/23 A2989 NOSIG=
201607061800 METAR MRLB 061800Z 08011G24KT 9999 FEW025 SCT250 33/22 A2986 NOSIG=
201607061900 METAR MRLB 061900Z 11011KT 9999 FEW030 BKN250 33/22 A2984 NOSIG=
201607062000 METAR MRLB 062000Z 08010KT 9999 SCT030 BKN200 33/22 A2983 NOSIG=
201607062100 METAR MRLB 062100Z 07008KT 9999 SCT030 BKN200 32/24 A2981 NOSIG=
201607062200 METAR MRLB 062200Z 06010KT 9999 SCT030 BKN200 31/23 A2981 NOSIG=
201607062300 METAR MRLB 062300Z 07008KT 9999 SCT035 BKN200 30/22 A2982 NOSIG=
201607062350 METAR MRLB 070000Z 09006KT 9999 SCT030 BKN200 29/22 A2984 NOSIG=
201607062355 METAR MRLB 070000Z 09006KT 9999 SCT030 BKN200 29/22 A2984 NOSIG=
201607070000 METAR MRLB 070000Z 09006KT 9999 SCT030 BKN200 29/22 A2984 NOSIG=
201607070100 METAR MRLB 070100Z 10004KT 9999 FEW030 28/22 A2986 NOSIG=
201607070200 METAR MRLB 070200Z 07004KT 9999 FEW030 27/23 A2987 NOSIG=
201607070300 METAR MRLB 070300Z 05006KT 9999 FEW030 27/23 A2988 NOSIG=
201607070400 METAR MRLB 070400Z 07003KT 9999 FEW035 27/23 A2990 NOSIG=
201607070500 METAR MRLB 070500Z 00000KT 9999 FEW040 25/23 A2989 NOSIG=
201607070600 METAR MRLB 070600Z 07004KT 9999 FEW040 26/23 A2987 NOSIG=
201607070700 METAR MRLB NIL=
201607070800 METAR MRLB NIL=
201607070900 METAR MRLB NIL=
201607071000 METAR MRLB NIL=
201607071100 METAR MRLB NIL=
201607071200 METAR MRLB 071200Z 08010KT 9999 SCT030 BKN200 27/22 A2982 NOSIG=
201607071300 METAR MRLB 071300Z 09009KT 9999 SCT025 SCT130 28/22 A2985 NOSIG=
201607071400 METAR MRLB 071400Z 13004KT 9999 SCT030 SCT130 27/23 A2984 NOSIG=
201607071500 METAR MRLB 071500Z 12007KT 9999 FEW030 BKN130 27/22 A2988 NOSIG=
201607071600 METAR MRLB 071600Z 11007KT 9999 SCT030 BKN130 30/23 A2988 NOSIG=
201607071700 METAR MRLB 071700Z 11011KT 9999 FEW030 BKN120 29/23 A2985 NOSIG=
201607071800 METAR MRLB 071800Z 12011KT 9999 FEW030 BKN120 28/22 A2985 NOSIG=
201607071900 METAR MRLB 071900Z 11007KT 9999 FEW040 SCT140 29/23 A2985 NOSIG=
201607072000 METAR MRLB 072000Z 15006KT 9999 FEW040 BKN140 29/23 A2983 NOSIG=
201607072100 METAR MRLB 072100Z 17002KT 9999 FEW025 BKN140 30/24 A2982 NOSIG=
201607072200 METAR MRLB 072200Z 15003KT 9999 FEW025 BKN140 30/24 A2983 NOSIG=
201607072300 METAR MRLB 072300Z 11002KT CAVOK 30/24 A2982 NOSIG=
201607072358 METAR MRLB 080000Z 11004KT CAVOK 28/23 A2981 NOSIG=
201607080000 METAR MRLB 080000Z 11004KT CAVOK 28/23 A2981 NOSIG=
201607080100 METAR MRLB 080100Z 09002KT CAVOK 27/23 A2983 NOSIG=
201607080200 METAR MRLB 080200Z 15002KT CAVOK 27/23 A2985 NOSIG=
201607080300 METAR MRLB 080300Z 14005KT CAVOK 27/23 A2985 NOSIG=
201607080350 METAR MRLB 090400Z 12002KT CAVOK 26/23 A2987 NOSIG=
201607080400 METAR MRLB NIL=
201607080500 METAR MRLB 080500Z 12003KT CAVOK 26/23 A2988 NOSIG=
201607080600 METAR MRLB 080600Z 32002KT CAVOK 25/23 A2987 NOSIG=
201607080700 METAR MRLB NIL=
201607080800 METAR MRLB NIL=
201607080900 METAR MRLB NIL=
201607081000 METAR MRLB NIL=
201607081100 METAR MRLB NIL=
201607081200 METAR MRLB 081200Z 13002KT 9999 FEW030 BKN120 24/23 A2987 NOSIG=
201607081300 METAR MRLB 081300Z 17005KT 9999 SCT030 BKN120 25/23 A2990 NOSIG=
201607081400 METAR MRLB 081400Z 10006KT CAVOK 29/23 A2988 NOSIG=
201607081500 METAR MRLB 081500Z 08007KT CAVOK 30/22 A2986 NOSIG=
201607081600 METAR MRLB 081600Z 09005KT 9999 FEW030 SCT130 BKN250 32/23 A2986 NOSIG=
201607081700 METAR MRLB 081700Z 09012KT 9999 SCT030 BKN130 32/22 A2988 NOSIG=
201607081800 METAR MRLB 081800Z 09009KT 9999 SCT030 BKN130 33/22 A2987 NOSIG=
201607081900 METAR MRLB 081900Z 10007KT 9999 SCT030 BKN130 33/22 A2986 NOSIG=
201607082000 METAR MRLB 082000Z 10006KT 9999 SCT030 BKN130 32/22 A2983 NOSIG=
201607082100 METAR MRLB 082100Z 10006KT 9999 SCT030 BKN130 33/23 A2983 NOSIG=
201607082200 METAR MRLB 082200Z 02004KT 9999 FEW030 BKN110 32/24 A2983 NOSIG=
201607082300 METAR MRLB 082300Z 29006KT 9999 FEW025 BKN110 28/25 A2984 NOSIG=
201607082353 METAR MRLB 090000Z 28005KT CAVOK 28/24 A2984 NOSIG=
201607090000 METAR MRLB 090000Z 28005KT CAVOK 28/24 A2984 NOSIG=
201607090100 METAR MRLB 090100Z 24003KT CAVOK 27/24 A2985 NOSIG=
201607090200 METAR MRLB 090200Z 26003KT 9999 FEW030 BKN120 27/24 A2985 NOSIG=
201607090300 METAR MRLB 090300Z 24004KT 9999 FEW030 BKN120 26/24 A2985 NOSIG=
201607090400 METAR MRLB 090400Z 29003KT 9999 FEW030 BKN130 26/24 A2988 NOSIG=
201607090500 METAR MRLB 090500Z 08005KT 9999 FEW035 BKN130 26/24 A2989 NOSIG=
201607090600 METAR MRLB 090600Z 32003KT 9999 FEW035 BKN130 26/23 A2988 NOSIG=
201607090700 METAR MRLB NIL=
201607090800 METAR MRLB NIL=
201607090900 METAR MRLB NIL=
201607091000 METAR MRLB NIL=
201607091100 METAR MRLB NIL=
201607091200 METAR MRLB 091200Z 00000KT 9999 FEW035 SCT120 BKN240 25/24 A2988 NOSIG=
201607091300 METAR MRLB 091300Z 01003KT 9999 SCT030 SCT100 26/23 A2992 NOSIG=
201607091400 METAR MRLB 091400Z 01003KT 9999 BKN030 26/23 A2993 NOSIG=
201607091500 METAR MRLB 091500Z 08003KT 9999 DZ BKN025 26/23 A2994 NOSIG=
201607091600 METAR MRLB 091600Z COR 31005KT 9999 FEW020 BKN100 27/23 A2991 REDZ NOSIG=
201607091700 METAR MRLB 091700Z 27005KT 9999 FEW020 SCT100 BKN200 28/23 A2990 NOSIG=
201607091800 METAR MRLB 091800Z 25004KT 9999 FEW020 SCT120 BKN200 29/22 A2988 NOSIG=
201607091900 METAR MRLB 091900Z 30006KT 9999 FEW030 BKN140 29/23 A2986 NOSIG=
201607092000 METAR MRLB 092000Z 28005KT 9999 FEW030 SCT140 BKN250 30/23 A2985 NOSIG=
201607092100 METAR MRLB 092100Z 31006KT 9999 FEW030 SCT140 BKN250 30/2 A2983 NOSIG=
201607092200 METAR MRLB 092200Z 27003KT 9999 FEW030 OVC140 29/23 A2984 NOSIG=
201607092300 METAR MRLB 092300Z 36003KT 9999 FEW045 OVC130 28/22 A2984 NOSIG=
201607092352 METAR MRLB 100000Z 19003KT 9999 SCT045 BKN130 27/23 A2986 NOSIG=
201607100000 METAR MRLB 100000Z 19003KT 9999 SCT045 BKN130 27/23 A2986 NOSIG=
201607100100 METAR MRLB 100100Z 12008KT 9999 SCT045 BKN130 27/21 A2985 NOSIG=
201607100200 METAR MRLB 100200Z 04004KT CAVOK 26/22 A2988 NOSIG=
201607100300 METAR MRLB 100300Z 31004KT CAVOK 25/22 A2989 NOSIG=
201607100400 METAR MRLB 100400Z 31004KT CAVOK 25/22 A2989 NOSIG=
201607100500 METAR MRLB 100500Z 21006KT CAVOK 25/22 A2987 NOSIG=
201607100600 METAR MRLB 100600Z 28002KT CAVOK 24/22 A2986 NOSIG=
201607100700 METAR MRLB NIL=
201607100800 METAR MRLB NIL=
201607100900 METAR MRLB NIL=
201607101000 METAR MRLB NIL=
201607101100 METAR MRLB NIL=
201607101200 METAR MRLB 101200Z 00000KT 9999 FEW025 BKN250 25/22 A2988 NOSIG=
201607101300 METAR MRLB 101300Z 12006KT 9999 FEW030 BKN250 28/23 A2987 NOSIG=
201607101400 METAR MRLB 101400Z 14009KT 9999 FEW030 BKN250 29/23 A2988 NOSIG=
201607101500 METAR MRLB 101500Z 09010KT 9999 FEW025 BKN250 31/22 A2990 NOSIG=
201607101600 METAR MRLB 101600Z 09011KT 9999 FEW025 BKN250 32/23 A2988 NOSIG=
201607101700 METAR MRLB 101700Z 08011KT 9999 FEW025 SCT120 BKN250 33/23 A2987 NOSIG=
201607101800 METAR MRLB 101800Z 10010KT 9999 FEW025 SCT120 BKN250 32/22 A2987 NOSIG=
201607101900 METAR MRLB 101900Z 10008KT 9999 FEW030 SCT120 BKN250 32/23 A2985 NOSIG=
201607102000 METAR MRLB 102000Z 06011KT 9999 SCT030 SCT120 31/23 A2985 NOSIG=
201607102100 METAR MRLB 102100Z 07008KT 9999 SCT030 BKN120 31/23 A2984 NOSIG=
201607102200 METAR MRLB 102200Z 07007KT 9999 FEW030 BKN130 30/22 A2982 NOSIG=
201607102300 METAR MRLB 102300Z 05003KT 9999 FEW030 BKN130 30/22 A2984 NOSIG=
201607102349 METAR MRLB 110000Z 08005KT 9999 FEW030 BKN140 29/23 A2985 NOSIG=
201607110000 METAR MRLB 110000Z 08005KT 9999 FEW030 BKN140 29/23 A2985 NOSIG=
201607110100 METAR MRLB 110100Z 11003KT 9999 FEW040 SCT130 28/22 A2987 NOSIG=
201607110200 METAR MRLB 110200Z 07006KT 9999 FEW040 SCT130 27/22 A2987 NOSIG=
201607110300 METAR MRLB 110300Z 10003KT 9999 FEW040 SCT120 27/22 A2989 NOSIG=
201607110400 METAR MRLB 110400Z 12004KT 9999 FEW040 SCT120 26/22 A2990 NOSIG=
201607110500 METAR MRLB 110500Z 20005KT 9999 FEW040 SCT120 25/23 A2992 NOSIG=
201607110600 METAR MRLB 110600Z 29002KT 9999 FEW030 BKN120 25/24 A2991 RERA NOSIG=
201607110700 METAR MRLB NIL=
201607110800 METAR MRLB NIL=
201607110900 METAR MRLB NIL=
201607111000 METAR MRLB NIL=
201607111100 METAR MRLB NIL=
201607111200 METAR MRLB 111200Z 03003KT 9999 -RA FEW025 BKN100 23/22 A2988 NOSIG=
201607111300 METAR MRLB 111300Z 30004KT 9999 -DZ FEW020 BKN100 23/22 A2989 NOSIG=
201607111400 METAR MRLB 111400Z 17003KT 9999 FEW030 BKN100 23/22 A2990 NOSIG=
201607111500 METAR MRLB 111500Z 16003KT 9999 FEW035 BKN120 24/23 A2992 NOSIG=
201607111600 METAR MRLB 111600Z 15003KT 9999 FEW035 BKN130 27/23 A2992 NOSIG=
201607111700 METAR MRLB 111700Z 25003KT 9999 FEW035 BKN140 29/23 A2989 NOSIG=
201607111800 METAR MRLB 111800Z 09010KT 9999 FEW035 BKN200 31/22 A2987 NOSIG=
201607111900 METAR MRLB 111900Z 12008KT 9999 FEW035 BKN140 30/22 A2986 NOSIG=
201607112000 METAR MRLB 112000Z 12007KT 9999 FEW035 BKN140 30/23 A2984 NOSIG=
201607112100 METAR MRLB 112100Z 11008KT 9999 FEW035 BKN140 31/23 A2983 NOSIG=
201607112200 METAR MRLB 112200Z 08007KT 9999 FEW030 BKN140 30/22 A2982 NOSIG=
201607112300 METAR MRLB 112300Z 10004KT 9999 FEW030 BKN120 29/23 A2983 NOSIG=
201607112352 METAR MRLB 120000Z 09006KT 9999 FEW030 BKN120 28/21 A2984 NOSIG=
201607120000 METAR MRLB 120000Z 09006KT 9999 FEW030 BKN120 28/21 A2984 NOSIG=
201607120051 METAR MRLB 1200100Z 09006KT CAVOK 27/21 A2986 NOSIG=
201607120100 METAR MRLB 120100Z 09006KT CAVOK 27/21 A2986 NOSIG RMK SCT120 SCT250=
201607120200 METAR MRLB 120200Z 08006KT CAVOK 27/21 A2986 NOSIG=
201607120300 METAR MRLB 120300Z 30002KT CAVOK 25/22 A2988 NOSIG=
201607120400 METAR MRLB 120400Z 11006KT CAVOK 27/22 A2990 NOSIG=
201607120500 METAR MRLB 120500Z 15004KT CAVOK 26/22 A2988 NOSIG=
201607120600 METAR MRLB 120600Z 20002KT CAVOK 25/22 A2989 NOSIG=
201607120700 METAR MRLB NIL=
201607120800 METAR MRLB NIL=
201607120900 METAR MRLB NIL=
201607121000 METAR MRLB NIL=
201607121100 METAR MRLB NIL=
201607121200 METAR MRLB 121200Z 04004KT 9999 FEW035 SCT130 23/22 A2985 NOSIG=
201607121300 METAR MRLB 121300Z 07003KT 9999 SCT035 26/23 A2987 NOSIG=
201607121400 METAR MRLB 121400Z 01002KT 9999 FEW035 SCT130 27/23 A2988 NOSIG=
201607121500 METAR MRLB 121500Z 28002KT 9999 FEW030 29/23 A2988 NOSIG=
201607121600 METAR MRLB 121600Z 30002KT 9999 SCT030 31/23 A2987 NOSIG=
201607121700 METAR MRLB 121700Z 12009KT 9999 SCT030 SCT250 32/23 A2987 NOSIG=
201607121800 METAR MRLB 121800Z 35003KT 9999 SCT030 SCT250 32/24 A2984 NOSIG=
201607121900 METAR MRLB 121900Z 32005KT 9999 SCT030 SCT250 33/24 A2981 NOSIG=
201607122000 METAR MRLB 122000Z 33002KT 9999 SCT030 SCT250 33/24 A2979 NOSIG=
201607122100 METAR MRLB 122100Z 02004KT 9999 VCSH SCT025TCU FEW030 SCT120 32/24 A2978 NOSIG=
201607122200 METAR MRLB 122200Z 13010KT 9999 FEW020CB SCT025TCU SCT120 29/23 A2980 NOSIG=
201607122300 METAR MRLB 122300Z 16007KT 9999 FEW010 SCT025 BKN100 26/23 A2981 NOSIG=
201607122353 METAR MRLB 130000Z 12003KT 9999 OVC025 26/24 A2985 NOSIG=
201607130000 METAR MRLB 130000Z 12003KT 9999 OVC025 26/24 A2985 NOSIG=
201607130100 METAR MRLB 130100Z 08003KT 9999 FEW025 BKN100 25/23 A2988 NOSIG=
201607130200 METAR MRLB 130200Z 12003KT 9999 -RA SCT020 BKN100 25/24 A2989 NOSIG=
201607130300 METAR MRLB 130300Z 14003KT 9999 -RA SCT025 BKN100 25/24 A2990 NOSIG=
201607130400 METAR MRLB 130400Z 16003KT 9999 FEW025 BKN100 25/24 A2991 NOSIG=
201607130500 METAR MRLB 130500Z 19003KT 9999 FEW020 BKN100 25/24 A2991 NOSIG=
201607130600 METAR MRLB 130600Z 22003KT 9999 FEW025 BKN100 24/23 A2991 NOSIG=
201607130700 METAR MRLB NIL=
201607130800 METAR MRLB NIL=
201607130900 METAR MRLB NIL=
201607131000 METAR MRLB NIL=
201607131100 METAR MRLB NIL=
201607131200 METAR MRLB 131200Z 00000KT 9999 1000E PRFG SCT001 BKN240 23/22 A2989 NOSIG=
201607131300 METAR MRLB 131300Z 00000KT 9999 FEW002 SCT240 25/23 A2989 NOSIG=
201607131400 METAR MRLB 131400Z 16002KT 9999 FEW020 SCT100 BKN240 27/23 A2991 NOSIG=
201607131500 METAR MRLB 131500Z 10003KT 9999 FEW020 SCT120 BKN250 29/23 A2992 NOSIG=
201607131600 METAR MRLB 131600Z 09007KT 9999 FEW025 BKN120 29/23 A2992 NOSIG=
201607131700 METAR MRLB 131700Z 09009KT 9999 FEW020 BKN120 29/23 A2993 NOSIG=
201607131800 METAR MRLB 131800Z 08009KT 9999 FEW030 BKN120 30/23 A2989 NOSIG=
201607131900 METAR MRLB 131900Z 09012KT 9999 FEW030 BKN120 30/22 A2987 NOSIG=
201607132000 METAR MRLB 132000Z 08013KT 9999 FEW025 BKN120 31/22 A2986 NOSIG=
201607132100 METAR MRLB 132100Z 07013KT 9999 FEW025 BKN120 31/22 A2985 NOSIG=
201607132200 METAR MRLB 132200Z 07014KT 9999 FEW030 BKN120 29/21 A2986 NOSIG=
201607132300 METAR MRLB 132300Z 12005KT 9999 FEW030 BKN120 26/22 A2986 NOSIG=
201607132355 METAR MRLB 140000Z 12006KT 9999 FEW030 BKN120 26/21 A2986 NOSIG=
201607140000 METAR MRLB 140000Z 12006KT 9999 FEW030 BKN120 26/21 A2986 NOSIG=
201607140100 METAR MRLB 140100Z 14004KT 9999 FEW030 BKN120 26/21 A2987 NOSIG=
201607140200 METAR MRLB 140200Z 13006KT 9999 FEW030 BKN130 26/21 A2989 NOSIG=
201607140300 METAR MRLB 140300Z 03004KT 9999 FEW030 BKN130 25/21 A2991 NOSIG=
201607140400 METAR MRLB 140400Z 13004KT 9999 FEW030 BKN130 26/21 A2993 NOSIG=
201607140500 METAR MRLB 140500Z 17004KT CAVOK 25/21 A2992 NOSIG=
201607140600 METAR MRLB 140600Z 11004KT CAVOK 25/21 A2992 NOSIG=
201607140700 METAR MRLB NIL=
201607140800 METAR MRLB NIL=
201607140900 METAR MRLB NIL=
201607141000 METAR MRLB NIL=
201607141100 METAR MRLB NIL=
201607141200 METAR MRLB 141200Z 00000KT CAVOK 25/21 A2988 NOSIG=
201607141300 METAR MRLB 141300Z 11007KT CAVOK 27/22 A2990 NOSIG=
201607141400 METAR MRLB 141400Z 10008KT CAVOK 29/22 A2990 NOSIG=
201607141500 METAR MRLB 141500Z 08014G26KT CAVOK 30/22 A2990 NOSIG=
201607141600 METAR MRLB 141600Z 08017KT 9999 FEW030 31/21 A2990 NOSIG=
201607141700 METAR MRLB 141700Z 09016KT 9999 FEW030 32/21 A2989 NOSIG=
201607141800 METAR MRLB 141800Z 08013KT 9999 FEW030 33/22 A2988 NOSIG=
201607141900 METAR MRLB 141900Z 08012KT 9999 FEW030 33/21 A2987 NOSIG=
201607142000 METAR MRLB 142000Z 07011KT 9999 FEW030 SCT250 33/21 A2985 NOSIG=
201607142100 METAR MRLB 142100Z 08010KT 9999 FEW035 SCT250 33/21 A2983 NOSIG=
201607142200 METAR MRLB 142200Z 09010KT 9999 FEW035 SCT250 32/20 A2983 NOSIG=
201607142300 METAR MRLB 142300Z 09009KT 9999 FEW035 BKN250 31/21 A2984 NOSIG=
201607142350 METAR MRLB 150000Z 08011KT 9999 FEW035 SCT250 29/20 A2984 NOSIG=
201607150000 METAR MRLB 150000Z 08011KT 9999 FEW035 SCT250 29/20 A2984 NOSIG=
201607150100 METAR MRLB 150100Z 15004KT 9999 FEW035 BKN120 27/20 A2987 NOSIG=
201607150200 METAR MRLB 150200Z 15004KT 9999 FEW035 SCT120 27/21 A2990 NOSIG=
201607150300 METAR MRLB 150300Z 15005KT 9999 FEW035 SCT120 26/21 A2993 NOSIG=
201607150400 METAR MRLB 150400Z 16004KT 9999 FEW040 SCT120 25/21 A2994 NOSIG=
201607150500 METAR MRLB 150500Z 14005KT 9999 FEW040 25/21 A2994 NOSIG=
201607150600 METAR MRLB 150600Z 13005KT 9999 FEW040 25/21 A2993 NOSIG=
201607150700 METAR MRLB NIL=
201607150800 METAR MRLB NIL=
201607150900 METAR MRLB NIL=
201607151000 METAR MRLB NIL=
201607151100 METAR MRLB NIL=
201607151200 METAR MRLB 151200Z 12003KT CAVOK 23/21 A2988 NOSIG=
201607151300 METAR MRLB 151300Z 25004KT CAVOK 25/22 A2989 NOSIG=
201607151400 METAR MRLB 151400Z 22006KT 9999 FEW030 SCT250 28/22 A2990 NOSIG=
201607151500 METAR MRLB 151500Z 26003KT 9999 FEW035 SCT250 29/22 A2990 NOSIG=
201607151600 METAR MRLB 151600Z 05003KT 9999 FEW035 BKN250 30/22 A2990 NOSIG=
201607151700 METAR MRLB 151700Z 10010KT 9999 FEW035 BKN250 32/22 A2988 NOSIG=
201607151800 METAR MRLB 151800Z 09016KT 9999 FEW035 BKN200 32/21 A2988 NOSIG=
201607151900 METAR MRLB 151900Z 09015G25KT 9999 FEW030 SCT120 BKN250 33/21 A2985 NOSIG=
201607152000 METAR MRLB 152000Z 09012KT 9999 FEW035 BKN250 32/21 A2983 NOSIG=
201607152100 METAR MRLB 152100Z 09012KT 9999 FEW035 BKN250 32/21 A2981 NOSIG=
201607152200 METAR MRLB 152200Z 08011KT CAVOK 32/21 A2981 NOSIG=
201607152300 METAR MRLB 152300Z 07013KT CAVOK 31/20 A2982 NOSIG=
201607152353 METAR MRLB 160000Z 08009KT 9999 FEW035 SCT130 BKN250 29/20 A2984 NOSIG=
201607160000 METAR MRLB 160000Z 08009KT 9999 FEW035 SCT130 BKN250 29/20 A2984 NOSIG=
201607160100 METAR MRLB 160100Z 09007KT 9999 FEW035 BKN130 27/20 A2986 NOSIG=
201607160200 METAR MRLB 160200Z 09090KT 9999 FEW035 BKN130 27/20 A2987 NOSIG=
201607160300 METAR MRLB NIL=
201607160400 METAR MRLB 160400Z 28004KT CAVOK 25/21 A2991 NOSIG=
201607160500 METAR MRLB 160500Z 11005KT CAVOK 25/21 A2990 NOSIG=
201607160600 METAR MRLB 160600Z 19004KT CAVOK 25/20 A2988 NOSIG=
201607160700 METAR MRLB NIL=
201607160800 METAR MRLB NIL=
201607160900 METAR MRLB NIL=
201607161000 METAR MRLB NIL=
201607161100 METAR MRLB NIL=
201607161200 METAR MRLB 161200Z 08002KT CAVOK 22/20 A2987 NOSIG=
201607161300 METAR MRLB 161300Z 13002KT CAVOK 26/21 A2987 NOSIG=
201607161400 METAR MRLB 161400Z 13004KT CAVOK 28/22 A2989 NOSIG=
201607161500 METAR MRLB 161500Z 11008KT 9999 FEW035 BKN250 30/22 A2990 NOSIG=
201607161600 METAR MRLB 161600Z 08012KT 9999 FEW035 BKN250 32/22 A2990 NOSIG=
201607161700 METAR MRLB 161700Z 08008KT 9999 SCT035 BKN250 32/22 A2989 NOSIG=
201607161800 METAR MRLB 161800Z 08009KT 9999 SCT035 BKN250 32/21 A2987 NOSIG=
201607161900 METAR MRLB 161900Z 08011KT 9999 SCT035 BKN250 33/21 A2986 NOSIG=
201607162000 METAR MRLB 162000Z 08013KT 9999 FEW030TCU SCT100 BKN240 33/20 A2984 NOSIG=
201607162100 METAR MRLB 162100Z 10011KT 9999 FEW030 SCT100 BKN240 31/19 A2982 NOSIG=
201607162200 METAR MRLB 162200Z 12010KT 9999 FEW035 BKN200 30/20 A2983 NOSIG=
201607162300 METAR MRLB 162300Z 10010KT CAVOK 29/18 A2983 NOSIG=
201607170000 METAR MRLB 170000Z 11008KT 9999 FEW045 SCT120 BKN200 28/19 A2984 NOSIG=
201607170100 METAR MRLB NIL=
201607170200 METAR MRLB 170200Z 13004KT 9999 FEW035 BKN200 27/19 A2987 NOSIG=
201607170300 METAR MRLB 170300Z 17004KT 9999 FEW035 BKN250 26/20 A2988 NOSIG=
201607170400 METAR MRLB 170400Z 09003KT 9999 FEW035 SCT250 26/20 A2989 NOSIG=
201607170500 METAR MRLB 170500Z 26006KT 9999 FEW030 BKN200 25/21 A2990 NOSIG=
201607170600 METAR MRLB 170600Z 22004KT 9999 FEW030 BKN200 24/21 A2989 NOSIG=
201607170700 METAR MRLB NIL=
201607170800 METAR MRLB NIL=
201607170900 METAR MRLB NIL=
201607171000 METAR MRLB NIL=
201607171100 METAR MRLB NIL=
201607171200 METAR MRLB 171200Z 21003KT 9999 FEW045 BKN120 23/21 A2988 NOSIG=
201607171300 METAR MRLB 171300Z 05002KT 9999 SCT045 BKN120 25/21 A2989 NOSIG=
201607171400 METAR MRLB 171400Z 00000KT 9999 FEW040 BKN120 26/22 A2992 NOSIG=
201607171500 METAR MRLB 171500Z 04006KT 9999 FEW040 BKN120 27/23 A2994 NOSIG=
201607171600 METAR MRLB 171600Z 01004KT 9999 FEW035 BKN120 27/23 A2994 NOSIG=
201607171700 METAR MRLB 171700Z 07012KT 9999 FEW035 SCT120 BKN200 30/21 A2992 NOSIG=
201607171800 METAR MRLB 171800Z 10014KT 9999 FEW030 SCT120 BKN220 30/21 A2990 NOSIG=
201607171900 METAR MRLB 171900Z 10011KT 9999 FEW030 SCT120 BKN200 31/21 A2987 NOSIG=
201607172000 METAR MRLB 172000Z 05005KT 9999 FEW030 SCT120 BKN200 31/22 A2985 NOSIG=
201607172100 METAR MRLB 172100Z 09010KT 9999 FEW030 SCT120 BKN200 30/20 A2983 NOSIG=
201607172200 METAR MRLB 172200Z 28007KT 9999 FEW030 BKN120 30/21 A2983 NOSIG=
201607172300 METAR MRLB 172300Z 17003KT 9999 FEW030 BKN120 29/22 A2984 NOSIG=
201607172353 METAR MRLB 180000Z 19003KT 9999 FEW030 BKN120 28/22 A2983 NOSIG=
201607180000 METAR MRLB 180000Z 19003KT 9999 FEW030 BKN120 28/22 A2983 NOSIG=
201607180100 METAR MRLB 180100Z 20002KT CAVOK 26/21 A2983 NOSIG=
201607180200 METAR MRLB 180200Z 09006KT CAVOK 25/21 A2986 NOSIG=
201607180300 METAR MRLB 180300Z 11004KT CAVOK 26/20 A2986 NOSIG=
201607180400 METAR MRLB 180400Z 15009KT CAVOK 26/21 A2989 NOSIG=
201607180500 METAR MRLB 180500Z COR 08008KT 9999 FEW035 BKN130 26/20 A2991 NOSIG=
201607180600 METAR MRLB 180600Z 14005KT 9999 FEW035 BKN130 26/21 A2991 NOSIG=
201607180700 METAR MRLB NIL=
201607180800 METAR MRLB NIL=
201607180900 METAR MRLB NIL=
201607181000 METAR MRLB NIL=
201607181100 METAR MRLB NIL=
201607181200 METAR MRLB 181200Z 28003KT 9999 FEW030 BKN120 23/21 A2987 NOSIG=
201607181300 METAR MRLB 181300Z 20005KT 9999 FEW030 BKN120 24/21 A2987 NOSIG=
201607181400 METAR MRLB 181400Z 29005KT 9999 FEW035 BKN120 26/22 A2986 NOSIG=
201607181500 METAR MRLB 181500Z 17005KT 9999 FEW030 BKN120 28/22 A2989 NOSIG=
201607181600 METAR MRLB 181600Z 16003KT 9999 FEW025 BKN100 30/23 A2991 NOSIG=
201607181700 METAR MRLB 181700Z 10009KT 9999 FEW025 BKN100 30/21 A2990 NOSIG=
201607181800 METAR MRLB 181800Z 07004KT 9999 DZ FEW025 BKN100 30/21 A2989 NOSIG=
201607181900 METAR MRLB 181900Z COR 36009KT 9999 RA SCT020 BKN100 27/22 A2986 NOSIG=
201607182000 METAR MRLB 182000Z 03010KT 9999 VCSH SCT025 BKN100 24/23 A2985 RERA/ NOSIG=
201607182100 METAR MRLB 182100Z 25004KT 9999 FEW020 BKN100 25/23 A2984 NOSIG=
201607182200 METAR MRLB 182200Z 21008KT 9999 4000E RA SCT020 BKN100 24/23 A2984 NOSIG=
201607182300 METAR MRLB 182300Z 18005KT 9999 3000SW RA FEW008 SCT015 BKN100 23/22 A2985 NOSIG=
201607182350 METAR MRLB 190000Z 08003KT 4000 RA FEW010 SCT020 BKN100 24/23 A2987 NOSIG=
201607190000 METAR MRLB 190000Z 08003KT 4000 RA FEW010 SCT020 BKN100 24/23 A2987 NOSIG=
201607190100 METAR MRLB 190100Z 08005KT 5000 RA FEW005 SCT015 BKN100 23/22 A2990 NOSIG=
201607190200 METAR MRLB 190200Z 10004KT 7000 RA FEW008 SCT020 BKN100 23/22 A2991 NOSIG=
201607190300 METAR MRLB 190300Z 11003KT 7000 RA FEW010 SCT020 BKN100 23/22 A2991 NOSIG=
201607190400 METAR MRLB 190400Z 11004KT 8000 RA SCT020 BKN100 23/22 A2990 NOSIG=
201607190500 METAR MRLB 190500Z 11004KT 9999 DZ SCT020 BKN100 23/22 A2991 RERA NOSIG=
201607190600 METAR MRLB 190600Z 14003KT 9999 DZ FEW020 BKN100 23/22 A2989 NOSIG=
201607190700 METAR MRLB NIL=
201607190800 METAR MRLB NIL=
201607190900 METAR MRLB NIL=
201607191000 METAR MRLB NIL=
201607191100 METAR MRLB NIL=
201607191200 METAR MRLB 191200Z 30003KT 9999 FEW020 BKN100 23/22 A2987 NOSIG=
201607191300 METAR MRLB 191300Z 00000KT 9999 -DZ FEW020 BKN100 23/22 A2990 NOSIG=
201607191400 METAR MRLB 191400Z 00000KT 9999 -DZ FEW025 BKN100 23/22 A2992 NOSIG=
201607191500 METAR MRLB 191500Z 04004KT 9999 FEW025 BKN120 24/23 A2992 NOSIG=
201607191600 METAR MRLB 191600Z 32003KT 9999 FEW030 BKN120 25/23 A2991 NOSIG=
201607191700 METAR MRLB 191700Z 27003KT 9999 FEW030 BKN120 26/23 A2991 NOSIG=
201607191800 METAR MRLB 191800Z 32003KT 9999 FEW030 BKN120 27/23 A2989 NOSIG=
201607191900 METAR MRLB 191900Z 22003KT 9999 FEW025 BKN130 28/24 A2988 NOSIG=
201607192000 METAR MRLB 192000Z 30006KT 9999 SCT030 BKN140 28/24 A2986 NOSIG=
201607192100 METAR MRLB 192100Z 28002KT 9999 FEW030 BKN140 29/23 A2985 NOSIG=
201607192200 METAR MRLB 192200Z 22002KT 9999 FEW030 BKN140 29/24 A2984 NOSIG=
201607192300 METAR MRLB 192300Z 25002KT 9999 FEW030 BKN140 28/23 A2984 NOSIG=
201607192352 METAR MRLB 200000Z 35002KT 9999 FEW030 BKN130 27/23 A2985 NOSIG=
201607200000 METAR MRLB 200000Z 35002KT 9999 FEW030 BKN130 27/23 A2985 NOSIG=
201607200100 METAR MRLB 200100Z 00000KT 9999 FEW030 BKN130 26/24 A2987 NOSIG=
201607200200 METAR MRLB 200200Z 18002KT 9999 FEW030 BKN130 25/24 A2991 NOSIG=
201607200300 METAR MRLB 200300Z 20003KT 9999 FEW030 BKN130 25/23 A2992 NOSIG=
201607200400 METAR MRLB 200400Z 18003KT 9999 FEW030 BKN130 24/23 A2994 NOSIG=
201607200500 METAR MRLB 200500Z 00000KT 9999 FEW030 BKN130 24/23 A2993 NOSIG=
201607200600 METAR MRLB 200600Z 00000KT CAVOK 24/23 A2992 NOSIG=
201607200700 METAR MRLB NIL=
201607200800 METAR MRLB NIL=
201607200900 METAR MRLB NIL=
201607201000 METAR MRLB NIL=
201607201100 METAR MRLB NIL=
201607201200 METAR MRLB 201200Z 00000KT 9999 VCFG FEW030 SCT250 22/21 A2989 NOSIG=
201607201300 METAR MRLB 201300Z 00000KT 9999 1000S BR FEW002 SCT250 23/22 A2993 NOSIG=
201607201400 METAR MRLB 201400Z 00000KT 9999 FEW015 SCT250 27/24 A2993 NOSIG=
201607201500 METAR MRLB 201500Z 02002KT 9999 FEW025 SCT250 28/23 A2994 NOSIG=
201607201600 METAR MRLB 201600Z 36004KT 9999 SCT025 29/23 A2995 NOSIG=
201607201700 METAR MRLB 201700Z COR 00000KT 9999 VCSH FEW020TCU SCT025 30/23 A2994 NOSIG=
201607201800 METAR MRLB 201800Z 02004KT 9999 BKN025 31/24 A2993 NOSIG=
201607201900 METAR MRLB 201900Z 32007KT 9999 VCSH FEW020TCU FEW025 BKN140 28/24 A2992 NOSIG=
201607202000 METAR MRLB 202000Z 35004KT 9999 SCT025 SCT120 29/24 A2989 NOSIG=
201607202100 METAR MRLB 202100Z 30006KT 9999 FEW025 BKN100 29/24 A2987 NOSIG=
201607202200 METAR MRLB 202200Z 33004KT 9999 FEW030 BKN100 28/24 A2985 NOSIG=
201607202300 METAR MRLB 202300Z 22002KT 9999 FEW040 BKN100 28/24 A2985 NOSIG=
201607202352 METAR MRLB 210000Z 20003KT CAVOK 28/23 A2987 NOSIG=
201607210000 METAR MRLB 210000Z 20003KT CAVOK 28/23 A2987 NOSIG=
201607210100 METAR MRLB 210100Z 11005KT CAVOK 26/21 A2990 NOSIG=
201607210200 METAR MRLB 210200Z 12004KT CAVOK 26/20 A2992 NOSIG=
201607210300 METAR MRLB 210300Z 13003KT CAVOK 26/20 A2993 NOSIG=
201607210400 METAR MRLB 210400Z 12007KT CAVOK 26/21 A2994 NOSIG=
201607210500 METAR MRLB 210500Z 10012KT CAVOK 27/20 A2994 NOSIG=
201607210600 METAR MRLB 210600Z 09011KT CAVOK 26/21 A2993 NOSIG=
201607210700 METAR MRLB NIL=
201607210800 METAR MRLB NIL=
201607210900 METAR MRLB NIL=
201607211000 METAR MRLB NIL=
201607211100 METAR MRLB NIL=
201607211200 METAR MRLB 211200Z 35003KT CAVOK 22/21 A2987 NOSIG=
201607211300 METAR MRLB 211300Z 09005KT CAVOK 25/22 A2988 NOSIG=
201607211400 METAR MRLB 211400Z 31003KT CAVOK 28/22 A2988 NOSIG=
201607211500 METAR MRLB 211500Z 32003KT CAVOK 29/22 A2988 NOSIG=
201607211600 METAR MRLB 211600Z 31003KT 9999 FEW030 31/22 A2989 NOSIG=
201607211700 METAR MRLB 211700Z 09016KT 9999 FEW030 32/22 A2989 NOSIG=
201607211800 METAR MRLB 211800Z 08010KT 9999 FEW030 32/22 A2989 NOSIG=
201607211900 METAR MRLB 211900Z 10011KT 9999 SCT025 32/21 A2988 NOSIG=
201607212000 METAR MRLB 212000Z 09010KT 9999 SCT025 33/21 A2986 NOSIG=
201607212100 METAR MRLB 212100Z 10008KT 9999 SCT030 33/20 A2985 NOSIG=
201607212200 METAR MRLB 212200Z 10007KT 9999 FEW030 33/21 A2984 NOSIG=
201607212300 METAR MRLB 212300Z 07007KT 9999 FEW030 BKN250 32/21 A2986 NOSIG=
201607212355 METAR MRLB 220000Z 09006KT 9999 FEW030 BKN250 30/21 A2986 NOSIG=
201607220000 METAR MRLB 220000Z 09006KT 9999 FEW030 BKN250 30/21 A2986 NOSIG=
201607220100 METAR MRLB 220100Z 07006KT 9999 FEW040 BKN250 28/21 A2989 NOSIG=
201607220200 METAR MRLB 220200Z 09005KT CAVOK 28/21 A2990 NOSIG=
201607220300 METAR MRLB 220300Z 09006KT CAVOK 28/21 A2993 NOSIG=
201607220400 METAR MRLB 220400Z 00000KT CAVOK 26/21 A2993 NOSIG=
201607220500 METAR MRLB 220500Z 09005KT CAVOK 27/21 A2993 NOSIG=
201607220600 METAR MRLB 220600Z 22002KT CAVOK 25/21 A2991 NOSIG=
201607220700 METAR MRLB NIL=
201607220800 METAR MRLB NIL=
201607220900 METAR MRLB NIL=
201607221000 METAR MRLB NIL=
201607221100 METAR MRLB NIL=
201607221200 METAR MRLB 221200Z 25002KT 9999 FEW045 SCT130 23/22 A2988 NOSIG=
201607221300 METAR MRLB 221300Z 27003KT 9999 FEW040 SCT120 26/22 A2989 NOSIG=
201607221400 METAR MRLB 221400Z 23003KT 9999 FEW040 BKN250 29/23 A2990 NOSIG=
201607221500 METAR MRLB 221500Z 10010KT 9999 FEW035 SCT120 BKN250 30/22 A2989 NOSIG=
201607221600 METAR MRLB 221600Z 07007KT 9999 FEW030 BKN120 30/23 A2991 NOSIG=
201607221700 METAR MRLB 221700Z 09010KT 9999 FEW030 BKN120 31/23 A2992 NOSIG=
201607221800 METAR MRLB 221800Z 08011KT 9999 FEW030 SCT100 BKN250 31/22 A2991 NOSIG=
201607221900 METAR MRLB 221900Z 08007KT 9999 FEW030 BKN100 30/22 A2990 NOSIG=
201607222000 METAR MRLB 222000Z 09006KT 9999 FEW035 BKN120 30/23 A2989 NOSIG=
201607222100 METAR MRLB 222100Z 12007KT 9999 VCSH SCT020 BKN100 26/22 A2990 RERA NOSIG=
201607222200 METAR MRLB 222200Z 10003KT 9999 FEW030 BKN120 25/22 A2988 NOSIG=
201607222300 METAR MRLB 222300Z 15004KT 9999 FEW035 BKN120 26/22 A2987 NOSIG=
201607222349 METAR MRLB 230000Z 26003KT 9999 FEW030 BKN120 25/23 A2988 NOSIG=
201607230000 METAR MRLB 230000Z 26003KT 9999 FEW030 BKN120 25/23 A2988 NOSIG=
201607230100 METAR MRLB 230100Z 19003KT 9999 FEW040 BKN120 24/23 A2990 NOSIG=
201607230200 METAR MRLB 230200Z 20003KT 9999 FEW040 BKN120 24/23 A2990 NOSIG=
201607230300 METAR MRLB 230300Z 16004KT 9999 FEW040 BKN120 24/22 A2990 NOSIG=
201607230400 METAR MRLB 230400Z 31002KT 9999 FEW040 BKN120 23/21 A2991 NOSIG=
201607230500 METAR MRLB 230500Z 00000KT 9999 FEW040 BKN120 23/21 A2992 NOSIG=
201607230600 METAR MRLB 230600Z 27003KT 9999 FEW040 BKN120 23/22 A2990 NOSIG=
201607230700 METAR MRLB NIL=
201607230800 METAR MRLB NIL=
201607230900 METAR MRLB NIL=
201607231000 METAR MRLB NIL=
201607231100 METAR MRLB NIL=
201607231200 METAR MRLB 231200Z 05006KT 9999 FEW030 BKN130 21/20 A2987 NOSIG=
201607231300 METAR MRLB 231300Z 06003KT CAVOK 23/21 A2988 NOSIG=
201607231400 METAR MRLB 231400Z 20004KT CAVOK 24/22 A2990 NOSIG=
201607231500 METAR MRLB 231500Z 25003KT 9999 FEW030 BKN200 27/23 A2991 NOSIG=
201607231600 METAR MRLB 231600Z 19003KT 9999 FEW035 BKN200 28/23 A2992 NOSIG=
201607231700 METAR MRLB 231700Z 24003KT 9999 SCT035 SCT250 30/23 A2992 NOSIG=
201607231800 METAR MRLB 231800Z 10006KT 9999 VCSH SCT030 SCT250 32/22 A2989 NOSIG=
201607231900 METAR MRLB 231900Z 27007KT 9999 VCSH FEW020TCU SCT030 SCT250 30/24 A2986 NOSIG=
201607232000 METAR MRLB 232000Z 28008KT 9999 VCSH FEW020TCU SCT030 SCT120 29/24 A2985 NOSIG=
201607232100 METAR MRLB 232100Z 25007KT 9999 VCTS VCSH FEW020CB SCT030 SCT120 29/24 A2984 NOSIG=
201607232200 METAR MRLB 232200Z 22004KT 9999 4000N RA VCTS FEW015CB FEW025 BKN100 25/24 A2985 NOSIG=
201607232300 METAR MRLB 232300Z 26002KT 9999 -RA FEW020 BKN100 25/24 A2985 RERA NOSIG=
201607232352 METAR MRLB 240000Z 23002KT 9999 BKN030 SCT120 25/24 A2988 NOSIG=
201607240000 METAR MRLB 240000Z 23002KT 9999 BKN030 SCT120 25/24 A2988 NOSIG=
201607240100 METAR MRLB 240100Z 15002KT 9999 SCT030 BKN120 25/24 A2989 NOSIG=
201607240200 METAR MRLB 240200Z 18003KT 9999 FEW005 SCT120 24/24 A2990 NOSIG=
201607240300 METAR MRLB 240300Z 21003KT 9999 FEW003 BKN120 24/23 A2992 NOSIG=
201607240400 METAR MRLB 240400Z 05002KT 9999 SCT003 BKN120 24/23 A2994 NOSIG=
201607240500 METAR MRLB 240500Z 01003KT 9999 FEW015 BKN120 24/23 A2995 NOSIG=
201607240600 METAR MRLB 240600Z 03003KT 9999 SCT015 BKN120 24/23 A2994 NOSIG=
201607240700 METAR MRLB NIL=
201607240800 METAR MRLB NIL=
201607240900 METAR MRLB NIL=
201607241000 METAR MRLB NIL=
201607241100 METAR MRLB NIL=
201607241200 METAR MRLB 241200Z 00000KT 9999 2000SW BR DEW005 SCT130 BKN250 23/22 A2989 NOSIG=
201607241300 METAR MRLB 241300Z 19005KT 9999 1000SW BR FEW002 SCT130 BKN250 24/23 A2990 A2990 NOSIG=
201607241400 METAR MRLB 241400Z 21002KT 9999 FEW015 SCT130 BKN250 26/24 A2991 NOSIG=
201607241500 METAR MRLB 241500Z 20004KT CAVOK 28/24 A2990 NOSIG=
201607241600 METAR MRLB 241600Z 12006KT 9999 SCT030 BKN250 31/24 A2989 NOSIG=
201607241700 METAR MRLB 241700Z 09010KT 9999 FEW030 BKN250 32/22 A2988 NOSIG=
201607241800 METAR MRLB 241800Z 09009KT 9999 FEW035 BKN250 32/22 A2986 NOSIG=
201607241900 METAR MRLB 241900Z 10008KT 9999 SCT035 BKN250 33/22 A2985 NOSIG=
201607242000 METAR MRLB 242000Z 09007KT 9999 SCT030 SCT250 33/22 A2983 NOSIG=
201607242100 METAR MRLB 242100Z 08009KT 9999 FEW035 SCT250 33/23 A2982 NOSIG=
201607242200 METAR MRLB 242200Z COR 08011G21KT 9999 SCT030 SCT250 33/22 A2982 NOSIG=
201607242300 METAR MRLB 242300Z 11007KT 9999 FEW040 BKN250 29/21 A2983 NOSIG=
201607250000 METAR MRLB 250000Z 12004KT CAVOK 28/22 A2984 NOSIG=
201607250100 METAR MRLB 250100Z 15004KT CAVOK 26/21 A2985 NOSIG=
201607250200 METAR MRLB 250200Z 13008KT CAVOK 26/20 A2984 NOSIG=
201607250300 METAR MRLB 250300Z 11007KT CAVOK 26/20 A2985 NOSIG=
201607250400 METAR MRLB 250400Z 09008KT CAVOK 27/19 A2985 NOSIG=
201607250500 METAR MRLB 250500Z 06005KT CAVOK 24/20 A2986 NOSIG=
201607250600 METAR MRLB 250600Z 09005KT CAVOK 25/20 A2985 NOSIG=
201607250700 METAR MRLB NIL=
201607250800 METAR MRLB NIL=
201607250900 METAR MRLB NIL=
201607251000 METAR MRLB NIL=
201607251100 METAR MRLB NIL=
201607251200 METAR MRLB 251200Z 12004KT CAVOK 25/20 A2985 NOSIG=
201607251300 METAR MRLB 251300Z 10007KT 9999 FEW040 SCT250 27/20 A2986 NOSIG=
201607251400 METAR MRLB 251400Z 10007KT CAVOK 29/22 A2988 NOSIG=
201607251500 METAR MRLB 251500Z 12006KT 9999 FEW040 SCT250 29/22 A2988 NOSIG=
201607251600 METAR MRLB 251600Z 12006KT 9999 SCT035 30/22 A2987 NOSIG=
201607251700 METAR MRLB 251700Z 10008KT 9999 SCT035 31/22 A2985 NOSIG=
201607251800 METAR MRLB 251800Z 13008KT 9999 SCT035 SCT250 32/22 A2983 NOSIG=
201607251900 METAR MRLB 251900Z 09007KT 9999 BKN035 32/22 A2981 NOSIG=
201607252000 METAR MRLB 252000Z 10010KT 9999 SCT035 SCT250 32/22 A2978 NOSIG=
201607252100 METAR MRLB 252100Z 11007KT 9999 SCT035 SCT250 32/22 A2977 NOSIG=
201607252200 METAR MRLB 252200Z 13009KT 9999 FEW035 SCT250 32/21 A2976 NOSIG=
201607252300 METAR MRLB 252300Z 29008KT 9999 FEW035 SCT250 29/24 A2977NOSIG=
201607260000 METAR MRLB 260000Z 29005KT 9999 FEW035 SCT250 28/24 A2979 NOSIG=
201607260100 METAR MRLB 260100Z 28004KT 9999 FEW035 SCT250 27/24 A2981 NOSIG=
201607260200 METAR MRLB 260200Z 22003KT CAVOK 26/24 A2983 NOSIG=
201607260300 METAR MRLB 260300Z 34002KT CAVOK 26/24 A2985 NOSIG=
201607260400 METAR MRLB 260400Z 00000KT CAVOK 25/24 A2986 NOSIG=
201607260500 METAR MRLB 260500Z 14002KT CAVOK 25/23 A2987 NOSIG=
201607260600 METAR MRLB 260600Z 15003KT CAVOK 25/23 A2986 NOSIG=
201607260700 METAR MRLB NIL=
201607260800 METAR MRLB NIL=
201607260900 METAR MRLB NIL=
201607261000 METAR MRLB NIL=
201607261100 METAR MRLB NIL=
201607261200 METAR MRLB 261200Z 21003KT 9999 FEW035 23/22 A2984 NOSIG=
201607261300 METAR MRLB 261300Z 28003KT 9999 FEW035 24/23 A2985 NOSIG=
201607261400 METAR MRLB 261400Z 24002KT 9999 FEW035 27/23 A2986 NOSIG=
201607261500 METAR MRLB 261500Z 30002KT 9999 FEW030 29/23 A2986 NOSIG=
201607261600 METAR MRLB 261600Z 08013KT 9999 SCT030 31/22 A2986 NOSIG=
201607261700 METAR MRLB 261700Z 09010KT 9999 SCT030 SCT250 31/22 A2984 NOSIG=
201607261800 METAR MRLB 261800Z 09013KT 9999 SCT025 32/22 A2981 NOSIG=
201607261900 METAR MRLB 261900Z 10013KT 9999 SCT030 32/21 A2978 NOSIG=
201607262000 METAR MRLB 262000Z 10015KT 9999 SCT030 SCT250 32/22 A2978 NOSIG=
201607262100 METAR MRLB 262100Z 08013KT 9999 SCT030 BKN250 31/21 A2978 NOSIG=
201607262200 METAR MRLB 262200Z 07015KT 9999 SCT030 BKN200 32/21 A2977 NOSIG=
201607262300 METAR MRLB 262300Z 07010KT 9999 SCT035 BKN200 31/22 A2977 NOSIG=
201607262347 METAR MRLB 270000Z 08009KT 9999 FEW035 BKN200 29/21 A2977 NOSIG=
201607270000 METAR MRLB 270000Z 08009KT 9999 FEW035 BKN200 29/21 A2977 NOSIG=
201607270100 METAR MRLB 270100Z 12011KT 9999 FEW040 SCT200 28/20 A2977 NOSIG=
201607270200 METAR MRLB 270200Z 10014G24KT 9999 FEW040 29/21 A2978 NOSIG=
201607270300 METAR MRLB 270300Z 10012KT 9999 FEW040 28/22 A2980 NOSIG=
201607270400 METAR MRLB 270400Z 09013G23KT 9999 FEW040 28/21 A2981 NOSIG=
201607270500 METAR MRLB 270500Z 04003KT 9999 FEW040 27/21 A2984 NOSIG=
201607270600 METAR MRLB 270600Z 10008KT 9999 FEW040 27/22 A2983 NOSIG=
201607270700 METAR MRLB NIL=
201607270800 METAR MRLB NIL=
201607270900 METAR MRLB NIL=
201607271000 METAR MRLB NIL=
201607271100 METAR MRLB NIL=
201607271200 METAR MRLB 271200Z 12005KT 9999 FEW030 SCT250 25/22 A2980 NOSIG=
201607271300 METAR MRLB 271300Z 08007KT 9999 SCT030 SCT250 27/22 A2983 NOSIG=
201607271400 METAR MRLB 271400Z 07009KT 9999 VCSH SCT025 BKN200 28/22 A2985 NOSIG=
201607271500 METAR MRLB 271500Z 09013KT 9999 FEW030 BKN250 30/22 A2984 NOSIG=
201607271600 METAR MRLB 271600Z 08016KT 9999 FEW030 SCT250 31/22 A2983 NOSIG=
201607271700 METAR MRLB 271700Z 08015KT 9999 FEW035 SCT250 31/22 A2983 NOSIG=
201607271800 METAR MRLB 271800Z 07015G25KT 9999 FEW035 SCT250 32/21 A2980 NOSIG=
201607271900 METAR MRLB 271900Z 08014G24KT 9999 FEW035 SCT250 32/22 A2978 NOSIG=
201607272000 METAR MRLB 272000Z 08017KT 9999 FEW035 BKN250 32/22 A2976 NOSIG=
201607272100 METAR MRLB 272100Z 10012KT 9999 FEW035 BKN250 32/22 A2974 NOSIG=
201607272200 METAR MRLB NIL=
201607272300 METAR MRLB 272300Z 11012KT 9999 FEW035 BKN120 29/21 A2977 NOSIG=
201607272352 METAR MRLB 280000Z 03006KT 9999 FEW035 BKN120 28/21 A2980 NOSIG=
201607280000 METAR MRLB 280000Z 03006KT 9999 FEW035 BKN120 28/21 A2980 NOSIG=
201607280100 METAR MRLB 280100Z 09008KT 9999 FEW035 BKN120 28/22 A2981 NOSIG=
201607280200 METAR MRLB 280200Z 11005KT 9999 FEW030 BKN100 27/22 A2982 NOSIG=
201607280300 METAR MRLB 280300Z 13006KT 9999 FEW030 BKN100 26/21 A2983 NOSIG=
201607280400 METAR MRLB 280400Z 15005KT 9999 FEW030 BKN120 26/21 A2983 NOSIG=
201607280500 METAR MRLB 280500Z 27002KT 9999 FEW030 BKN120 25/22 A2983 NOSIG=
201607280600 METAR MRLB 280600Z 24007KT 9999 FEW030 BKN120 24/21 A2981 NOSIG=
201607280700 METAR MRLB NIL=
201607280800 METAR MRLB NIL=
201607280900 METAR MRLB NIL=
201607281000 METAR MRLB NIL=
201607281100 METAR MRLB NIL=
201607281200 METAR MRLB 281200Z 05002KT 9999 FEW040 BKN250 23/21 A2980 NOSIG=
201607281300 METAR MRLB 281300Z 08007KT 9999 FEW040 BKN250 28/22 A2981 NOSIG=
201607281400 METAR MRLB 281400Z 08014KT 9999 FEW040 BKN250 30/21 A2982 NOSIG=
201607281500 METAR MRLB 281500Z 08014G24KT 9999 FEW040BKN250 31/22 A2983 NOSIG=
201607281600 METAR MRLB 281600Z 09013KT 9999 FEW035 BKN250 32/21 A2983 NOSIG=
201607281700 METAR MRLB 281700Z 10010KT 9999 FEW035 OVC250 32/21 A2982 NOSIG=
201607281800 METAR MRLB 281800Z 11011KT 9999 FEW035 OVC250 32/22 A2981 NOSIG=
201607281900 METAR MRLB 281900Z 11012KT 9999 FEW035 OVC250 32/21 A2980 NOSIG=
201607281954 METAR MRLB 292000Z 11009KT 9999 FEW035 OVC200 33/22 A2979 NOSIG=
201607282000 METAR MRLB 282000Z COR 11009KT 9999 FEW035 OVC200 33/22 A2979 NOSIG=
201607282100 METAR MRLB 282100Z 15005KT 9999 FEW035 OVC200 31/24 A2979 NOSIG=
201607282200 METAR MRLB 282200Z 12005KT 9999 FEW035 OVC200 31/23 A2978 NOSIG=
201607282300 METAR MRLB 282300Z 15003KT 9999 FEW035 OVC200 30/24 A2978 NOSIG=
201607282353 METAR MRLB 290000Z 14002KT 9999 FEW040 OVC200 29/24 A2979 NOSIG=
201607290000 METAR MRLB 290000Z 14002KT 9999 FEW040 OVC200 29/24 A2979 NOSIG=
201607290100 METAR MRLB 290100Z 29003KT 9999 FEW040 OVC200 28/25 A2982 NOSIG=
201607290200 METAR MRLB 290200Z 32003KT 9999 SCT035 BKN200 27/24 A2985 NOSIG=
201607290300 METAR MRLB 290300Z 04003KT 9999 FEW035 BKN250 27/25 A2987 NOSIG=
201607290400 METAR MRLB 290400Z 31003KT 9999 FEW035 BKN250 27/25 A2987 NOSIG=
201607290500 METAR MRLB 290500Z 14003KT 9999 FEW030 BKN200 26/24 A2987 NOSIG=
201607290600 METAR MRLB 290600Z 00000KT 9999 FEW030 BKN200 26/24 A2986 NOSIG=
201607290700 METAR MRLB NIL=
201607290800 METAR MRLB NIL=
201607290900 METAR MRLB NIL=
201607291000 METAR MRLB NIL=
201607291100 METAR MRLB NIL=
201607291200 METAR MRLB 291200Z 16002KT 9999 VCFG FEW001 BKN240 24/23 A2983 NOSIG=
201607291300 METAR MRLB 291300Z 16002KT 9999 SCT004 SCT250 25/24 A2987 NOSIG=
201607291400 METAR MRLB 291400Z 00000KT 9999 FEW020 BKN250 28/25 A2987 NOSIG=
201607291500 METAR MRLB 291500Z 14003KT 9999 FEW020 BKN240 29/24 A2989 NOSIG=
201607291600 METAR MRLB 291600Z 35002KT 9999 SCT025 SCT250 32/24 A2987 NOSIG=
201607291700 METAR MRLB 291700Z 07004KT 9999 SCT025 SCT250 32/23 A2985 NOSIG=
201607291800 METAR MRLB 291800Z 25003KT 9999 BKN030 32/24 A2983 NOSIG=
201607291900 METAR MRLB 291900Z 28006KT 9999 FEW025TCU SCT030 33/25 A2982 NOSIG=
201607292000 METAR MRLB 292000Z 28011KT 9999 SCT025 SCT250 32/25 A2979 NOSIG=
201607292100 METAR MRLB 292100Z 29012KT 9999 SCT020TCU SCT200 30/25 A2978 NOSIG=
201607292200 METAR MRLB 292200Z 30008KT 9999 3000NE TSRA SCT015CB BKN050 28/24 A2980 NOSIG=
201607292300 METAR MRLB 292300Z 17005KT 9999 -TS SCT020CB BKN100 22/21 A2981 RETSRA=
201607292354 METAR MRLB 300000Z 20003KT 9999 SCT025 BKN100 22/21 A2985 RETS NOSIG=
201607300000 METAR MRLB 300000Z 20003KT 9999 SCT025 BKN100 22/21 A2985 RETS NOSIG=
201607300100 METAR MRLB 300100Z 03002KT 9999 FEW025 SCT100 23/22 A2985 NOSIG=
201607300200 METAR MRLB 300200Z 20004KT 9999 FEW020 SCT100 23/22 A2988 NOSIG=
201607300300 METAR MRLB 300300Z 16004KT 9999 FEW020 OVC100 23/22 A2989 NOSIG=
201607300400 METAR MRLB 300400Z 17002KT CAVOK 23/22 A2989 NOSIG=
201607300500 METAR MRLB 300500Z 28002KT CAVOK 23/22 A2990 NOSIG=
201607300600 METAR MRLB 300600Z 00000KT CAVOK 23/22 A2991 NOSIG=
201607300700 METAR MRLB NIL=
201607300800 METAR MRLB NIL=
201607300900 METAR MRLB NIL=
201607301000 METAR MRLB NIL=
201607301100 METAR MRLB NIL=
201607301200 METAR MRLB 301200Z 19003KT 9999 BCFG FEW010 SCT030 SCT120 23/22 A2983 NOSIG=
201607301300 METAR MRLB 301300Z 12007KT 9999 FEW035 SCT250 25/22 A2984 NOSIG=
201607301400 METAR MRLB 301400Z 30004KT CAVOK 26/24 A2984 NOSIG=
201607301500 METAR MRLB 301500Z 27006KT CAVOK 27/24 A2987 NOSIG=
201607301600 METAR MRLB 301600Z 35006KT CAVOK 30/23 A2986 NOSIG=
201607301700 METAR MRLB 301700Z 31005KT 9999 SCT030 BKN250 30/24 A2986 NOSIG=
201607301800 METAR MRLB 301800Z 07015KT 9999 FEW025 BKN100 28/21 A2987 NOSIG=
201607301900 METAR MRLB 301900Z 09008KT 9999 DZ FEW025 BKN100 26/22 A2985 NOSIG=
201607302000 METAR MRLB 302000Z 10007KT 9999 FEW030 BKN100 25/22 A2984 NOSIG=
201607302100 METAR MRLB 302100Z 13006KT 9999 FEW035 BKN120 25/22 A2982 NOSIG=
201607302200 METAR MRLB 302200Z 15008KT 9999 FEW035 BKN130 27/22 A2980 NOSIG=
201607302300 METAR MRLB 302300Z 13010KT 9999 FEW035 BKN140 26/21 A2980 NOSIG=
201607302348 METAR MRLB 310000Z 12007KT 9999 FEW035 BKN120 26/19 A2982 NOSIG=
201607310000 METAR MRLB 310000Z 12007KT 9999 FEW035 BKN120 26/19 A2982 NOSIG=
201607310100 METAR MRLB 310100Z 12006KT CAVOK 25/19 A2985 NOSIG=
201607310200 METAR MRLB 310200Z 14005KT CAVOK 25/19 A2986 NOSIG=
201607310300 METAR MRLB 310300Z 13005KT CAVOK 25/20 A2987 NOSIG=
201607310400 METAR MRLB 310400Z 10005KT CAVOK 26/21 A2987 NOSIG=
201607310500 METAR MRLB 310500Z 15004KT CAVOK 25/21 A2986 NOSIG=
201607310600 METAR MRLB 310600Z 11009KT CAVOK 27/21 A2984 NOSIG=
201607310700 METAR MRLB NIL=
201607310800 METAR MRLB NIL=
201607310900 METAR MRLB NIL=
201607311000 METAR MRLB NIL=
201607311100 METAR MRLB NIL=
201607311200 METAR MRLB 311200Z 12006KT 9999 FEW035 BKN120 25/21 A2981 NOSIG=
201607311300 METAR MRLB 311300Z 10007KT 9999 FEW035 BKN120 26/21 A2982 NOSIG=
201607311400 METAR MRLB 311400Z 34002KT 9999 FEW030 BKN140 25/22 A2984 NOSIG=
201607311500 METAR MRLB 311500Z 07004KT 9999 FEW030 BKN140 29/22 A2984 NOSIG=
201607311600 METAR MRLB 311600Z 08011KT 9999 FEW030 SCT140 31/21 A2986 NOSIG=
201607311700 METAR MRLB 311700Z 10010KT 9999 FEW030 SCT200 32/21 A2986 NOSIG=
201607311800 METAR MRLB 311800Z 10009KT 9999 SCT030 SCT200 32/22 A2984 NOSIG=
201607311900 METAR MRLB 311900Z 08008KT 9999 SCT035 SCT140 32/22 A2982 NOSIG=
201607312000 METAR MRLB 312000Z 10009KT 9999 FEW035 BKN130 32/22 A2980 NOSIG=
201607312100 METAR MRLB 312100Z 06009KT 9999 SCT035 BKN120 32/22 A2980 NOSIG=
201607312200 METAR MRLB 312200Z 02003KT 9999 FEW035 OVC100 30/23 A2979 NOSIG=
201607312300 METAR MRLB 312300Z 27003KT 9999 FEW035 BKN120 29/24 A2979 NOSIG=
201607312352 METAR MRLB 010000Z 26004KT 9999 FEW035 SCT130 BKN250 28/24 A2978 NOSIG=
201608010000 METAR MRLB 010000Z 26004KT 9999 FEW035 SCT130 BKN250 28/24 A2978 NOSIG=
201608010100 METAR MRLB 010100Z 28004KT CAVOK 27/23 A2980 NOSIG=
201608010200 METAR MRLB 010200Z 35004KT CAVOK 27/23 A2984 NOSIG=
201608010300 METAR MRLB 010300Z 14003KT 9999 FEW030 BKN250 26/23 A2986 NOSIG=
201608010400 METAR MRLB 010400Z 10004KT CAVOK 26/21 A2987 NOSIG=
201608010500 METAR MRLB 010500Z 11005KT CAVOK 25/22 A2986 NOSIG=
201608010600 METAR MRLB 010600Z 11005KT CAVOK 25/22 A2985 NOSIG=
201608010700 METAR MRLB NIL=
201608010800 METAR MRLB NIL=
201608010900 METAR MRLB NIL=
201608011000 METAR MRLB NIL=
201608011100 METAR MRLB NIL=
201608011200 METAR MRLB 011200Z 05003KT 9999 FEW040 SCT130 BKN250 24/22 A2983 NOSIG=
201608011300 METAR MRLB 011300Z 10002KT 9999 FEW040 SCT130 BKN250 27/23 A2985 NOSIG=
201608011400 METAR MRLB 011400Z 07009KT 9999 FEW040 BKN250 29/22 A2985 NOSIG=
201608011500 METAR MRLB 011500Z 07016KT 9999 FEW040 BKN250 30/22 A2986 NOSIG=
201608011600 METAR MRLB 011600Z 07011KT 9999 FEW040 BKN250 31/23 A2986 NOSIG=
201608011700 METAR MRLB 011700Z 07013KT 9999 FEW040 OVC250 31/23 A2986 NOSIG=
201608011800 METAR MRLB 011800Z 08010KT 9999 FEW040 OVC250 32/23 A2985 NOSIG=
201608011900 METAR MRLB 011900Z 07012KT 9999 FEW040 OVC250 33/23 A2984 NOSIG=
201608012000 METAR MRLB 012000Z 05012KT 9999 FEW040 OVC240 33/22 A2981 NOSIG=
201608012100 METAR MRLB 012100Z 07009KT 9999 FEW040 OVC240 32/23 A2979 NOSIG=
201608012200 METAR MRLB 012200Z 07011KT 9999 FEW040 BKN240 31/22 A2978 NOSIG=
201608012300 METAR MRLB 012300Z 08008KT CAVOK 31/22 A2978 NOSIG=
201608012355 METAR MRLB 020000Z 08008KT CAVOK 30/22 A2980 NOSIG=
201608020000 METAR MRLB 020000Z 08008KT CAVOK 30/22 A2980 NOSIG=
201608020100 METAR MRLB 020100Z 08005KT CAVOK 28/21 A2981 NOSIG=
201608020200 METAR MRLB 020200Z 24003KT CAVOK 27/22 A2983 NOSIG=
201608020300 METAR MRLB 020300Z 20003KT CAVOK 27/22 A2985 NOSIG=
201608020400 METAR MRLB 020400Z 12004KT CAVOK 25/22 A2987 NOSIG=
201608020500 METAR MRLB 020500Z 18003KT CAVOK 26/22 A2986 NOSIG=
201608020600 METAR MRLB 020600Z 06005KT CAVOK 23/22 A2985 NOSIG=
201608020700 METAR MRLB NIL=
201608020800 METAR MRLB NIL=
201608020900 METAR MRLB NIL=
201608021000 METAR MRLB NIL=
201608021100 METAR MRLB NIL=
201608021200 METAR MRLB 021200Z 10004KT CAVOK 22/21 A2985 NOSIG=
201608021300 METAR MRLB 021300Z 32003KT CAVOK 24/22 A2986 NOSIG=
201608021400 METAR MRLB 021400Z 28005KT CAVOK 27/23 A2987 NOSIG=
201608021500 METAR MRLB 021500Z 23003KT 9999 FEW035 OVC250 29/23 A2988 NOSIG=
201608021600 METAR MRLB 021600Z 35003KT 9999 FEW035 BKN250 31/22 A2988 NOSIG=
201608021700 METAR MRLB 021700Z 31005KT 9999 FEW035 BKN250 32/22 A2985 NOSIG=
201608021800 METAR MRLB 021800Z 34005KT 9999 BKN030 32/23 A2984 NOSIG=
201608021900 METAR MRLB 021900Z 36007KT 9999 BKN030 31/24 A2983 NOSIG=
201608021953 METAR MRLB 021953Z 022000Z03005KT 9999 FEW025TCU BKN080 31/24 A2982 NOSIG=
201608022000 METAR MRLB 022000Z 022000Z03005KT 9999 FEW025TCU BKN080 31/24 A2982 NOSIG=
201608022100 METAR MRLB 022100Z 01007KT 9999 FEW030 SCT100 BKN250 32/24 A2978 NOSIG=
201608022200 METAR MRLB 022200Z 36005KT 9999 FEW025TCU BKN250 32/24 A2977 NOSIG=
201608022300 METAR MRLB 022300Z 19008KT 9999 SCT025TCU BKN250 30/24 A2977 NOSIG=
201608022353 METAR MRLB 030000Z 19004KT 9999 FEW030 BKN160 29/24 A2980 NOSIG=
201608030000 METAR MRLB 030000Z 19004KT 9999 FEW030 BKN160 29/24 A2980 NOSIG=
201608030100 METAR MRLB 030100Z 18003KT 9999 -RA VCTS FEW020CB SCT030 BKN120 27/23 A2984 NOSIG=
201608030200 METAR MRLB 030200Z 05003KT 9999 -RA SCT030 BKN100 26/25 A2985 RETSRA NOSIG=
201608030300 METAR MRLB 030300Z 04002KT 9999 -RA SCT030 BKN100 25/24 A2989 NOSIG=
201608030400 METAR MRLB 030400Z 18004KT 9999 FEW020 SCT120 25/24 A2991 NOSIG=
201608030500 METAR MRLB 030500Z 17003KT 9999 FEW020 BKN120 24/23 A2991 NOSIG=
201608030600 METAR MRLB 030600Z 16003KT 9999 FEW020 BKN120 24/23 A2989 NOSIG=
201608030700 METAR MRLB NIL=
201608030800 METAR MRLB NIL=
201608030900 METAR MRLB NIL=
201608031000 METAR MRLB NIL=
201608031100 METAR MRLB NIL=
201608031200 METAR MRLB 031200Z 11003KT 9999 BCFG FEW035 BKN120 23/23 A2984 NOSIG=
201608031300 METAR MRLB 031300Z 15003KT 9999 FEW008 BKN120 25/24 A2987 NOSIG=
201608031400 METAR MRLB 031400Z 15005KT 9999 FEW005 BKN100 26/25 A2988 NOSIG=
201608031500 METAR MRLB 031500Z 14007KT 9999 FEW010 SCT100 28/24 A2989 NOSIG=
201608031600 METAR MRLB 031600Z 18005KT 9999 SCT015 SCT100 29/24 A2989 NOSIG=
201608031700 METAR MRLB 031700Z COR 18005KT 9999 VCSH SCT020TCU BKN250 30/24 A2989 NOSIG=
201608031800 METAR MRLB 031800Z 26006KT 9999 FEW020 BKN250 28/25 A2987 NOSIG=
201608031900 METAR MRLB 031900Z 32007KT 9999 SCT020 BKN250 29/24 A2985 NOSIG=
201608032000 METAR MRLB 032000Z 27004KT 9999 SCT020TCU BKN250 30/25 A2981 NOSIG=
201608032100 METAR MRLB 032100Z 16007KT 9999 VCSH SCT025 BKN250 30/24 A2980 NOSIG=
201608032200 METAR MRLB 032200Z 15006KT 9999 SCT025 BKN140 29/24 A2980 NOSIG=
201608032300 METAR MRLB 032300Z 18005KT 9999 FEW030 BKN140 29/24 A2980 NOSIG=
201608032349 METAR MRLB 040000Z 15005KT 9999 FEW025 BKN140 28/24 A2983 NOSIG=
201608032352 METAR MRLB 050000Z 00000KT 9999 FEW030 OVC120 25/24 A2987 NOSIG=
201608040000 METAR MRLB 040000Z 15005KT 9999 FEW025 BKN140 28/24 A2983 NOSIG=
201608040100 METAR MRLB 040100Z 12004KT 9999 FEW030 BKN140 27/23 A2985 NOSIG=
201608040200 METAR MRLB 040200Z 10005KT 9999 DZ FEW030 BKN140 26/24 A2987 NOSIG=
201608040300 METAR MRLB 040300Z 13004KT 9999 FEW040 BKN120 25/24 A2988 REDZ NOSIG=
201608040400 METAR MRLB 040400Z 14002KT CAVOK 25/24 A2989 NOSIG=
201608040500 METAR MRLB 040500Z 00000KT CAVOK 25/24 A2989 NOSIG=
201608040600 METAR MRLB 040600Z 03002KT CAVOK 25/24 A2987 NOSIG=
201608040700 METAR MRLB NIL=
201608040800 METAR MRLB NIL=
201608040900 METAR MRLB NIL=
201608041000 METAR MRLB NIL=
201608041100 METAR MRLB NIL=
201608041200 METAR MRLB 041200Z 13003KT 9999 FEW025 BKN130 24/23 A2985 NOSIG=
201608041300 METAR MRLB 041300Z 17003KT 9999 FEW030 BKN140 25/23 A2987 NOSIG=
201608041400 METAR MRLB 041400Z 17003KT 9999 VCSH FEW025 BKN120 26/24 A2988 NOSIG=
201608041500 METAR MRLB 041500Z 15004KT 9999 FEW025 BKN130 27/24 A2990 NOSIG=
201608041600 METAR MRLB 041600Z 18003KT 9999 FEW030 BKN130 28/24 A2990 NOSIG=
201608041700 METAR MRLB 041700Z 18004KT 9999 FEW030 BKN130 29/23 A2990 NOSIG=
201608041800 METAR MRLB 041800Z 22003KT 9999 SCT030 BKN200 30/24 A2988 NOSIG=
201608041900 METAR MRLB 041900Z 27010KT 9999 SCT025 BKN200 30/25 A2986 NOSIG=
201608042000 METAR MRLB 042000Z 25008KT 9999 VCSH SCT020 BKN100 29/25 A2985 NOSIG=
201608042052 METAR MRLB 242100Z 10009KT 9999 FEW035 OVC250 34/21 A2980 NOSIG=
201608042100 METAR MRLB 042100Z 23007KT 9999 -RA FEW020 OVC100 25/23 A2986 NOSIG=
201608042200 METAR MRLB 042200Z 04004KT 9999 FEW020 OVC120 25/24 A2985 NOSIG=
201608042300 METAR MRLB 042300Z 04003KT 9999 FEW030 OVC120 25/24 A2985 NOSIG=
201608050000 METAR MRLB 050000Z 00000KT 9999 FEW030 OVC120 25/24 A2987 NOSIG=
201608050100 METAR MRLB 050100Z 10002KT 9999 FEW030 OVC120 25/23 A2990 NOSIG=
201608050200 METAR MRLB 050200Z 00000KT 99999 FEW030 OVC120 24/23 A2990 NOSIG=
201608050300 METAR MRLB 050300Z 00000KT 9999 FEW030 OVC120 24/23 A2991 NOSIG=
201608050400 METAR MRLB 050400Z 00000KT 9999 FEW030 OVC120 24/23 A2992 NOSIG=
201608050500 METAR MRLB 050500Z 00000KT 9999 FEW030 OVC120 24/23 A2991 NOSIG=
201608050600 METAR MRLB 050600Z 00000KT 9999 FEW030 BKN120 24/23 A2989 NOSIG=
201608050700 METAR MRLB NIL=
201608051000 METAR MRLB NIL=
201608051100 METAR MRLB NIL=
201608051200 METAR MRLB 051200Z 33002KT 0900 FG FEW003 BKN120 23/22 A2987 NOSIG=
201608051300 METAR MRLB 051300Z 00000KT 2000 BR FEW002 SCT130 BKN250 23/23 A2988 NOSIG=
201608051400 METAR MRLB 051400Z 04003KT 9999 FEW010 OVC250 26/24 A2990 NOSIG=
201608051500 METAR MRLB 051500Z 00000KT 9999 FEW015 OVC250 28/24 A2992 NOSIG=
201608051600 METAR MRLB 051600Z 01004KT 9999 FEW025 BKN250 30/23 A2988 NOSIG=
201608051700 METAR MRLB 051700Z 35002KT 9999 FEW030 BKN220 31/23 A2987 NOSIG=
201608051800 METAR MRLB 051800Z 17005KT 9999 SCT030 BKN220 32/24 A2986 NOSIG=
201608051900 METAR MRLB 051900Z 08004KT 9999 SCT030 BKN250 32/23 A2984 NOSIG=
201608052000 METAR MRLB 052000Z 06003KT 9999 SCT030 BKN250 34/25 A2981 NOSIG=
201608052100 METAR MRLB 052100Z 28011KT 9999 FEW025TCU FEW030 BKN250 31/25 A2980 NOSIG=
201608052200 METAR MRLB 052200Z 29011KT 9999 FEW020TCU FEW030 BKN250 30/24 A2979 NOSIG=
201608052300 METAR MRLB 052300Z 27008KT 9999 RA SCT020CB BKN030 28/25 A2982 NOSIG=
201608052355 METAR MRLB 060000Z 24003KT 9999 BKN025 26/25 A2983 RERA NOSIG=
201608060000 METAR MRLB 060000Z 24003KT 9999 BKN025 26/25 A2983 RERA NOSIG=
201608060100 METAR MRLB 060100Z 00000KT 9999 BKN035 26/25 A2984 NOSIG=
201608060200 METAR MRLB 060200Z 00000KT 9999 SCT030 BKN120 26/25 A2985 NOSIG=
201608060300 METAR MRLB 060300Z 00000KT 9999 SCT030 SCT130 26/25 A2987 NOSIG=
201608060400 METAR MRLB 060400Z 00000KT 9999 FEW030 SCT140 26/25 A2990 NOSIG=
201608060500 METAR MRLB 060500Z 10003KT 9999 SCT035 SCT140 25/25 A2990 NOSIG=
201608060600 METAR MRLB 060600Z 06003KT 9999 FEW035 SCT140 25/24 A2989 NOSIG=
201608060700 METAR MRLB NIL=
201608060800 METAR MRLB NIL=
201608060900 METAR MRLB NIL=
201608061000 METAR MRLB NIL=
201608061100 METAR MRLB NIL=
201608061200 METAR MRLB 061200Z 18003KT 0100 FG VV/// 24/24 A2988 BECMG 2000 BR=
201608061300 METAR MRLB 061300Z 13003KT 0100 FG VV/// 25/24 A2989 BECMG 1500BR=
201608061400 METAR MRLB 061400Z 05005KT 9999 FEW003 25/25 A2989 NOSIG=
201608061500 METAR MRLB 061500Z 28002KT 9999 FEW020 SCT250 27/25 A2990 NOSIG=
201608061600 METAR MRLB 061600Z 33004KT 9999 SCT020 SCT250 29/25 A2989 NOSIG=
201608061700 METAR MRLB 061700Z 26003KT 9999 SCT025 31/25 A2988 NOSIG=
201608061800 METAR MRLB 061800Z 30003KT 9999 BKN025 32/24 A2986 NOSIG=
201608061900 METAR MRLB 061900Z COR 34005KT 9999 SCT030 32/24 A2983 NOSIG=
201608062000 METAR MRLB 062000Z 28007KT 9999 FEW030 SCT250 33/25 A2980 NOSIG=
201608062100 METAR MRLB 062100Z 28006KT 9999 FEW025 SCT250 33/25 A2978 NOSIG=
201608062200 METAR MRLB 062200Z 29007KT 9999 FEW025 SCT250 32/24 A2978 NOSIG=
201608062300 METAR MRLB 062300Z 19004KT 9999 VCSH SCT030 SCT120 31/24 A2979 NOSIG=
201608062353 METAR MRLB 070000Z 10008KT 9999 FEW030 BKN120 30/22 A2982 NOSIG=
201608070000 METAR MRLB 070000Z 10008KT 9999 FEW030 BKN120 30/22 A2982 NOSIG=
201608070100 METAR MRLB 070100Z 16008KT 9999 FEW030 BKN120 28/23 A2983 NOSIG=
201608070200 METAR MRLB 070200Z 25003KT 9999 FEW030 BKN120 25/23 A2985 NOSIG=
201608070300 METAR MRLB 070300Z 18005KT 9999 FEW030 BKN120 25/23 A2986 NOSIG=
201608070400 METAR MRLB 070400Z 12005KT 9999 SCT030 BKN120 26/23 A2987 NOSIG=
201608070500 METAR MRLB 070500Z 10002KT 9999 FEW035 BKN120 26/23 A2987 NOSIG=
201608070600 METAR MRLB 070600Z 20002KT 9999 FEW035 BKN120 24/23 A2987 NOSIG=
201608070700 METAR MRLB NIL=
201608070800 METAR MRLB NIL=
201608070900 METAR MRLB NIL=
201608071000 METAR MRLB NIL=
201608071100 METAR MRLB NIL=
201608071200 METAR MRLB 071200Z 19004KT 9999 FEW030 23/23 A2985 NOSIG=
201608071300 METAR MRLB 071300Z 27004KT 9999 SCT035 25/24 A2987 NOSIG=
201608071400 METAR MRLB 071400Z 28004KT 9999 SCT045 27/24 A2990 NOSIG=
201608071500 METAR MRLB 071500Z 10003KT 9999 FEW045 30/23 A2990 NOSIG=
201608071600 METAR MRLB 071600Z 10013KT 9999 FEW030 SCT080 29/23 A2989 NOSIG=
201608071700 METAR MRLB 071700Z 07012KT 9999 FEW030 SCT200 31/23 A2987 NOSIG=
201608071756 METAR MRLB 0701800Z 09010KT 9999 FEW030 BKN250 33/23 A2985 NOSIG=
201608071800 METAR MRLB 071800Z COR 09010KT 9999 FEW030 BKN250 33/23 A2985 NOSIG=
201608071900 METAR MRLB 071900Z 08011KT 9999 FEW030 BKN250 33/24 A2981 NOSIG=
201608072000 METAR MRLB 072000Z 10009KT 9999 FEW035 BKN250 34/23 A2979 NOSIG=
201608072100 METAR MRLB 072100Z 12009KT 9999 FEW035 BKN250 33/23 A2977 NOSIG=
201608072200 METAR MRLB 072200Z 09009KT 9999 FEW035 BKN200 33/22 A2978 NOSIG=
201608072300 METAR MRLB 072300Z 09008KT 9999 FEW035 BKN200 31/23 A2979 NOSIG=
201608072347 METAR MRLB 080000Z 10006KT 9999 FEW035 BKN140 30/23 A2982 NOSIG=
201608080000 METAR MRLB 080000Z 10006KT 9999 FEW035 BKN140 30/23 A2982 NOSIG=
201608080100 METAR MRLB 080100Z 11003KT 9999 FEW040 BKN140 28/23 A2983 NOSIG=
201608080200 METAR MRLB 080200Z 00000KT 9999 FEW040 BKN140 27/23 A2985 NOSIG=
201608080300 METAR MRLB 080300Z 03003KT 9999 FEW040 BKN200 27/23 A2987 NOSIG=
201608080400 METAR MRLB 080400Z 10006KT 9999 FEW040 SCT200 27/24 A2988 NOSIG=
201608080500 METAR MRLB 080500Z 00000KT 9999 FEW040 SCT200 26/24 A2988 NOSIG=
201608080600 METAR MRLB 080600Z 02003KT 9999 FEW040 26/24 A2987 NOSIG=
201608080700 METAR MRLB NIL=
201608080800 METAR MRLB NIL=
201608080900 METAR MRLB NIL=
201608081000 METAR MRLB NIL=
201608081100 METAR MRLB NIL=
201608081200 METAR MRLB 081200Z 34003KT 9999 2000SW BCFG SCT010 BKN200 24/23 A2983 NOSIG=
201608081300 METAR MRLB 081300Z 15003KT 9999 FEW030 BKN200 26/24 A2986 NOSIG=
201608081400 METAR MRLB 081400Z 19006KT 9999 FEW030 BKN200 27/24 A2986 NOSIG=
201608081500 METAR MRLB 081500Z 16003KT 9999 FEW030 BKN200 28/24 A2988 NOSIG=
201608081600 METAR MRLB 081600Z 12004KT 9999 SCT030 BKN200 31/23 A2988 NOSIG=
201608081700 METAR MRLB 081700Z 13006KT 9999 SCT025 BKN200 32/24 A2987 NOSIG=
201608081800 METAR MRLB 081800Z 09005KT 9999 SCT030 BKN200 32/24 A2985 NOSIG=
201608081900 METAR MRLB 081900Z 14005KT 9999 SCT030 BKN200 32/23 A2982 NOSIG=
201608082000 METAR MRLB 082000Z 20008KT 9999 VCSH FEW020TCU SCT030 BKN140 31/23 A2981 TEMPO RA=
201608082100 METAR MRLB 082100Z 07004KT 9999 4000E RA FEW010TCU SCT020 BKN120 27/25 A2981 NOSIG=
201608082200 METAR MRLB 082200Z 06003KT 9999 SCT030 BKN120 26/24 A2982 NOSIG=
201608082300 METAR MRLB 082300Z 06005KT 9999 FEW030 BKN120 26/24 A2982 NOSIG=
201608082348 METAR MRLB 090000Z 12003KT 9999 FEW030 BKN120 26/25 A2984 NOSIG=
201608090000 METAR MRLB 090000Z 12003KT 9999 FEW030 BKN120 26/25 A2984 NOSIG=
201608090100 METAR MRLB 090100Z 13003KT 9999 FEW025 BKN120 25/24 A2986 NOSIG=
201608090200 METAR MRLB 090200Z 00000KT 9999 FEW025 BKN120 25/24 A2987 NOSIG=
201608090300 METAR MRLB 090300Z 05003KT 9999 FEW025 BKN120 26/24 A2988 NOSIG=
201608090400 METAR MRLB 090400Z 00000KT 9999 FEW025 BKN120 25/24 A2990 NOSIG=
201608090500 METAR MRLB 090500Z 34002KT 9999 SCT003 BKN120 25/25 A2990 NOSIG=
201608090600 METAR MRLB 090600Z 06004KT 5000 RA BKN020 25/25 A2991 NOSIG=
201608090700 METAR MRLB NIL=
201608090800 METAR MRLB NIL=
201608090900 METAR MRLB NIL=
201608091000 METAR MRLB NIL=
201608091100 METAR MRLB NIL=
201608091200 METAR MRLB 091200Z 09003KT 1500 BR FEW001 SCT025 SCT250 24/23 A2987 NOSIG=
201608091300 METAR MRLB 091300Z 22003KT 9999 VCFG FEW003 SCT030 SCT220 25/24 A2986 NOSIG=
201608091400 METAR MRLB 091400Z 29004KT 5000 RA VCFG FEW002 SCT015 25/24 A2989 NOSIG=
201608091500 METAR MRLB 091500Z 27005KT 9999 FEW030 SCT120 26/24 A2989 RERA NOSIG=
201608091600 METAR MRLB 091600Z 22004KT 9999 FEW030 SCT120 28/25 A2990 NOSIG=
201608091700 METAR MRLB 091700Z 08014G28KT 9999 SCT025TCU SCT120 31/24 A2989 NOSIG=
201608091800 METAR MRLB 091800Z 09010KT 9999 FEW025 SCT090 SCT200 29/23 A2987 NOSIG=
201608091900 METAR MRLB 091900Z 12005KT 9999 FEW025 BKN140 30/24 A2984 NOSIG=
201608092000 METAR MRLB 092000Z 08006KT 9999 FEW030 OVC140 30/23 A2982 NOSIG=
201608092100 METAR MRLB 092100Z 08007KT 9999 FEW030 BKN140 30/23 A2980 NOSIG=
201608092200 METAR MRLB 092200Z 09007KT 9999 FEW040 BKN140 30/23 A2979 NOSIG=
201608092300 METAR MRLB 092300Z 17003KT CAVOK 30/25 A2979 NOSIG=
201608092353 METAR MRLB 100000Z 13010KT 9999 FEW045 BKN120 29/22 A2980 NOSIG=
201608100000 METAR MRLB 100000Z 13010KT 9999 FEW045 BKN120 29/22 A2980 NOSIG=
201608100100 METAR MRLB 100100Z 13008KT CAVOK 28/22 A2983 NOSIG=
201608100200 METAR MRLB 100200Z 12008KT CAVOK 27/22 A2985 NOSIG=
201608100300 METAR MRLB 100300Z 14009KT CAVOK 27/22 A2986 NOSIG=
201608100400 METAR MRLB 100400Z 13006KT CAVOK 26/22 A2988 NOSIG=
201608100500 METAR MRLB 100500Z 11004KT CAVOK 26/22 A2988 NOSIG=
201608100600 METAR MRLB 100600Z 35003KT 9999 FEW035 SCT200 25/23 A2987 NOSIG=
201608100700 METAR MRLB NIL=
201608100800 METAR MRLB NIL=
201608100900 METAR MRLB NIL=
201608101000 METAR MRLB NIL=
201608101100 METAR MRLB NIL=
201608101200 METAR MRLB 101200Z 15003KT 9999 FEW030 SCT250 25/22 A2985 NOSIG=
201608101300 METAR MRLB 101300Z 10008KT 9999 FEW030 28/23 A2986 NOSIG=
201608101400 METAR MRLB 101400Z 15007KT 9999 FEW030 SCT250 29/24 A2989 NOSIG=
201608101500 METAR MRLB 101500Z 09013G23KT 9999 FEW030 SCT250 31/23 A2989 NOSIG=
201608101600 METAR MRLB 101600Z 09012KT 9999 SCT025 SCT250 32/23 A2989 NOSIG=
201608101700 METAR MRLB 101700Z 08012KT 9999 SCT025 SCT250 32/24 A2988 NOSIG=
201608101800 METAR MRLB 101800Z 08013KT 9999 SCT025 SCT140 31/23 A2987 NOSIG=
201608101900 METAR MRLB 101900Z 07013KT 9999 FEW030 SCT200 33/23 A2983 NOSIG=
201608102000 METAR MRLB 102000Z 07014KT 9999 FEW030 BKN200 34/24 A2982 NOSIG=
201608102100 METAR MRLB 102100Z 06009KT 9999 FEW030 BKN200 32/23 A2980 NOSIG=
201608102200 METAR MRLB 102200Z 09012KT 9999 FEW030 BKN200 31/22 A2981 NOSIG=
201608102300 METAR MRLB 102300Z 10007KT 9999 FEW040 BKN130 30/22 A2982 NOSIG=
201608102357 METAR MRLB 110000Z 06007KT CAVOK 29/22 A2986 NOSIG=
201608110000 METAR MRLB 110000Z 06007KT CAVOK 29/22 A2986 NOSIG=
201608110100 METAR MRLB 110100Z 10002KT CAVOK 27/22 A2987 NOSIG=
201608110200 METAR MRLB 110200Z 00000KT CAVOK 27/22 A2988 NOSIG=
201608110300 METAR MRLB 110300Z 00000KT CAVOK 26/22 A2989 NOSIG=
201608110400 METAR MRLB 110400Z 17003KT CAVOK 26/22 A2991 NOSIG=
201608110500 METAR MRLB 110500Z 29002KT 9999 FEW030 BKN120 25/22 A2991 NOSIG=
201608110600 METAR MRLB 110600Z 29002KT 9999 FEW030 BKN120 25/23 A2991 NOSIG=
201608110700 METAR MRLB NIL=
201608110800 METAR MRLB NIL=
201608110900 METAR MRLB NIL=
201608111000 METAR MRLB NIL=
201608111100 METAR MRLB NIL=
201608111200 METAR MRLB 111200Z 21002KT 9999 FEW030 BKN140 24/23 A2987 NOSIG=
201608111300 METAR MRLB 111300Z 18003KT 9999 FEW030 BKN140 25/24 A2989 NOSIG=
201608111400 METAR MRLB 111400Z 09012KT 9999 FEW035 BKN200 27/21 A2989 NOSIG=
201608111500 METAR MRLB 111500Z 09014KT 9999 FEW035 BKN200 28/21 A2990 NOSIG=
201608111600 METAR MRLB 111600Z 12007KT 9999 FEW035 BKN200 29/22 A2992 NOSIG=
201608111700 METAR MRLB 111700Z 13006KT 9999 FEW035 SCT100 BKN200 30/22 A2992 NOSIG=
201608111800 METAR MRLB 111800Z 08010KT 9999 FEW030 SCT100 BKN200 31/22 A2990 NOSIG=
201608111900 METAR MRLB 111900Z 08010KT 9999 SCT030 BKN100 26/21 A2990 NOSIG=
201608112000 METAR MRLB 112000Z 09008KT 9999 FEW035 BKN120 27/20 A2986 NOSIG=
201608112100 METAR MRLB 112100Z 10007KT 9999 FEW035 BKN120 27/20 A2984 NOSIG=
201608112200 METAR MRLB 112200Z 13005KT 9999 FEW035 BKN120 27/20 A2984 NOSIG=
201608112300 METAR MRLB 112300Z 12006KT 9999 FEW035 BKN130 28/21 A2984 NOSIG=
201608112348 METAR MRLB 120000Z 13006KT 9999 FEW035 BKN130 27/21 A2986 NOSIG=
201608120000 METAR MRLB 120000Z 13006KT 9999 FEW035 BKN130 27/21 A2986 NOSIG=
201608120100 METAR MRLB 120100Z 09003KT 9999 FEW035 BKN140 26/21 A2986 NOSIG=
201608120200 METAR MRLB 120200Z 16004KT CAVOK 25/21 A2987 NOSIG=
201608120300 METAR MRLB 120300Z 00000KT CAVOK 25/20 A2987 NOSIG=
201608120400 METAR MRLB 120400Z 12005KT CAVOK 24/20 A2987 NOSIG=
201608120500 METAR MRLB 120500Z 10005KT CAVOK 25/19 A2986 NOSIG=
201608120600 METAR MRLB 120600Z 16005KT CAVOK 24/20 A2986 NOSIG=
201608120700 METAR MRLB NIL=
201608120800 METAR MRLB NIL=
201608120900 METAR MRLB NIL=
201608121000 METAR MRLB NIL=
201608121100 METAR MRLB NIL=
201608121200 METAR MRLB 121200Z 00000KT CAVOK 21/20 A2986 NOSIG=
201608121300 METAR MRLB 121300Z 04004KT CAVOK 24/21 A2988 NOSIG=
201608121400 METAR MRLB 121400Z 04003KT CAVOK 27/22 A2988 NOSIG=
201608121500 METAR MRLB 121500Z 21003KT CAVOK 29/21 A2988 NOSIG=
201608121600 METAR MRLB 121600Z 03004KT CAVOK 30/21 A2989 NOSIG=
201608121700 METAR MRLB 121700Z 06003KT 9999 FEW035 SCT250 31/22 A2988 NOSIG=
201608121800 METAR MRLB 121800Z 18003KT 9999 SCT035 SCT250 32/22 A2985 NOSIG=
201608121900 METAR MRLB 121900Z 16006KT 9999 BKN035 33/21 A2982 NOSIG=
201608122000 METAR MRLB 122000Z 28008KT 9999 FEW025TCU BKN030 32/23 A2980 NOSIG=
201608122100 METAR MRLB 122100Z 29012KT 9999 SCT030 30/23 A2979 NOSIG=
201608122200 METAR MRLB 122200Z 30010KT 9999 FEW030 SCT250 30/22 A2979 NOSIG=
201608122300 METAR MRLB 122300Z 29009KT 9999 VCSH VCTS FEW020CB FEW030 SCT120 29/23 A2980 NOSIG=
201608122352 METAR MRLB 130000Z 14007KT 9999 -RA BKN025 27/23 A2983 NOSIG=
201608130000 METAR MRLB 130000Z 14007KT 9999 -RA BKN025 27/23 A2983 NOSIG=
201608130100 METAR MRLB 130100Z 17002KT 9999 FEW030 BKN120 24/23 A2985 NOSIG=
201608130200 METAR MRLB 130200Z 19002KT 9999 FEW025 BKN120 24/23 A2987 NOSIG=
201608130300 METAR MRLB 130300Z 19002KT 9999 FEW025 BKN120 24/22 A2986 NOSIG=
201608130400 METAR MRLB 130400Z 00000KT 9999 FEW025 BKN120 23/23 A2986 NOSIG=
201608130500 METAR MRLB 130500Z 00000KT 9999 FEW025 BKN120 24/22 A2987 NOSIG=
201608130600 METAR MRLB 130600Z 15004KT 9999 FEW025 BKN120 24/23 A2986 NOSIG=
201608130700 METAR MRLB NIL=
201608130800 METAR MRLB NIL=
201608130900 METAR MRLB NIL=
201608131000 METAR MRLB NIL=
201608131100 METAR MRLB NIL=
201608131200 METAR MRLB 131200Z 00000KT 0100 VV/// 23/22 A2984 NOSIG=
201608131300 METAR MRLB 131300Z 00000KT 9999 4000N BCFG FEW004 SCT120 BKN250 24/23 A2986 NOSIG=
201608131400 METAR MRLB 131400Z 05002KT 9999 FEW005 SCT130 BKN220 25/23 A2987 NOSIG=
201608131500 METAR MRLB 131500Z 00000KT 9999 FEW020 BKN220 28/23 A2987 NOSIG=
201608131600 METAR MRLB 131600Z 25003KT 9999 SCT025 BKN220 30/24 A2988 NOSIG=
201608131700 METAR MRLB 131700Z 27003KT 9999 BKN030 SCT250 30/24 A2986 NOSIG=
201608131800 METAR MRLB 131800Z 24005KT 9999 SCT030 SCT250 32/25 A2984 NOSIG=
201608131900 METAR MRLB 131900Z 29011KT 9999 BKN030 31/24 A2980 NOSIG=
201608132000 METAR MRLB 132000Z 28010KT 9999 FEW020TCU SCT030 31/24 A2978 NOSIG=
201608132100 METAR MRLB 132100Z 29009KT 9999 FEW020TCU FEW025 BKN250 31/24 A2976 NOSIG=
201608132200 METAR MRLB 132200Z 28010KT 9999 VCTS FEW020CB FEW030 BKN250 30/24 A2974 NOSIG=
201608132300 METAR MRLB 132300Z 29009KT 9999 FEW015CB FEW020 SCT120 BKN250 30/24 A2974 NOSIG=
201608132353 METAR MRLB 140000Z 30005KT 9999 BKN030 28/24 A2978 NOSIG=
201608140000 METAR MRLB 140000Z 30005KT 9999 BKN030 28/24 A2978 NOSIG=
201608140100 METAR MRLB 140100Z 30003KT 9999 BKN030 27/24 A2980 NOSIG=
201608140200 METAR MRLB 140200Z 35003KT 9999 SCT035 SCT120 27/24 A2981 NOSIG=
201608140300 METAR MRLB 140300Z 32003KT 9999 -RA SCT030 BKN120 27/25 A2984 NOSIG=
201608140400 METAR MRLB 140400Z 25006KT 9999 RA SCT025 BKN100 24/23 A2989 NOSIG=
201608140500 METAR MRLB 140500Z 11007KT 5000 TSRA FEW010CB SCT020 BKN100 23/22 A2988 NOSIG=
201608140600 METAR MRLB 140600Z 14003KT 9999 -RA SCT025 BKN100 23/22 A2988 NOSIG=
201608140700 METAR MRLB NIL=
201608140800 METAR MRLB NIL=
201608140900 METAR MRLB NIL=
201608141000 METAR MRLB NIL=
201608141100 METAR MRLB NIL=
201608141200 METAR MRLB 141200Z 03003KT 8000 2000N BCFG FEW002 BKN240 23/22 A2983 NOSIG=
201608141300 METAR MRLB 141300Z 05003KT 9999 FEW004 SCT120 BKN220 23/23 A2984 NOSIG=
201608141400 METAR MRLB 141400Z 19003KT 9999 SCT010 SCT250 25/23 A2986 NOSIG=
201608141500 METAR MRLB 141500Z 17006KT 9999 FEW010 BKN220 26/24 A2988 NOSIG=
201608141600 METAR MRLB 141600Z 20003KT 9999 FEW020 SCT220 28/24 A2988 NOSIG=
201608141700 METAR MRLB 141700Z 34002KT 9999 FEW020 BKN240 30/25 A2985 NOSIG=
201608141800 METAR MRLB 141800Z 28006KT 9999 FEW025 SCT250 32/25 A2982 NOSIG=
201608141900 METAR MRLB 141900Z 30006KT 9999 FEW020TCU SCT025 32/25 A2979 NOSIG=
201608142000 METAR MRLB 142000Z 28006KT 9999 VCSH FEW020TCU SCT025 31/24 A2976 NOSIG=
201608142100 METAR MRLB 142100Z 34003KT 9999 -DZ FEW025 BKN100 27/24 A2975 NOSIG=
201608142200 METAR MRLB 142200Z 25003KT 9999 FEW025 BKN120 29/25 A2974 NOSIG=
201608142300 METAR MRLB 142300Z 16005KT 9999 FEW030 BKN120 28/25 A2977 NOSIG=
201608142352 METAR MRLB 150000Z 16005KT 9999 FEW030 BKN120 27/24 A2979 NOSIG=
201608150000 METAR MRLB 150000Z 16005KT 9999 FEW030 BKN120 27/24 A2979 NOSIG=
201608150100 METAR MRLB 150100Z 16005KT 9999 -RA FEW030 BKN120 26/24 A2982 NOSIG=
201608150200 METAR MRLB 150200Z 16004KT 9999 FEW030 BKN120 25/24 A2983 NOSIG=
201608150300 METAR MRLB 150300Z 18004KT 9999 FEW030 BKN140 25/24 A2986 NOSIG=
201608150400 METAR MRLB 150400Z 14002KT CAVOK 25/24 A2987 NOSIG=
201608150500 METAR MRLB 150500Z 16002KT CAVOK 25/23 A2987 NOSIG=
201608150600 METAR MRLB 150600Z 08003KT CAVOK 25/23 A2987 NOSIG=
201608150700 METAR MRLB NIL=
201608150800 METAR MRLB NIL=
201608150900 METAR MRLB NIL=
201608151000 METAR MRLB NIL=
201608151100 METAR MRLB NIL=
201608151200 METAR MRLB 151200Z 00000KT 9999 VCFG FEW003 BKN100 24/23 A2985 NOSIG=
201608151300 METAR MRLB 151300Z COR 03003KT 9999 FEW005 SCT120 BKN200 24/23 A2987 NOSIG=
201608151400 METAR MRLB 151400Z 03003KT CAVOK 25/24 A2989 NOSIG=
201608151500 METAR MRLB 151500Z 35002KT 9999 FEW010 BKN200 28/23 A2990 NOSIG=
201608151600 METAR MRLB 151600Z 19002KT 9999 FEW020 BKN250 29/24 A2988 NOSIG=
201608151700 METAR MRLB 151700Z 27003KT 9999 SCT025 BKN250 30/23 A2987 NOSIG=
201608151800 METAR MRLB 151800Z 16002KT 9999 VCSH FEW020TCU SCT030 BKN250 31/24 A2984 NOSIG=
201608151845 METAR MRLB 151845Z 01005KT 9999 1000NW TSRA FEW015CB BKN030 27/25 A2984 NOSIG=
201608151900 METAR MRLB 151900Z 15003KT 9999 4000NW TSRA FEW020CB SCT025 BKN100 25/24 A2983 NOSIG=
201608152000 METAR MRLB 152000Z 34006KT 9999 4000E RA FEW015CB SCT020 BKN100 26/24 A2981 NOSIG=
201608152100 METAR MRLB 152100Z 13003KT 9999 VCSH SCT030 BKN100 25/24 A2979 NOSIG RERA=
201608152200 METAR MRLB 152200Z 18003KT 9999 FEW035 BKN120 25/24 A2977 NOSIG=
201608152300 METAR MRLB 152300Z 14003KT 9999 FEW035 BKN130 25/23 A2979 NOSIG=
201608152346 METAR MRLB 160000Z 34003KT 9999 FEW035 BKN140 25/24 A2982 NOSIG=
201608160000 METAR MRLB 160000Z 34003KT 9999 FEW035 BKN140 25/24 A2982 NOSIG=
201608160100 METAR MRLB 160100Z 00000KT 9999 FEW010 BKN120 25/24 A2985 NOSIG=
201608160200 METAR MRLB 160200Z 00000KT 9999 FEW010 SCT120 24/24 A2986 NOSIG=
201608160300 METAR MRLB 160300Z 00000KT 9999 SCT040 24/24 A2987 NOSIG=
201608160400 METAR MRLB 160400Z 10003KT 9999 FEW040 BKN120 26/24 A2987 NOSIG=
201608160500 METAR MRLB 160500Z 06005KT 9999 FEW020 24/23 A2989 NOSIG=
201608160600 METAR MRLB 160600Z 06003KT CAVOK 25/24 A2986 NOSIG=
201608160700 METAR MRLB NIL=
201608160800 METAR MRLB NIL=
201608160900 METAR MRLB NIL=
201608161000 METAR MRLB NIL=
201608161100 METAR MRLB NIL=
201608161200 METAR MRLB 161200Z 00000KT CAVOK 23/22 A2987 NOSIG=
201608161300 METAR MRLB 161300Z 00000KT CAVOK 24/23 A2990 NOSIG=
201608161400 METAR MRLB 161400Z 17003KT CAVOK 26/24 A2991 NOSIG=
201608161500 METAR MRLB 161500Z 14003KT 9999 FEW035 SCT250 28/24 A2991 NOSIG=
201608161600 METAR MRLB 161600Z 23003KT 9999 FEW035 SCT250 29/24 A2989 NOSIG=
201608161700 METAR MRLB 161700Z 24003KT 9999 SCT020TCU BKN250 31/24 A2988 NOSIG=
201608161800 METAR MRLB 161800Z 29003KT 9999 SCT025 BKN250 31/24 A2987 NOSIG=
201608161900 METAR MRLB 161900Z 31004KT 9999 SCT025 BKN250 31/24 A2983 NOSIG=
201608162000 METAR MRLB 162000Z 12006KT 9999 FEW025 SCT130 BKN250 31/23 A2981 NOSIG=
201608162100 METAR MRLB 162100Z 13004KT 9999 FEW025 BKN250 32/24 A2979 NOSIG=
201608162200 METAR MRLB 162200Z 09003KT 9999 FEW025 BKN130 31/23 A2978 NOSIG=
201608162300 METAR MRLB 162300Z 08005KT 9999 FEW030 BKN120 31/23 A2977 NOSIG=
201608162352 METAR MRLB 170000Z 00000KT 9999 SCT045 BKN100 30/23 A2978 NOSIG=
201608170000 METAR MRLB 170000Z 00000KT 9999 SCT045 BKN100 30/23 A2978 NOSIG=
201608170100 METAR MRLB 170100Z 22003KT 9999 SCT045 BKN100 28/25 A2980 NOSIG=
201608170200 METAR MRLB 170200Z 23005KT 9999 FEW040 BKN100 28/24 A2983 NOSIG=
201608170300 METAR MRLB 170300Z 10005KT 9999 FEW040 BKN100 28/22 A2984 NOSIG=
201608170400 METAR MRLB NIL=
201608170500 METAR MRLB NIL=
201608170600 METAR MRLB NIL=
201608170700 METAR MRLB NIL=
201608170800 METAR MRLB NIL=
201608170900 METAR MRLB NIL=
201608171000 METAR MRLB NIL=
201608171100 METAR MRLB NIL=
201608171200 METAR MRLB 171200Z 12009KT 9999 FEW030 BKN120 24/22 A2983 NOSIG=
201608171300 METAR MRLB 171300Z 14009KT CAVOK 25/22 A2983 NOSIG=
201608171400 METAR MRLB 171400Z 25006KT CAVOK 25/23 A2986 NOSIG=
201608171500 METAR MRLB 171500Z 28005KT CAVOK 28/24 A2987 NOSIG=
201608171600 METAR MRLB 171600Z 36005KT 9999 FEW030 BKN130 29/23 A2989 NOSIG=
201608171700 METAR MRLB 171700Z 26005KT 9999 SCT035 BKN120 29/24 A2988 NOSIG=
201608171800 METAR MRLB 171800Z 29005KT 9999 SCT035 BKN120 29/24 A2986 NOSIG=
201608171900 METAR MRLB 171900Z 29005KT 9999 SCT035 BKN130 30/24 A2982 NOSIG=
201608172000 METAR MRLB 172000Z 32003KT 9999 SCT035 BKN140 32/25 A2979 NOSIG=
201608172100 METAR MRLB 172100Z 10011KT 9999 FEW040 BKN140 32/22 A2978 NOSIG=
201608172200 METAR MRLB 172200Z 07009KT CAVOK 31/22 A2978 NOSIG=
201608172300 METAR MRLB 172300Z 09007KT CAVOK 29/22 A2979 NOSIG=
201608172352 METAR MRLB 180000Z 10006KT CAVOK 28/23 A2981 NOSIG=
201608180000 METAR MRLB 180000Z 10006KT CAVOK 28/23 A2981 NOSIG=
201608180100 METAR MRLB 180100Z 12007KT CAVOK 28/23 A2982 NOSIG=
201608180200 METAR MRLB 180200Z 10004KT 9999 FEW035 BKN130 27/23 A2984 NOSIG=
201608180300 METAR MRLB 180300Z 11004KT 9999 FEW035 BKN130 27/23 A2987 NOSIG=
201608180400 METAR MRLB 180400Z 07005KT 9999 FEW035 BKN140 26/23 A2988 NOSIG=
201608180500 METAR MRLB 180500Z 09005KT 9999 FEW035 SCT140 27/23 A2987 NOSIG=
201608180600 METAR MRLB 180600Z 10003KT 9999 FEW035 SCT130 26/23 A2986 NOSIG=
201608180700 METAR MRLB NIL=
201608180800 METAR MRLB NIL=
201608180900 METAR MRLB NIL=
201608181000 METAR MRLB NIL=
201608181100 METAR MRLB NIL=
201608181200 METAR MRLB 181200Z 16003KT 9999 BKN040 26/22 A2981 NOSIG=
201608181300 METAR MRLB 181300Z 00000KT 9999 BKN045 27/23 A2984 NOSIG=
201608181400 METAR MRLB 181400Z 06007KT 9999 SCT040 SCT240 29/23 A2985 NOSIG=
201608181500 METAR MRLB 181500Z 09007KT 9999 SCT040 SCT240 29/23 A2987 NOSIG=
201608181600 METAR MRLB 181600Z 07009KT 9999 FEW030 BKN240 31/23 A2987 NOSIG=
201608181700 METAR MRLB 181700Z 08012KT 9999 FEW035 BKN220 31/23 A2986 NOSIG=
201608181800 METAR MRLB 181800Z 08013KT 9999 SCT045 SCT140 29/24 A2986 NOSIG=
201608181900 METAR MRLB 181900Z 08008KT 9999 FEW035 SCT130 BKN220 31/23 A2974 NOSIG=
201608182000 METAR MRLB 182000Z 07012KT 9999 FEW035 SCT130 BKN220 31/23 A2981 NOSIG=
201608182100 METAR MRLB 182100Z 08012KT 9999 FEW035 SCT130 BKN220 30/23 A2980 NOSIG=
201608182200 METAR MRLB 182200Z 09009KT 9999 FEW035 SCT120 BKN220 29/23 A2981 NOSIG=
201608182300 METAR MRLB 182300Z 10007KT 9999 FEW035 BKN220 29/23 A2983 NOSIG=
201608182353 METAR MRLB 190000Z 10003KT 9999 FEW040 SCT120 BKN250 28/23 A2984 NOSIG=
201608190000 METAR MRLB 190000Z 10003KT 9999 FEW040 SCT120 BKN250 28/23 A2984 NOSIG=
201608190100 METAR MRLB 190100Z 14005KT 9999 FEW035 BKN120 27/23 A2986 NOSIG=
201608190200 METAR MRLB 190200Z 15004KT CAVOK 26/23 A2987 NOSIG=
201608190300 METAR MRLB 190300Z 14004KT CAVOK 27/23 A2988 NOSIG=
201608190400 METAR MRLB 190400Z 16003KT 9999 SCT060 BKN120 26/23 A2989 NOSIG=
201608190500 METAR MRLB 190500Z 05004KT CAVOK 26/23 A2987 NOSIG=
201608190600 METAR MRLB 190600Z 05002KT CAVOK 25/23 A2986 NOSIG=
201608190700 METAR MRLB NIL=
201608190800 METAR MRLB NIL=
201608190900 METAR MRLB NIL=
201608191000 METAR MRLB NIL=
201608191100 METAR MRLB NIL=
201608191200 METAR MRLB 191200Z 14003KT 9999 FEW030 SCT100 24/22 A2986 NOSIG=
201608191300 METAR MRLB 191300Z 00000KT 9999 FEW030 SCT250 26/23 A2987 NOSIG=
201608191400 METAR MRLB 191400Z 07004KT CAVOK 29/24 A2987 NOSIG=
201608191500 METAR MRLB 191500Z 09009KT 9999 FEW030 SCT250 31/22 A2988 NOSIG=
201608191600 METAR MRLB 191600Z 08010KT 9999 FEW030 SCT250 32/22 A2988 NOSIG=
201608191700 METAR MRLB 191700Z 08007KT 9999 FEW030 32/22 A2986 NOSIG=
201608191800 METAR MRLB 191800Z 08009KT 9999 FEW030 34/23 A2983 NOSIG=
201608191900 METAR MRLB 191900Z 08007KT 9999 SCT025 34/23 A2981 NOSIG=
201608192000 METAR MRLB 192000Z 06011KT 9999 FEW035 SCT250 34/23 A2979 NOSIG=
201608192100 METAR MRLB 192100Z 07013KT 9999 FEW035 SCT250 34/22 A2976 NOSIG=
201608192200 METAR MRLB 192200Z 07012KT 9999 FEW035 SCT250 33/22 A2975 NOSIG=
201608192300 METAR MRLB 192300Z 08010KT CAVOK 32/22 A2975 NOSIG=
201608192350 METAR MRLB 200000Z 08013KT 9999 FEW035 SCT250 30/22 A2977 NOSIG=
201608200000 METAR MRLB 200000Z 08013KT 9999 FEW035 SCT250 30/22 A2977 NOSIG=
201608200100 METAR MRLB 200100Z 10012G22KT CAVOK 28/21 A2979 NOSIG=
201608200200 METAR MRLB 200200Z 13010KT CAVOK 28/22 A2982 NOSIG=
201608200300 METAR MRLB 200300Z 13008KT CAVOK 27/22 A2985 NOSIG=
201608200400 METAR MRLB 200400Z 13007KT CAVOK 26/22 A2988 NOSIG=
201608200500 METAR MRLB 200500Z 14005KT CAVOK 26/22 A2986 NOSIG=
201608200600 METAR MRLB 200600Z 08005KT CAVOK 26/22 A2985 NOSIG=
201608200700 METAR MRLB NIL=
201608200800 METAR MRLB NIL=
201608200900 METAR MRLB NIL=
201608201000 METAR MRLB NIL=
201608201100 METAR MRLB NIL=
201608201200 METAR MRLB 201200Z 21003KT 9999 FEW035 SCT250 23/22 A2984 NOSIG=
201608201300 METAR MRLB 201300Z 15003KT CAVOK 26/23 A2984 NOSIG=
201608201400 METAR MRLB 201400Z 25003KT CAVOK 28/24 A2985 NOSIG=
201608201500 METAR MRLB 201500Z 12006KT 9999 FEW035 SCT250 30/24 A2984 NOSIG=
201608201600 METAR MRLB 201600Z 09010KT 9999 FEW035 SCT250 32/23 A2982 NOSIG=
201608201700 METAR MRLB 201700Z 09011KT 9999 FEW035 SCT250 32/23 A2980 NOSIG=
201608201800 METAR MRLB 201800Z 09013KT 9999 FEW035 SCT250 33/23 A2978 NOSIG=
201608201900 METAR MRLB 201900Z 10011KT 9999 SCT035 SCT140 34/23 A2975 NOSIG=
201608202000 METAR MRLB 202000Z 09008KT 9999 SCT035 SCT250 34/23 A2975 NOSIG=
201608202100 METAR MRLB 202100Z 04014KT 9999 4000SW -TSRA FEW020CB BKN030 30/23 A2976 NOSIG=
201608202200 METAR MRLB 202200Z 06015KT 9999 FEW025 BKN100 29/22 A2976 RETSRA NOSIG=
201608202300 METAR MRLB 202300Z 12008KT 9999 FEW030 OVC120 27/21 A2978 NOSIG=
201608202352 METAR MRLB 210000Z 10012KT 9999 FEW035 BKN130 28/21 A2977 NOSIG=
201608210000 METAR MRLB 210000Z 10012KT 9999 FEW035 BKN130 28/21 A2977 NOSIG=
201608210100 METAR MRLB 210100Z 11012KT 9999 FEW035 BKN130 27/21 A2977 NOSIG=
201608210200 METAR MRLB 210200Z 14004KT 9999 FEW035 BKN130 27/22 A2981 NOSIG=
201608210300 METAR MRLB 210300Z 13003KT CAVOK 25/22 A2983 NOSIG=
201608210400 METAR MRLB 210400Z 15004KT CAVOK 25/22 A2985 NOSIG=
201608210500 METAR MRLB 210500Z 16004KT CAVOK 25/22 A2983 NOSIG=
201608210600 METAR MRLB 210600Z 15004KT CAVOK 25/22 A2981 NOSIG=
201608210700 METAR MRLB NIL=
201608210800 METAR MRLB NIL=
201608210900 METAR MRLB NIL=
201608211000 METAR MRLB NIL=
201608211100 METAR MRLB NIL=
201608211200 METAR MRLB 211200Z 00000KT 9999 FEW035 BKN130 24/22 A2981 NOSIG=
201608211300 METAR MRLB 211300Z 00000KT 9999 FEW035 BKN120 25/23 A2983 NOSIG=
201608211400 METAR MRLB 211400Z 13008KT 9999 FEW035 SCT130 BKN250 28/23 A2984 NOSIG=
201608211500 METAR MRLB 211500Z 11007KT 9999 FEW035 SCT130 BKN250 29/24 A2985 NOSIG=
201608211600 METAR MRLB 211600Z 14005KT 9999 SCT030 BKN120 31/24 A2985 NOSIG=
201608211700 METAR MRLB 211700Z 12003KT 9999 SCT030 BKN120 33/24 A2983 NOSIG=
201608211800 METAR MRLB 211800Z 11004KT 9999 SCT030 BKN130 33/22 A2981 NOSIG=
201608211900 METAR MRLB 211900Z 09003KT 9999 SCT030 BKN120 33/22 A2979 NOSIG=
201608212000 METAR MRLB 212000Z 09003KT 9999 SCT030 BKN130 33/23 A2977 NOSIG=
201608212100 METAR MRLB 212100Z 29009KT 9999 -TSRA FEW020CB BKN030 30/25 A2976 NOSIG=
201608212200 METAR MRLB 212200Z 25009KT 9999 VCTS FEW010 FEW020CB BKN120 26/25 A2977 NOSIG=
201608212300 METAR MRLB 212300Z 19003KT 9999 FEW025 SCT120 BKN220 24/23 A2980 NOSIG=
201608212350 METAR MRLB 220000Z 00000KT CAVOK 25/23 A2980 NOSIG=
201608220000 METAR MRLB 220000Z 00000KT CAVOK 25/23 A2980 NOSIG=
201608220100 METAR MRLB 220100Z 20005KT CAVOK 24/23 A2983 NOSIG=
201608220200 METAR MRLB 220200Z 20003KT CAVOK 24/23 A2985 NOSIG=
201608220300 METAR MRLB 220300Z 12003KT 9999 FEW035 BKN140 24/23 A2986 NOSIG=
201608220400 METAR MRLB 220400Z 19003KT 9999 FEW035 BKN140 24/23 A2987 NOSIG=
201608220500 METAR MRLB 220500Z 22003KT 9999 FEW035 BKN130 24/23 A2986 NOSIG=
201608220600 METAR MRLB 220600Z 19003KT 9999 FEW035 BKN140 24/23 A2986 NOSIG=
201608220700 METAR MRLB NIL=
201608220800 METAR MRLB NIL=
201608220900 METAR MRLB NIL=
201608221000 METAR MRLB NIL=
201608221100 METAR MRLB NIL=
201608221200 METAR MRLB 221200Z 16003KT 9999 BKN035 24/23 A2984 NOSIG=
201608221300 METAR MRLB 221300Z 05005KT 9999 SCT045 BKN130 26/24 A2987 NOSIG=
201608221400 METAR MRLB 221400Z 07005KT 9999 FEW045 SCT140 BKN200 27/24 A2987 NOSIG=
201608221500 METAR MRLB 221500Z 05005KT CAVOK 29/24 A2988 NOSIG=
201608221600 METAR MRLB 221600Z 05004KT 9999 FEW030 BKN140 30/24 A2988 NOSIG=
201608221700 METAR MRLB 221700Z 11004KT 9999 FEW030 BKN140 31/24 A2987 NOSIG=
201608221800 METAR MRLB 221800Z 08007KT 9999 FEW030 BKN140 32/23 A2984 NOSIG=
201608221900 METAR MRLB 221900Z 09008KT 9999 SCT030 BKN140 33/23 A2982 NOSIG=
201608222000 METAR MRLB 222000Z 07015KT 9999 FEW030 BKN140 32/23 A2980 NOSIG=
201608222100 METAR MRLB 222100Z 09009KT 9999 FEW030 BKN140 32/23 A2979 NOSIG=
201608222200 METAR MRLB 222200Z 09012KT 9999 FEW030 BKN200 31/22 A2981 NOSIG=
201608222300 METAR MRLB 222300Z 09009KT CAVOK 29/22 A2983 NOSIG=
201608222355 METAR MRLB 230000Z 09005KT 9999 FEW040 OVC120 29/22 A2984 NOSIG=
201608230000 METAR MRLB 230000Z 09005KT 9999 FEW040 OVC120 29/22 A2984 NOSIG=
201608230100 METAR MRLB 230100Z 08009KT 9999 FEW040 OVC120 28/22 A2985 NOSIG=
201608230200 METAR MRLB 230200Z 09007KT 9999 FEW040 BKN130 28/22 A2986 NOSIG=
201608230300 METAR MRLB 230300Z 08015KT CAVOK 29/22 A2985 NOSIG=
201608230400 METAR MRLB 230400Z 10014KT CAVOK 29/22 A2986 NOSIG=
201608230500 METAR MRLB 230500Z 10014G24KT CAVOK 29/21 A2985 NOSIG=
201608230600 METAR MRLB 230600Z 07009KT CAVOK 28/21 A2983 NOSIG=
201608230700 METAR MRLB NIL=
201608230800 METAR MRLB NIL=
201608230900 METAR MRLB NIL=
201608231000 METAR MRLB NIL=
201608231100 METAR MRLB NIL=
201608231200 METAR MRLB 231200Z 10007KT CAVOK 26/19 A2980 NOSIG=
201608231300 METAR MRLB 231300Z 12006KT 9999 FEW030 SCT140 26/20 A2990 NOSIG=
201608231400 METAR MRLB 231400Z 13005KT 9999 FEW030 BKN250 28/21 A2991 NOSIG=
201608231455 METAR MRLB 211500Z 11010KT 9999 FEW030 BKN250 30/21 A2991 NOSIG=
201608231500 METAR MRLB 231500Z 11010KT 9999 FEW030 BKN250 30/21 A2991 NOSIG=
201608231504 METAR MRLB 211500Z 11010KT 9999 FEW030 BKN250 30/21 A2991 NOSIG=
201608231600 METAR MRLB 231600Z 10011G21KT 9999 FEW040 SCT160 BKN250 25/16 A3006 NOSIG=
201608231700 METAR MRLB 231700Z 07016KT 9999 FEW030 BKN250 32/22 A2991 NOSIG=
201608231800 METAR MRLB 231800Z COR 08020G31KT 9999 FEW030 BKN250 31/21 A2988 NOSIG=
201608231900 METAR MRLB 231900Z 09020KT 9999 FEW030 BKN250 31/21 A2985 NOSIG=
201608232000 METAR MRLB 232000Z 08021G31KT 9999 FEW035 BKN140 32/21 A2983 NOSIG=
201608232100 METAR MRLB 232100Z 09016G31KT 9999 FEW035 BKN200 32/21 A2979 NOSIG=
201608232200 METAR MRLB 232200Z 13010KT 9999 FEW035 BKN140 30/21 A2977 NOSIG=
201608232300 METAR MRLB 232300Z 31005KT 9999 FEW035 BKN140 30/22 A2980 NOSIG=
201608232349 METAR MRLB 240000Z 10010KT 9999 FEW035 BKN140 29/20 A2984 NOSIG=
201608240000 METAR MRLB 240000Z 10010KT 9999 FEW035 BKN140 29/20 A2984 NOSIG=
201608240100 METAR MRLB 240100Z 09010KT CAVOK 28/21 A2986 NOSIG=
201608240200 METAR MRLB 240200Z 10012KT CAVOK 27/20 A2986 NOSIG=
201608240300 METAR MRLB 240300Z 11006KT CAVOK 26/20 A2987 NOSIG=
201608240400 METAR MRLB 240400Z 12007KT CAVOK 26/20 A2988 NOSIG=
201608240500 METAR MRLB 240500Z 11005KT CAVOK 26/20 A2989 NOSIG=
201608240600 METAR MRLB 240600Z 16005KT CAVOK 24/20 A2988 NOSIG=
201608240700 METAR MRLB NIL=
201608240800 METAR MRLB NIL=
201608240900 METAR MRLB NIL=
201608241000 METAR MRLB NIL=
201608241100 METAR MRLB NIL=
201608241200 METAR MRLB 241200Z 15005KT CAVOK 25/20 A2989 NOSIG=
201608241300 METAR MRLB 241300Z 12008KT CAVOK 27/21 A2989 NOSIG=
201608241400 METAR MRLB 241400Z 04005KT CAVOK 27/22 A2990 NOSIG=
201608241500 METAR MRLB 241500Z 36004KT CAVOK 30/21 A2989 NOSIG=
201608241600 METAR MRLB 241600Z 11011KT CAVOK 32/20 A2989 NOSIG=
201608241700 METAR MRLB 241700Z 08014KT CAVOK 33/20 A2987 NOSIG=
201608241800 METAR MRLB 241800Z 09010KT CAVOK 33/21 A2984 NOSIG=
201608241900 METAR MRLB 241900Z 09009KT 9999 FEW030 SCT250 34/21 A2982 NOSIG=
201608242000 METAR MRLB 242000Z 08015KT 9999 SCT035 BKN250 34/21 A2981 NOSIG=
201608242100 METAR MRLB 242100Z 10009KT 9999 FEW035 OVC250 34/21 A2980 NOSIG=
201608242200 METAR MRLB 242200Z 08011KT 9999 FEW035 OVC250 33/22 A2980 NOSIG=
201608242300 METAR MRLB 242300Z 07008KT CAVOK 32/22 A2981 NOSIG=
201608242352 METAR MRLB 250000Z 08007KT CAVOK 30/22 A2983 NOSIG=
201608250000 METAR MRLB 250000Z 08007KT CAVOK 30/22 A2983 NOSIG=
201608250100 METAR MRLB 250100Z 08005KT CAVOK 28/22 A2986 NOSIG=
201608250200 METAR MRLB 250200Z 00000KT CAVOK 27/22 A2986 NOSIG=
201608250300 METAR MRLB 250300Z 16003KT CAVOK 27/22 A2988 NOSIG=
201608250400 METAR MRLB 250400Z 18005KT CAVOK 25/22 A2989 NOSIG=
201608250500 METAR MRLB 250500Z 18004KT CAVOK 25/21 A2987 NOSIG=
201608250600 METAR MRLB 250600Z 00000KT CAVOK 24/21 A2986 NOSIG=
201608250700 METAR MRLB NIL=
201608250800 METAR MRLB NIL=
201608250900 METAR MRLB NIL=
201608251000 METAR MRLB NIL=
201608251100 METAR MRLB NIL=
201608251200 METAR MRLB 251200Z 00000KT CAVOK 21/20 A2982 NOSIG=
201608251300 METAR MRLB 251300Z 27004KT CAVOK 24/21 A2983 NOSIG=
201608251400 METAR MRLB 251400Z 24003KT CAVOK 26/23 A2984 NOSIG=
201608251453 METAR MRLB 291500Z 00000KT 9999 FEW010 BKN090 26/24 A2989 NOSIG=
201608251500 METAR MRLB 251500Z 23003KT CAVOK 29/22 A2985 NOSIG=
201608251600 METAR MRLB 251600Z 27006KT 9999 FEW040 BKN250 31/22 A2985 NOSIG=
201608251700 METAR MRLB 251700Z 29007KT 9999 SCT035 SCT250 31/22 A2984 NOSIG=
201608251800 METAR MRLB 251800Z 13004KT 9999 SCT035 BKN120 32/22 A2982 NOSIG=
201608251900 METAR MRLB 251900Z 12008KT 9999 SCT035 SCT120 33/23 A2980 NOSIG=
201608252000 METAR MRLB 252000Z 08011KT 9999 FEW030 SCT120 BKN200 32/22 A2979 NOSIG=
201608252100 METAR MRLB 252100Z 08006KT 9999 FEW035 BKN240 33/22 A2979 NOSIG=
201608252200 METAR MRLB 252200Z 08006KT 9999 FEW030 BKN240 33/22 A2978 NOSIG=
201608252300 METAR MRLB 252300Z 33004KT 9999 SCT035 SCT100 31/24 A2979 NOSIG=
201608252350 METAR MRLB 260000Z 13003KT 9999 BKN030 29/24 A2982 NOSIG=
201608260000 METAR MRLB 260000Z 13003KT 9999 BKN030 29/24 A2982 NOSIG=
201608260100 METAR MRLB 260100Z 18003KT 9999 FEW030 26/23 A2985 NOSIG=
201608260200 METAR MRLB 260200Z 11004KT 9999 FEW035 26/23 A2987 NOSIG=
201608260300 METAR MRLB 260300Z 12003KT 9999 SCT030 SCT120 25/23 A2989 NOSIG=
201608260400 METAR MRLB 260400Z 09003KT 9999 SCT030 25/23 A2990 NOSIG=
201608260500 METAR MRLB 260500Z 03003KT 9999 FEW030 25/23 A2989 NOSIG=
201608260600 METAR MRLB 260600Z 04003KT CAVOK 24/23 A2989 NOSIG=
201608260700 METAR MRLB NIL=
201608260800 METAR MRLB NIL=
201608260900 METAR MRLB NIL=
201608261000 METAR MRLB NIL=
201608261100 METAR MRLB NIL=
201608261200 METAR MRLB 261200Z 00000KT CAVOK 22/22 A2988 NOSIG=
201608261300 METAR MRLB 261300Z 00000KT 9999 FEW030 SCT250 25/23 A2988 NOSIG=
201608261400 METAR MRLB 261400Z 10003KT 9999 FEW030 BKN250 27/23 A2990 NOSIG=
201608261500 METAR MRLB 261500Z 12002KT 9999 FEW025 BKN250 29/23 A2989 NOSIG=
201608261600 METAR MRLB 261600Z 13002KT 9999 SCT030 SCT130 30/23 A2988 NOSIG=
201608261700 METAR MRLB 261700Z 22003KT 9999 SCT030 SCT130 30/23 A2988 NOSIG=
201608261800 METAR MRLB 261800Z 05002KT 9999 SCT030 SCT140 32/22 A2985 NOSIG=
201608261900 METAR MRLB 261900Z 36003KT 9999 FEW030 BKN240 34/21 A2982 NOSIG=
201608262000 METAR MRLB 262000Z 30008KT 9999 SCT030 BKN240 32/23 A2979 NOSIG=
201608262100 METAR MRLB 262100Z 25004KT 9999 4000W TSRA SCT020 BKN100 25/24 A2980 NOSIG=
201608262200 METAR MRLB 262200Z COR 27005KT 9999 FEW030 SCT120 BKN250 25/24 A2979 NOSIG=
201608262300 METAR MRLB 262300Z 16004KT 9999 SCT030 BKN250 25/23 A2982 NOSIG=
201608262352 METAR MRLB 270000Z 13003KT 9999 VCSH BKN025 SCT120 25/24 A2985 NOSIG=
201608270000 METAR MRLB 270000Z 13003KT 9999 VCSH BKN025 SCT120 25/24 A2985 NOSIG=
201608270100 METAR MRLB 270100Z 18005KT 9999 SCT025 BKN120 24/22 A2986 NOSIG=
201608270200 METAR MRLB 270200Z 14002KT 9999 FEW025 BKN120 24/23 A2989 NOSIG=
201608270300 METAR MRLB 270300Z 15003KT 9999 2000E RA SCT015 BKN120 24/23 A2992 NOSIG=
201608270400 METAR MRLB 270400Z 12003KT 8000 RA SCT020 BKN120 24/24 A2992 NOSIG=
201608270500 METAR MRLB 270500Z 22004KT 9999 FEW005 BKN020 23/23 A2990 NOSIG=
201608270600 METAR MRLB 270600Z 00000KT 0500 BR VV/// 23/23 A2989 NOSIG=
201608270700 METAR MRLB NIL=
201608270800 METAR MRLB NIL=
201608270900 METAR MRLB NIL=
201608271000 METAR MRLB NIL=
201608271100 METAR MRLB NIL=
201608271200 METAR MRLB 271200Z 00000KT 9999 BCFG SCT003 BKN120 23/23 A2986 NOSIG=
201608271300 METAR MRLB 271300Z 22002KT 9999 SCT005 BKN120 24/24 A2989 NOSIG=
201608271400 METAR MRLB 271400Z 13002KT 9999 SCT008 BKN120 25/24 A2991 NOSIG=
201608271500 METAR MRLB 271500Z 11002KT 9999 FEW015 BKN250 27/24 A2991 NOSIG=
201608271600 METAR MRLB 271600Z 12003KT 9999 FEW020 BKN250 29/24 A2990 NOSIG=
201608271700 METAR MRLB 271700Z 18005KT 9999 FEW020 BKN250 30/25 A2988 NOSIG=
201608271800 METAR MRLB 271800Z 20005KT 9999 SCT025 BKN250 30/24 A2986 NOSIG=
201608271900 METAR MRLB 271900Z 23006KT 9999 FEW025 BKN250 31/24 A2982 NOSIG=
201608272000 METAR MRLB 272000Z 28010KT 9999 VCSH FEW020TCU SCT030 BKN200 31/25 A2979 TEMPO RA=
201608272100 METAR MRLB 272100Z 12003KT 9999 4000E -TSRA SCT020CB BKN100 26/24 A2981 NOSIG=
201608272200 METAR MRLB 272200Z 03004KT 9999 VCSH SCT025 BKN120 25/24 A2980 NOSIG=
201608272300 METAR MRLB 272300Z 07007KT 9999 VCSH SCT025 BKN120 25/24 A2981 NOSIG=
201608272350 METAR MRLB 280000Z 34003KT 9999 -RA SCT025 BKN120 24/24 A2982 NOSIG=
201608280000 METAR MRLB 280000Z 34003KT 9999 -RA SCT025 BKN120 24/24 A2982 NOSIG=
201608280100 METAR MRLB 280100Z 07002KT 9999 FEW030 OVC100 24/24 A2983 NOSIG=
201608280200 METAR MRLB 280200Z 04002KT CAVOK 24/24 A2985 NOSIG=
201608280300 METAR MRLB 280300Z 08002KT CAVOK 24/24 A2987 NOSIG=
201608280400 METAR MRLB 280400Z 06003KT CAVOK 24/24 A2988 NOSIG=
201608280500 METAR MRLB 280500Z 00000KT CAVOK 24/24 A2989 NOSIG=
201608280600 METAR MRLB 280600Z 21002KT 8000 3000E BCFG SCT003 SCT120 23/23 A2988 NOSIG=
201608280700 METAR MRLB NIL=
201608280800 METAR MRLB NIL=
201608280900 METAR MRLB NIL=
201608281000 METAR MRLB NIL=
201608281100 METAR MRLB NIL=
201608281200 METAR MRLB 281200Z 10003KT 9999 FEW030 SCT130 23/22 A2987 NOSIG=
201608281300 METAR MRLB 281300Z 05003KT 9999 FEW030 SCT200 25/23 A2990 NOSIG=
201608281400 METAR MRLB 281400Z 07003KT 9999 FEW030 27/24 A2991 NOSIG=
201608281500 METAR MRLB 281500Z 14003KT 9999 SCT030 29/24 A2992 NOSIG=
201608281600 METAR MRLB 281600Z 13003KT 9999 SCT035 30/24 A2992 NOSIG=
201608281700 METAR MRLB 281700Z 20003KT 9999 SCT035 30/24 A2989 NOSIG=
201608281800 METAR MRLB 281800Z 29004KT 9999 SCT035 30/24 A2986 NOSIG=
201608281900 METAR MRLB 281900Z 29009KT 9999 SCT030 31/25 A2982 NOSIG=
201608282000 METAR MRLB 282000Z 28013KT 9999 VCSH FEW020TCU SCT030 31/25 A2979 NOSIG=
201608282100 METAR MRLB 282100Z 26010KT 9999 -RA VCSH FEW015CB FEW025 BKN120 28/25 A2981 NOSIG=
201608282200 METAR MRLB 282200Z 19005KT 9999 FEW015TCU SCT025 BKN120 26/22 A2980 NOSIG=
201608282300 METAR MRLB 282300Z 21004KT 9999 SCT025 SCT120 25/22 A2980 NOSIG=
201608282354 METAR MRLB 290000Z 12002KT VCT6S FEW020CB SCT030 25/22 A2981 NOSIG=
201608290000 METAR MRLB 290000Z COR 12002KT VCTS FEW020CB SCT030 25/22 A2981 NOSIG=
201608290100 METAR MRLB 290100Z 29002KT 9999 FEW010 SCT020 25/23 A2985 NOSIG=
201608290200 METAR MRLB 290200Z 03005KT 9999 FEW010 BKN020 25/23 A2988 NOSIG=
201608290300 METAR MRLB 290300Z 11002KT 9999 -RA FEW010 BKN020 25/24 A2989 NOSIG=
201608290400 METAR MRLB 290400Z 22003KT 9999 BKN005 24/24 A2991 NOSIG=
201608290500 METAR MRLB 290500Z 18003KT 9999 -RA BKN003 24/24 A2993 NOSIG=
201608290600 METAR MRLB 290600Z 00000KT 9999 -RA SCT005 BKN010 24/24 A2992 NOSIG=
201608290700 METAR MRLB NIL=
201608290800 METAR MRLB NIL=
201608290900 METAR MRLB NIL=
201608291000 METAR MRLB NIL=
201608291100 METAR MRLB NIL=
201608291200 METAR MRLB 291200Z 00000KT 0700 FG FEW004 SCT020 23/23 A2987 NOSIG=
201608291300 METAR MRLB 291300Z 09002KT 9999 BCFG FEW005 BKN100 23/23 A2987 NOSIG=
201608291400 METAR MRLB 291400Z 05002KT 9999 FEW008 BKN090 25/24 A2989 NOSIG=
201608291500 METAR MRLB 291500Z 00000KT 9999 FEW010 BKN090 26/24 A2989 NOSIG=
201608291600 METAR MRLB 291600Z 00000KT 9999 -RA SCT015 BKN090 26/24 A2989 NOSIG=
201608291700 METAR MRLB 291700Z 07003KT 9999 FEW020 SCT100 BKN250 29/23 A2987 NOSIG=
201608291800 METAR MRLB 291800Z 10003KT 9999 FEW025 SCT100 BKN250 30/23 A2984 NOSIG=
201608291900 METAR MRLB 291900Z 22004KT 9999 SCT025 BKN250 31/24 A2981 NOSIG=
201608292000 METAR MRLB 292000Z 24005KT 9999 SCT030 SCT250 32/24 A2978 NOSIG=
201608292100 METAR MRLB 292100Z 29009KT 9999 FEW030TCU SCT035 31/25 A2978 NOSIG=
201608292200 METAR MRLB 292200Z 28010KT 9999 VCSH FEW010 SCT025TCU SCT100 29/25 A2979 NOSIG=
201608292300 METAR MRLB 292300Z 30009KT 9999 VCTS FEW015CB FEW020 SCT100 28/25 A2980 NOSIG=
201608292353 METAR MRLB 300000Z 30004KT 9999 VCSH SCT020CB BKN025 28/24 A2982 NOSIG=
201608300000 METAR MRLB 300000Z 30004KT 9999 VCSH SCT020CB BKN025 28/24 A2982 NOSIG=
201608300100 METAR MRLB 300100Z 18004KT 9999 SCT025 BKN100 24/22 A2984 NOSIG=
201608300200 METAR MRLB 300200Z 10003KT 9999 FEW030 BKN120 24/23 A2986 NOSIG=
201608300300 METAR MRLB 300300Z 15005KT 9999 SCT025 BKN120 24/23 A2989 TEMPO RA=
201608300400 METAR MRLB 300400Z 10003KT 9999 DZ SCT020 BKN100 24/23 A2992 NOSIG=
201608300500 METAR MRLB 300500Z 15004KT 9999 FEW030 BKN120 24/23 A2993 NOSIG=
201608300600 METAR MRLB 300600Z 17003KT 9999 SCT025 BKN120 24/23 A2992 NOSIG=
201608300700 METAR MRLB NIL=
201608300800 METAR MRLB NIL=
201608300900 METAR MRLB NIL=
201608301000 METAR MRLB NIL=
201608301100 METAR MRLB NIL=
201608301200 METAR MRLB 301200Z 00000KT 9999 2000SW BCFG FEW001 BKN200 23/23 A2985 NOSIG=
201608301300 METAR MRLB 301300Z 00000KT 9999 VCFG FEW004 BKN240 24/23 A2988 NOSIG=
201608301400 METAR MRLB 301400Z 18005KT 9999 SCT005 SCT015 25/24 A2989 NOSIG=
201608301500 METAR MRLB 301500Z 15004KT 9999 SCT015 SCT240 27/24 A2990 NOSIG=
201608301600 METAR MRLB 301600Z 18003KT 9999 SCT020 BKN240 29/24 A2990 NOSIG=
201608301700 METAR MRLB 301700Z 19004KT 9999 SCT025 BKN240 30/24 A2988 NOSIG=
201608301800 METAR MRLB 301800Z 15004KT 9999 SCT025 BKN250 30/24 A2985 NOSIG=
201608301900 METAR MRLB 301900Z 28007KT 9999 SCT020TCU SCT250 31/25 A2982 NOSIG=
201608302000 METAR MRLB 302000Z 31009KT 9999 VCSH SCT020TCU SCT250 31/24 A2980 NOSIG=
201608302100 METAR MRLB 302100Z 03007KT 0500 TSRA VV/// 25/24 A2982 NOSIG=
201608302200 METAR MRLB 302200Z 08005KT 9999 -TSRA FEW020 OVC100 24/24 A2982 NOSIG=
201608302300 METAR MRLB 302300Z 07004KT 6000 RA FEW020 SCT040 OVC100 24/23 A2983 NOSIG=
201608302356 METAR MRLB 310000Z 09005KT 9999 -RA OVC080 24/23 A2985 NOSIG=
201608310000 METAR MRLB 310000Z 09005KT 9999 -RA OVC080 24/23 A2985 NOSIG=
201608310100 METAR MRLB 310100Z COR 13003KT 9999 -RA OVC080 24/23 A2986 NOSIG=
201608310200 METAR MRLB 310200Z 07002KT 9999 -RA FEW005 BKN090 24/23 A2990 NOSIG=
201608310300 METAR MRLB 310300Z 16003KT 9999 -RA FEW020 BKN100 24/23 A2991 NOSIG=
201608310400 METAR MRLB 310400Z 19002KT 9999 -RA FEW004 BKN100 24/23 A2994 NOSIG=
201608310500 METAR MRLB 310500Z 17003KT 9999 -RA FEW020 BKN100 24/24 A2994 NOSIG=
201608310600 METAR MRLB 310600Z 06002KT 9999 FEW030 BKN100 24/24 A2993 NOSIG=
201608310700 METAR MRLB NIL=
201608310800 METAR MRLB NIL=
201608310900 METAR MRLB NIL=
201608311000 METAR MRLB NIL=
201608311100 METAR MRLB NIL=
201608311200 METAR MRLB 311200Z 00000KT 0200 FG VV/// 23/22 A2985 NOSIG=
201608311300 METAR MRLB 311300Z 02002KT 5000 1000E BR BKN002 23/23 A2987 NOSIG=
201608311400 METAR MRLB 311400Z 07003KT 9999 VCFG FEW005 SCT250 25/23 A2990 NOSIG=
201608311500 METAR MRLB 311500Z 05002KT 9999 FEW015 SCT250 27/24 A2990 NOSIG=
201608311600 METAR MRLB 311600Z 00000KT 9999 FEW015 SCT250 29/24 A2990 NOSIG=
201608311700 METAR MRLB 311700Z 23003KT 9999 FEW020 SCT250 30/24 A2988 NOSIG=
201608311800 METAR MRLB 311800Z 27003KT 9999 FEW030 BKN250 31/23 A2985 NOSIG=
201608311900 METAR MRLB 311900Z 29004KT 9999 SCT025 BKN250 31/24 A2981 NOSIG=
201608312000 METAR MRLB 312000Z 29006KT 9999 VCSH FEW015TCU SCT025 BKN140 30/24 A2980 TEMPO RA=
201608312100 METAR MRLB 312100Z 05011KT 9999 1500E -TSRA FEW010CB SCT020 BKN120 27/24 A2981 NOSIG=
201608312200 METAR MRLB 312200Z 32004KT 9999 VCSH SCT025 BKN120 27/23 A2980 NOSIG=
201608312300 METAR MRLB 312300Z 26003KT 9999 SCT030 BKN140 26/24 A2981 NOSIG=
201608312352 METAR MRLB 010000Z 19003KT 9999 2000E RA SCT020 BKN100 26/24 A2984 NOSIG=
201608312355 METAR MRLB 010000Z 19003KT 9999 2000E RA SCT020 BKN100 26/24 A2984 NOSIG=
201609010000 METAR MRLB 010000Z 19003KT 9999 2000E RA SCT020 BKN100 26/24 A2984 NOSIG=
201609010100 METAR MRLB 010100Z 17008KT 6000 RA VCTS SCT020 BKN080 24/23 A2988 NOSIG=
201609010200 METAR MRLB 010200Z 13002KT 9999 SCT025 BKN080 24/23 A2990 RERA NOSIG=
201609010300 METAR MRLB 010300Z COR 08004KT 8000 RA BKN040 24/23 A2992 NOSIG=
201609010400 METAR MRLB 010400Z 05003KT 8000 RA FEW008 BKN040 24/23 A2992 NOSIG=
201609010500 METAR MRLB 010500Z COR 00000KT 9999 BKN040 24/23 A2993 RERA NOSIG=
201609010600 METAR MRLB NIL=
201609010900 METAR MRLB NIL=
201609011000 METAR MRLB NIL=
201609011100 METAR MRLB NIL=
201609011200 METAR MRLB 011200Z 20003KT 0500 FG SCT002 BKN120 23/22 A2989 NOSIG=
201609011300 METAR MRLB NIL=
201609011400 METAR MRLB 011400Z 15003KT 9999 SCT020 SCT140 25/24 A2992 NOSIG=
201609011500 METAR MRLB 011500Z 17003KT 9999 SCT025 SCT250 27/24 A2993 NOSIG=
201609011600 METAR MRLB 011600Z 11005KT 9999 SCT025 SCT250 29/24 A2993 NOSIG=
201609011700 METAR MRLB 011700Z 15004KT 9999 SCT030 SCT250 29/24 A2991 NOSIG=
201609011800 METAR MRLB 011800Z 15003KT 9999 SCT025 BKN200 30/24 A2988 NOSIG=
201609011900 METAR MRLB 011900Z 29009KT 9999 VCSH FEW020TCU SCT030 SCT120 29/25 A2986 NOSIG=
201609012000 METAR MRLB 012000Z 23009KT 9999 4000NW RA FEW015TCU SCT030 SCT120 24/23 A2986 NOSIG=
201609012100 METAR MRLB 012100Z 23004KT 9999 SCT025 BKN120 25/24 A2985 NOSIG=
201609012200 METAR MRLB 012200Z 03003KT 9999 -RA SCT025 BKN120 25/24 A2986 NOSIG=
201609012300 METAR MRLB 012300Z 05005KT 5000 RA BR FEW005 SCT010 BKN100 24/24 A2989 NOSIG=
201609012352 METAR MRLB 020000Z 04005KT 9999 VCSH FEW010TCU BKN120 24/24 A2990 NOSIG=
201609020000 METAR MRLB 020000Z 04005KT 9999 VCSH FEW010TCU BKN120 24/24 A2990 NOSIG=
201609020100 METAR MRLB 020100Z 00000KT 9999 FEW010 BKN120 24/3 A2994 NOSIG=
201609020200 METAR MRLB 020200Z 15005KT 9999 FEW005 BKN120 24/23 A2996 NOSIG=
201609020300 METAR MRLB 020300Z 14005KT 9999 SCT005 BKN120 24/23 A2999 NOSIG=
201609020400 METAR MRLB 020400Z 01004KT 9999 SCT003 BKN120 24/23 A2999 NOSIG=
201609020500 METAR MRLB 020500Z 09004KT 9999 FEW010 BKN120 23/22 A2999 NOSIG=
201609020600 METAR MRLB 020600Z 12005KT 9999 FEW030 BKN120 23/22 A2996 NOSIG=
201609020700 METAR MRLB NIL=
201609020800 METAR MRLB NIL=
201609020900 METAR MRLB NIL=
201609021000 METAR MRLB NIL=
201609021100 METAR MRLB NIL=
201609021200 METAR MRLB 021200Z 05002KT 9999 4000W BCFG FEW004 OVC250 22/22 A2992 NOSIG=
201609021300 METAR MRLB 021300Z 03002KT 9999 BCFG FEW005 OVC250 23/22 A2994 NOSIG=
201609021400 METAR MRLB 021400Z 23002KT 9999 FEW008 OVC250 25/23 A2996 NOSIG=
201609021500 METAR MRLB 021500Z 00000KT CAVOK 27/24 A2995 NOSIG=
201609021600 METAR MRLB 021600Z 29002KT 9999 FEW020 OVC250 28/23 A2996 NOSIG=
201609021700 METAR MRLB 021700Z 28006KT 9999 FEW030 OVC250 30/23 A2996 NOSIG=
201609021800 METAR MRLB 021800Z 27006KT 9999 FEW030 OVC250 30/23 A2994 NOSIG=
201609021900 METAR MRLB 021900Z 29007KT 9999 FEW030 OVC250 31/24 A2991 NOSIG=
201609022000 METAR MRLB 022000Z 28008KT 9999 VCSH SCT030TCU BKN200 30/24 A2989 NOSIG=
201609022100 METAR MRLB 022100Z 29006KT 9999 VCSH SCT025 BKN200 29/24 A2988 NOSIG=
201609022200 METAR MRLB 022200Z 28006KT 9999 FEW030 BKN140 28/24 A2986 NOSIG=
201609022300 METAR MRLB 022300Z 26007KT 9999 FEW030 BKN140 28/24 A2989 NOSIG=
201609022351 METAR MRLB 030000Z 26005KT 9999 VCSH SCT025 BKN120 27/24 A2989 NOSIG=
201609030000 METAR MRLB 030000Z 26005KT 9999 VCSH SCT025 BKN120 27/24 A2989 NOSIG=
201609030100 METAR MRLB 030100Z 20003KT 4000 TSRA FEW010CB SCT020 BKN100 24/23 A2994 NOSIG=
201609030200 METAR MRLB 030200Z 32003KT 9999 SCT025 BKN100 24/24 A2994 NOSIG=
201609030300 METAR MRLB 030300Z 05003KT 9999 SCT025 BKN100 24/24 A2994 NOSIG=
201609030400 METAR MRLB 030400Z 08003KT 9999 FEW025 BKN200 24/24 A2995 NOSIG=
201609030500 METAR MRLB 030500Z 03003KT 9999 FEW025 BKN140 24/24 A2995 NOSIG=
201609030600 METAR MRLB 030600Z 30003KT 9999 FEW020 BKN130 24/23 A2995 NOSIG=
201609030700 METAR MRLB NIL=
201609030800 METAR MRLB NIL=
201609030900 METAR MRLB NIL=
201609031000 METAR MRLB NIL=
201609031100 METAR MRLB NIL=
201609031200 METAR MRLB 031200Z 16002KT 9999 BCFG FEW001 BKN130 23/23 A2990 NOSIG=
201609031300 METAR MRLB 031300Z 00000KT 8000 1000NW BCFG VCFG SCT002 SCT130 24/23 A2991 NOSIG0=
201609031400 METAR MRLB 031400Z 24002KT 9999 BCFG SCT005 SCT140 25/24 A2991 NOSIG=
201609031500 METAR MRLB 031500Z 24003KT 9999 FEW020 27/25 A2990 NOSIG=
201609031600 METAR MRLB 031600Z 26004KT CAVOK 30/25 A2989 NOSIG=
201609031700 METAR MRLB 031700Z 27005KT 9999 FEW025 31/25 A2989 NOSIG=
201609031800 METAR MRLB 031800Z 27006KT 9999 SCT030 BKN250 32/25 A2986 NOSIG=
201609031900 METAR MRLB 031900Z 29011KT 9999 FEW025TCU FEW035 31/25 A2983 NOSIG=
201609032000 METAR MRLB 032000Z 33005KT 9999 FEW025TCU FEW035 SCT160 26/23 A2983 NOSIG=
201609032100 METAR MRLB 032100Z 27003KT 9999 FEW030 SCT140 BKN250 28/26 A2980 NOSIG=
201609032200 METAR MRLB 032200Z 31002KT 9999 FEW025TCU FEW030 BKN140 31/23 A2979 NOSIG=
201609032300 METAR MRLB 032300Z 12004KT 9999 FEW025TCU FEW035 BKN140 30/24 A2980 NOSIG=
201609040000 METAR MRLB NIL=
201609040100 METAR MRLB 040100Z 14004KT CAVOK 27/24 A2985 NOSIG=
201609040200 METAR MRLB 040200Z 31002KT 9999 FEW040 SCT120 26/24 A2987 NOSIG=
201609040300 METAR MRLB 040300Z 17003KT 9999 FEW045 SCT120 26/24 A2988 NOSIG=
201609040400 METAR MRLB 040400Z 00000KT CAVOK 26/24 A2988 NOSIG=
201609040500 METAR MRLB 040500Z 00000KT 9999 FEW040 25/24 A2988 NOSIG=
201609040600 METAR MRLB 040600Z 03002KT 9999 FEW040 25/24 A2987 NOSIG=
201609040700 METAR MRLB NIL=
201609040800 METAR MRLB NIL=
201609040900 METAR MRLB NIL=
201609041000 METAR MRLB NIL=
201609041100 METAR MRLB NIL=
201609041200 METAR MRLB 041200Z 28002KT 9999 BR FEW003 SCT045 24/24 A2985 NOSIG=
201609041300 METAR MRLB 041300Z 00000KT 9999 FEW045 SCT250 26/24 A2986 NOSIG=
201609041400 METAR MRLB 041400Z 03004KT CAVOK 29/24 A2987 NOSIG=
201609041500 METAR MRLB 041500Z 02004KT 9999 FEW030 BKN250 31/24 A2987 NOSIG=
201609041600 METAR MRLB 041600Z 09010KT 9999 SCT030 SCT250 32/23 A2987 NOSIG=
201609041700 METAR MRLB 041700Z 12006KT 9999 SCT030 SCT250 31/23 A2987 NOSIG=
201609041800 METAR MRLB 041800Z COR 08011KT 9999 SCT030 SCT250 32/23 A2983 NOSIG=
201609041900 METAR MRLB 041900Z 05012KT 9999 FEW025TCU SCT100 BKN250 32/23 A2981 NOSIG=
201609042000 METAR MRLB 042000Z 09010KT 9999 FEW020TCU SCT100 BKN250 33/23 A2978 NOSIG=
201609042100 METAR MRLB 042100Z 09010KT 9999 FEW020TCU SCT050 BKN200 31/22 A2979 NOSIG=
201609042200 METAR MRLB 042200Z 09010KT 9999 FEW020 SCT035 BKN140 29/22 A2979 NOSIG=
201609042300 METAR MRLB 042300Z 09006KT 9999 SCT035 BKN140 27/22 A2981 NOSIG=
201609042352 METAR MRLB 050000Z 16003KT 9999 SCT035 BKN140 26/23 A2984 NOSIG=
201609050000 METAR MRLB 050000Z 16003KT 9999 SCT035 BKN140 26/23 A2984 NOSIG=
201609050100 METAR MRLB 050100Z 12004KT 9999 FEW040 BKN140 26/23 A2987 NOSIG=
201609050200 METAR MRLB 050200Z 12005KT CAVOK 26/23 A2985 NOSIG=
201609050300 METAR MRLB 050300Z 13005KT 9999 FEW040 SCT140 25/23 A2988 NOSIG=
201609050400 METAR MRLB 050400Z 14004KT 9999 FEW045 SCT140 25/23 A2988 NOSIG=
201609050500 METAR MRLB 050500Z 08002KT CAVOK 25/23 A2987 NOSIG=
201609050600 METAR MRLB 050600Z 00000KT CAVOK 24/23 A2986 NOSIG=
201609050700 METAR MRLB NIL=
201609050800 METAR MRLB NIL=
201609050900 METAR MRLB NIL=
201609051000 METAR MRLB NIL=
201609051100 METAR MRLB NIL=
201609051200 METAR MRLB 051200Z 04003KT CAVOK 23/22 A2986 NOSIG=
201609051300 METAR MRLB 051300Z 07003KT CAVOK 24/23 A2988 NOSIG=
201609051400 METAR MRLB 051400Z 13003KT 9999 FEW030 SCT200 26/23 A2990 NOSIG=
201609051500 METAR MRLB 051500Z 06003KT 9999 FEW030 SCT200 28/23 A2991 NOSIG=
201609051600 METAR MRLB 051600Z 12005KT 9999 SCT025 BKN200 31/23 A2991 NOSIG=
201609051700 METAR MRLB 051700Z 07007KT 9999 SCT025 BKN200 30/23 A2989 NOSIG=
201609051800 METAR MRLB 051800Z 06007KT 9999 SCT025 BKN200 32/23 A2987 NOSIG=
201609051900 METAR MRLB 051900Z 08011KT 9999 SCT025 BKN250 32/22 A2985 NOSIG=
201609052000 METAR MRLB 052000Z 09010KT 9999 FEW030 BKN130 31/23 A2983 NOSIG=
201609052100 METAR MRLB 052100Z 10006KT 9999 FEW035 BKN130 29/22 A2981 NOSIG=
201609052200 METAR MRLB 052200Z 11009KT 9999 -RA OVC120 27/23 A2984 NOSIG=
201609052300 METAR MRLB 052300Z 11006KT 9999 -RA OVC100 26/22 A2987 NOSIG=
201609052352 METAR MRLB 060000Z 00000KT 9999 FEW045 BKN120 25/23 A2987 NOSIG=
201609060000 METAR MRLB 060000Z 00000KT 9999 FEW045 BKN120 25/23 A2987 NOSIG=
201609060100 METAR MRLB 060100Z 00000KT CAVOK 25/23 A2989 NOSIG=
201609060200 METAR MRLB 060200Z 00000KT CAVOK 24/23 A2991 NOSIG=
201609060300 METAR MRLB 060300Z 11003KT CAVOK 24/23 A2992 NOSIG=
201609060400 METAR MRLB 060400Z 03003KT CAVOK 24/23 A2993 NOSIG=
201609060500 METAR MRLB 060500Z 04003KT 9999 FEW030 BKN120 24/23 A2993 NOSIG=
201609060600 METAR MRLB 060600Z 05003KT CAVOK 23/23 A2992 NOSIG=
201609060700 METAR MRLB NIL=
201609060800 METAR MRLB NIL=
201609060900 METAR MRLB NIL=
201609061000 METAR MRLB NIL=
201609061100 METAR MRLB NIL=
201609061157 METAR MRLB 061157Z COR 25003KT 9999 1000SW RA BKN020 SCT130 30/24 A2991 NOSIG=
201609061200 METAR MRLB 061200Z COR 25003KT 9999 1000SW RA BKN020 SCT130 30/24 A2991 NOSIG=
201609061300 METAR MRLB 061300Z 04003KT 9999 FEW035 BKN140 24/23 A2993 NOSIG=
201609061400 METAR MRLB 061400Z 07002KT 9999 FEW010 BKN140 26/24 A2995 NOSIG=
201609061500 METAR MRLB 061500Z 07003KT 9999 SCT020 SCT140 28/23 A2994 NOSIG=
201609061600 METAR MRLB 061600Z 18002KT 9999 SCT025 SCT130 30/24 A2993 NOSIG=
201609061700 METAR MRLB 061700Z 17002KT 9999 BKN030 SCT130 30/24 A2993 NOSIG=
201609061800 METAR MRLB 061800Z 25003KT 9999 -RA BKN020 SCT130 30/24 A2991 NOSIG=
201609061900 METAR MRLB 061900Z 28006KT 7000 VCSH FEW018TCU SCT030 BKN100 27/24 A2988 NOSIG=
201609062000 METAR MRLB 062000Z 04007KT 5000 RA VCTS SCT020CB BKN030 24/22 A2990 NOSIG=
201609062100 METAR MRLB 062100Z 24004KT 9999 RA VCTS FEW020CB FEW030 BKN100 23/22 A2988 NOSIG=
201609062200 METAR MRLB 062200Z 34003KT 5000 RA SCT010 BKN080 23/22 A2988 NOSIG=
201609062300 METAR MRLB 062300Z 00000KT 9999 FEW002 SCT040 BKN100 23/22 A2990 RERA NOSIG=
201609062351 METAR MRLB 070000Z 11003KT 9999 FEW003 SCT040 BKN100 23/23 A2991 NOSIG=
201609070000 METAR MRLB 070000Z 11003KT 9999 FEW003 SCT040 BKN100 23/23 A2991 NOSIG=
201609070100 METAR MRLB 070100Z COR 16004KT 9999 -RA FEW030 BKN100 23/23 A2992 NOSIG=
201609070200 METAR MRLB 070200Z 18003KT 9999 -RA SCT025 BKN100 23/23 A2994 NOSIG=
201609070300 METAR MRLB 070300Z 09003KT 9999 SCT020 BKN100 23/23 A2995 NOSIG=
201609070400 METAR MRLB 070400Z 20003KT 9999 SCT010 BKN100 23/23 A2995 NOSIG=
201609070500 METAR MRLB 070500Z 23003KT 4000 BR FEW002 SCT008 BKN100 23/23 A2994 NOSIG=
201609070600 METAR MRLB 070600Z 27003KT 3000 BR FEW002 SCT005 BKN100 23/23 A2994 NOSIG=
201609070700 METAR MRLB NIL=
201609070800 METAR MRLB NIL=
201609070900 METAR MRLB NIL=
201609071000 METAR MRLB NIL=
201609071100 METAR MRLB NIL=
201609071200 METAR MRLB 071200Z 12003KT 2000 0300NW BR SCT001 BKN250 22/22 A2991 TEMPO 5000 BR=
201609071300 METAR MRLB 071300Z 00000KT 4000 0500W BR SCT002 SCT2350 22/22 A2992 NOSIG=
201609071400 METAR MRLB 071400Z 17002KT 9999 FEW002 BKN250 23/23 A2994 NOSIG=
201609071500 METAR MRLB 071500Z 25002KT 9999 FEW010 BKN240 25/23 A2995 NOSIG=
201609071600 METAR MRLB 071600Z 25005KT 9999 FEW015 BKN240 27/24 A2993 NOSIG=
201609071700 METAR MRLB 071700Z 23005KT 9999 FEW020 BKN240 29/24 A2992 NOSIG=
201609071800 METAR MRLB 071800Z 16003KT 9999 FEW025 BKN240 30/23 A2991 NOSIG=
201609071900 METAR MRLB 071900Z 12008KT 9999 FEW025 BKN220 31/23 A2989 NOSIG=
201609072000 METAR MRLB 072000Z 10007KT 9999 FEW030 BKN220 30/24 A2988 NOSIG=
201609072100 METAR MRLB 072100Z 10009KT 9999 FEW035 BKN220 29/23 A2986 NOSIG=
201609072200 METAR MRLB 072200Z 09009KT CAVOK 29/22 A2984 NOSIG=
201609072300 METAR MRLB 072300Z 25004KT 9999 FEW035 BKN200 28/23 A2985 NOSIG=
201609072352 METAR MRLB 080000Z 22004KT 9999 FEW030 BKN140 27/23 A2987 NOSIG=
201609080000 METAR MRLB 080000Z 22004KT 9999 FEW030 BKN140 27/23 A2987 NOSIG=
201609080100 METAR MRLB 080100Z 00000KT CAVOK 26/23 A2990 NOSIG=
201609080200 METAR MRLB 080200Z 11004KT CAVOK 25/24 A2992 NOSIG=
201609080300 METAR MRLB 080300Z 00000KT CAVOK 25/24 A2993 NOSIG=
201609080400 METAR MRLB 080400Z 00000KT CAVOK 25/23 A2993 NOSIG=
201609080500 METAR MRLB 080500Z 00000KT CAVOK 24/23 A2993 NOSIG=
201609080600 METAR MRLB 080600Z 23002KT CAVOK 23/23 A2991 NOSIG=
201609080700 METAR MRLB NIL=
201609080800 METAR MRLB NIL=
201609080900 METAR MRLB NIL=
201609081000 METAR MRLB NIL=
201609081100 METAR MRLB NIL=
201609081200 METAR MRLB 081200Z 22003KT CAVOK 22/21 A2986 NOSIG=
201609081300 METAR MRLB 081300Z 08002KT CAVOK 23/22 A2989 NOSIG=
201609081400 METAR MRLB 081400Z 02002KT CAVOK 26/23 A2993 NOSIG=
201609081500 METAR MRLB 081500Z 20005KT 9999 FEW025 BKN120 28/23 A2994 NOSIG=
201609081600 METAR MRLB 081600Z 13006KT 9999 FEW020 BKN250 30/23 A2992 NOSIG=
201609081700 METAR MRLB 081700Z 09006KT 9999 SCT020 BKN140 30/23 A2992 NOSIG=
201609081800 METAR MRLB 081800Z 19003KT 9999 SCT030 BKN140 31/23 A2989 NOSIG=
201609081900 METAR MRLB 081900Z 13004KT 9999 FEW025 BKN140 32/22 A2987 NOSIG=
201609082000 METAR MRLB 082000Z 12004KT 9999 FEW030 BKN200 31/22 A2983 NOSIG=
201609082100 METAR MRLB 082100Z 35003KT 9999 FEW030 BKN200 31/23 A2981 NOSIG=
201609082200 METAR MRLB 082200Z 12004KT 9999 FEW035 BKN200 29/23 A2981 NOSIG=
201609082300 METAR MRLB 082300Z 16003KT 9999 FEW035 BKN140 29/23 A2982 NOSIG=
201609082349 METAR MRLB 090000Z 30003KT 9999 FEW035 BKN140 27/24 A2983 NOSIG=
201609090000 METAR MRLB 090000Z 30003KT 9999 FEW035 BKN140 27/24 A2983 NOSIG=
201609090100 METAR MRLB 090100Z 30002KT CAVOK 27/24 A2984 NOSIG=
201609090200 METAR MRLB 090200Z 23002KT CAVOK 26/24 A2985 NOSIG=
201609090300 METAR MRLB 090300Z 19004KT CAVOK 25/24 A2988 NOSIG=
201609090400 METAR MRLB 090400Z 00000KT 9999 SCT030 25/24 A2991 NOSIG=
201609090500 METAR MRLB 090500Z 02003KT 9999 FEW035 SCT140 24/24 A2991 NOSIG=
201609090600 METAR MRLB 090600Z 04004KT CAVOK 24/23 A2990 NOSIG=
201609090700 METAR MRLB NIL=
201609090800 METAR MRLB NIL=
201609090900 METAR MRLB NIL=
201609091000 METAR MRLB NIL=
201609091100 METAR MRLB NIL=
201609091200 METAR MRLB 091200Z 04003KT 9999 FEW030 SCT250 22/21 A2985 NOSIG=
201609091300 METAR MRLB 091300Z 21003KT 9999 FEW025 SCT250 24/23 A2987 NOSIG=
201609091400 METAR MRLB 091400Z 18004KT 9999 SCT030 SCT200 26/23 A2988 NOSIG=
201609091500 METAR MRLB 091500Z 24003KT 9999 FEW035 SCT250 29/24 A2989 NOSIG=
201609091600 METAR MRLB 091600Z 10011KT 9999 FEW035 SCT200 31/22 A2990 NOSIG=
201609091700 METAR MRLB 091700Z 09010KT 9999 FEW035 SCT200 31/22 A2989 NOSIG=
201609091800 METAR MRLB 091800Z 08010KT 9999 FEW035 SCT250 33/22 A2986 NOSIG=
201609091900 METAR MRLB 091900Z 11005KT 9999 SCT030 BKN130 33/22 A2983 NOSIG=
201609092000 METAR MRLB 092000Z 12006KT 9999 FEW030 BKN130 32/23 A2982 NOSIG=
201609092100 METAR MRLB 092100Z 14003KT 9999 SCT030 SCT130 32/23 A2981 NOSIG=
201609092200 METAR MRLB 092200Z 16007KT 9999 FEW030 BKN130 30/23 A2980 NOSIG=
201609092300 METAR MRLB 092300Z 12005KT 9999 FEW035 BKN130 28/24 A2981 NOSIG=
201609092352 METAR MRLB 100000Z 17002KT 9999 FEW035 BKN130 27/22 A2984 NOSIG=
201609100000 METAR MRLB 100000Z 17002KT 9999 FEW035 BKN130 27/22 A2984 NOSIG=
201609100100 METAR MRLB 100100Z 18005KT 9999 FEW035 BKN130 26/24 A2986 NOSIG=
201609100200 METAR MRLB 100200Z 16005KT 9999 FEW035 BKN130 26/24 A2989 NOSIG=
201609100300 METAR MRLB 100300Z 36003KT 9999 FEW030 BKN120 26/24 A2992 NOSIG=
201609100400 METAR MRLB 100400Z 00000KT 9999 FEW015 BKN120 26/25 A2993 NOSIG=
201609100500 METAR MRLB 100500Z 07002KT CAVOK 25/24 A2993 NOSIG=
201609100600 METAR MRLB 100600Z 35002KT CAVOK 25/24 A2993 NOSIG=
201609100700 METAR MRLB NIL=
201609100800 METAR MRLB NIL=
201609100900 METAR MRLB NIL=
201609101000 METAR MRLB NIL=
201609101100 METAR MRLB NIL=
201609101200 METAR MRLB 101200Z 00000KT 0200 FG VV/// 24/23 A2989 NOSIG=
201609101300 METAR MRLB 101300Z 02002KT 0700 FG FEW002 BKN120 24/24 A2991 NOSIG=
201609101400 METAR MRLB 101400Z 25004KT 9999 FEW003 SCT030 BKN100 25/24 A2995 NOSIG=
201609101500 METAR MRLB 101500Z 33002KT 9999 -RA FEW010 BKN080 26/25 A2997 NOSIG=
201609101600 METAR MRLB 101600Z 10008KT 6000 RA VCTS FEW008CB FEW015 BKN080 25/23 A2998 NOSIG=
201609101700 METAR MRLB 101700Z 03003KT 9999 -RA FEW030 BKN100 24/23 A2997 RERA NOSIG=
201609101800 METAR MRLB 101800Z 03002KT 9999 -RA FEW010 BKN100 25/24 A2995 NOSIG=
201609101900 METAR MRLB 101900Z 20002KT 9999 FEW020 BKN120 28/25 A2991 NOSIG=
201609102000 METAR MRLB 102000Z 18003KT 9999 FEW030 BKN100 29/26 A988 NOSIG=
201609102100 METAR MRLB 102100Z 14005KT 9999 FEW045 BKN220 30/25 A2988 NOSIG=
201609102200 METAR MRLB 102200Z 15004KT CAVOK 29/24 A2988 NOSIG=
201609102300 METAR MRLB 102300Z 13005KT CAVOK 28/24 A2992 NOSIG=
201609102351 METAR MRLB 110000Z 13006KT 9999 FEW045 BKN240 26/24 A2994 NOSIG=
201609110000 METAR MRLB 110000Z 13006KT 9999 FEW045 BKN240 26/24 A2994 NOSIG=
201609110100 METAR MRLB 110100Z 11004KT 9999 FEW045 SCT240 26/24 A2995 NOSIG=
201609110200 METAR MRLB 110200Z 16003KT CAVOK 25/24 A2998 NOSIG=
201609110300 METAR MRLB 110300Z 13003KT CAVOK 24/23 A3000 NOSIG=
201609110400 METAR MRLB 110400Z 29003KT CAVOK 24/23 A2999 NOSIG=
201609110500 METAR MRLB 110500Z 35003KT CAVOK 24/23 A2998 NOSIG=
201609110600 METAR MRLB 110600Z 03003KT 9999 SCT020 SCT200 24/23 A2996 NOSIG=
201609110700 METAR MRLB NIL=
201609110800 METAR MRLB NIL=
201609110900 METAR MRLB NIL=
201609111000 METAR MRLB NIL=
201609111100 METAR MRLB NIL=
201609111200 METAR MRLB 111200Z 04003KT 8000 0400SW BCFG SCT001 22/22 A2995 NOSIG=
201609111300 METAR MRLB 111300Z 00000KT 9999 FEW004 24/23 A2996 NOSIG=
201609111400 METAR MRLB 111400Z 23002KT 9999 FEW010 27/24 A2997 NOSIG=
201609111500 METAR MRLB 111500Z 26003KT 9999 SCT020 28/24 A2997 NOSIG=
201609111600 METAR MRLB 111600Z 30003KT 9999 FEW025 SCT140 31/23 A2997 NOSIG=
201609111700 METAR MRLB 111700Z 25003KT 9999 FEW030 SCT180 31/23 A2997 NOSIG=
201609111800 METAR MRLB 111800Z 31003KT 9999 SCT030 SCT180 32/23 A2993 NOSIG=
201609111900 METAR MRLB 111900Z 29007KT 9999 SCT030 32/24 A2989 NOSIG=
201609112000 METAR MRLB 112000Z COR 29010KT 9999 SCT030 31/25 A2986 NOSIG=
201609112100 METAR MRLB 112100Z 28011KT 9999 VCSH FEW025TCU SCT030 31/24 A2986 NOSIG=
201609112200 METAR MRLB 112200Z COR 18005KT 8000 5000SW TSRA BKN025 25/24 A2987 NOSIG=
201609112300 METAR MRLB 112300Z 00000KT 9999 BKN030 24/24 A2990 NOSIG=
201609112350 METAR MRLB 120000Z 02007KT 9999 RA BKN025 24/24 A2991 NOSIG=
201609120000 METAR MRLB 120000Z 02007KT 9999 RA BKN025 24/24 A2991 NOSIG=
201609120100 METAR MRLB 120100Z 03004KT 9999 -RA FEW005 SCT030 25/24 A2992 RERA NOSIG=
201609120200 METAR MRLB 120200Z 08002KT 9999 -RA SCT015 SCT025 25/24 A2994 NOSIG=
201609120300 METAR MRLB 120300Z 07002KT 9999 BKN015 25/24 A2996 NOSIG=
201609120400 METAR MRLB 120400Z 00000KT 9999 RA BKN015 25/24 A2998 NOSIG=
201609120500 METAR MRLB 120500Z 24003KT 9999 -RA FEW003 BKN025 25/24 A2997 NOSIG=
201609120600 METAR MRLB 120600Z 23005KT 6000 2000E RA FEW002 BKN015 24/24 A2995 BNOSIG=
201609120700 METAR MRLB NIL=
201609120800 METAR MRLB NIL=
201609120900 METAR MRLB NIL=
201609121000 METAR MRLB NIL=
201609121100 METAR MRLB NIL=
201609121200 METAR MRLB 121200Z 03003KT 9999 FEW030 BKN250 24/23 A2993 NOSIG=
201609121300 METAR MRLB 121300Z 32004KT 9999 SCT005 SCT030 24/24 A2995 NOSIG=
201609121400 METAR MRLB 121400Z 33005KT 9999 FEW008 BKN030 26/24 A2996 NOSIG=
201609121500 METAR MRLB 121500Z 31005KT 9999 FEW015 BKN035 26/23 A2996 NOSIG=
201609121600 METAR MRLB 121600Z 27008KT 9999 SCT018 BKN080 28/24 A2995 NOSIG=
201609121700 METAR MRLB 121700Z 29007KT 9999 VCSH FEW015TCU BKN080 28/23 A2994 NOSIG=
201609121800 METAR MRLB 121800Z 28008KT 9999 VCSH FEW015TCU BKN100 28/24 A2991 NOSIG=
201609121900 METAR MRLB 121900Z 29008KT 9999 VCSH FEW015TCU BKN100 27/24 A2989 NOSIG=
201609122000 METAR MRLB 122000Z 29006KT 9999 VCSH SCT020 BKN120 27/24 A2986 NOSIG=
201609122100 METAR MRLB 122100Z 25004KT 9999 VCSH SCT020 BKN120 27/24 A2984 NOSIG=
201609122200 METAR MRLB 122200Z 26003KT 9999 FEW030 BKN120 26/24 A2983 NOSIG=
201609122300 METAR MRLB 122300Z 05003KT 9999 FEW030 BKN120 26/23 A2984 NOSIG=
201609122348 METAR MRLB 130000Z 16003KT 9999 FEW035 BKN130 26/24 A2985 NOSIG=
201609130000 METAR MRLB 130000Z 16003KT 9999 FEW035 BKN130 26/24 A2985 NOSIG=
201609130100 METAR MRLB 130100Z 15004KT 9999 FEW030 BKN130 25/24 A2990 NOSIG=
201609130200 METAR MRLB 130200Z 13002KT 9999 FEW030 BKN140 25/24 A2993 NOSIG=
201609130300 METAR MRLB 130300Z COR 11004KT 9999 DZ FEW040 BKN140 25/24 A2995 NOSIG=
201609130400 METAR MRLB 130400Z 14004KT 9999 FEW040 BKN140 24/24 A2996 NOSIG=
201609130500 METAR MRLB 130500Z 16003KT 9999 FEW040 BKN140 24/23 A2995 NOSIG=
201609130600 METAR MRLB 130600Z 00000KT CAVOK 24/23 A2993 NOSIG=
201609130700 METAR MRLB NIL=
201609130800 METAR MRLB NIL=
201609130900 METAR MRLB NIL=
201609131000 METAR MRLB NIL=
201609131100 METAR MRLB NIL=
201609131200 METAR MRLB 131200Z 00000KT 9999 FEW030 BKN130 23/22 A2988 NOSIG=
201609131300 METAR MRLB 131300Z 06003KT CAVOK 24/22 A2991 NOSIG=
201609131400 METAR MRLB 131400Z 04003KT 9999 FEW030 SCT200 27/23 A2992 NOSIG=
201609131500 METAR MRLB 131500Z 25004KT 9999 FEW030 SCT250 28/23 A2991 NOSIG=
201609131600 METAR MRLB 131600Z 24003KT 9999 SCT030 SCT250 30/23 A2991 NOSIG=
201609131700 METAR MRLB 131700Z 29005KT 9999 SCT030 SCT250 29/23 A2990 NOSIG=
201609131800 METAR MRLB 131800Z 28004KT 9999 SCT025 SCT200 31/24 A2987 NOSIG=
201609131900 METAR MRLB 131900Z 28007KT 9999 SCT020TCU SCT200 30/24 A2984 NOSIG=
201609132000 METAR MRLB 132000Z 29010KT 9999 VCSH FEW020TCU FEW030 SCT120 30/25 A2982 NOSIG=
201609132100 METAR MRLB 132100Z 29009KT 9999 VCSH FEW020TCU FEW030 BKN120 28/24 A2982 NOSIG=
201609132200 METAR MRLB 132200Z 26005KT 9999 VCSH FEW015TCU BKN120 29/24 A2982 NOSIG=
201609132300 METAR MRLB 132300Z 09009KT 5000 1000E TSRA FEW008 FEW010CB SCT120 24/22 A2985 NOSIG=
201609132355 METAR MRLB 140000Z 09007KT 9999 -RA OVC080 23/22 A2987 NOSIG=
201609140000 METAR MRLB 140000Z 09007KT 9999 -RA OVC080 23/22 A2987 NOSIG=
201609140100 METAR MRLB 140100Z 09003KT 9999 -RA OVC080 23/22 A2989 NOSIG=
201609140200 METAR MRLB 140200Z 13002KT 9999 -RA BKN090 24/23 A2990 NOSIG=
201609140300 METAR MRLB 140300Z 24003KT 9999 FEW030 BKN100 24/23 A2992 NOSIG=
201609140400 METAR MRLB 140400Z 00000KT 8000 SCT003 BKN120 23/23 A2994 NOSIG=
201609140500 METAR MRLB 140500Z 00000KT 8000 SCT003 BKN120 23/23 A2993 NOSIG=
201609140600 METAR MRLB 140600Z 07002KT 9999 FEW003 BKN120 23/23 A2991 NOSIG=
201609140700 METAR MRLB NIL=
201609140800 METAR MRLB NIL=
201609140900 METAR MRLB NIL=
201609141000 METAR MRLB NIL=
201609141100 METAR MRLB NIL=
201609141200 METAR MRLB 141200Z 07003KT 9999 BCFG FEW030 OVC250 23/22 A2989 NOSIG=
201609141300 METAR MRLB 141300Z 16002KT 9999 BCFG FEW010 SCT140 BKN250 23/23 A2991 NOSIG=
201609141335 METAR MRLB 141335Z 18004KT 9999 2000SW PRFG FEW002 BKN250 24/23 A2993 NOSIG=
201609141400 METAR MRLB 141400Z 18003KT 9999 4000SW BCFG SCT003 BKN250 24/23 A2993 NOSIG=
201609141500 METAR MRLB 141500Z 17004KT 9999 FEW010 BKN250 27/24 A2995 NOSIG=
201609141600 METAR MRLB 141600Z 13004KT 9999 FEW025 BKN250 29/24 A2995 NOSIG=
201609141700 METAR MRLB 141700Z 14008KT 9999 SCT030 BKN250 31/23 A2992 NOSIG=
201609141800 METAR MRLB 141800Z 17006KT 9999 SCT030 BKN250 32/24 A2990 NOSIG=
201609141900 METAR MRLB 141900Z 14004KT 9999 FEW025TCU BKN250 32/24 A2986 NOSIG=
201609142000 METAR MRLB 142000Z 27007KT 9999 FEW025TCU SCT030 30/25 A2983 NOSIG=
201609142100 METAR MRLB 142100Z 30004KT 9999 FEW025TCU BKN040 29/25 A2982 NOSIG=
201609142200 METAR MRLB 142200Z 03007KT 9999 2000NW -RA SCT025TCU SCT030 26/24 A2982 NOSIG=
201609142300 METAR MRLB 142300Z 34003KT 9999 -RA VCSH SCT025CB SCT030 26/25 A2983 TEMPO 5000 RA=
201609142357 METAR MRLB 150000Z 01003KT 6000 RA FEW025CB FEW030 BKN080 25/24 A2986 NOSIG=
201609150000 METAR MRLB 150000Z 01003KT 6000 RA FEW025CB FEW030 BKN080 25/24 A2986 NOSIG=
201609150100 METAR MRLB 150100Z 13003KT 9999 -RA FEW010 BKN030 25/24 A2987 NOSIG=
201609150200 METAR MRLB 150200Z 34003KT 9999 FEW020 BKN100 25/24 A2990 NOSIG=
201609150300 METAR MRLB 150300Z 06003KT 9999 SCT020 BKN100 25/24 A2993 NOSIG=
201609150400 METAR MRLB 150400Z 06004KT 9999 -RA SCT025 BKN100 25/24 A2994 NOSIG=
201609150500 METAR MRLB 150500Z 09003KT 9999 SCT025 BKN120 25/24 A2993 NOSIG=
201609150600 METAR MRLB 150600Z 12003KT 9999 FEW030 BKN120 25/24 A2992 NOSIG=
201609150700 METAR MRLB NIL=
201609150800 METAR MRLB NIL=
201609150900 METAR MRLB NIL=
201609151000 METAR MRLB NIL=
201609151100 METAR MRLB NIL=
201609151200 METAR MRLB 151200Z 10005KT 9999 FEW010 BKN030 24/23 A2992 NOSIG=
201609151300 METAR MRLB 151300Z 06003KT 9999 FEW005 SCT025 BKN100 25/24 A2992 NOSIG=
201609151400 METAR MRLB 151400Z 00000KT 9999 FEW020 SCT040 BKN100 26/24 A2996 NOSIG=
201609151500 METAR MRLB 151500Z 30006KT 9999 SCT020 BKN100 27/25 A2997 NOSIG=
201609151600 METAR MRLB 151600Z 35003KT 9999 FEW020 BKN100 27/24 A2997 NOSIG=
201609151700 METAR MRLB 151700Z 31006KT 9999 BKN020 28/25 A2994 NOSIG=
201609151800 METAR MRLB 151800Z 30005KT 9999 FEW025 BKN200 30/25 A2990 NOSIG=
201609151900 METAR MRLB 151900Z 29008KT 9999 FEW025 BKN240 30/25 A2987 NOSIG=
201609152000 METAR MRLB 152000Z 30008KT 9999 VCSH FEW025TCU FEW030 BKN240 30/24 A2983 NOSIG=
201609152100 METAR MRLB 152100Z 29004KT 9999 SCT030 BKN240 28/25 A2983 RERA NOSIG=
201609152200 METAR MRLB 152200Z 29005KT 9999 FEW040 BKN200 27/25 A2982 NOSIG=
201609152300 METAR MRLB 152300Z 29003KT 9999 FEW035 BKN200 27/24 A2983 NOSIG=
201609152358 METAR MRLB 160000Z 23003KT 9999 FEW030 BKN140 26/24 A2986 NOSIG=
201609160000 METAR MRLB 160000Z 23003KT 9999 FEW030 BKN140 26/24 A2986 NOSIG=
201609160100 METAR MRLB 160100Z 18002KT 9999 FEW030 BKN140 26/24 A2990 NOSIG=
201609160200 METAR MRLB 160200Z 12003KT 9999 FEW030 BKN140 25/24 A2992 NOSIG=
201609160300 METAR MRLB 160300Z 23002KT 9999 -RA FEW015 BKN140 24/23 A2994 RERA NOSIG=
201609160400 METAR MRLB 160400Z 10003KT 9999 FEW010 SCT120 23/23 A2993 NOSIG=
201609160500 METAR MRLB 160500Z 01002KT 9999 FEW010 BKN250 23/23 A2991 NOSIG=
201609160600 METAR MRLB 160600Z 00000KT 9999 FEW010 BKN250 23/23 A2989 NOSIG=
201609160700 METAR MRLB NIL=
201609160800 METAR MRLB NIL=
201609160900 METAR MRLB NIL=
201609161000 METAR MRLB NIL=
201609161100 METAR MRLB NIL=
201609161200 METAR MRLB 161200Z 21002KT 9999 2000SW BCFG FEW004 SCT250 23/23 A2987 NOSIG=
201609161220 METAR MRLB 161220Z 26003KT 1000 FG BKN002 23/23 A2988 NOSIG=
201609161300 METAR MRLB 161300Z 00000KT 9999 FEW005 SCT250 24/23 A2989 NOSIG=
201609161400 METAR MRLB 161400Z 00000KT 9999 FEW010 SCT250 27/24 A2990 NOSIG=
201609161500 METAR MRLB 161500Z 18002KT 9999 FEW020 SCT250 28/24 A2991 NOSIG=
201609161600 METAR MRLB 161600Z 01004KT 9999 SCT025 SCT250 29/24 A2988 NOSIG=
201609161700 METAR MRLB 161700Z 22004KT 9999 FEW025 SCT250 31/25 A2987 NOSIG=
201609161800 METAR MRLB 161800Z 12005KT 9999 SCT030 SCT120 33/23 A2984 NOSIG=
201609161900 METAR MRLB 161900Z 31006KT 9999 FEW030 BKN120 31/25 31/25 A2981 NOSIG=
201609162000 METAR MRLB 162000Z 29004KT 9999 SCT030 BKN200 31/24 A2979 NOSIG=
201609162100 METAR MRLB 162100Z 34003KT 9999 VCSH SCT020TCU BKN200 28/24 A2977 TEMPO RA=
201609162200 METAR MRLB 162200Z 25005KT 9999 VCSH SCT020 BKN140 26/24 A2980 NOSIG=
201609162300 METAR MRLB 162300Z 22006KT 9999 SCT025 BKN120 26/24 A2982 NOSIG=
201609162350 METAR MRLB 170000Z 26003KT 9999 VCSH SCT020 BKN100 25/24 A2984 NOSIG=
201609170000 METAR MRLB 170000Z 26003KT 9999 VCSH SCT020 BKN100 25/24 A2984 NOSIG=
201609170100 METAR MRLB 170100Z 06005KT 8000 TSRA FEW008 SCT020CB BKN100 24/23 A2987 NOSIG=
201609170200 METAR MRLB 170200Z 04004KT 8000 RA FEW020 BKN100 24/23 A2989 RETS NOSIG=
201609170300 METAR MRLB 170300Z 00000KT 9999 -RA FEW030 BKN100 24/23 A2989 NOSIG=
201609170400 METAR MRLB 170400Z 00000KT 9999 -RA FEW040 BKN120 23/23 A2989 NOSIG=
201609170500 METAR MRLB 170500Z 21003KT 9999 FEW040 SCT120 23/23 A2988 NOSIG=
201609170600 METAR MRLB 170600Z 14002KT CAVOK 23/23 A2987 NOSIG=
201609170700 METAR MRLB NIL=
201609170800 METAR MRLB NIL=
201609170900 METAR MRLB NIL=
201609171000 METAR MRLB NIL=
201609171100 METAR MRLB NIL=
201609171200 METAR MRLB 171200Z 27003KT 9999 2000SW BCFG FEW015 SCT200 22/21 A2985 NOSIG=
201609171300 METAR MRLB 171300Z 20003KT 0500 FG VV/// 22/22 A2988 NOSIG=
201609171400 METAR MRLB 171400Z 24003KT 9999 SCT020 SCT250 24/23 A2990 NOSIG=
201609171500 METAR MRLB 171500Z 32003KT 9999 FEW030 28/24 A2990 NOSIG=
201609171600 METAR MRLB 171600Z 29003KT 9999 SCT030 30/24 A2990 NOSIG=
201609171700 METAR MRLB 171700Z 34004KT 9999 SCT025 30/24 A2989 NOSIG=
201609171800 METAR MRLB 171800Z 03004KT 9999 SCT030 31/24 A2985 NOSIG=
201609171900 METAR MRLB 171900Z 11008KT 9999 SCT030 32/23 A2982 NOSIG=
201609172000 METAR MRLB 172000Z 30002KT 9999 -RA FEW020TCU SCT030 SCT120 33/26 A2980 NOSIG=
201609172100 METAR MRLB 172100Z 06009KT 9999 FEW025 BKN120 33/22 A2978 NOSIG=
201609172200 METAR MRLB 172200Z 11009KT 9999 FEW020 BKN120 30/23 A2978 NOSIG=
201609172300 METAR MRLB 172300Z 12009KT 9999 FEW025 BKN140 29/22 A2979 NOSIG=
201609172352 METAR MRLB 180000Z 12009KT CAVOK 28/22 A2980 NOSIG=
201609180000 METAR MRLB 180000Z 12009KT CAVOK 28/22 A2980 NOSIG=
201609180100 METAR MRLB 180100Z 08003KT CAVOK 27/23 A2982 NOSIG=
201609180200 METAR MRLB 180200Z 09002KT CAVOK27/23 A2983 NOSIG=
201609180300 METAR MRLB 180300Z 06003KT CAVOK 26/23 A2986 NOSIG=
201609180400 METAR MRLB 180400Z 27003KT CAVOK 24/23 A2987 NOSIG=
201609180500 METAR MRLB 180500Z 35003KT CAVOK 24/23 A2986 NOSIG=
201609180600 METAR MRLB 180600Z 02002KT CAVOK 25/23 A2985 NOSIG=
201609180700 METAR MRLB NIL=
201609180800 METAR MRLB NIL=
201609180900 METAR MRLB NIL=
201609181000 METAR MRLB NIL=
201609181100 METAR MRLB NIL=
201609181200 METAR MRLB 181200Z 09003KT 9999 SCT045 25/23 A2983 NOSIG=
201609181300 METAR MRLB 181300Z 03006KT CAVOK 26/24 A2985 NOSIG=
201609181400 METAR MRLB 181400Z 03003KT CAVOK 29/24 A2986 NOSIG=
201609181500 METAR MRLB 181500Z 09011KT 9999 FEW040 31/23 A2986 NOSIG=
201609181600 METAR MRLB 181600Z 07011KT 9999 FEW040 SCT250 32/23 A2984 NOSIG=
201609181700 METAR MRLB 181700Z 09011KT 9999 SCT040 SCT250 33/23 A2984 NOSIG=
201609181800 METAR MRLB 181800Z 07011KT 9999 FEW040 SCT250 33/23 A2983 NOSIG=
201609181900 METAR MRLB 181900Z 06013KT 9999 FEW040 BKN250 33/23 A2979 NOSIG=
201609182000 METAR MRLB 182000Z 10011KT 9999 FEW040 BKN250 34/22 A2977 NOSIG=
201609182100 METAR MRLB 182100Z 08010KT 9999 FEW040 BKN250 34/22 A2976 NOSIG=
201609182200 METAR MRLB 182200Z 12005KT 9999 FEW035 SCT250 34/23 A2975 NOSIG=
201609182300 METAR MRLB 182300Z 06006KT 9999 BKN030 32/23 A2977 NOSIG=
201609182353 METAR MRLB 190000Z 12003KT 9999 FEW030 SCT120 30/24 A2979 NOSIG=
201609190000 METAR MRLB 190000Z 12003KT 9999 FEW030 SCT120 30/24 A2979 NOSIG=
201609190100 METAR MRLB 190100Z 17004KT 9999 FEW030 28/25 A2980 NOSIG=
201609190200 METAR MRLB 190200Z 15003KT CAVOK 27/25 A2982 NOSIG=
201609190300 METAR MRLB 190300Z 15003KT CAVOK 26/25 A2984 NOSIG=
201609190400 METAR MRLB 190400Z 10006KT CAVOK 27/22 A2986 NOSIG=
201609190500 METAR MRLB 190500Z 08006KT CAVOK 26/22 A2986 NOSIG=
201609190600 METAR MRLB 190600Z 07005KT CAVOK 25/23 A2985 NOSIG=
201609190700 METAR MRLB NIL=
201609190800 METAR MRLB NIL=
201609190900 METAR MRLB NIL=
201609191000 METAR MRLB NIL=
201609191100 METAR MRLB NIL=
201609191200 METAR MRLB 191200Z 19003KT CAVOK 23/22 A2982 NOSIG=
201609191300 METAR MRLB 191300Z 00000KT CAVOK 27/22 A2983 NOSIG=
201609191400 METAR MRLB 191400Z 34004KT CAVOK 29/22 A2984 NOSIG=
201609191500 METAR MRLB 191500Z 08018KT CAVOK 31/22 A2983 NOSIG=
201609191600 METAR MRLB 191600Z 09017KT CAVOK 32/21 A2983 NOSIG=
201609191700 METAR MRLB 191700Z 08016KT 9999 FEW040 33/22 A2983 NOSIG=
201609191800 METAR MRLB 191800Z 07014KT 9999 FEW040 34/22 A2980 NOSIG=
201609191900 METAR MRLB 191900Z 07013KT 9999 FEW040 34/22 A2976 NOSIG=
201609192000 METAR MRLB 192000Z 08013KT 9999 FEW040 35/22 A2974 NOSIG=
201609192100 METAR MRLB 192100Z 07014KT 9999 FEW040 32/21 A2974 NOSIG=
201609192200 METAR MRLB 192200Z 06013KT CAVOK 34/22 A2973 NOSIG=
201609192300 METAR MRLB 192300Z 08008KT CAVOK 31/22 A2975 NOSIG=
201609192356 METAR MRLB 200000Z 08009KT CAVOK 30/24 A2978 NOSIG=
201609200000 METAR MRLB 200000Z 08009KT CAVOK 30/24 A2978 NOSIG=
201609200100 METAR MRLB 200100Z 11005KT CAVOK 28/22 A2982 NOSIG=
201609200200 METAR MRLB 200200Z 12009KT CAVOK 28/22 A2983 NOSIG=
201609200300 METAR MRLB 200300Z 14004KT CAVOK 26/22 A2984 NOSIG=
201609200400 METAR MRLB 200400Z 16005KT CAVOK 25/22 A2983 NOSIG=
201609200500 METAR MRLB 200500Z 24005KT CAVOK 24/22 A2984 NOSIG=
201609200600 METAR MRLB 200600Z 23006KT CAVOK 24/22 A2984 NOSIG=
201609200700 METAR MRLB NIL=
201609200800 METAR MRLB NIL=
201609200900 METAR MRLB NIL=
201609201000 METAR MRLB NIL=
201609201100 METAR MRLB NIL=
201609201200 METAR MRLB 201200Z 02002KT 9999 BKN040 24/23 A2985 NOSIG RESHRA=
201609201300 METAR MRLB 201300Z 06002KT 9999 SCT045 BKN140 24/23 A2986 NOSIG=
201609201400 METAR MRLB 201400Z 30004KT 9999 BKN045 25/24 A2988 NOSIG=
201609201500 METAR MRLB 201500Z 10005KT 9999 -RA FEW025 BKN100 27/24 A2989 NOSIG=
201609201600 METAR MRLB 201600Z 11008KT 9999 -RA SCT025 BKN100 25/23 A2989 NOSIG=
201609201700 METAR MRLB 201700Z 08003KT 9999 SCT030 BKN120 27/24 A2987 NOSIG=
201609201800 METAR MRLB 201800Z 18005KT 9999 FEW030 BKN140 28/24 A2986 NOSIG=
201609201900 METAR MRLB 201900Z 20008KT 9999 FEW025 BKN140 28/24 A2982 NOSIG=
201609202000 METAR MRLB 202000Z 17006KT 9999 FEW030 SCT130 30/25 A2980 NOSIG=
201609202100 METAR MRLB 202100Z 14007KT 9999 FEW030 BKN200 30/23 A2978 NOSIG=
201609202200 METAR MRLB 202200Z 18005KT 9999 FEW030 BKN200 30/24 A2975 NOSIG=
201609202300 METAR MRLB 202300Z 19004KT 9999 FEW030 BKN200 29/23 A2974 NOSIG=
201609202349 METAR MRLB 210000Z 12003KT 9999 FEW030 BKN200 28/24 A2977 NOSIG=
201609210000 METAR MRLB 210000Z 12003KT 9999 FEW030 BKN200 28/24 A2977 NOSIG=
201609210100 METAR MRLB 210100Z 35002KT 9999 FEW035 BKN200 27/24 A2981 NOSIG=
201609210200 METAR MRLB 210200Z 05004KT 9999 FEW035 BKN200 27/24 A2984 NOSIG=
201609210300 METAR MRLB 210300Z 06003KT CAVOK 26/24 A2986 NOSIG=
201609210400 METAR MRLB 210400Z 01004KT CAVOK 26/25 A2987 NOSIG=
201609210500 METAR MRLB 210500Z 33003KT CAVOK 25/24 A2986 NOSIG=
201609210600 METAR MRLB 210600Z 00000KT 9999 SCT020 25/24 A2985 NOSIG=
201609210700 METAR MRLB NIL=
201609210800 METAR MRLB NIL=
201609210900 METAR MRLB NIL=
201609211000 METAR MRLB NIL=
201609211100 METAR MRLB NIL=
201609211200 METAR MRLB 211200Z 20003KT CAVOK 23/22 A2984 NOSIG=
201609211300 METAR MRLB 211300Z 20005KT CAVOK 24/23 A2986 NOSIG=
201609211400 METAR MRLB 211400Z 21004KT CAVOK 27/23 A2986 NOSIG=
201609211500 METAR MRLB 211500Z 18005KT 9999 FEW030 SCT250 28/23 A2987 NOSIG=
201609211600 METAR MRLB 211600Z 05005KT 9999 FEW030 SCT250 29/23 A2988 NOSIG=
201609211700 METAR MRLB 211700Z 03004KT 9999 FEW030 SCT250 29/23 A2986 NOSIG=
201609211800 METAR MRLB 211800Z 34003KT 9999 SCT030 BKN250 31/24 A2984 NOSIG=
201609211900 METAR MRLB 211900Z 07014G24KT 9999 TSRA SCT015CB SCT030 26/21 A2982 RMK VIS N 3000=
201609211953 METAR MRLB 21200Z 36007KT 9999 -RA FEW020TCU BKN120 24/22 A2981 RETSRA NOSIG=
201609212000 METAR MRLB 212000Z 36007KT 9999 -RA FEW020TCU BKN120 24/22 A2981 RETSRA NOSIG=
201609212100 METAR MRLB 212100Z 02005KT 9999 -RA FEW035 BKN120 25/23 A2980 NOSIG=
201609212200 METAR MRLB 212200Z 24004KT 9999 FEW040 BKN120 27/23 A2979 NOSIG=
201609212300 METAR MRLB 212300Z 18004KT 9999 FEW030 BKN120 26/24 A2981 NOSIG=
201609212352 METAR MRLB 220000Z 16004KT 9999 FEW030 BKN120 25/24 A2982 NOSIG=
201609220000 METAR MRLB 220000Z 16004KT 9999 FEW030 BKN120 25/24 A2982 NOSIG=
201609220100 METAR MRLB 220100Z 24005KT 9999 FEW030 BKN130 24/23 A2983 NOSIG=
201609220200 METAR MRLB 220200Z 00000KT 9999 FEW030 BKN130 24/23 A2988 NOSIG=
201609220300 METAR MRLB 220300Z 20003KT 9999 FEW040 BKN140 24/23 A2989 NOSIG=
201609220400 METAR MRLB 220400Z 00000KT 9999 FEW040 BKN140 24/23 A2989 NOSIG=
201609220500 METAR MRLB 220500Z 29002KT 9999 FEW040 BKN140 24/23 A2987 NOSIG=
201609220600 METAR MRLB 220600Z 00000KT CAVOK 24/23 A2986 NOSIG=
201609220700 METAR MRLB NIL=
201609220800 METAR MRLB NIL=
201609220900 METAR MRLB NIL=
201609221000 METAR MRLB NIL=
201609221100 METAR MRLB NIL=
201609221200 METAR MRLB 221200Z 26002KT 9999 FEW030 BKN120 23/22 A2986 NOSIG=
201609221300 METAR MRLB 221300Z 00000KT CAVOK 25/23 A2988 NOSIG=
201609221400 METAR MRLB 221400Z 01003KT CAVOK 27/24 A2989 NOSIG=
201609221500 METAR MRLB 221500Z 36004KT 9999 FEW020 BKN250 28/24 A2990 NOSIG=
201609221600 METAR MRLB 221600Z 31003KT 9999 FEW025 SCT140 BKN250 30/24 A2990 NOSIG=
201609221700 METAR MRLB 221700Z 30003KT 9999 SCT025 SCT250 29/25 A2987 NOSIG=
201609221800 METAR MRLB 221800Z 12005KT 9999 FEW030 BKN250 31/24 A2985 NOSIG=
201609221900 METAR MRLB 221900Z 11007KT 9999 FEW035 BKN250 33/22 A2982 NOSIG=
201609222000 METAR MRLB 222000Z 09005KT 9999 FEW035 BKN240 33/22 A2979 NOSIG=
201609222100 METAR MRLB 222100Z 10006KT 9999 FEW035 SCT240 33/21 A2978 NOSIG=
201609222200 METAR MRLB 222200Z 18003KT 9999 FEW035 SCT240 32/22 A2977 NOSIG=
201609222300 METAR MRLB 222300Z 30007KT 9999 SCT035 30/24 A2979 NOSIG=
201609222354 METAR MRLB 230000Z 28006KT 9999 FEW020CB FEW030 28/24 A2981 NOSIG=
201609230000 METAR MRLB 230000Z 28006KT 9999 FEW020CB FEW030 28/24 A2981 NOSIG=
201609230100 METAR MRLB 230100Z 17009KT 9999 TSRA SCT020CB SCT080 25/23 A2985 NOSIG=
201609230200 METAR MRLB 230200Z 20003KT 9999 -RA SCT020 BKN100 24/23 A2988 RERA NOSIG=
201609230300 METAR MRLB 230300Z 18005KT 9999 FEW030 BKN100 24/23 A2990 NOSIG=
201609230400 METAR MRLB 230400Z 26003KT 9999 SCT025 BKN100 23/23 A2990 NOSIG=
201609230500 METAR MRLB 230500Z 22003KT 9999 SCT020 BKN100 23/23 A2990 NOSIG=
201609230600 METAR MRLB 230600Z 23003KT 9999 SCT020 BKN100 23/23 A2989 NOSIG=
201609230700 METAR MRLB NIL=
201609230800 METAR MRLB NIL=
201609230900 METAR MRLB NIL=
201609231000 METAR MRLB NIL=
201609231100 METAR MRLB NIL=
201609231200 METAR MRLB 231200Z 03004KT 0100 FG VV/// 22/22 A2991 BECMG 2000 BR=
201609231300 METAR MRLB 231300Z 09002KT 9999 BCFG FEW002 24/23 A2992 NOSIG=
201609231400 METAR MRLB 231400Z 16002KT 9999 FEW020 26/24 A2993 NOSIG=
201609231500 METAR MRLB 231500Z 13003KT 9999 FEW020 28/24 A2994 NOSIG=
201609231600 METAR MRLB 231600Z 13003KT 9999 SCT025 30/24 A2994 NOSIG=
201609231700 METAR MRLB 231700Z 10002KT 9999 SCT025 30/24 A2992 NOSIG=
201609231800 METAR MRLB 231800Z 35004KT 9999 SCT030 31/23 A2989 NOSIG=
201609231900 METAR MRLB 231900Z 26010KT 9999 TS VCSH FEW020CB SCT030TCU 29/24 A2987 NOSIG=
201609231911 METAR MRLB COR 231911Z 22011KT 9999 RA VCTS FEW010 SCT015CB SCT030TCU 26/23 A2988 NOSIG=
201609232000 METAR MRLB 232000Z 28007KT 9999 -RA VCTS FEW010 SCT015 BKN100 25/23 A2986 NOSIG=
201609232100 METAR MRLB 232100Z 14004KT 9999 -RA FEW020 BKN100 25/23 A2986 NOSIG=
201609232200 METAR MRLB 232200Z 09003KT 9999 -RA FEW020 BKN100 24/22 A2986 NOSIG=
201609232300 METAR MRLB 232300Z 09002KT 9999 -RA FEW020 BKN100 24/23 A2987 NOSIG=
201609232353 METAR MRLB 240000Z 05003KT 9999 -RA BKN100 24/23 A2989 NOSIG=
201609240000 METAR MRLB 240000Z 05003KT 9999 -RA BKN100 24/23 A2989 NOSIG=
201609240100 METAR MRLB 240100Z 15003KT 9999 FEW040 BKN120 24/23 A2991 NOSIG=
201609240200 METAR MRLB 240200Z 15003KT CAVOK 23/23 A2983 NOSIG=
201609240300 METAR MRLB 240300Z 34003KT CAVOK 24/23 A2995 NOSIG=
201609240400 METAR MRLB 240400Z 00000KT CAVOK 24/23 A2995 NOSIG=
201609240500 METAR MRLB 240500Z 00000KT CAVOK 23/23 A2994 NOSIG=
201609240600 METAR MRLB 240600Z 00000KT CAVOK 23/23 A2992 NOSIG=
201609240700 METAR MRLB NIL=
201609240800 METAR MRLB NIL=
201609240900 METAR MRLB NIL=
201609241000 METAR MRLB NIL=
201609241100 METAR MRLB NIL=
201609241200 METAR MRLB 241200Z 16002KT 0200 FG VV/// 22/22 A2989 NOSIG=
201609241300 METAR MRLB 241300Z 07002KT 9999 2000E PRFG FEW003 24/23 A2994 NOSIG=
201609241400 METAR MRLB 241400Z 20002KT 9999 FEW010 25/24 A2994 NOSIG=
201609241500 METAR MRLB 241500Z 17002KT 9999 FEW015 27/25 A2995 NOSIG=
201609241600 METAR MRLB 241600Z 32003KT 9999 FEW020 29/25 A2994 NOSIG=
201609241700 METAR MRLB 241700Z 27004KT 9999 FEW020 SCT035 30/27 A2992 NOSIG=
201609241758 METAR MRLB 271800Z 27007KT 9999 SCT030 SCT110 30/26 A2990 NOSIG=
201609241800 METAR MRLB NIL=
201609241900 METAR MRLB 241900Z 29007KT 9999 SCT030TCU SCT110 30/24 A2987 NOSIG=
201609242000 METAR MRLB 242000Z 28006KT 9999 VCSH SCT025 BKN200 31/25 A2984 NOSIG=
201609242100 METAR MRLB 242100Z 28006KT 9999 SCT030 BKN200 30/24 A2983 NOSIG=
201609242200 METAR MRLB 242200Z 29005KT 9999 SCT030 BKN200 29/24 A2982 NOSIG=
201609242300 METAR MRLB 242300Z 27006KT 9999 SCT035 BKN250 28/24 A2984 NOSIG=
201609242350 METAR MRLB 250000Z 25003KT 9999 FEW030 BKN200 27/24 A2987 NOSIG=
201609250000 METAR MRLB 250000Z 25003KT 9999 FEW030 BKN200 27/24 A2987 NOSIG=
201609250100 METAR MRLB 250100Z 16003KT 9999 FEW030 BKN200 26/24 A2990 NOSIG=
201609250200 METAR MRLB 250200Z 10003KT CAVOK 25/24 A2991 NOSIG=
201609250300 METAR MRLB 250300Z 00000KT CAVOK 25/24 A2993 NOSIG=
201609250400 METAR MRLB 250400Z 10002KT CAVOK 25/23 A2993 NOSIG=
201609250500 METAR MRLB 250500Z 24002KT CAVOK 24/23 A2992 NOSIG=
201609250600 METAR MRLB NIL=
201609250700 METAR MRLB NIL=
201609250800 METAR MRLB NIL=
201609250900 METAR MRLB NIL=
201609251000 METAR MRLB NIL=
201609251100 METAR MRLB NIL=
201609251200 METAR MRLB 251200Z 05003KT 0500 FG VV/// 22/22 A2986 NOSIG=
201609251300 METAR MRLB 251300Z 35003KT 0600 FG VV/// 23/23 A2988 NOSIG=
201609251400 METAR MRLB 251400Z 18003KT CAVOK 26/24 A2990 NOSIG=
201609251500 METAR MRLB 251500Z 19003KT CAVOK 29/25 A2989 NOSIG=
201609251600 METAR MRLB 251600Z 07010KT 9999 FEW030 SCT250 31/25 A2987 NOSIG=
201609251700 METAR MRLB 251700Z 12008KT 9999 FEW030 BKN250 33/24 A2985 NOSIG=
201609251800 METAR MRLB 251800Z 10011KT 9999 SCT030 BKN200 32/23 A2984 NOSIG=
201609251900 METAR MRLB 251900Z 10007KT 9999 SCT030 SCT080 32/23 A2982 NOSIG=
201609252000 METAR MRLB 252000Z 10009KT 9999 BKN 030 30/23 A2980 NOSIG=
201609252100 METAR MRLB 252100Z 13003KT 9999 SCT035 BKN100 30/24 A2979 NOSIG=
201609252200 METAR MRLB 252200Z 11008KT 9999 FEW035 BKN100 31/23 A2979 NOSIG=
201609252300 METAR MRLB 252300Z 13004KT 9999 FEW040 BKN100 31/23 A2980 NOSIG=
201609252352 METAR MRLB 260000Z 14004KT 9999 FEW040 BKN120 29/23 A2982 NOSIG=
201609260000 METAR MRLB 260000Z 14004KT 9999 FEW040 BKN120 29/23 A2982 NOSIG=
201609260100 METAR MRLB 260100Z 14005KT 9999 FEW020 BKN120 27/24 A2985 NOSIG=
201609260200 METAR MRLB 260200Z 13004KT 9999 FEW030 BKN250 26/24 A2987 NOSIG=
201609260300 METAR MRLB 260300Z 15004KT 9999 FEW030 BKN250 26/23 A2991 NOSIG=
201609260400 METAR MRLB 260400Z 11003KT CAVOK 25/23 A2991 NOSIG=
201609260500 METAR MRLB 260500Z 13005KT CAVOK 24/22 A2988 NOSIG=
201609260600 METAR MRLB 260600Z 09003KT CAVOK 24/22 A2987 NOSIG=
201609260700 METAR MRLB NIL=
201609260800 METAR MRLB NIL=
201609260900 METAR MRLB NIL=
201609261000 METAR MRLB NIL=
201609261100 METAR MRLB NIL=
201609261200 METAR MRLB 261200Z 00000KT CAVOK 22/22 A2986 NOSIG=
201609261300 METAR MRLB 261300Z 00000KT CAVOK 24/23 A2988 NOSIG=
201609261400 METAR MRLB 261400Z 00000KT CAVOK 26/24 A2988 NOSIG=
201609261500 METAR MRLB 261500Z 01002KT 9999 FEW030 OVC250 28/24 A2989 NOSIG=
201609261600 METAR MRLB 261600Z 18003KT 9999 BKN020 SCT250 29/25 A2989 NOSIG=
201609261700 METAR MRLB 261700Z 12003KT 9999 SCT025 BKN250 31/25 A2986 NOSIG=
201609261800 METAR MRLB 261800Z 15003KT 9999 FEW020TCU SCT025 SCT250 31/23 A2983 NOSIG=
201609261900 METAR MRLB 261900Z 29008KT 9999 BKN030 SCT250 31/24 A2979 NOSIG=
201609262000 METAR MRLB 262000Z 29009KT 9999 SCT025 BKN250 29/25 A2978 NOSIG=
201609262100 METAR MRLB 262100Z 29013KT 9999 3000NE TSRA SCT015CB BKN100 28/25 A2977 NOSIG=
201609262200 METAR MRLB 262200Z 21009KT 2000 -TSRA FEW010CB BKN025 24/23 A2978 NOSIG=
201609262300 METAR MRLB 262300Z 09003KT 8000 VCSH SCT015CB BKN070 25/24 A2982 NOSIG=
201609262355 METAR MRLB 270000Z 19003KT 8000 -TS VCSH SCT015CB BKN060 25/24 A2985 NOSIG=
201609270000 METAR MRLB 270000Z 19003KT 8000 -TS VCSH SCT015CB BKN060 25/24 A2985 NOSIG=
201609270100 METAR MRLB 270100Z 16004KT 9000 SCT020 OVC100 23/23 A2986 NOSIG=
201609270200 METAR MRLB 270200Z 17003KT 9999 SCT025 BKN100 23/23 A2989 NOSIG=
201609270300 METAR MRLB 270300Z 19003KT 9999 SCT015 BKN100 23/23 A2989 NOSIG=
201609270400 METAR MRLB 270400Z 06005KT 9999 SCT020 BKN100 23/23 A2988 NOSIG=
201609270500 METAR MRLB 270500Z 18003KT 9999 SCT010 BKN100 23/23 A2989 NOSIG=
201609270600 METAR MRLB 270600Z 20003KT 9999 SCT010 BKN100 23/23 A2988 NOSIG=
201609270700 METAR MRLB NIL=
201609270800 METAR MRLB NIL=
201609270900 METAR MRLB NIL=
201609271000 METAR MRLB NIL=
201609271100 METAR MRLB NIL=
201609271200 METAR MRLB 271200Z 00000KT 9999 1000SW FEW001 SCT140 23/22 A2984 NOSIG=
201609271229 METAR MRLB 271229Z 19003KT 0100 VV/// 23/23 A2986 NOSIG=
201609271300 METAR MRLB 271300Z 24004KT 0200 FG VV/// 23/23 A2985 NOSIG=
201609271400 METAR MRLB 271400Z 16002KT 9000 VCFG FEW003 SCT100 BKN200 25/24 A2989 NOSIG=
201609271500 METAR MRLB 271500Z 00000KT 9999 VCFG FEW006 BKN120 26/25 A2990 NOSIG=
201609271600 METAR MRLB 271600Z 22002KT 9999 SCT010 BKN100 26/25 A2990 NOSIG=
201609271700 METAR MRLB 271700Z 25002KT 9999 RA SCT015 BKN100 26/25 A2987 NOSIG=
201609271800 METAR MRLB 271800Z 16002KT 9999 -RA SCT020 BKN100 25/24 A2984 NOSIG=
201609271900 METAR MRLB 271900Z 15003KT 9999 SCT025 BKN140 28/26 A2983 RERA NOSIG=
201609272000 METAR MRLB 272000Z 00000KT 9999 FEW025 BKN140 30/25 A2980 NOSIG=
201609272100 METAR MRLB 272100Z 09004KT 9999 FEW025 BKN140 31/23 A2977 NOSIG=
201609272200 METAR MRLB 272200Z 12005KT 9999 FEW025 BKN140 30/23 A2978 NOSIG=
201609272300 METAR MRLB 272300Z 18004KT CAVOK 29/23 A2979 NOSIG=
201609272355 METAR MRLB 280000Z 15003KT 9999 FEW030 SCT150 27/23 A2981 NOSIG=
201609280000 METAR MRLB 280000Z 15003KT 9999 FEW030 SCT150 27/23 A2981 NOSIG=
201609280100 METAR MRLB 280100Z 13007KT CAVOK 26/21 A2984 NOSIG=
201609280200 METAR MRLB 280200Z 14007KT CAVOK 26/21 A2987 NOSIG=
201609280300 METAR MRLB 280300Z 13008KT CAVOK 26/22 A2990 NOSIG=
201609280400 METAR MRLB 280400Z 12005KT CAVOK 25/22 A2991 NOSIG=
201609280500 METAR MRLB 280500Z 15002KT CAVOK 25/22 A2991 NOSIG=
201609280600 METAR MRLB 280600Z 00000KT CAVOK 24/23 A2990 NOSIG=
201609280700 METAR MRLB NIL=
201609280800 METAR MRLB NIL=
201609280900 METAR MRLB NIL=
201609281000 METAR MRLB NIL=
201609281100 METAR MRLB NIL=
201609281200 METAR MRLB 281200Z 00000KT CAVOK 23/22 A2988 NOSIG=
201609281300 METAR MRLB 281300Z 21003KT CAVOK 25/23 A2990 NOSIG=
201609281400 METAR MRLB 281400Z 27003KT CAVOK 27/24 A2990 NOSIG=
201609281500 METAR MRLB 281500Z 33003KT 9999 FEW020 BKN250 29/24 A2992 NOSIG=
201609281600 METAR MRLB 281600Z 20003KT 9999 FEW030 BKN250 31/24 A2991 NOSIG=
201609281700 METAR MRLB 281700Z 36005KT 9999 FEW030 BKN250 32/24 A2990 NOSIG=
201609281800 METAR MRLB 281800Z 10007KT 9999 FEW030 SCT250 33/23 A2987 NOSIG=
201609281900 METAR MRLB 281900Z 09007KT 9999 FEW030 SCT250 33/23 A2984 NOSIG=
201609282000 METAR MRLB 282000Z 10006KT 9999 SCT030 SCT250 33/23 A2982 NOSIG=
201609282100 METAR MRLB 282100Z 13005KT 9999 FEW030 SCT250 33/23 A2980 NOSIG=
201609282200 METAR MRLB 282200Z 12005KT 9999 SCT030 SCT250 33/22 A2981 NOSIG=
201609282300 METAR MRLB 282300Z 22003KT 9999 -TSRA FEW010CB SCT020 BKN120 27/24 A2983 NOSIG=
201609282350 METAR MRLB 290000Z 18005KT 9999 VCSH FEW015CB SCT020 BKN120 26/24 A2987 NOSIG=
201609290000 METAR MRLB 290000Z 18005KT 9999 VCSH FEW015CB SCT020 BKN120 26/24 A2987 NOSIG=
201609290100 METAR MRLB 290100Z 16003KT 9999 SCT030 BKN140 24/23 A2991 NOSIG=
201609290200 METAR MRLB 290200Z 25003KT 9999 FEW020 BKN140 24/22 A2994 NOSIG=
201609290300 METAR MRLB 290300Z 03005KT 9999 SCT020 BKN120 24/23 A2993 NOSIG=
201609290400 METAR MRLB 290400Z 35003KT 9999 FEW030 BKN130 24/23 A2991 NOSIG=
201609290500 METAR MRLB 290500Z 22006KT 9999 FEW030 BKN140 24/23 A2988 NOSIG=
201609290600 METAR MRLB 290600Z 22005KT 9999 FEW030 BKN140 23/23 A2987 NOSIG=
201609290700 METAR MRLB NIL=
201609290800 METAR MRLB NIL=
201609290900 METAR MRLB NIL=
201609291000 METAR MRLB NIL=
201609291100 METAR MRLB NIL=
201609291200 METAR MRLB 291200Z 10009KT 9999 FEW030 BKN130 25/23 A2986 NOSIG=
201609291300 METAR MRLB 291300Z 13007KT 9999 FEW030 SCT130 26/22 A2990 NOSIG=
201609291400 METAR MRLB 291400Z 12007KT 9999 FEW035 SCT140 27/23 A2992 NOSIG=
201609291500 METAR MRLB 291500Z 13008KT 9999 FEW035 SCT200 29/23 A2992 NOSIG=
201609291600 METAR MRLB 291600Z 12007KT 9999 FEW035 SCT250 31/23 A2992 NOSIG=
201609291700 METAR MRLB 291700Z 08010KT 9999 FEW035 SCT250 32/23 A2991 NOSIG=
201609291800 METAR MRLB 291800Z 09010KT 9999 SCT030 SCT250 32/22 A2990 NOSIG=
201609291900 METAR MRLB 291900Z 10007KT 9999 SCT030 SCT140 33/23 A2987 NOSIG=
201609292000 METAR MRLB 292000Z 14003KT 9999 SCT025 SCT140 32/22 A2984 NOSIG=
201609292100 METAR MRLB 292100Z 13002KT 9999 SCT030 SCT250 33/23 A2983 NOSIG=
201609292200 METAR MRLB 292200Z 29008KT 9999 FEW030 BKN250 30/24 A2983 NOSIG=
201609292300 METAR MRLB 292300Z 28006KT 9999 BKN030 SCT250 29/25 A2985 NOSIG=
201609292352 METAR MRLB 300000Z 32004KT 9999 SCT030 BKN250 28/24 A2987 NOSIG=
201609300000 METAR MRLB 300000Z 32004KT 9999 SCT030 BKN250 28/24 A2987 NOSIG=
201609300100 METAR MRLB 300100Z 30003KT 9999 FEW035 SCT250 27/25 A2990 NOSIG=
201609300200 METAR MRLB 300200Z 00000KT 9999 FEW035 SCT130 27/25 A2992 NOSIG=
201609300300 METAR MRLB 300300Z 27003KT 9999 FEW030 SCT140 27/25 A2993 NOSIG=
201609300400 METAR MRLB 300400Z 08002KT 9999 FEW030 BKN140 26/25 A2994 NOSIG=
201609300500 METAR MRLB 300500Z 20002KT 9999 FEW030 BKN140 26/24 A2993 NOSIG=
201609300600 METAR MRLB 300600Z 00000KT CAVOK 26/24 A2992 NOSIG=
201609300700 METAR MRLB NIL=
201609300800 METAR MRLB NIL=
201609300900 METAR MRLB NIL=
201609301000 METAR MRLB NIL=
201609301100 METAR MRLB NIL=
201609301200 METAR MRLB 301200Z 00000KT 9999 SCT020 SCT250 24/23 A2987 NOSIG=
201609301300 METAR MRLB 301300Z 18003KT 9999 FEW030 OVC250 26/24 A2988 NOSIG=
201609301400 METAR MRLB 301400Z 00000KT 9999 FEW040 OVC250 27/24 A2989 NOSIG=
201609301500 METAR MRLB 301500Z 08011KT 9999 FEW040 OVC250 30/23 A2990 NOSIG=
201609301600 METAR MRLB 301600Z 10014KT 9999 FEW035 OVC250 31/22 A2989 NOSIG=
201609301700 METAR MRLB 301700Z 09013KT 9999 FEW035 OVC250 32/22 A2987 NOSIG=
201609301800 METAR MRLB 301800Z 12007KT 9999 SCT035 BKN250 32/22 A2984 NOSIG=
201609301900 METAR MRLB 301900Z 09010KT 9999 SCT035 BKN250 32/22 A2982 NOSIG=
201609302000 METAR MRLB 302000Z 09008KT 9999 SCT035 BKN220 31/22 A2981 NOSIG=
201609302100 METAR MRLB 302100Z 06008KT 9999 SCT035 BKN220 31/23 A2981 NOSIG=
201609302200 METAR MRLB 302200Z 01003KT CAVOK 30/24 A2979 NOSIG=
201609302300 METAR MRLB 302300Z 05004KT 9999 FEW025 SCT100 BKN200 29/24 2981 NOSIG=
201609302351 METAR MRLB 010000Z 11010KT 9999 FEW035 SCT250 27/21 A2983 NOSIG=
201610010000 METAR MRLB 010000Z 11010KT 9999 FEW035 SCT250 27/21 A2983 NOSIG=
201610010100 METAR MRLB 010100Z 11007KT CAVOK 25/20 A2985 NOSIG=
201610010200 METAR MRLB 010200Z 11003KT CAVOK 25/21 A2988 NOSIG=
201610010300 METAR MRLB 010300Z 10006KT CAVOK 25/21 A2990 NOSIG=
201610010400 METAR MRLB 010400Z 08007KT CAVOK 24/20 A2991 NOSIG=
201610010500 METAR MRLB 010500Z 05003KT CAVOK 24/20 A2991 NOSIG=
201610010600 METAR MRLB NIL=
201610010700 METAR MRLB NIL=
201610010800 METAR MRLB NIL=
201610010900 METAR MRLB NIL=
201610011000 METAR MRLB NIL=
201610011100 METAR MRLB NIL=
201610011200 METAR MRLB 011200Z 16003KT CAVOK 23/22 A2986 NOSIG=
201610011300 METAR MRLB 011300Z 23004KT CAVOK 25/23 A2988 NOSIG=
201610011400 METAR MRLB 011400Z 22005KT CAVOK 26/23 A2989 NOSIG=
201610011500 METAR MRLB 011500Z 26003KT CAVOK 27/24 A2990 NOSIG=
201610011600 METAR MRLB 011600Z 17002KT 9999 FEW025 SCT250 30/24 A2988 NOSIG=
201610011700 METAR MRLB 011700Z 06005KT 9999 FEW025 SCT250 32/24 A2984 NOSIG=
201610011800 METAR MRLB 011800Z 09006KT 9999 FEW025 BKN250 32/23 A2982 NOSIG=
201610011900 METAR MRLB 011900Z 31004KT 9999 FEW025 SCT250 32/24 A2980 NOSIG=
201610012000 METAR MRLB 012000Z 28005KT 9999 FEW030 SCT250 32/24 A2977 NOSIG=
201610012100 METAR MRLB 012100Z 30008KT 9999 SCT030 SCT250 32/24 A2975 NOSIG=
201610012200 METAR MRLB 012200Z 30004KT 9999 VCSH SCT030 BKN200 30/24 A2975 TEMPO RA=
201610012300 METAR MRLB 012300Z 24007KT 9999 RA FEW015CB SCT025 BKN200 28/24 A2977 NOSIG=
201610012350 METAR MRLB 020000Z 24006KT 9999 VCSH SCT020 BKN130 26/22 A2979 NOSIG RERA=
201610020000 METAR MRLB 020000Z 24006KT 9999 VCSH SCT020 BKN130 26/22 A2979 NOSIG RERA=
201610020100 METAR MRLB 020100Z 00000KT 9999 SCT025 SCT100 25/22 A2984 NOSIG=
201610020200 METAR MRLB 020200Z 00000KT 9999 SCT025 BKN120 24/23 A2987 NOSIG=
201610020300 METAR MRLB 020300Z 18002KT 9999 SCT030 BKN120 23/22 A2988 NOSIG=
201610020400 METAR MRLB 020400Z 19002KT 9998 FEW035 BKN140 23/22 A2989 NOSIG=
201610020500 METAR MRLB 020500Z 11002KT 9999 FEW035 BKN140 23/22 A2990 NOSIG=
201610020600 METAR MRLB 020600Z 17002KT 9999 FEW035 BKN140 23/22 A2987 NOSIG=
201610020700 METAR MRLB NIL=
201610020800 METAR MRLB NIL=
201610020900 METAR MRLB NIL=
201610021000 METAR MRLB NIL=
201610021100 METAR MRLB NIL=
201610021200 METAR MRLB 021200Z 00000KT 9999 VCFG FEW010 SCT035 BKN250 22/22 A2984 NOSIG=
201610021300 METAR MRLB 021300Z 06002KT 9999 FEW010 SCT035 BKN250 24/23 A2987 NOSIG=
201610021400 METAR MRLB 021400Z 18004KT 9999 FEW015 BKN250 26/24 A2988 NOSIG=
201610021500 METAR MRLB 021500Z 20004KT 9999 SCT020 BKN250 28/25 A2988 NOSIG=
201610021600 METAR MRLB 021600Z 20002KT 9999 SCT025 BKN250 29/25 A2988 NOSIG=
201610021700 METAR MRLB 021700Z 26002KT 9999 SCT030 BKN250 29/24 A2985 NOSIG=
201610021800 METAR MRLB 021800Z 22004KT 9999 SCT030 BKN250 31/24 A2983 NOSIG=
201610021900 METAR MRLB 021900Z 19003KT 9999 SCT030 SCT250 31/23 A2979 NOSIG=
201610022000 METAR MRLB 022000Z 29008KT 9999 FEW030 BKN250 31/24 A2977 NOSIG=
201610022100 METAR MRLB COR 022100Z 30010KT 9999 FEW030 BKN250 30/24 A2975 NOSIG=
201610022200 METAR MRLB 022200Z 29011KT 9999 VCSH FEW025TCU FEW030 BKN250 29/24 A2976 NOSIG=
201610022300 METAR MRLB 022300Z 29010KT 9999 VCTS FEW025 SCT030 BKN120 28/24 A2978 NOSIG=
201610022353 METAR MRLB 030000Z 25004KT 9999 VCTS VCSH FEW020CB BKN035 27/24 A2982 NOSIG=
201610030000 METAR MRLB 030000Z 25004KT 9999 VCTS VCSH FEW020CB BKN035 27/24 A2982 NOSIG=
201610030100 METAR MRLB 030100Z 15004KT 9999 FEW020 BKN100 25/22 A2984 NOSIG=
201610030200 METAR MRLB 030200Z 16003KT 9999 FEW020 BKN100 24/22 A2987 NOSIG=
201610030300 METAR MRLB 030300Z 22002KT CAVOK 24/22 A2989 NOSIG=
201610030400 METAR MRLB 030400Z 14002KT CAVOK 24/22 A2988 NOSIG=
201610030500 METAR MRLB 030500Z 00000KT CAVOK 23/22 A2984 NOSIG=
201610030600 METAR MRLB NIL=
201610030700 METAR MRLB NIL=
201610030800 METAR MRLB NIL=
201610030900 METAR MRLB NIL=
201610031000 METAR MRLB NIL=
201610031100 METAR MRLB NIL=
201610031200 METAR MRLB 031200Z 15003KT 9999 FEW025 BKN120 22/21 A2983 NOSIG=
201610031300 METAR MRLB 031300Z 15003KT 0700 FG VV/// 22/22 A2986 NOSIG=
201610031400 METAR MRLB 031400Z 04003KT 2500 BR SCT004 SCT010 23/23 A2987 NOSIG=
201610031418 METAR MRLB 031418Z 10003KT 9999 VCFG SCT010 BKN120 24/23 A2987 NOSIG=
201610031500 METAR MRLB 031500Z 16003KT 9999 SCT020 BKN200 25/24 A2987 NOSIG=
201610031600 METAR MRLB 031600Z 19006KT 9999 SCT025 BKN200 27/25 A2986 NOSIG=
201610031700 METAR MRLB 031700Z 22006KT 9999 SCT025 BKN200 27/25 A2984 NOSIG=
201610031800 METAR MRLB 031800Z 19004KT 9999 FEW025 BKN200 28/25 A2983 NOSIG=
201610031900 METAR MRLB 031900Z 23003KT 9999 FEW025 BKN220 29/24 A2979 NOSIG=
201610032000 METAR MRLB 032000Z 33005KT 9999 -RA SCT02TCU SCT220 28/24 A2978 NOSIG=
201610032100 METAR MRLB 032100Z 30010KT 9999 SCT025 BKN220 29/24 A2976 NOSIG=
201610032200 METAR MRLB 032200Z 31007KT 9999 VCSH FEW015TCUSCT025 SCT220 28/23 A2977 NOSIG=
201610032300 METAR MRLB 032300Z 16004KT 9999 -RA SCT020 SCT100 25/23 A2979 RETSRA NOSIG=
201610032352 METAR MRLB 040000Z 30002KT 9999 OVC025 25/24 A2980 NOSIG=
201610040000 METAR MRLB 040000Z 30002KT 9999 OVC025 25/24 A2980 NOSIG=
201610040100 METAR MRLB 040100Z 00000KT 9999 -RA OVC020 25/24 A2982 NOSIG=
201610040200 METAR MRLB 040200Z 00000KT 9999 FEW015 BKN030 25/24 A2986 NOSIG=
201610040300 METAR MRLB 040300Z 10002KT 9999 -RA FEW015 BKN030 25/24 A2987 NOSIG=
201610040400 METAR MRLB 040400Z 13003KT 9999 FEW030 25/23 A2987 NOSIG=
201610040500 METAR MRLB 040500Z 14004KT 9999 FEW030 24/23 A2986 NOSIG=
201610040600 METAR MRLB 040600Z 11003KT 9999 SCT030 24/23 A2985 NOSIG=
201610040700 METAR MRLB NIL=
201610040800 METAR MRLB NIL=
201610040900 METAR MRLB NIL=
201610041000 METAR MRLB NIL=
201610041100 METAR MRLB NIL=
201610041200 METAR MRLB 041200Z 00000KT 9999 FEW015 BKN100 23/23 A2984 NOSIG=
201610041300 METAR MRLB 041300Z 13003KT 9999 FEW010 SCT140 BKN250 25/23 A2987 NOSIG=
201610041400 METAR MRLB 041400Z 14004KT 9999 SCT010 SCT250 26/24 A2988 NOSIG=
201610041500 METAR MRLB 041500Z 16004KT 9999 SCT015 SCT250 27/25 A2990 NOSIG=
201610041600 METAR MRLB 041600Z 16005KT 9999 SCT020 SCT250 28/24 A2988 NOSIG=
201610041700 METAR MRLB 041700Z 15002KT 9999 SCT025 SCT250 29/24 A2987 NOSIG=
201610041800 METAR MRLB 041800Z 26003KT 9999 SCT030 BKN250 31/24 A2984 NOSIG=
201610041900 METAR MRLB 041900Z 28007KT 9999 SCT030 BKN250 31/24 A2981 NOSIG=
201610042000 METAR MRLB 042000Z 17010KT 9999 VCSH SCT018CB BKN100 26/23 A2979 NOSIG=
201610042100 METAR MRLB 042100Z 20004KT 9999 VCSH SCT018CB BKN060 25/22 A2980 RMK VIS 7000 SW=
201610042200 METAR MRLB 042200Z 21004KT 9999 -RA SCT020 BKN090 25/24 A2980 RERA NOSIG=
201610042300 METAR MRLB 042300Z 10003KT 9999 VCSH SCT020 BKN100 25/24 A2982 NOSIG=
201610042350 METAR MRLB 050000Z 12003KT 9999 SCT025 BKN120 25/24 A2983 NOSIG=
201610050000 METAR MRLB 050000Z 12003KT 9999 SCT025 BKN120 25/24 A2983 NOSIG=
201610050100 METAR MRLB 050100Z 05002KT 9999 FEW025 SCT120 25/24 A2985 NOSIG=
201610050200 METAR MRLB 050200Z 00000KT 9999 FEW030 SCT120 25/24 A2988 NOSIG=
201610050300 METAR MRLB 050300Z 00000KT CAVOK 24/23 A2989 NOSIG=
201610050400 METAR MRLB 050400Z 20002KT CAVOK 24/23 A2989 NOSIG=
201610050500 METAR MRLB NIL=
201610050600 METAR MRLB NIL=
201610050700 METAR MRLB NIL=
201610050800 METAR MRLB NIL=
201610050900 METAR MRLB NIL=
201610051000 METAR MRLB NIL=
201610051100 METAR MRLB NIL=
201610051200 METAR MRLB 051200Z 18002KT 0200 FG VV/// 22/22 A2986 NOSIG=
201610051300 METAR MRLB 051300Z 00000KT 9999 3000SW BR SCT002 23/22 A2988 NOSIG=
201610051400 METAR MRLB 051400Z 18004KT 9999 3000SW SCT004 24/24 A2989 NOSIG=
201610051500 METAR MRLB 051500Z 20004KT 9999 FEW010 SCT250 26/24 A2990 NOSIG=
201610051600 METAR MRLB 051600Z 19005KT 9999 FEW020 SCT250 28/25 A2988 NOSIG=
201610051700 METAR MRLB 051700Z 22002KT 9999 FEW020 SCT250 30/25 A2986 NOSIG=
201610051800 METAR MRLB 051800Z 28004KT 9999 FEW025 SCT250 31/24 A2984 NOSIG=
201610051900 METAR MRLB 051900Z 29009KT 9999 SCT025 SCT250 31/23 A2980 NOSIG=
201610052000 METAR MRLB 052000Z 09009KT 9999 SCT025 SCT250 31/22 A2978 NOSIG=
201610052100 METAR MRLB 052100Z 31009KT 9999 VCSH FEW025TCU SCT030 SCT250 30/23 A2978 NOSIG=
201610052200 METAR MRLB 052200Z 35005KT 9999 FEW025 BKN200 28/24 A2979 NOSIG=
201610052300 METAR MRLB 052300Z 01004KT 9999 FEW025 BKN220 26/24 A2979 NOSIG=
201610052356 METAR MRLB 060000Z 04005KT 9999 FEW025 BKN250 25/23 A2980 NOSIG=
201610060000 METAR MRLB 060000Z 04005KT 9999 FEW025 BKN250 25/23 A2980 NOSIG=
201610060100 METAR MRLB 060100Z 02003KT CAVOK 25/23 A2983 NOSIG=
201610060200 METAR MRLB 060200Z 10002KT 9999 FEW020 BKN250 25/24 A2985 NOSIG=
201610060300 METAR MRLB 060300Z 00000KT 9999 FEW025 BKN150 25/24 A2986 NOSIG=
201610060400 METAR MRLB 060400Z 07003KT 9999 FEW030 BKN140 24/23 A2987 NOSIG=
201610060500 METAR MRLB 060500Z 14002KT 9999 FEW030 BKN140 24/23 A2987 NOSIG=
201610060600 METAR MRLB 060600Z 00000KT 9999 FEW030 BKN140 24/23 A2985 NOSIG=
201610060700 METAR MRLB NIL=
201610060800 METAR MRLB NIL=
201610060900 METAR MRLB NIL=
201610061000 METAR MRLB NIL=
201610061100 METAR MRLB NIL=
201610061200 METAR MRLB 061200Z 20002KT 9999 VCFG FEW002 FEW030 BKN200 24/23 A2985 NOSIG=
201610061300 METAR MRLB 061300Z 00000KT 9999 VCFG FEW004 SCT030 BKN200 25/24 A2987 NOSIG=
201610061400 METAR MRLB 061400Z 24002KT 9999 BKN020 26/24 A2986 NOSIG=
201610061500 METAR MRLB 061500Z 00000KT 9999 FEW010 BKN025 27/24 A2987 NOSIG=
201610061600 METAR MRLB 061600Z 29003KT 9999 SCT025 29/25 A2986 NOSIG=
201610061700 METAR MRLB 061700Z 29008KT 9999 FEW025 SCT250 30/25 A2983 NOSIG=
201610061800 METAR MRLB 061800Z 28009KT 9999 FEW025 30/25 A2981 NOSIG=
201610061900 METAR MRLB 061900Z 29011KT 9999 SCT025 SCT250 30/24 A2978 NOSIG=
201610062000 METAR MRLB 062000Z 29012KT 9999 VCSH FEW015CB SCT025 BKN200 29/24 A2976 TEMPO RA=
201610062100 METAR MRLB 062100Z 30007KT 9999 VCSH FEW010CB SCT020 BKN120 27/24 A2977 NOSIG=
201610062200 METAR MRLB 062200Z 29003KT 9999 SCT020 BKN120 27/24 A2976 NOSIG=
201610062300 METAR MRLB 062300Z 06005KT 9999 SCT025 BKN120 25/23 A2977 NOSIG=
201610062349 METAR MRLB 070000Z 08003KT 9999 SCT025 BKN130 25/23 A2980 NOSIG=
201610070000 METAR MRLB 070000Z 08003KT 9999 SCT025 BKN130 25/23 A2980 NOSIG=
201610070100 METAR MRLB 070100Z 14003KT 9999 SCT020 BKN130 25/24 A2982 NOSIG=
201610070200 METAR MRLB 070200Z 15003KT 9999 SCT020 BKN140 25/24 A2984 NOSIG=
201610070300 METAR MRLB 070300Z 25003KT 9999 SCT025 BKN140 25/24 A2986 NOSIG=
201610070400 METAR MRLB 070400Z 19003KT 8000 VCFG FEW002 SCT008 BKN140 24/24 A2986 NOSIG=
201610070500 METAR MRLB 070500Z 22003KT 2000 BR FEW002 SCT007 BKN130 24/24 A2985 NOSIG=
201610070600 METAR MRLB 070600Z 12003KT 9999 SCT015 BKN130 24/23 A2984 NOSIG=
201610070700 METAR MRLB NIL=
201610070800 METAR MRLB NIL=
201610070900 METAR MRLB NIL=
201610071000 METAR MRLB NIL=
201610071100 METAR MRLB NIL=
201610071200 METAR MRLB 071200Z 08003KT 8000 VCFG SCT002 BKN100 23/23 A2980 NOSIG=
201610071232 METAR MRLB 071232Z 16003KT 2000 BR FEW002 SCT008 BKN100 24/23 A2981 NOSIG=
201610071300 METAR MRLB 071300Z 09003KT 4000 BR FEW001 SCT005 BKN100 24/23 A2982 NOSIG=
201610071400 METAR MRLB 071400Z 19003KT 9999 SCT010 BKN100 24/24 A2985 NOSIG=
201610071500 METAR MRLB 071500Z 10003KT 9999 SCT020 BKN200 27/25 A2985 NOSIG=
201610071600 METAR MRLB 071600Z 31003KT 9999 SCT020 BKN200 27/25 A2985 NOSIG=
201610071700 METAR MRLB 071700Z 18003KT 9999 SCT025 BKN200 30/25 A2984 NOSIG=
201610071800 METAR MRLB 071800Z 05004KT 9999 SCT025 BKN200 31/24 A2980 NOSIG=
201610071900 METAR MRLB 071900Z 29009KT 9999 FEW02TCU SCT025 SCT250 29/25 A2976 NOSIG=
201610072000 METAR MRLB 072000Z 27010KT 9999 -RA VCTS FEW018 BKN025 28/24 A2975 NOSIG=
201610072100 METAR MRLB 072100Z 05011KT 25000 RA VCTS FEW010CB BK020 24/22 A2975 NOSIG=
201610072200 METAR MRLB 072200Z 05003KT 9999 -RA SCT015 BKN120 24/23 A2976 NOSIG=
201610072300 METAR MRLB 072300Z 10005KT 9999 -RA SCT020 BKN120 24/23 A2978 NOSIG=
201610072352 METAR MRLB 080000Z 12005KT 8000 RA SCT020 BKN100 24/23 A2979 NOSIG=
201610080000 METAR MRLB 080000Z 12005KT 8000 RA SCT020 BKN100 24/23 A2979 NOSIG=
201610080100 METAR MRLB 080100Z 14005KT 9999 -RA SCT020 BKN100 24/23 A2982 RERA NOSIG=
201610080200 METAR MRLB 080200Z 00000KT 9999 -RA SCT025 BKN100 24/23 A2984 NOSIG=
201610080300 METAR MRLB 080300Z 12003KT 9999 -RA FEW025 BKN100 24/23 A2986 NOSIG=
201610080400 METAR MRLB 080400Z 11002KT 9999 -RA FEW030 BKN120 24/23 A2988 NOSIG=
201610080500 METAR MRLB 080500Z 14003KT 9999 FEW030 BKN120 23/23 A2985 NOSIG=
201610080600 METAR MRLB 080600Z 00000KT 9999 FEW030 BKN120 24/23 A2983 NOSIG=
201610080700 METAR MRLB NIL=
201610080800 METAR MRLB NIL=
201610080900 METAR MRLB NIL=
201610081000 METAR MRLB NIL=
201610081100 METAR MRLB NIL=
201610081200 METAR MRLB 081200Z 03003KT 0500 FG VV/// 23/22 A2983 NOSIG=
201610081300 METAR MRLB 081300Z 36003KT 9999 SCT015 BKN200 24/23 A2984 NOSIG=
201610081400 METAR MRLB 081400Z 18003KT 9999 FEW025 BKN250 26/24 A2985 NOSIG=
201610081500 METAR MRLB 081500Z 24003KT 9999 FEW030 BKN250 27/25 A2985 NOSIG=
201610081600 METAR MRLB 081600Z 25003KT 9999 SCT025 BKN200 29/25 A2984 NOSIG=
201610081700 METAR MRLB 081700Z 18006KT 9999 VCSH FEW015TCU SCT025 BKN200 29/25 A2982 NOSIG=
201610081800 METAR MRLB 081800Z 22006KT 9999 SCT025 BKN200 29/25 A2979 NOSIG=
201610081900 METAR MRLB 081900Z 12008KT 9999 FEW020TCU BKN250 30/24 A2975 NOSIG=
201610082000 METAR MRLB 082000Z 08009KT 9999 FEW020TCU BKN200 31/23 A2974 NOSIG=
201610082100 METAR MRLB 082100Z 29006KT 9999 SCT025 BKN200 29/24 A2973 NOSIG=
201610082200 METAR MRLB 082200Z 26005KT 9999 FEW025 BKN140 27/24 A2974 NOSIG=
201610082300 METAR MRLB 082300Z 30002KT 9999 SCT025 BKN100 27/25 A2977 NOSIG=
201610082351 METAR MRLB 090000Z 20003KT 9999 SCT020 BKN100 26/24 A2978 NOSIG=
201610090000 METAR MRLB 090000Z 20003KT 9999 SCT020 BKN100 26/24 A2978 NOSIG=
201610090100 METAR MRLB 090100Z 17002KT 9999 SCT020CB SCT100 25/24 A2981 NOSIG=
201610090200 METAR MRLB 090200Z 12002KT 9999 SCT020CB BKN100 25/24 A2983 NOSIG=
201610090300 METAR MRLB 090300Z 17003KT 9999 FEW030 SCT100 25/24 A2987 NOSIG=
201610090400 METAR MRLB 090400Z 17004KT 9999 FEW035 SCT120 24/24 A2988 NOSIG=
201610090500 METAR MRLB 090500Z 15003KT 9999 FEW020 SCT140 24/24 A2987 NOSIG=
201610090600 METAR MRLB NIL=
201610090700 METAR MRLB NIL=
201610090800 METAR MRLB NIL=
201610090900 METAR MRLB NIL=
201610091000 METAR MRLB NIL=
201610091100 METAR MRLB NIL=
201610091200 METAR MRLB 091200Z 00000KT 9999 FEW035 SCT120 24/23 A2983 NOSIG=
201610091300 METAR MRLB 091300Z 17002KT 9999 FEW010 SCT120 24/23 A2986 NOSIG=
201610091400 METAR MRLB 091400Z 19002KT 9999 SCT012 SCT100 25/24 A2986 NOSIG=
201610091500 METAR MRLB 091500Z 22003KT 9999 FEW015 SCT140 27/25 A2986 NOSIG=
201610091600 METAR MRLB 091600Z 30004KT 9999 SCT020 SCT140 28/25 A2986 NOSIG=
201610091700 METAR MRLB 091700Z 28003KT 9999 SCT018 SCT120 30/25 A2984 NOSIG=
201610091800 METAR MRLB 091800Z 27006KT 9999 SCT018TCU BKN120 30/25 A2982 NOSIG=
201610091900 METAR MRLB 091900Z 27009KT 9999 VCSH SCT020CB SCT120 29/24 A2979 NOSIG=
201610091930 METAR MRLB 091930Z 28004KT 9999 2000E RA SCT025 BKN030 28/25 A2978 NOSIG=
201610092000 METAR MRLB 092000Z 31009KT 9999 -TSRA SCT020 BKN030 26/24 A2977 NOSIG=
201610092100 METAR MRLB 092100Z 35006KT 8000 3000E RA FEW020 OVC030 26/24 A2977 NOSIG=
201610092200 METAR MRLB 092200Z 15004KT 2000 +TSRA OVC025 24/23 A2979 NOSIG=
201610092300 METAR MRLB 092300Z 10005KT 7000 TSRA FEW010 SCT030 BKN045 24/23 A2982 NOSIG=
201610092354 METAR MRLB 100000Z 14003KT 7000 RA FEW010 BKN030 24/23 A2984 NOSIG=
201610100000 METAR MRLB 100000Z 14003KT 7000 RA FEW010 BKN030 24/23 A2984 NOSIG=
201610100100 METAR MRLB 100100Z 13003KT 6000 FEW010 BKN030 24/23 A2987 NOSIG=
201610100200 METAR MRLB 100200Z 00000KT 5000 RA SCT015 BKN025 24/23 A2990 NOSIG=
201610100300 METAR MRLB 100300Z 06004KT 5000 RA BR FEW005 BKN025 24/23 A2992 NOSIG=
201610100400 METAR MRLB 100400Z 00000KT 6000 RA SCT020 BKN090 24/23 A0991 NOSIG=
201610100500 METAR MRLB 100500Z 00000KT 9000 -RA FEW005 BKN090 24/23 A2990 RERA NOSIG=
201610100600 METAR MRLB 100600Z 00000KT 9999 FEW003 BKN100 23/23 A2988 NOSIG=
201610100700 METAR MRLB NIL=
201610100800 METAR MRLB NIL=
201610100900 METAR MRLB NIL=
201610101000 METAR MRLB NIL=
201610101100 METAR MRLB NIL=
201610101200 METAR MRLB 101200Z 00000KT 0300 FG VV/// 23/23 A2986 NOSIG=
201610101300 METAR MRLB 101300Z 00000KT 6000 PRFG SCT 002 BKN100 24/24 A2989 NOSIG=
201610101400 METAR MRLB 101400Z 22003KT 9999 VCFG SCT003 BKN100 24/24 A2990 NOSIG=
201610101500 METAR MRLB 101500Z 27003KT 9999 FEW010 BKN120 26/25 A2990 NOSIG=
201610101600 METAR MRLB 101600Z 06002KT 9999 FEW015 BKN140 27/25 A2989 NOSIG=
201610101700 METAR MRLB 101700Z 10002KT 9999 FEW025 BKN200 29/25 A2987 NOSIG=
201610101800 METAR MRLB 101800Z 09011KT 9999 FEW025 BKN250 31/25 A2983 NOSIG=
201610101900 METAR MRLB 101900Z 10010KT 9999 FEW030 BKN250 31/23 A2981 NOSIG=
201610102000 METAR MRLB 102000Z 10008KT 9999 SCT030 BKN250 30/23 A2980 NOSIG=
201610102100 METAR MRLB 102100Z 08011KT 9999 SCT025 BKN140 30/23 A2978 NOSIG=
201610102200 METAR MRLB 102200Z 11006KT 9999 FEW030 BKN140 30/23 A2978 NOSIG=
201610102300 METAR MRLB 102300Z 05005KT 9999 FEW030 BKN140 29/24 A2980 NOSIG=
201610102350 METAR MRLB 110000Z 09003KT 9999 FEW030 BKN140 28/23 A2981 NOSIG=
201610110000 METAR MRLB 110000Z 09003KT 9999 FEW030 BKN140 28/23 A2981 NOSIG=
201610110100 METAR MRLB 110100Z 09003KT 9999 FEW035 BKN140 27/23 A2985 NOSIG=
201610110200 METAR MRLB 110200Z 10007KT 9999 SCT035 BKN130 27/22 A2986 NOSIG=
201610110300 METAR MRLB 110300Z 08006KT 9999 FEW035 BKN130 26/22 A2989 NOSIG=
201610110400 METAR MRLB 110400Z 13005KT 9999 FEW035 BKN140 25/22 A2989 NOSIG=
201610110500 METAR MRLB 110500Z 34003KT CAVOK 24/22 A2989 NOSIG=
201610110600 METAR MRLB 110600Z 00000KT CAVOK 24/23 A2987 NOSIG=
201610110700 METAR MRLB NIL=
201610110800 METAR MRLB NIL=
201610110900 METAR MRLB NIL=
201610111000 METAR MRLB NIL=
201610111100 METAR MRLB NIL=
201610111200 METAR MRLB 111200Z 00000KT 9999 FEW030 BKN200 23/22 A2985 NOSIG=
201610111300 METAR MRLB 111300Z 15003KT 9999 FEW030 BKN200 24/23 A2988 NOSIG=
201610111400 METAR MRLB 111400Z 25004KT 9999 SCT030 SCT140 26/24 A2989 NOSIG=
201610111500 METAR MRLB 111500Z 24005KT 9999 FEW030 BKN200 28/24 A2989 NOSIG=
201610111600 METAR MRLB 111600Z 26006KT 9999 SCT030 BKN200 29/24 A2988 NOSIG=
201610111700 METAR MRLB 111700Z 10011KT 9999 FEW030 BKN140 30/24 A2984 NOSIG=
201610111800 METAR MRLB 111800Z 04006KT 9999 SCT030 BKN140 31/24 A2983 NOSIG=
201610111900 METAR MRLB 111900Z 27003KT 9999 FEW025TCU BKN030 31/24 A2980 NOSIG=
201610112000 METAR MRLB 112000Z 06006KT 9999 SCT025 BKN060 29/23 A2979 NOSIG=
201610112100 METAR MRLB 112100Z 07011KT 9999 FEW035 BKN140 31/24 A2971 NOSIG=
201610112200 METAR MRLB 112200Z 08009KT 9999 SCT025 BKN090 30/23 A2979 NOSIG=
201610112300 METAR MRLB 112300Z 05006KT 9999 SCT025 BKN080 26/22 A2981 NOSIG=
201610112352 METAR MRLB 120000Z 07003KT 9999 -RA SCT030 BKN080 26/23 A2982 NOSIG=
201610120000 METAR MRLB 120000Z 07003KT 9999 -RA SCT030 BKN080 26/23 A2982 NOSIG=
201610120100 METAR MRLB 120100Z 00000KT 9999 FEW030 BKN140 25/23 A2983 NOSIG=
201610120200 METAR MRLB 120200Z 19002KT 9999 FEW030 BKN140 26/23 A2984 NOSIG=
201610120300 METAR MRLB 120300Z 09005KT CAVOK 26/23 A2986 NOSIG=
201610120354 METAR MRLB 130400Z 20002KT CAVOK 26/23 A2987 NOSIG=
201610120400 METAR MRLB NIL=
201610120500 METAR MRLB 120500Z 13008KT CAVOK 26/23 A2986 NOSIG=
201610120600 METAR MRLB 120600Z 14006KT CAVOK 26/23 A2984 NOSIG=
201610120700 METAR MRLB NIL=
201610120800 METAR MRLB NIL=
201610120900 METAR MRLB NIL=
201610121000 METAR MRLB NIL=
201610121100 METAR MRLB NIL=
201610121200 METAR MRLB 121200Z 00000KT 9999 SCT030 SCT120 24/23 A2982 NOSIG=
201610121300 METAR MRLB 121300Z 00000KT -RA SCT030 BKN120 25/24 A2984 NOSIG=
201610121400 METAR MRLB 121400Z 33004KT 9999 SCT020 BKN080 27/25 A2986 NOSIG=
201610121500 METAR MRLB 121500Z 00000KT 9999 SCT020 BKN080 28/24 A2987 NOSIG=
201610121600 METAR MRLB 121600Z 36003KT 9999 SCT030 SCT120 29/25 A2986 NOSIG=
201610121700 METAR MRLB 121700Z 30006KT 9999 SCT030 SCT120 30/24 A2984 NOSIG=
201610121800 METAR MRLB 121800Z 13005KT 9999 SCT030 SCT120 30/24 A2982 NOSIG=
201610121900 METAR MRLB 121900Z 09013KT VCSH SCT020TCU SCT120 32/24 A2978 NOSIG=
201610122000 METAR MRLB 122000Z 14007KT 9999 VCSH FEW025TCU BKN120 28/23 A2977 NOSIG=
201610122100 METAR MRLB 122100Z 14005KT 9999 FEW035 BKN120 28/24 A2976 NOSIG=
201610122200 METAR MRLB 122200Z 16006KT 9999 SCT040 BKN120 27/24 A2979 NOSIG=
201610122300 METAR MRLB 122300Z 13006KT 9999 FEW035 BKN140 26/23 A2980 NOSIG=
201610122354 METAR MRLB 130000Z 14006KT 9999 FEW035 BKN200 26/23 A2982 NOSIG=
201610130000 METAR MRLB 130000Z 14006KT 9999 FEW035 BKN200 26/23 A2982 NOSIG=
201610130100 METAR MRLB 130100Z 15005KT 9999 FEW040 BKN140 25/23 A2984 NOSIG=
201610130200 METAR MRLB 130200Z 16005KT 9999 FEW035 BKN130 25/23 A2987 NOSIG=
201610130300 METAR MRLB 130300Z 13004KT 9999 FEW035 BKN130 25/23 A2988 NOSIG=
201610130400 METAR MRLB 130400Z 17003KT 9999 SCT030 BKN140 25/23 A2988 NOSIG=
201610130500 METAR MRLB 130500Z 06003KT 9999 FEW030 SCT140 24/23 A2988 NOSIG=
201610130600 METAR MRLB 130600Z 03003KT 9999 FEW030 SCT140 24/23 A2986 NOSIG=
201610130700 METAR MRLB NIL=
201610130800 METAR MRLB NIL=
201610130900 METAR MRLB NIL=
201610131000 METAR MRLB NIL=
201610131100 METAR MRLB NIL=
201610131200 METAR MRLB 131200Z 36002KT CAVOK 23/23 A2985 NOSIG=
201610131300 METAR MRLB 131300Z 01002KT CAVOK 25/24 A2987 NOSIG=
201610131400 METAR MRLB 131400Z 17004KT 9999 FEW020 BKN200 26/24 A2987 NOSIG=
201610131500 METAR MRLB 131500Z 20005KT 9999 FEW020 BKN240 27/24 A2989 NOSIG=
201610131600 METAR MRLB 131600Z 19005KT 9999 SCT020 BKN240 28/25 A2990 NOSIG=
201610131700 METAR MRLB 131700Z 21003KT 9999 -RA FEW020TCU BKN030 29/24 A2987 NOSIG=
201610131800 METAR MRLB 131800Z 23004KT 9999 FEW025TCU SCT030 SCT120 30/24 A2985 NOSIG=
201610131900 METAR MRLB 131900Z 28005KT 9999 SCT025TCU SCT050 28/25 A2982 RERA NOSIG=
201610132000 METAR MRLB 132000Z 03011KT 9999 TSRA SCT020CB BKN100 24/22 A2979 RERA NOSIG=
201610132100 METAR MRLB 132100Z 28003KT 9999 FEW025 BKN20000 26/25 A2979 NOSIG=
201610132200 METAR MRLB 132200Z 29004KT 9999 TS FEW025 SCT045 BKN140 28/25 A2979 NOSIG=
201610132300 METAR MRLB 132300Z 18004KT 9999 VCSH VCTS FEW020 BKN030 25/24 A2983 NOSIG=
201610132352 METAR MRLB 140000Z 24003KT 9999 RA FEW030 BKN090 25/24 A2985 NOSIG=
201610140000 METAR MRLB 140000Z 24003KT 9999 RA FEW030 BKN090 25/24 A2985 NOSIG=
201610140100 METAR MRLB 140100Z 26002KT 9999 -RA FEW020 BKN090 25/24 A2986 RERA NOSIG=
201610140200 METAR MRLB 140200Z 26003KT 9999 FEW030 BKN120 24/24 A2989 NOSIG=
201610140300 METAR MRLB 140300Z 21003KT 9999 FEW030 BKN120 24/24 A2989 NOSIG=
201610140400 METAR MRLB 140400Z 00000KT 9999 -RA FEW002 BKN120 24/24 A2989 NOSIG=
201610140500 METAR MRLB 140500Z 22003KT 9999 FEW002 BKN130 24/24 A2990 NOSIG=
201610140600 METAR MRLB 140600Z 00000KT 9999 FEW002 BKN130 24/24 A2987 NOSIG=
201610140700 METAR MRLB NIL=
201610140800 METAR MRLB NIL=
201610140900 METAR MRLB NIL=
201610141000 METAR MRLB NIL=
201610141100 METAR MRLB NIL=
201610141200 METAR MRLB 141200Z 00000KT 9999 VCFG FEW003 SCT100 BKN250 24/23 A2989 NOSIG=
201610141300 METAR MRLB 141300Z 00000KT 9999 FEW007 BKN250 25/25 A2990 NOSIG=
201610141400 METAR MRLB 141400Z 00000KT 9999 FEW015 BKN250 27/25 A2991 NOSIG=
201610141500 METAR MRLB 141500Z 19003KT 9999 FEW020 BKN250 28/25 A2992 NOSIG=
201610141600 METAR MRLB 141600Z 21003KT 9999 SCT200 BKN250 29/25 A2992 NOSIG=
201610141700 METAR MRLB 141700Z 17004KT 9999 SCT025 SCT250 30/25 A2989 NOSIG=
201610141800 METAR MRLB 141800Z 17006KT 9999 VCSH FEW025TCU SCT030 SCT250 30/25 A2986 NOSIG=
201610141900 METAR MRLB 141900Z 1803KT 9999 VCSH FEW025TCU SCT030 SCT250 32/24 A2983 NOSIG=
201610142000 METAR MRLB 142000Z 28010KT 9999 -RA FEW020TCU SCT030 BKN200 29/25 A2980 NOSIG=
201610142100 METAR MRLB 142100Z 26010KT 9999 -RA FEW015TCU SCT025 BKN140 27/24 A2979 NOSIG=
201610142200 METAR MRLB 142200Z 23008KT 9999 3000E RA FEW010CB SCT015 BKN100 26/24 A2982 NOSIG=
201610142300 METAR MRLB 142300Z 24007KT 6000 RA FEW010 BKN025 24/23 A2983 NOSIG=
201610142353 METAR MRLB 150000Z 04003KT 9999 SCT020 BKN100 24/23 A2984 NOSIG=
201610150000 METAR MRLB 150000Z 04003KT 9999 SCT020 BKN100 24/23 A2984 NOSIG=
201610150100 METAR MRLB 150100Z 04005KT 9999 DZ FEW020 OVC100 24/23 A2988 RERA NOSIG=
201610150200 METAR MRLB 150200Z 08004KT 8000 -RA FEW015CB OVC100 24/23 A2990 NOSIG=
201610150300 METAR MRLB 150300Z 35002KT 8000 DZ FEW002 OVC100 24/23 A2992 NOSIG=
201610150400 METAR MRLB 150400Z 13003KT 9999 VCFG SCT020 BKN100 24/23 A2991 NOSIG=
201610150500 METAR MRLB 150500Z 00000KT 9999 FEW015 BKN100 24/23 A2990 NOSIG=
201610150600 METAR MRLB NIL=
201610150700 METAR MRLB NIL=
201610150800 METAR MRLB NIL=
201610150900 METAR MRLB NIL=
201610151000 METAR MRLB NIL=
201610151100 METAR MRLB NIL=
201610151200 METAR MRLB 151200Z 00000KT 0200 FG VV/// 23/23 A2986 NOSIG=
201610151300 METAR MRLB 151300Z 21003KT 9999 FEW0500 SCT010 SCT250 24/24 A2988 NOSIG=
201610151400 METAR MRLB 151400Z 19004KT 9999 FEW015 SCT250 26/25 A2988 NOSIG=
201610151500 METAR MRLB 151500Z 33005KT 9999 SCT015 SCT250 27/25 A2990 NOSIG=
201610151600 METAR MRLB 151600Z 24006KT 9999 FEW020 BKN200 29/25 A2989 NOSIG=
201610151700 METAR MRLB 151700Z 32003KT 9999 FEW030 BKN200 30/24 A2987 NOSIG=
201610151800 METAR MRLB 151800Z 28005KT 9999 SCT030 BKN250 30/24 A2984 NOSIG=
201610151900 METAR MRLB 151900Z 28005KT 9999 FEW030 BKN250 31/24 A2980 NOSIG=
201610152000 METAR MRLB NIL=
201610152100 METAR MRLB 152100Z 28005KT 9999 RA FEW025 SCT030 BKN250 26/24 A2978 NOSIG=
201610152200 METAR MRLB 152200Z 30005KT 9999 VCTS VCSH FEW025 SCT040 BKN140 27/25 A2976 NOSIG=
201610152300 METAR MRLB 152300Z 20003KT 9999 SCT030 BKN140 27/25 A2979 NOSIG=
201610152353 METAR MRLB 160000Z 18003KT 9999 SCT035 BKN250 26/24 A2981 NOSIG=
201610160000 METAR MRLB 160000Z 18003KT 9999 SCT035 BKN250 26/24 A2981 NOSIG=
201610160100 METAR MRLB 160100Z 16003KT 9999 FEW035 BKN250 25/24 A2982 NOSIG=
201610160200 METAR MRLB 160200Z 12002KT 9999 FEW035 BKN250 25/24 A2985 NOSIG=
201610160300 METAR MRLB 160300Z 07003KT 9999 FEW035 SCT130 25/24 A2987 NOSIG=
201610160400 METAR MRLB 160400Z 12002KT 9999 FEW035 SCT130 25/24 A2989 NOSIG=
201610160500 METAR MRLB 160500Z 00000KT 9999 SCT030 BKN140 25/25 A2988 NOSIG=
201610160600 METAR MRLB 160600Z 00000KT 9999 FEW030 SCT035 25/24 A2987 NOSIG=
201610160700 METAR MRLB NIL=
201610160800 METAR MRLB NIL=
201610160900 METAR MRLB NIL=
201610161000 METAR MRLB NIL=
201610161100 METAR MRLB NIL=
201610161200 METAR MRLB 161200Z 00000KT 9999 BCFG FEW010 BKN240 23/23 A2982 NOSIG=
201610161300 METAR MRLB 161300Z 14003KT 9999 BCFG FEW005 BKN240 25/24 A2981 NOSIG=
201610161400 METAR MRLB 161400Z 19005KT 9999 FEW010 BKN240 26/25 A2983 NOSIG=
201610161500 METAR MRLB 161500Z 20006KT 9999 FEW020 OVC240 27/25 A2986 NOSIG=
201610161600 METAR MRLB 161600Z 14003KT 9999 FEW030 BON240 29/25 A2987 NOSIG=
201610161700 METAR MRLB 161700Z 15004KT 9999 SCT030 BKN250 30/24 A2985 NOSIG=
201610161800 METAR MRLB 161800Z 15003KT 9999 BKN030 SCT250 31/24 A2983 NOSIG=
201610161900 METAR MRLB 161900Z 30008KT 9999 BKN030 SCT140 30/25 A2979 NOSIG=
201610162000 METAR MRLB 162000Z 29008KT 9999 FEW025TCU BKN250 31/25 A2976 NOSIG=
201610162100 METAR MRLB 162100Z 28009KT 9999 VCSH FEW025TCU FEW035 BKN240 29/24 A2974 TEMPO RA=
201610162200 METAR MRLB 162200Z 26005KT 9999 VCTS VCSH FEW025CB SCT035 SCT240 28/24 A2976 NOSIG=
201610162300 METAR MRLB 162300Z 07007KT 9999 VCSH SCT015 FEW025TCU 25/23 A2978 NOSIG=
201610162354 METAR MRLB 170000Z 04004KT 9999 FEW030 BKN220 25/23 A2979 NOSIG=
201610170000 METAR MRLB 170000Z 04004KT 9999 FEW030 BKN220 25/23 A2979 NOSIG=
201610170100 METAR MRLB 170100Z 06004KT 9999 SCT040 25/23 A2982 NOSIG=
201610170200 METAR MRLB 170200Z 18003KT 9999 SCT030 BKN140 25/23 A2984 NOSIG=
201610170300 METAR MRLB 170300Z 18003KT 9999 SCT030 SCT140 24/23 A2986 NOSIG=
201610170400 METAR MRLB 170400Z 13003KT 9999 FEW025 BKN130 24/23 A2986 NOSIG=
201610170500 METAR MRLB 170500Z 12003KT 9999 FEW025 SCT130 25/24 A2986 NOSIG=
201610170600 METAR MRLB 170600Z 07003KT 9999 FEW030 SCT130 24/23 A2985 NOSIG=
201610170700 METAR MRLB NIL=
201610170800 METAR MRLB NIL=
201610170900 METAR MRLB NIL=
201610171000 METAR MRLB NIL=
201610171100 METAR MRLB NIL=
201610171200 METAR MRLB 171200Z 00000KT 9999 FEW010 BKN020 24/24 A2982 NOSIG=
201610171300 METAR MRLB 171300Z 12003KT 9999 FEW010 SCT020 BKN120 26/24 A2983 NOSIG=
201610171400 METAR MRLB 171400Z 15004KT 9999 FEW010 BKN020 26/24 A2984 NOSIG=
201610171500 METAR MRLB 171500Z 00000KT 9999 BKN020 28/25 A2984 NOSIG=
201610171600 METAR MRLB 171600Z 14002KT 9999 BKN020 29/25 A2983 NOSIG=
201610171700 METAR MRLB 171700Z 24003KT 9999 BKN025 30/25 A2982 NOSIG=
201610171800 METAR MRLB 171800Z 25006KT 9999 BKN025 30/25 A2978 NOSIG=
201610171900 METAR MRLB 171900Z 22007KT 9999 VCSH FEW025TCU SCT030 30/25 A2976 NOSIG=
201610172000 METAR MRLB 172000Z 01008KT 9999 VCSH FEW020TCU BKN030 27/23 A2974 NOSIG=
201610172100 METAR MRLB 172100Z 08005KT 9999 -RA FEW020 BKN030 25/23 A2975 NOSIG=
201610172200 METAR MRLB 172200Z 15002KT 9999 VCSH FEW005 SCT030 BKN200 24/23 A2974 NOSIG=
201610172300 METAR MRLB 172300Z 09003KT 9999 SCT030 BKN250 24/23 A2976 NOSIG=
201610172351 METAR MRLB 180000Z 00000KT 9999 FEW030 BKN140 24/23 A2974 NOSIG=
201610180000 METAR MRLB 180000Z 00000KT 9999 FEW030 BKN140 24/23 A2974 NOSIG=
201610180100 METAR MRLB 180100Z 00000KT 9999 -RA FEW030 BKN140 24/23 A2982 NOSIG=
201610180200 METAR MRLB NIL=
201610180300 METAR MRLB 180300Z 17003KT 0800 FG VV/// 24/23 A2985 NOSIG=
201610180315 METAR MRLB 180315Z 00000KT 9999 FEW002 SCT025 BKN150 24/24 A2987 NOSIG=
201610180400 METAR MRLB 180400Z 14003KT 9999 FEW002 BKN025 24/23 A2987 NOSIG=
201610180500 METAR MRLB 180500Z 00000KT 9999 FEW020 BKN140 24/24 A2987 NOSIG=
201610180600 METAR MRLB 180600Z 14003KT 9999 -RA SCT020 BKN130 24/24 A2984 NOSIG=
201610180700 METAR MRLB NIL=
201610180800 METAR MRLB NIL=
201610180900 METAR MRLB NIL=
201610181000 METAR MRLB NIL=
201610181100 METAR MRLB NIL=
201610181200 METAR MRLB 181200Z 01002KT 9999 FEW025 BKN140 24/23 A2983 NOSIG=
201610181300 METAR MRLB 181300Z 00000KT 9999 FEW040 BKN140 24/23 A2986 NOSIG=
201610181400 METAR MRLB 181400Z 00000KT 9999 FEW015 SCT030 BKN140 25/24 A2988 NOSIG=
201610181500 METAR MRLB 181500Z 24003KT 9999 -RA FEW010 SCT025 BKN140 26/24 A2990 NOSIG=
201610181600 METAR MRLB 181600Z 24005KT 9999 -RA FEW010 SCT030 BKN120 25/24 A2990 NOSIG=
201610181700 METAR MRLB 181700Z 24004KT 9999 -RA FEW010 SCT030 BKN120 25/24 A2988 NOSIG=
201610181800 METAR MRLB 181800Z 22003KT 9999 -RA FEW010 SCT025 BKN120 26/25 A2984 NOSIG=
201610181900 METAR MRLB 181900Z 17007KT 9999 -RA SCT010 BKN120 26/24 A2982 NOSIG=
201610182000 METAR MRLB 182000Z 15004KT 9999 SCT020 BKN120 25/24 A2979 NOSIG=
201610182100 METAR MRLB 182100Z 17005KT 9999 SCT025 BKN130 26/24 A2979 NOSIG=
201610182200 METAR MRLB 182200Z 16004KT 9999 FEW025 BKN140 26/24 A2979 NOSIG=
201610182300 METAR MRLB 182300Z 14003KT 9999 SCT025 BKN200 26/23 A2980 NOSIG=
201610182349 METAR MRLB 190000Z 12003KT 9999 FEW025 BKN140 25/23 A2982 NOSIG=
201610190000 METAR MRLB 190000Z 12003KT 9999 FEW025 BKN140 25/23 A2982 NOSIG=
201610190100 METAR MRLB 190100Z 12003KT 9999 FEW035 BKN140 25/23 A2984 NOSIG=
201610190200 METAR MRLB 190200Z 13003KT 9999 FEW040 24/23 A2987 NOSIG=
201610190300 METAR MRLB 190300Z 12004KT 9999 FEW040 BKN140 24/23 A2988 NOSIG=
201610190400 METAR MRLB 190400Z 11003KT 9999 FEW020 BKN100 24/23 A2988 RERA NOSIG=
201610190500 METAR MRLB 190500Z 00000KT 9999 FEW010 BKN120 24/23 A2986 NOSIG=
201610190600 METAR MRLB 190600Z 12003KT 9999 SCT010 BKN140 24/23 A2985 NOSIG=
201610190700 METAR MRLB NIL=
201610190800 METAR MRLB NIL=
201610190900 METAR MRLB NIL=
201610191000 METAR MRLB NIL=
201610191100 METAR MRLB NIL=
201610191200 METAR MRLB 191200Z 10003KT 7000 -RA FEW008 BKN025 23/23 A2984 NOSIG=
201610191300 METAR MRLB 191300Z 12004KT 9999 -RA FEW010 SCT015 BKN100 24/23 A2986 NOSIG=
201610191400 METAR MRLB 191400Z 14003KT 9999 -RA FEW007 BKN020 24/24 A2988 NOSIG=
201610191500 METAR MRLB 191500Z 15003KT 9999 -RA FEW010 BKN025 25/24 A2989 NOSIG=
201610191600 METAR MRLB 191600Z 16004KT 3000 RA FEW010 BKN020 24/24 A2988 NOSIG=
201610191700 METAR MRLB 191700Z 16005KT 1500 RA FEW008 BKN020 23/23 A2989 NOSIG=
201610191800 METAR MRLB 191800Z 25003KT 9999 -RA FEW010 SCT015 BKN100 23/23 A2985 NOSIG=
201610191900 METAR MRLB 191900Z 36002KT 9999 -RA FEW005 OVC080 24/23 A2982 NOSIG=
201610192000 METAR MRLB 192000Z 00000KT 9999 -RA SCT005 BKN080 24/24 A2980 NOSIG=
201610192100 METAR MRLB 192100Z 26002KT 9999 -RA SCT006 BKN100 24/24 A2978 NOSIG=
201610192200 METAR MRLB 192200Z 18004KT 9999 SCT008 SCT100 25/24 A2979 NOSIG=
201610192300 METAR MRLB 192300Z 27002KT 9999 FEW008 OVC120 25/4 A2980 NOSIG=
201610192353 METAR MRLB 200000Z 16002KT 9999 -RA FEW010 BKN030 24/24 A2981 NOSIG=
201610200000 METAR MRLB 200000Z 16002KT 9999 -RA FEW010 BKN030 24/24 A2981 NOSIG=
201610200100 METAR MRLB 200100Z 16002KT 9999 FEW008 BKN030 24/24 A2983 NOSIG=
201610200200 METAR MRLB 200200Z 12002KT 9999 FEW020 BKN250 24/23 A2985 NOSIG=
201610200300 METAR MRLB 200300Z 12003KT 9999 FEW020 BKN030 24/23 A2987 NOSIG=
201610200400 METAR MRLB 200400Z 13003KT 9999 SCT025 SCT030 24/23 A2987 NOSIG=
201610200500 METAR MRLB 200500Z 00000KT 9999 FEW025 SCT250 23/23 A2985 NOSIG=
201610200600 METAR MRLB 200600Z 00000KT 9999 SCT030 SCT080 23/23 A2984 NOSIG=
201610200700 METAR MRLB NIL=
201610200800 METAR MRLB NIL=
201610200900 METAR MRLB NIL=
201610201000 METAR MRLB NIL=
201610201100 METAR MRLB NIL=
201610201153 METAR MRLB 201200 00000KT 1000 RA BR FEW005 BKN010 23/23 A2983 NOSIG=
201610201200 METAR MRLB 201200Z 00000KT 1000 RA BR FEW005 BKN010 23/23 A2983 NOSIG=
201610201300 METAR MRLB 201300Z 12002KT 9999 -RA FEW005 BKN010 24/23 A2985 NOSIG=
201610201400 METAR MRLB 201400Z 17005KT 9999 SCT010 SCT015 25/24 A2987 NOSIG=
201610201500 METAR MRLB 201500Z 16003KT 9999 BKN015 26/24 A2988 NOSIG=
201610201600 METAR MRLB 201600Z 18003KT 9999 VCSH FEW010TCU SCT015 27/25 A2988 NOSIG=
201610201700 METAR MRLB 201700Z 11002KT 9999 VCSH FEW015TCU SCT025 27/25 A2986 RERA NOSIG=
201610201800 METAR MRLB 201800Z 31004KT 9999 VCSH BKN020TCU 28/25 A2982 RESHRA NOSIG=
201610201900 METAR MRLB 201900Z 29010KT 9999 -RA VCSH SCT015TCU SCT020 27/25 A2981 NOSIG=
201610202000 METAR MRLB 202000Z 28011KT 9999 FEW020TCU SCT030 28/25 A2978 NOSIG=
201610202100 METAR MRLB 202100Z 29011KT 9999 SCT015 SCT040 27/24 A2979 NOSIG=
201610202200 METAR MRLB 202200Z 29009KT 9999 SCT015 26/24 A2979 NOSIG=
201610202300 METAR MRLB 202300Z 30005KT 9999 FEW020 BKN045 26/24 A2980 NOSIG=
201610202354 METAR MRLB 210000Z 32002KT 9999 OVC040 25/24 A2981 NOSIG=
201610210000 METAR MRLB 210000Z 32002KT 9999 OVC040 25/24 A2981 NOSIG=
201610210100 METAR MRLB 210100Z 00000KT 9999 BKN035 25/24 A2982 NOSIG=
201610210200 METAR MRLB 210200Z 16003KT 9999 SCT035 25/23 A2985 NOSIG=
201610210300 METAR MRLB 210300Z 07003KT 9999 SCT030 25/24 A2986 NOSIG=
201610210400 METAR MRLB 210400Z 12003KT 9999 SCT025 25/24 A2986 NOSIG=
201610210500 METAR MRLB 210500Z 00000KT 9999 SCT030 24/23 A2986 NOSIG=
201610210600 METAR MRLB 210600Z 00000KT 9999 SCT025 24/23 A2985 NOSIG=
201610210700 METAR MRLB NIL=
201610210800 METAR MRLB NIL=
201610210900 METAR MRLB NIL=
201610211000 METAR MRLB NIL=
201610211100 METAR MRLB NIL=
201610211200 METAR MRLB 211200Z 09004KT 9999 BCFG SCT010 BKN100 24/23 A2984 NOSIG=
201610211300 METAR MRLB 211300Z 05004KT 9999 VCFG FEW010 SCT060 24/24 A2986 NOSIG=
201610211400 METAR MRLB 211400Z 03002KT 9999 FEW010 SCT100 26/24 A2987 NOSIG=
201610211500 METAR MRLB 211500Z 00000KT 9999 BKN020 27/25 A2988 NOSIG=
201610211600 METAR MRLB 211600Z 27002KT 9999 VCSH FEW015TCU SCT025 29/25 A2987 NOSIG=
201610211700 METAR MRLB 211700Z 29004KT 9999 VCSH FEW020TCU SCT030 27/24 A2986 NOSIG=
201610211800 METAR MRLB 211800Z 27007KT 9999 FEW020TCU BKN030 28/25 A2983 NOSIG=
201610211900 METAR MRLB 211900Z 29009KT 9999 FEW020TCU SCT025 29/25 A2980 NOSIG=
201610212000 METAR MRLB 212000Z 31010KT 9999 VCSH FEW020TCU SCT025 29/24 A2977 NOSIG=
201610212100 METAR MRLB 212100Z 30009KT 9999 VCSH FEW020TCU SCT100 28/24 A2977 NOSIG=
201610212200 METAR MRLB 212200Z 28010KT 9999 FEW020 SCT030 SCT120 27/24 A2977 NOSIG=
201610212300 METAR MRLB 212300Z 29005KT 9999 FEW015 BKN035 26/24 A2980 NOSIG=
201610212357 METAR MRLB 220000Z 28003KT 9999 FEW035 SCT120 25/24 A2981 NOSIG=
201610220000 METAR MRLB 220000Z 28003KT 9999 FEW035 SCT120 25/24 A2981 NOSIG=
201610220100 METAR MRLB 220100Z 27002KT CAVOK 25/24 A2985 NOSIG=
201610220200 METAR MRLB 220200Z 06004KT 9999 FEW010 SCT040 BKN120 25/24 A2989 NOSIG=
201610220300 METAR MRLB 220300Z 00000KT CAVOK 25/24 A2988 NOSIG=
201610220400 METAR MRLB 220400Z 00000KT 9999 SCT040 BKN120 25/24 A2989 NOSIG=
201610220500 METAR MRLB 220500Z 00000KT 9999 FEW040 SCT120 25/24 A2987 NOSIG=
201610220600 METAR MRLB 220600Z 34003KT 9999 FEW035 SCT120 24/23 A2986 NOSIG=
201610220700 METAR MRLB NIL=
201610220800 METAR MRLB NIL=
201610220900 METAR MRLB NIL=
201610221000 METAR MRLB NIL=
201610221100 METAR MRLB NIL=
201610221200 METAR MRLB 221200Z 04003KT 9999 SCT020 SCT200 23/23 A2985 NOSIG=
201610221300 METAR MRLB 221300Z 25003KT 9999 SCT020 BKN200 25/24 A2987 NOSIG=
201610221400 METAR MRLB 221400Z 20003KT 9999 FEW010 SCT020 BKN200 26/25 A2989 NOSIG=
201610221500 METAR MRLB 221500Z 19003KT 9999 SCT020 BKN200 27/25 A2991 NOSIG=
201610221600 METAR MRLB 221600Z 34003KT 9999 SCT020 BKN200 27/25 A2992 NOSIG=
201610221700 METAR MRLB 221700Z 34003KT 9999 SCT025 BKN200 28/24 A2988 NOSIG=
201610221800 METAR MRLB 221800Z 32004KT 9999 FEW030 BKN200 29/24 A2986 NOSIG=
201610221900 METAR MRLB 221900Z 29005KT 9999 SCT030 BKN200 30/25 A2983 NOSIG=
201610222000 METAR MRLB 222000Z 15006KT 9999 SCT030 BKN200 30/23 A2980 NOSIG=
201610222100 METAR MRLB 222100Z 23006KT 9999 SCT025 BKN200 30/23 A2979 NOSIG=
201610222200 METAR MRLB 222200Z 10006KT 9999 SCT025 BKN140 29/23 A2981 NOSIG=
201610222300 METAR MRLB 222300Z 04005KT 9999 SCT025 BKN130 28/24 A2983 NOSIG=
201610222348 METAR MRLB 230000Z 19004KT 9999 FEW030 BKN130 27/23 A2985 NOSIG=
201610230000 METAR MRLB 230000Z 19004KT 9999 FEW030 BKN130 27/23 A2985 NOSIG=
201610230100 METAR MRLB 230100Z 10004KT 9999 FEW040 BKN140 27/23 A2986 NOSIG=
201610230200 METAR MRLB 230200Z 11004KT CAVOK 26/22 A2989 NOSIG=
201610230300 METAR MRLB 230300Z 33003KT CAVOK 25/23 A2990 NOSIG=
201610230400 METAR MRLB 230400Z 11005KT 9999 FEW040 BKN140 25/23 A2990 NOSIG=
201610230500 METAR MRLB 230500Z 27002KT CAVOK 25/23 A2989 NOSIG=
201610230600 METAR MRLB 230600Z 36004KT CAVOK 24/23 A2987 NOSIG=
201610230700 METAR MRLB NIL=
201610230800 METAR MRLB NIL=
201610230900 METAR MRLB NIL=
201610231000 METAR MRLB NIL=
201610231200 METAR MRLB 231200Z 35003KT 9999 FEW030 BKN200 23/22 A2989=
201610231300 METAR MRLB 231300Z 08003KT 9999 FEW030 SCT200 24/23 A2990 NOSIG=
201610231400 METAR MRLB 231400Z 16004KT 9999 FEW030 SCT250 26/24 A2992 NOSIG=
201610231500 METAR MRLB 231500Z 32003KT 9999 FEW035 SCT140 26/23 A2993 NOSIG=
201610231600 METAR MRLB 231600Z 27003KT 9999 FEW035 BKN130 27/23 A2993 NOSIG=
201610231700 METAR MRLB 231700Z 34007KT 9999 FEW030 BKN130 28/24 A2991 NOSIG=
201610231800 METAR MRLB 231800Z 04008KT 9999 FEW030 BKN130 30/23 A2990 NOSIG=
201610231900 METAR MRLB 231900Z 08015KT 9999 FEW030 BKN130 29/22 A2988 NOSIG=
201610232000 METAR MRLB 232000Z 09013KT 9999 BKN035 SCT130 29/23 A2985 NOSIG=
201610232100 METAR MRLB 232100Z 10006KT 9999 SCT035 BKN130 29/23 A2985 NOSIG=
201610232200 METAR MRLB 232200Z 11009KT 9999 FEW035 BKN130 28/22 A2985 NOSIG=
201610232300 METAR MRLB 232300Z 12008KT 9999 FEW035 BKN120 27/22 A2987 NOSIG=
201610232352 METAR MRLB 240000Z 09005KT 9999 SCT040 BKN140 26/22 A2989 NOSIG=
201610240000 METAR MRLB 240000Z 09005KT 9999 SCT040 BKN140 26/22 A2989 NOSIG=
201610240100 METAR MRLB 240100Z 08010KT 9999 SCT040 BKN140 27/20 A2991 NOSIG=
201610240200 METAR MRLB 240200Z 14006KT 9999 FEW040 BKN140 26/21 2993 NOSIG=
201610240300 METAR MRLB 240300Z 08003KT 9999 FEW040 BKN140 26/21 A2994 NOSIG=
201610240400 METAR MRLB 240400Z 04003KT CAVOK 26/21 A2993 NOSIG=
201610240500 METAR MRLB 240500Z 35003KT CAVOK 25/21 A2992 NOSIG=
201610240600 METAR MRLB 240600Z 26003KT CAVOK 24/21 A2990 NOSIG=
201610240700 METAR MRLB NIL=
201610240800 METAR MRLB NIL=
201610240900 METAR MRLB NIL=
201610241000 METAR MRLB NIL=
201610241100 METAR MRLB NIL=
201610241200 METAR MRLB 241200Z 00000KT 9999 FEW035 BKN250 23/22 A2989 NOSIG=
201610241300 METAR MRLB 241300Z 00000KT 9999 FEW035 BKN250 25/23 A2991 NOSIG=
201610241400 METAR MRLB 241400Z 35004KT 9999 FEW040 BKN250 27/24 A2992 NOSIG=
201610241500 METAR MRLB 241500Z 07011KT 9999 FEW040 BKN250 30/24 A2994 NOSIG=
201610241600 METAR MRLB 241600Z 06014KT 9999 FEW040 BKN250 31/23 A2994 NOSIG=
201610241700 METAR MRLB 241700Z 08010KT 9999 FEW040 SCT250 32/23 A2992 NOSIG=
201610241800 METAR MRLB 241800Z 09008KT 9999 FEW035 SCT100 32/22 A2988 NOSIG=
201610241900 METAR MRLB 241900Z 08008KT 9999 FEW035 SCT100 32/23 A2985 NOSIG=
201610242000 METAR MRLB 242000Z 08013KT CAVOK 32/21 A2980 NOSIG=
201610242100 METAR MRLB 242100Z 09011KT CAVOK 32/21 A2979 NOSIG=
201610242200 METAR MRLB 242200Z 08008KT 9999 FEW040 SCT240 32/21 A2980 NOSIG=
201610242300 METAR MRLB 242300Z 08006KT 9999 FEW045 30/22 A2983 NOSIG=
201610242351 METAR MRLB 250000Z 06004KT CAVOK 28/22 A2985 NOSIG=
201610250000 METAR MRLB 250000Z 06004KT CAVOK 28/22 A2985 NOSIG=
201610250100 METAR MRLB 250100Z 00000KT CAVOK 27/22 A2987 NOSIG=
201610250200 METAR MRLB 250200Z 25003KT CAVOK 27/22 A2990 NOSIG=
201610250300 METAR MRLB 250300Z 08006KT CAVOK 26/22 A2991 NOSIG=
201610250400 METAR MRLB 250400Z 22003KT CAVOK 24/22 A2990 NOSIG=
201610250500 METAR MRLB 250500Z 15005KT CAVOK 25/22 A2990 NOSIG=
201610250600 METAR MRLB 250600Z 09004KT CAVOK 23/22 A2988 NOSIG=
201610250700 METAR MRLB NIL=
201610250800 METAR MRLB NIL=
201610250900 METAR MRLB NIL=
201610251000 METAR MRLB NIL=
201610251100 METAR MRLB NIL=
201610251200 METAR MRLB 251200Z 02002KT CAVOK 22/21 A2988 NOSIG=
201610251300 METAR MRLB 251300Z 24002KT CAVOK 24/23 A2989 NOSIG=
201610251400 METAR MRLB 251400Z 24003KT 9999 FEW025 26/24 A2990 NOSIG=
201610251500 METAR MRLB 251500Z 27003KT 9999 FEW025 28/24 A2991 NOSIG=
201610251600 METAR MRLB 251600Z VRB02KT 9999 FEW025 29/24 A2991 NOSIG=
201610251700 METAR MRLB 251700Z 30002KT 9999 SCT030 30/24 A2988 NOSIG=
201610251800 METAR MRLB 251800Z 35004KT 9999 SCT035 31/23 A2984 NOSIG=
201610251900 METAR MRLB 251900Z 32004KT 9999 SCT040 32/22 A2979 NOSIG=
201610252000 METAR MRLB 252000Z 24005KT 9999 FEW040 32/23 A2976 NOSIG=
201610252100 METAR MRLB 252100Z 30005KT 9999 FEW035 31/23 A2975 NOSIG=
201610252200 METAR MRLB 252200Z 28008KT 9999 FEW030 BKN250 31/24 A2975 NOSIG=
201610252300 METAR MRLB 252300Z 32004KT 9999 FEW030 BKN250 30/23 A2977 NOSIG=
201610252351 METAR MRLB 260000Z 14008KT 9999 -RA FEW020TCU BKN030 26/22 A2981 NOSIG=
201610260000 METAR MRLB 260000Z 14008KT 9999 -RA FEW020TCU BKN030 26/22 A2981 NOSIG=
201610260100 METAR MRLB 260100Z 00000KT 9999 FEW035 BKN250 24/22 A2983 NOSIG=
201610260200 METAR MRLB 260200Z 12002KT CAVOK 24/23 A2987 NOSIG=
201610260300 METAR MRLB 260300Z 18004KT CAVOK 24/23 A2987 NOSIG=
201610260400 METAR MRLB 260400Z 30003KT CAVOK 24/23 A2988 NOSIG=
201610260500 METAR MRLB 260500Z 20004KT CAVOK 24/23 A2988 NOSIG=
201610260600 METAR MRLB 260600Z 22002KT CAVOK 24/23 A2987 NOSIG=
201610260700 METAR MRLB NIL=
201610260800 METAR MRLB NIL=
201610260900 METAR MRLB NIL=
201610261000 METAR MRLB NIL=
201610261100 METAR MRLB NIL=
201610261200 METAR MRLB 261200Z 05002KT CAVOK 23/22 A2986 NOSIG=
201610261300 METAR MRLB 261300Z 00000KT CAVOK 23/23 A2989 NOSIG=
201610261400 METAR MRLB 261400Z 15005KT 9999 FEW040 BKN 120 26/24 A2989 NOSIG=
201610261500 METAR MRLB 261500Z 11006KT 9999 SCT025 SCT120 27/24 A2989 NOSIG=
201610261600 METAR MRLB 261600Z 15004KT 9999 FEW025 SCT120 29/24 A2987 NOSIG=
201610261700 METAR MRLB 261700Z 22004KT 9999 SCT025 BKN250 30/24 A2984 NOSIG=
201610261800 METAR MRLB 261800Z 20005KT 9999 SCT030 BKN250 31/24 A2981 NOSIG=
201610261900 METAR MRLB 261900Z 30003KT 9999 SCT030 BKN250 31/23 A2977 NOSIG=
201610262000 METAR MRLB 262000Z 03004KT 9999 SCT030 SCT250 31/22 A2974 NOSIG=
201610262100 METAR MRLB 262100Z 31004KT 9999 SCT025 SCT250 30/23 A2975 NOSIG=
201610262200 METAR MRLB 262200Z 30006KT 9999 FEW030 SCT250 29/23 A2975 NOSIG=
201610262300 METAR MRLB 262300Z 28005KT 9999 FEW030 SCT250 28/24 A2975 NOSIG=
201610262348 METAR MRLB 270000Z 24003KT 9999 FEW030 SCT250 26/23 A2978 NOSIG=
201610270000 METAR MRLB 270000Z 24003KT 9999 FEW030 SCT250 26/23 A2978 NOSIG=
201610270100 METAR MRLB 270100Z 30003KT 9999 FEW040 27/24 A2983 NOSIG=
201610270200 METAR MRLB 270200Z 12004KT 9999 FEW040 25/22 A2986 NOSIG=
201610270300 METAR MRLB 270300Z 00000KT 9999 FEW040 25/22 A2987 NOSIG=
201610270400 METAR MRLB 270400Z 00000KT CAVOK 24/22 A2987 NOSIG=
201610270500 METAR MRLB 270500Z 00000KT CAVOK 24/22 A2986 NOSIG=
201610270600 METAR MRLB 270600Z 32002KT CAVOK 24/22 A2984 NOSIG=
201610270700 METAR MRLB NIL=
201610270800 METAR MRLB NIL=
201610270900 METAR MRLB NIL=
201610271000 METAR MRLB NIL=
201610271100 METAR MRLB NIL=
201610271200 METAR MRLB 271200Z 00000KT 2000 BR SCT002 BKN020 22/22 A2982 NOSIG=
201610271300 METAR MRLB 271300Z 09003KT 0500 FG VV/// 23/22 A2984 NOSIG=
201610271400 METAR MRLB 271400Z 20004KT 9999 FEW008 SCT025 24/23 A2987 NOSIG=
201610271500 METAR MRLB 271500Z 23003KT 9999 SCT025 26/24 A2987 NOSIG=
201610271600 METAR MRLB 271600Z 25003KT 9999 FEW030 28/24 A2987 NOSIG=
201610271700 METAR MRLB 271700Z 25004KT 9999 FEW030 30/23 A2984 NOSIG=
201610271800 METAR MRLB 271800Z 28003KT 9999 SCT030 SCT250 31/23 A2981 NOSIG=
201610271900 METAR MRLB 271900Z 29004KT 9999 SCT025 SCT250 32/23 A2977 NOSIG=
201610272000 METAR MRLB 272000Z 27007KT FEW020TCU SCT030 31/25 A2975 NOSIG=
201610272100 METAR MRLB 272100Z 29010KT 9999 VCSH FEW020TCU SCT030 30/24 A2974 NOSIG=
201610272200 METAR MRLB 272200Z 29008KT 9999 SCT020TCU SCT250 28/23 A2974 NOSIG=
201610272300 METAR MRLB 272300Z 29004KT 9999 FEW020TCU BKN250 28/24 A2975 NOSIG=
201610272352 METAR MRLB 280000Z 19002KT 9999 FEW020TCU SCT030 BKN250 26/24 A2978 NOSIG=
201610280000 METAR MRLB 280000Z 19002KT 9999 FEW020TCU SCT030 BKN250 26/24 A2978 NOSIG=
201610280100 METAR MRLB 280100Z 20002KT 9999 FEW030 BKN250 26/24 A2981 NOSIG=
201610280200 METAR MRLB 280200Z 11002KT 9999 BKN030 26/24 A2984 NOSIG=
201610280300 METAR MRLB 280300Z 11003KT 9999 BKN030 25/24 A2986 NOSIG=
201610280400 METAR MRLB 280400Z 10002KT 9999 BKN030 25/24 A2986 NOSIG=
201610280500 METAR MRLB 280500Z 13002KT 9999 BKN030 25/24 A2985 NOSIG=
201610280600 METAR MRLB 280600Z 00000KT 9999 BKN035 25/24 A2984 NOSIG=
201610280700 METAR MRLB NIL=
201610280800 METAR MRLB NIL=
201610280900 METAR MRLB NIL=
201610281000 METAR MRLB NIL=
201610281100 METAR MRLB NIL=
201610281200 METAR MRLB 281200Z 04003KT 9999 BCFG FEW025 BKN250 23/23 A2984 NOSIG=
201610281300 METAR MRLB 281300Z 04004KT 9999 FEW030 SCT140 BKN250 24/23 A2986 NOSIG=
201610281400 METAR MRLB 281400Z 15003KT 9999 FEW020 SCT140 BKN250 26/24 A2988 NOSIG=
201610281500 METAR MRLB 281500Z 16004KT 9999 SCT020 BKN140 27/25 A2988 NOSIG=
201610281600 METAR MRLB 281600Z 20004KT 9999 SCT020 SCT140 28/25 A2987 NOSIG=
201610281700 METAR MRLB 281700Z 23003KT 9999 SCT020 SCT140 29/24 A2985 NOSIG=
201610281800 METAR MRLB 281800Z 22003KT 9999 SCT030 BKN150 30/24 A2982 NOSIG=
201610281900 METAR MRLB 281900Z 27005KT 9999 -RA VCSH FEW020TCU SCT030 SCT150 29/24 A2979 NOSIG=
201610282000 METAR MRLB 282000Z 33009KT 8000 RA SCT020TCU SCT080 23/22 A2977 NOSIG=
201610282100 METAR MRLB 282100Z 14002KT 9999 SCT020 BKN100 25/23 A2978 RERA NOSIG=
201610282200 METAR MRLB 282200Z 00000KT 9999 FEW040 BKN120 25/24 A2978 NOSIG=
201610282300 METAR MRLB 282300Z 07002KT CAVOK 25/24 A2979 NOSIG=
201610282352 METAR MRLB 290000Z 00000KT 9999 FEW040 BKN220 25/24 A2982 NOSIG=
201610290000 METAR MRLB 290000Z 00000KT 9999 FEW040 BKN220 25/24 A2982 NOSIG=
201610290100 METAR MRLB 290100Z 00000KT CAVOK 25/24 A2984 NOSIG=
201610290200 METAR MRLB 290200Z 06003KT CAVOK 25/24 A2987 NOSIG=
201610290300 METAR MRLB 290300Z 09003KT CAVOK 24/23 A2988 NOSIG=
201610290400 METAR MRLB 290400Z 10003KT CAVOK 24/23 A2988 NOSIG=
201610290500 METAR MRLB 290500Z 12003KT CAVOK 24/23 A2988 NOSIG=
201610290600 METAR MRLB 290600Z 13003KT CAVOK 23/22 A2986 NOSIG=
201610290700 METAR MRLB NIL=
201610290800 METAR MRLB NIL=
201610290900 METAR MRLB NIL=
201610291000 METAR MRLB NIL=
201610291100 METAR MRLB NIL=
201610291200 METAR MRLB 291200Z 07003KT CAVOK 22/21 A2988 NOSIG=
201610291300 METAR MRLB 291300Z 00000KT 9999 BCFG FEW003 SCT040 23/22 A2990 NOSIG=
201610291400 METAR MRLB 291400Z 18002KT 8000 BCFG VCFG FEW002 BKN030 24/23 A2991 NOSIG=
201610291500 METAR MRLB 291500Z 07002KT 9999 FEW005 BKN030 25/24 A2993 NOSIG=
201610291600 METAR MRLB 291600Z 18003KT 9999 FEW015 BKN100 27/25 A2991 NOSIG=
201610291700 METAR MRLB 291700Z 00000KT 9999 FEW020 BKN100 28/25 A2989 NOSIG=
201610291800 METAR MRLB 291800Z 27002KT 9999 FEW020 BKN100 29/24 A2985 NOSIG=
201610291900 METAR MRLB 291900Z 21003KT 9999 FEW020TCU FEW025 BKN120 29/24 A2982 NOSIG=
201610292000 METAR MRLB 292000Z 29005KT 9999 VCSH FEW020TCU FEW025 BKN120 29/24 A2980 NOSIG=
201610292100 METAR MRLB 292100Z 28006KT 9999 FEW025 BKN120 29/24 A2978 NOSIG=
201610292200 METAR MRLB 292200Z 28008KT 9999 FEW025 BKN120 28/24 A2977 NOSIG=
201610292300 METAR MRLB 292300Z 21005KT 9999 VCSH VCTS FEW015 BKN030 27/24 A2981 NOSIG=
201610292352 METAR MRLB 300000Z 05003KT 9999 -RA BKN025 24/23 A2984 NOSIG=
201610300000 METAR MRLB 300000Z 05003KT 9999 -RA BKN025 24/23 A2984 NOSIG=
201610300100 METAR MRLB 300100Z 00000KT 9999 SCT020 SCT030 24/23 A2986 NOSIG=
201610300200 METAR MRLB 300200Z 15003KT 9999 SCT020 SCT030 24/23 A2989 NOSIG=
201610300300 METAR MRLB 300300Z 00000KT 9999 SCT010 SCT030 25/23 A2991 NOSIG=
201610300400 METAR MRLB 300400Z 00000KT 9999 FEW035 BKN080 24/23 A2991 NOSIG=
201610300500 METAR MRLB 300500Z 10003KT 9999 FEW035 SCT250 24/23 A2989 NOSIG=
201610300600 METAR MRLB 300600Z 10005KT 9999 FEW035 SCT250 24/23 A2988 NOSIG=
201610300700 METAR MRLB NIL=
201610300800 METAR MRLB NIL=
201610300900 METAR MRLB NIL=
201610301000 METAR MRLB NIL=
201610301100 METAR MRLB NIL=
201610301200 METAR MRLB 301200Z 19002KT 9999 VCFG SCT003 SCT250 22/22 A2987 NOSIG=
201610301300 METAR MRLB 301300Z 25003KT 300 FG VV/// 23/23 A2989 NOSIG=
201610301400 METAR MRLB 301400Z 18003KT 9999 FEW005 BKN010 25/24 A2991 NOSIG=
201610301500 METAR MRLB 301500Z 13002KT 9999 FEW010 BKN015 27/25 A2992 NOSIG=
201610301600 METAR MRLB 301600Z 18005KT 9999 FEW020 SCT030 29/26 A2991 NOSIG ?=
201610301700 METAR MRLB 301700Z 17007KT 9999 -RA SCT020 BKN030 29/25 A2989 NOSIG=
201610301800 METAR MRLB 301800Z 14003KT 9999 VCSH FEW025TCU SCT030 BKN100 30/25 A2986 NOSIG=
201610301900 METAR MRLB 301900Z 17006KT 9999 FEW025TCU FEW030 BKN100 28/25 A2983 NOSIG=
201610302000 METAR MRLB 302000Z 26004KT 9999 FEW020 SCT030 BKN100 29/25 A2981 NOSIG=
201610302100 METAR MRLB 302100Z 30007KT 9999 FEW030 BKN120 29/25 A2979 NOSIG=
201610302200 METAR MRLB 302200Z 29008KT 4000 1000E TSRA FEW010 OVC015 26/24 A2982 NOSIG=
201610302300 METAR MRLB 302300Z 00000KT 9999 FEW020 SCT035 BKN120 26/24 A2982 NOSIG=
201610302355 METAR MRLB 310000Z 19002KT 9999 FEW010 SCT035 BKN120 25/24 A2984 NOSIG=
201610310000 METAR MRLB 310000Z 19002KT 9999 FEW010 SCT035 BKN120 25/24 A2984 NOSIG=
201610310100 METAR MRLB 310100Z 19004KT 9999 FEW002 SCT035 BKN120 25/24 A2984 NOSIG=
201610310200 METAR MRLB 310200Z 19004KT 9999 FEW035 BKN120 24/24 A2984 NOSIG=
201610310300 METAR MRLB 310300Z 22002KT 8000 BCFG VCFG FEW003 BKN140 24/24 A2987 NOSIG=
201610310400 METAR MRLB 310400Z 00000KT 9999 FEW005 SCT140 24/24 A2988 NOSIG=
201610310500 METAR MRLB 310500Z 00000KT CAVOK 24/24 A2988 NOSIG=
201610310600 METAR MRLB 310600Z 00000KT CAVOK 24/23 A2987 NOSIG=
201610310700 METAR MRLB NIL=
201610310800 METAR MRLB NIL=
201610310900 METAR MRLB NIL=
201610311000 METAR MRLB NIL=
201610311100 METAR MRLB NIL=
201610311200 METAR MRLB 311200Z 00000KT 9999 VCFG FEW010 SCT020 BKN130 24/23 A2985 NOSIG=
201610311300 METAR MRLB 311300Z 00000KT 9999 VCFG SCT010 BKN130 24/23 A2986 NOSIG=
201610311400 METAR MRLB 311400Z 20003KT 9999 SCT020 SCT250 26/25 A2987 NOSIG=
201610311500 METAR MRLB 311500Z 15003KT 9999 FEW025 SCT250 28/25 A2988 NOSIG=
201610311600 METAR MRLB 311600Z 26003KT 9999 SCT025 SCT250 29/25 A2987 NOSIG=
201610311700 METAR MRLB 311700Z 27005KT 9999 SCT025 SCT250 30/25 A2984 NOSIG=
201610311800 METAR MRLB 311800Z 29006KT 9999 SCT030 SCT250 31/25 A2981 NOSIG=
201610311900 METAR MRLB 311900Z 29006KT 9999 SCT025 SCT250 31/25 A2978 NOSIG=
201610312000 METAR MRLB 312000Z 27007KT 9999 VCSH FEW020TCU SCT100 29/25 A2975 NOSIG=
201610312100 METAR MRLB 312100Z 27007KT 9999 FEW020TCU SCT100 28/25 A2975 NOSIG=
201610312200 METAR MRLB 312200Z 28007KT 9999 FEW020TCU BKN100 28/25 A2975 NOSIG=
201610312300 METAR MRLB 312300Z 19003KT 9999 FEW015 BKN030 27/25 A2977 NOSIG=
201610312353 METAR MRLB 010000Z 14006KT 6000 2000E RA VCTS FEW010CB BKN020 25/24 A2979 NOSIG=
201611010000 METAR MRLB 010000Z 14006KT 6000 2000E RA VCTS FEW010CB BKN020 25/24 A2979 NOSIG=
201611010100 METAR MRLB 010100Z 09004KT 9999 -RA SCT025 BKN120 25/24 A2982 NOSIG=
201611010200 METAR MRLB 010200Z 00000KT 9999 FEW030 BKN120 25/24 2985 NOSIG=
201611010300 METAR MRLB 010300Z 17003KT 9999 SCT005 BKN120 25/24 A2986 NOSIG=
201611010400 METAR MRLB 010400Z 09002KT 9999 SCT005 BKN120 25/24 A2987 NOSIG=
201611010500 METAR MRLB 010500Z 12004KT 9999 FEW010 BKN120 24/24 A2987 NOSIG=
201611010600 METAR MRLB 010600Z 13004KT 9999 FEW015 BKN120 24/24 A2986 NOSIG=
201611010700 METAR MRLB NIL=
201611010800 METAR MRLB NIL=
201611010900 METAR MRLB NIL=
201611011000 METAR MRLB NIL=
201611011100 METAR MRLB NIL=
201611011200 METAR MRLB 011200Z 00000KT 9999 FEW010 OVC120 24/23 A2984 NOSIG=
201611011300 METAR MRLB 011300Z 01003KT 9999 FEW008 BKN130 24/24 A2985 NOSIG=
201611011400 METAR MRLB 011400Z 00000KT 9999 FEW010 BKN150 26/24 A2986 NOSIG=
201611011500 METAR MRLB 011500Z 23002KT 9999 BKN015 SCT150 27/25 A2988 NOSIG=
201611011600 METAR MRLB 011600Z 23002KT 9999 SCT015 BKN140 28/25 A2987 NOSIG=
201611011700 METAR MRLB 011700Z 25005KT 9999 BKN020 SCT150 29/25 A2985 NOSIG=
201611011800 METAR MRLB 011800Z 31003KT 9999 RA SCT020 SCT080 28/25 A2983 NOSIG=
201611011900 METAR MRLB 011900Z 28004KT 9999 VCSH SCT020TCU SCT140 29/25 A2978 NOSIG=
201611012000 METAR MRLB 012000Z 32007KT 0500 +TSRA BKN015CB 27/24 A2978 NOSIG=
201611012100 METAR MRLB 012100Z 19006KT 4000 TSRA VCSH FEW008 SCT015CB SCT030 24/24 A2981 NOSIG=
201611012200 METAR MRLB 012200Z 17005KT 4000 RA BR SCT008 SCT020TCU 23/23 A2982 RETS NOSIG=
201611012300 METAR MRLB 012300Z VRB01KT 8000 RA SCT008 SCT020 23/23 A2984 NOSIG=
201611012352 METAR MRLB 020000Z 15002KT 9999 -RA BCFG FEW004 BKN020 23/23 A2986 NOSIG=
201611020000 METAR MRLB 020000Z 15002KT 9999 -RA BCFG FEW004 BKN020 23/23 A2986 NOSIG=
201611020100 METAR MRLB 020100Z 14003KT 9999 -RA BCFG FEW004 BKN020 23/23 A2987 NOSIG=
201611020200 METAR MRLB 020200Z 07004KT 9999 SCT015 BKN100 23/23 A2990 NOSIG=
201611020300 METAR MRLB 020300Z 09003KT 9999 SCT020 BKN120 23/22 A2991 NOSIG=
201611020400 METAR MRLB 020400Z 00000KT 9999 FEW020 BKN130 23/23 A2991 NOSIG=
201611020500 METAR MRLB 020500Z 00000KT 9999 FEW025 BKN140 23/22 A2990 NOSIG=
201611020600 METAR MRLB 020600Z 20003KT 9999 FEW030 BKN140 23/22 A2988 NOSIG=
201611020700 METAR MRLB NIL=
201611020800 METAR MRLB NIL=
201611020900 METAR MRLB NIL=
201611021000 METAR MRLB NIL=
201611021100 METAR MRLB NIL=
201611021200 METAR MRLB 021200Z 13002KT 0100 FG VV/// 23/23 A2988 NOSIG=
201611021300 METAR MRLB 021300Z 00000KT 0800 FG VV002 23/23 A2990 NOSIG=
201611021400 METAR MRLB 021400Z 13003KT 9999 VCFG SCT012 24/24 A2992 NOSIG=
201611021500 METAR MRLB 021500Z 18003KT 9999 BKN015 25/25 A2993 NOSIG=
201611021600 METAR MRLB 021600Z 15004KT 9999 SCT015 SCT200 27/25 A2993 NOSIG=
201611021700 METAR MRLB 021700Z 20006KT 9999 SCT020 28/26 A2990 NOSIG=
201611021800 METAR MRLB 021800Z 23006KT 9999 FEW020TCU FEW030 30/26 A2987 NOSIG=
201611021900 METAR MRLB 021900Z 03011KT 9999 -RA VCSH FEW010 SCT020CB SCT030 25/23 A2986 NOSIG=
201611022000 METAR MRLB 022000Z 02005KT 9999 -RA FEW010 SCT015 BKN040 24/23 A2984 NOSIG=
201611022100 METAR MRLB 022100Z 03003KT 9999 FEW020 BKN120 24/23 A2984 NOSIG=
201611022200 METAR MRLB 022200Z 00000KT 9999 FEW020 BKN120 25/24 A2984 NOSIG=
201611022300 METAR MRLB 022300Z 27003KT 9999 FEW020 BKN220 25/24 2984 NOSIG=
201611022352 METAR MRLB 030000Z 00000KT 9999 FEW025 BKN140 25/24 A2987 NOSIG=
201611030000 METAR MRLB 030000Z 00000KT 9999 FEW025 BKN140 25/24 A2987 NOSIG=
201611030100 METAR MRLB 030100Z 00000KT 9999 FEW025 BKN140 25/24 A2990 NOSIG=
201611030200 METAR MRLB 030200Z 00000KT 9999 SCT025 BKN140 25/24 A2993 NOSIG=
201611030300 METAR MRLB 030300Z 00000KT 9999 SCT020 BKN140 25/24 A2993 NOSIG=
201611030400 METAR MRLB 030400Z 19002KT 9999 SCT020 BKN140 24/24 A2993 NOSIG=
201611030500 METAR MRLB 030500Z 11002KT 9999 FEW020 BKN160 24/23 A2992 NOSIG=
201611030600 METAR MRLB 030600Z 00000KT CAVOK 24/23 A2990 NOSIG=
201611030700 METAR MRLB NIL=
201611030800 METAR MRLB NIL=
201611030900 METAR MRLB NIL=
201611031000 METAR MRLB NIL=
201611031100 METAR MRLB NIL=
201611031200 METAR MRLB 031200Z 00000KT 5000 1000W BR SCT003 SCT020 22/22 A2989 NOSIG=
201611031300 METAR MRLB 031300Z 00000KT 6000 3000W PRFG SCT008 SCT020 24/23 A2991 NOSIG=
201611031400 METAR MRLB 031400Z 00000KT 9999 VCFG FEW003 SCT100 25/24 A2993 NOSIG=
201611031500 METAR MRLB 031500Z 27003KT 9999 SCT015 SCT100 26/25 A2993=
201611031600 METAR MRLB 031600Z 31005KT 9999 FEW015 SCT025 28/25 A2992 NOSIG=
201611031700 METAR MRLB NIL=
201611031800 METAR MRLB 031800Z 28008KT 9999 FEW015 SCT200 29/25 A2987 NOSIG=
201611031900 METAR MRLB 031900Z 29009KT 9999 SCT025 SCT250 29/25 A2984 NOSIG=
201611032000 METAR MRLB 032000Z 27010KT 9999 SCT025 SCT250 29/25 A2981 NOSIG=
201611032100 METAR MRLB 032100Z 30009KT 9999 FEW030 SCT250 29/24 A2979 NOSIG=
201611032200 METAR MRLB 032200Z 29008KT 9999 FEW030 SCT250 28/24 A2979 NOSIG=
201611032300 METAR MRLB 032300Z 31006KT 9999 SCT025 SCT250 26/24 A2981 NOSIG=
201611032349 METAR MRLB 040000Z 27004KT 9999 SCT025 SCT200 25/24 A2982 NOSIG=
201611040000 METAR MRLB 040000Z 27004KT 9999 SCT025 SCT200 25/24 A2982 NOSIG=
201611040100 METAR MRLB 040100Z 00000KT 9999 SCT020 25/24 A2986 NOSIG=
201611040200 METAR MRLB 040200Z 14005KT 9999 FEW030 BKN120 25/24 A2986 NOSIG=
201611040300 METAR MRLB 040300Z 17002KT 9999 FEW020 25/24 A2987 NOSIG=
201611040400 METAR MRLB 040400Z 00000KT 9999 FEW030 BKN080 25/24 A2988 NOSIG=
201611040500 METAR MRLB 040500Z 17003KT 9999 FEW030 24/23 A2987 NOSIG=
201611040600 METAR MRLB 040600Z 02004KT 9999 FEW040 24/23 A2987 NOSIG=
201611040700 METAR MRLB NIL=
201611040800 METAR MRLB NIL=
201611040900 METAR MRLB NIL=
201611041000 METAR MRLB NIL=
201611041100 METAR MRLB NIL=
201611041200 METAR MRLB 041200Z 20003KT 9999 FEW025 SCT250 23/23 A2984 NOSIG=
201611041300 METAR MRLB 041300Z 25003KT 9999 SCT025 SCT250 25/24 A2986 NOSIG=
201611041400 METAR MRLB 041400Z 03006KT 9999 SCT025 SCT250 25/24 A2987 NOSIG=
201611041500 METAR MRLB 041500Z 35008KT 9999 SCT030 SCT250 28/25 A2988 NOSIG=
201611041600 METAR MRLB NIL=
201611041700 METAR MRLB 041700Z 19005KT 9999 SCT030 SCT250 30/24 A2984 NOSIG=
201611041800 METAR MRLB 041800Z 24004KT 9999 SCT030 BKN200 30/25 A2981 NOSIG=
201611041900 METAR MRLB 041900Z 27005KT 9999 SCT020 SCT030 31/25 A2977 NOSIG=
201611042000 METAR MRLB 042000Z 28005KT 9999 VCSH SCT020TCU SCT030 31/25 A2975 NOSIG=
201611042100 METAR MRLB 042100Z 20005KT 9999 -RA VCSH SCT020TCU SCT100 28/25 A2975 NOSIG=
201611042200 METAR MRLB 042200Z 24004KT 9999 FEW025 BKB120 28/26 A2975 NOSIG=
201611042300 METAR MRLB 042300Z 12002KT 9999 SCT025 BKN120 27/26 A2978 NOSIG=
201611042352 METAR MRLB 050000Z 13003KT 9999 SCT025 BKN120 26/25 A2980 NOSIG=
201611050000 METAR MRLB 050000Z 13003KT 9999 SCT025 BKN120 26/25 A2980 NOSIG=
201611050100 METAR MRLB 050100Z 13006KT 9999 -RA SCT025 BKN120 25/24 A2983 RERA NOSIG=
201611050200 METAR MRLB COR 050200Z 14005KT 9999 FEW030 BKN120 25/24 A2986 NOSIG=
201611050300 METAR MRLB 050300Z 15003KT 9999 FEW030 BKN120 25/24 A2987 NOSIG=
201611050400 METAR MRLB 050400Z 12005KT 9999 FEW035 BKN140 25/24 A2987 NOSIG=
201611050500 METAR MRLB 050500Z 12004KT 9999 FEW035 BKN150 25/24 A2988 NOSIG=
201611050600 METAR MRLB 050600Z 17004KT 9999 FEW040 BKN160 24/23 A2986 NOSIG=
201611050700 METAR MRLB NIL=
201611050800 METAR MRLB NIL=
201611050900 METAR MRLB NIL=
201611051000 METAR MRLB NIL=
201611051100 METAR MRLB NIL=
201611051200 METAR MRLB 051200Z 00000KT 9999 -RA FEW030 BKN120 23/23 A2987 NOSIG=
201611051300 METAR MRLB 051300Z 18004KT 9999 SCT030 BKN120 23/23 A2989 NOSIG=
201611051400 METAR MRLB 051400Z 20005KT 9999 FEW030 BKN140 26/25 A2990 NOSIG=
201611051500 METAR MRLB 051500Z 36004KT 9999 FEW030 SCT100 28/25 A2992 NOSIG=
201611051600 METAR MRLB 051600Z 08007KT 9999 SCT030 BKN120 29/24 A2992 NOSIG=
201611051700 METAR MRLB 051700Z 08010KT 9999 SCT030 SCT120 31/24 A2990 NOSIG=
201611051800 METAR MRLB 051800Z 10011KT 9999 SCT035 SCT120 31/23 A2988 NOSIG=
201611051900 METAR MRLB 051900Z 09009KT 9999 FEW035 SCT130 BKN250 30/23 A2985 NOSIG=
201611052000 METAR MRLB 052000Z 09006KT 9999 FEW035 SCT130 BKN250 30/23 A2982 NOSIG=
201611052100 METAR MRLB 052100Z 12007KT 9999 FEW035 SCT130 BKN250 29/23 A2981 NOSIG=
201611052200 METAR MRLB 052200Z 08006KT 9999 FEW040 BKN130 29/23 A2981 NOSIG=
201611052300 METAR MRLB 052300Z 00000KT 9999 FEW040 BKN130 28/24 A2983 NOSIG=
201611052351 METAR MRLB 060000Z 00000KT 9999 FEW035 SCT120 BKN250 27/24 A2984 NOSIG=
201611060000 METAR MRLB 060000Z 00000KT 9999 FEW035 SCT120 BKN250 27/24 A2984 NOSIG=
201611060100 METAR MRLB 060100Z 11005KT 9999 FEW035 SCT120 26/22 A2988 NOSIG=
201611060200 METAR MRLB 060200Z 06003KT CAVOK 26/23 A2990 NOSIG=
201611060300 METAR MRLB 060300Z 09004KT CAVOK 26/21 A2990 NOSIG=
201611060400 METAR MRLB 060400Z 11004KT CAVOK 24/22 A2989 NOSIG=
201611060500 METAR MRLB 060500Z 03004KT CAVOK 24/22 A2989 NOSIG=
201611060600 METAR MRLB 060600Z 35003KT CAVOK 24/22 A2989 NOSIG=
201611060700 METAR MRLB NIL=
201611060800 METAR MRLB NIL=
201611060900 METAR MRLB NIL=
201611061000 METAR MRLB NIL=
201611061100 METAR MRLB NIL=
201611061200 METAR MRLB 061200Z 10002KT CAVOK 22/21 A2989 NOSIG=
201611061300 METAR MRLB 061300Z 00000KT CAVOK 25/23 A2989 NOSIG=
201611061400 METAR MRLB 061400Z 22004KT CAVOK 26/24 A2991 NOSIG=
201611061500 METAR MRLB 061500Z 16003KT 9999 FEW030 SCT250 29/24 A2991 NOSIG=
201611061600 METAR MRLB 061600Z 34004KT 9999 FEW030 SCT250 30/23 A2991 NOSIG=
201611061700 METAR MRLB 061700Z 25005KT 9999 FEW035 SCT250 31/23 A2988 NOSIG=
201611061800 METAR MRLB 061800Z 09015KT 9999 FEW040 BKN250 31/20 A2984 NOSIG=
201611061900 METAR MRLB 061900Z 11009KT CAVOK 31/21 A2981 NOSIG=
201611062000 METAR MRLB 062000Z 33006KT CAVOK 30/23 A2979 NOSIG=
201611062100 METAR MRLB 062100Z 30004KT 9999 FEW035 SCT140 30/23 A2979 NOSIG=
201611062200 METAR MRLB 062200Z 28004KT 9999 FEW035 31/22 A2979 NOSIG=
201611062300 METAR MRLB 062300Z 12006KT 9999 FEW040 29/21 A2982 NOSIG=
201611062351 METAR MRLB 070000Z 12007KT CAVOK 27/21 A2984 NOSIG=
201611070000 METAR MRLB 070000Z 12007KT CAVOK 27/21 A2984 NOSIG=
201611070100 METAR MRLB 070100Z 11007KT CAVOK 28/21 A2987 NOSIG=
201611070200 METAR MRLB 070200Z 13003KT CAVOK 26/21 A2990 NOSIG=
201611070300 METAR MRLB 070300Z 13008KT CAVOK 26/21 A2991 NOSIG=
201611070400 METAR MRLB 070400Z 11005KT CAVOK 25/21 A2992 NOSIG=
201611070500 METAR MRLB 070500Z 13004KT CAVOK 24/21 A2990 NOSIG=
201611070600 METAR MRLB 070600Z 15006KT CAVOK 25/21 A2989 NOSIG=
201611070700 METAR MRLB NIL=
201611070800 METAR MRLB NIL=
201611070900 METAR MRLB NIL=
201611071000 METAR MRLB NIL=
201611071100 METAR MRLB NIL=
201611071200 METAR MRLB 071200Z 02002KT CAVOK 21/20 A2986 NOSIG=
201611071300 METAR MRLB 071300Z 34003KT CAVOK 24/22 A2987 NOSIG=
201611071400 METAR MRLB 071400Z VRB01KT CAVOK 26/23 A2988 NOSIG=
201611071500 METAR MRLB 071500Z 27004KT CAVOK 27/23 A2989 NOSIG=
201611071600 METAR MRLB 071600Z 30002KT CAVOK 29/22 A2989 NOSIG=
201611071700 METAR MRLB 071700Z 28004KT CAVOK 29/22 A2986 NOSIG=
201611071800 METAR MRLB 071800Z 32006KT 9999 FEW035 30/23 A2983 NOSIG=
201611071900 METAR MRLB 071900Z 29006KT 9999 FEW035 31/22 A2981 NOSIG=
201611072000 METAR MRLB 072000Z 31005KT 9999 FEW035 31/22 A2980 NOSIG=
201611072100 METAR MRLB 072100Z 22004KT 9999 FEW035 31/22 A2980 NOSIG=
201611072200 METAR MRLB 072200Z 08007KT 9999 FEW035 31/21 A2980 NOSIG=
201611072300 METAR MRLB 072300Z 04005KT CAVOK 30/22 A2982 NOSIG=
201611072352 METAR MRLB 080000Z 12006KT CAVOK 27/21 A2983 NOSIG=
201611080000 METAR MRLB 080000Z 12006KT CAVOK 27/21 A2983 NOSIG=
201611080100 METAR MRLB 080100Z 18003KT CAVOK 25/21 A2986 NOSIG=
201611080200 METAR MRLB 080200Z 14005KT CAVOK 26/22 A2989 NOSIG=
201611080300 METAR MRLB 080300Z 13005KT CAVOK 26/22 A2989 NOSIG=
201611080400 METAR MRLB 080400Z 16002KT CAVOK 25/21 A2990 NOSIG=
201611080500 METAR MRLB 080500Z 21003KT CAVOK 23/21 A2988 NOSIG=
201611080600 METAR MRLB 080600Z 22003KT CAVOK 22/21 A2987 NOSIG=
201611080700 METAR MRLB NIL=
201611080800 METAR MRLB NIL=
201611080900 METAR MRLB NIL=
201611081000 METAR MRLB NIL=
201611081100 METAR MRLB NIL=
201611081200 METAR MRLB 081200Z 00000KT CAVOK 21/20 A2987 NOSIG=
201611081300 METAR MRLB 081300Z 00000KT CAVOK 23/21 A2988 NOSIG=
201611081400 METAR MRLB 081400Z 28003KT CAVOK 25/23 A2990 NOSIG=
201611081500 METAR MRLB 081500Z 32003KT CAVOK 28/23 A2991 NOSIG=
201611081600 METAR MRLB 081600Z 34003KT CAVOK 29/23 A2991 NOSIG=
201611081700 METAR MRLB 081700Z 16003KT CAVOK 30/22 A2988 NOSIG=
201611081800 METAR MRLB 081800Z 04006KT 9999 FEW035 31/22 A2985 NOSIG=
201611081900 METAR MRLB 081900Z 15005KT 9999 SCT025 32/21 A2982 NOSIG=
201611082000 METAR MRLB 082000Z 19005KT 9999 SCT030 32/21 A2980 NOSIG=
201611082100 METAR MRLB 082100Z 19003KT 9999 SCT035 33/22 A2979 NOSIG=
201611082200 METAR MRLB 082200Z 28006KT 9999 SCT035 29/23 A2979 NOSIG=
201611082300 METAR MRLB 082300Z 30005KT 9999 BKN025 28/23 A2981 NOSIG=
201611082352 METAR MRLB 090000Z 31003KT 9999 SCT025 SCT250 26/23 A2983 NOSIG=
201611090000 METAR MRLB 090000Z 31003KT 9999 SCT025 SCT250 26/23 A2983 NOSIG=
201611090100 METAR MRLB 090100Z 00000KT 9999 SCT025 SCT100 25/24 A2986 NOSIG=
201611090200 METAR MRLB 090200Z 07004KT 9999 FEW025 BKN100 25/23 A2989 NOSIG=
201611090300 METAR MRLB 090300Z 03003KT CAVOK 25/23 A2990 NOSIG=
201611090400 METAR MRLB 090400Z 10002KT CAVOK 24/23 A2989 NOSIG=
201611090500 METAR MRLB 090500Z 00000KT CAVOK 24/22 A2988 NOSIG=
201611090600 METAR MRLB 090600Z 15002KT CAVOK 23/22 A2987 NOSIG=
201611090700 METAR MRLB NIL=
201611090800 METAR MRLB NIL=
201611090900 METAR MRLB NIL=
201611091000 METAR MRLB NIL=
201611091100 METAR MRLB NIL=
201611091200 METAR MRLB 091200Z 05004KT CAVOK 21/20 A2985 NOSIG=
201611091300 METAR MRLB 091300Z 06003KT CAVOK 23/22 A2986 NOSIG=
201611091400 METAR MRLB 091400Z 21003KT 9999 FEW020SCT250 25/23 A2988 NOSIG=
201611091500 METAR MRLB 091500Z 20002KT 9999 FEW020 27/24 A2988 NOSIG=
201611091600 METAR MRLB 091600Z 24003KT 9999 SCT025 29/24 A2988 NOSIG=
201611091700 METAR MRLB 091700Z 19002KT 9999 SCT030 29/24 A2986 NOSIG=
201611091800 METAR MRLB 091800Z 26004KT 9999 BKN030 31/24 A2984 NOSIG=
201611091900 METAR MRLB 091900Z 29009KT 9999 SCT030 30/24 A2981 NOSIG=
201611092000 METAR MRLB 092000Z 28010KT 9999 SCT025 28/23 A2980 NOSIG=
201611092100 METAR MRLB 092100Z 29010KT 9999 SCT030 29/24 A2979 NOSIG=
201611092200 METAR MRLB 092200Z 29008KT 9999 FEW030 SCT250 28/24 A2979 NOSIG=
201611092300 METAR MRLB 092300Z 29005KT 9999 FEW025 SCT200 27/24 A2981 NOSIG=
201611092351 METAR MRLB 100000Z 28003KT 9999 FEW025 SCT100 26/23 A2984 NOSIG=
201611100000 METAR MRLB 100000Z 28003KT 9999 FEW025 SCT100 26/23 A2984 NOSIG=
201611100100 METAR MRLB 100100Z 18002KT 9999 FEW045 26/23 A2988 NOSIG=
201611100200 METAR MRLB 100200Z 00000KT CAVOK 25/23 A2989 NOSIG=
201611100300 METAR MRLB 100300Z 00000KT CAVOK 25/23 A2990 NOSIG=
201611100400 METAR MRLB 100400Z 03003KT CAVOK 25/23 A2990 NOSIG=
201611100500 METAR MRLB NIL=
201611100600 METAR MRLB NIL=
201611100700 METAR MRLB NIL=
201611100800 METAR MRLB NIL=
201611100900 METAR MRLB NIL=
201611101000 METAR MRLB NIL=
201611101100 METAR MRLB NIL=
201611101200 METAR MRLB 101200Z 00000KT 0500 FG VV/// 23/22 A2989 NOSIG=
201611101300 METAR MRLB 101300Z 00000KT 0500 FG VV/// 23/23 A2990 NOSIG=
201611101400 METAR MRLB 101400Z 35003KT 5000 BR BKN010 24/24 A2993 NOSIG=
201611101500 METAR MRLB 101500Z 29003KT 9999 SCT020 BKN120 26/24 A2993 NOSIG=
201611101600 METAR MRLB 101600Z 35003KT 9999 SCT025 BKN120 27/25 A2993 NOSIG=
201611101700 METAR MRLB 101700Z 27003KT 9999 SCT025 SCT120 28/25 A2990 NOSIG=
201611101800 METAR MRLB 101800Z 31003KT 9999 SCT025 BKN120 29/24 A2987 NOSIG=
201611101900 METAR MRLB 101900Z 34005KT 9999 SCT025 BKN120 26/24 A2984 NOSIG RERA=
201611102000 METAR MRLB 102000Z 02005KT 9999 VCSH FEW025 BKN100 30/25 A2982 NOSIG=
201611102100 METAR MRLB 102100Z 06012KT 9999 FEW030 SCT100 29/24 A2980 NOSIG=
201611102200 METAR MRLB 102200Z 06014KT 9999 FEW040 SCT120 30/23 A2981 NOSIG=
201611102300 METAR MRLB 102300Z 08008KT 9999 FEW040 28/22 A2983 NOSIG=
201611102355 METAR MRLB 110000Z 08009KT 9999 FEW040 SCT250 27/22 A2983 NOSIG=
201611110000 METAR MRLB 110000Z 08009KT 9999 FEW040 SCT250 27/22 A2983 NOSIG=
201611110100 METAR MRLB 110100Z 08008KT CAVOK 27/22 A2986 NOSIG=
201611110200 METAR MRLB 110200Z 08009KT CAVOK 27/22 A2988 NOSIG=
201611110300 METAR MRLB 110300Z 12004KT CAVOK 26/22 A2990 NOSIG=
201611110400 METAR MRLB 110400Z 16004KT CAVOK 25/22 A2989 NOSIG=
201611110500 METAR MRLB 110500Z 24003KT CAVOK 24/22 A2988 NOSIG=
201611110600 METAR MRLB 110600Z 24002KT CAVOK 25/22 A2986 NOSIG=
201611110700 METAR MRLB NIL=
201611110800 METAR MRLB NIL=
201611110900 METAR MRLB NIL=
201611111000 METAR MRLB NIL=
201611111100 METAR MRLB NIL=
201611111200 METAR MRLB 111200Z 20004KT 9999 SCT045 SCT120 24/22 A2987 NOSIG=
201611111300 METAR MRLB 111300Z 22004KT 9999 SCT045 BKN100 24/23 A2988 NOSIG=
201611111400 METAR MRLB 111400Z 14002KT 9999 FEW045 SCT100 BKN250 28/25 A2990 NOSIG=
201611111500 METAR MRLB 111500Z 04007KT 9999 FEW030 SCT 120 BKN250 30/25 A2991 NOSIG=
201611111600 METAR MRLB 111600Z 04006KT 9999 FEW030 SCT120 BKN250 30/24 A2991 NOSIG=
201611111700 METAR MRLB 111700Z 05008KT 9999 SCT030 BKN250 31/23 A2987 NOSIG=
201611111800 METAR MRLB 111800Z 01006KT 9999 VCSH FEW020TCU SCT030 BKN100 29/24 A2985 NOSIG=
201611111900 METAR MRLB 111900Z 05010G23KT 5000 RA FEW025 BKN035 29/24 A2984 NOSIG=
201611112000 METAR MRLB 112000Z 32004KT 9999 SCT025 BKN100 25/23 A2982 NOSIG=
201611112100 METAR MRLB 112100Z 03003KT 9999 FEW025 BKN130 26/24 A2981 NOSIG=
201611112200 METAR MRLB 112200Z 36003KT 9999 VCSH SCT030 BKN100 26/24 A2981 NOSIG=
201611112300 METAR MRLB 112300Z 10008KT 8000 RA FEW008 SCT020 BKN090 24/23 A2985 NOSIG=
201611112348 METAR MRLB 120000Z 08008KT 9999 -RA SCT025 BKN100 24/23 A2986 NOSIG RERA=
201611120000 METAR MRLB 120000Z 08008KT 9999 -RA SCT025 BKN100 24/23 A2986 NOSIG RERA=
201611120100 METAR MRLB 120100Z 01003KT 9999 FEW030 BKN120 24/23 A2990 NOSIG=
201611120200 METAR MRLB 120200Z 21006KT 9999 FEW030 BKN120 24/23 A2991 NOSIG=
201611120300 METAR MRLB 120300Z 17008KT 9999 FEW040 BKN140 24/23 A2989 NOSIG=
201611120400 METAR MRLB 120400Z 21005KT CAVOK 24/23 A2990 NOSIG=
201611120500 METAR MRLB 120500Z 00000KT CAVOK 23/23 A2990 NOSIG=
201611120600 METAR MRLB 120600Z 13005KT CAVOK 23/23 A2988 NOSIG=
201611120700 METAR MRLB NIL=
201611120800 METAR MRLB NIL=
201611120900 METAR MRLB NIL=
201611121000 METAR MRLB NIL=
201611121100 METAR MRLB NIL=
201611121200 METAR MRLB 121200Z 05004KT 9999 FEW020 BKN120 23/23 A2986 NOSIG=
201611121300 METAR MRLB 121300Z 23004KT 9999 FEW025 BKN130 23/23 A2989 NOSIG=
201611121400 METAR MRLB 121400Z 22005KT 9999 FEW030 BKN130 24/23 A2993 NOSIG=
201611121500 METAR MRLB 121500Z 19003KT 9999 FEW030 BKN140 26/24 A2992 NOSIG=
201611121600 METAR MRLB 121600Z 17004KT 9999 FEW035 SCT140 29/25 A2993 NOSIG=
201611121700 METAR MRLB 121700Z 23003KT 9999 SCT025 SCT140 28/25 A2991 NOSIG=
201611121800 METAR MRLB 121800Z 10007KT 9999 SCT025 BKN200 31/25 A2988 NOSIG=
201611121900 METAR MRLB 121900Z 28008KT 9999 VCSH FEW015TCU SCT030 SCT250 29/25 A2984 NOSIG=
201611122000 METAR MRLB 122000Z 26006KT 9999 VCSH SCT020TCU SCT030 29/25 A2983 NOSIG=
201611122100 METAR MRLB 122100Z 10003KT 9999 SCT020 BKN120 28/24 A2982 NOSIG=
201611122200 METAR MRLB 122200Z 27004KT 9999 FEW020 OVC120 27/24 A2982 NOSIG=
201611122300 METAR MRLB 122300Z 09010KT 9999 FEW030 OVC120 27/22 A2982 NOSIG=
201611122352 METAR MRLB 130000Z 05004KT CAVOK 26/22 A2983 NOSIG=
201611130000 METAR MRLB 130000Z 05004KT CAVOK 26/22 A2983 NOSIG=
201611130100 METAR MRLB 130100Z 23003KT CAVOK 25/22 A2984 NOSIG=
201611130200 METAR MRLB 130200Z 23003KT CAVOK 24/22 A2985 NOSIG=
201611130300 METAR MRLB 130300Z 00000KT CAVOK 24/23 A2986 NOSIG=
201611130400 METAR MRLB 130400Z 00000KT CAVOK 23/22 A2988 NOSIG=
201611130500 METAR MRLB 130500Z 32002KT CAVOK 23/22 A2989 NOSIG=
201611130600 METAR MRLB 130600Z 06004KT CAVOK 23/22 A2987 NOSIG=
201611130700 METAR MRLB NIL=
201611130800 METAR MRLB NIL=
201611130900 METAR MRLB NIL=
201611131000 METAR MRLB NIL=
201611131100 METAR MRLB NIL=
201611131200 METAR MRLB 131200Z 22002KT 9999 FEW035 SCT250 22/21 A2986 NOSIG=
201611131300 METAR MRLB 131300Z 19002KT 9999 FEW035 SCT150 25/23 A2988 NOSIG=
201611131400 METAR MRLB 131400Z 19002KT 9999 FEW035 SCT150 27/24 A2991 NOSIG=
201611131500 METAR MRLB 131500Z 26005KT 9999 FEW040 BKN150 27/24 A2992 NOSIG=
201611131600 METAR MRLB 131600Z 06004KT 9999 FEW025 BKN140 30/24 A2990 NOSIG=
201611131700 METAR MRLB 131700Z 14007KT 9999 FEW030 BKN140 30/23 A2989 NOSIG=
201611131800 METAR MRLB 131800Z 13009KT 9999 SCT030 BKN130 30/23 A2986 NOSIG=
201611131900 METAR MRLB 131900Z 35005KT 9999 SCT025 BKN130 29/23 A2984 NOSIG=
201611132000 METAR MRLB 132000Z 12008KT 9999 FEW025TCU BKN120 29/23 A2982 NOSIG=
201611132100 METAR MRLB 132100Z 10008KT 9999 FEW020 BKN100 28/23 A2981 NOSIG=
201611132200 METAR MRLB 132200Z 02006KT 9999 FEW045 SCT140 29/23 A2980 NOSIG=
201611132300 METAR MRLB 132300Z 35004KT 9999 FEW040 SCT140 27/23 A2981 NOSIG=
201611132350 METAR MRLB 140000Z 28004KT 9999 FEW040 SCT100 26/23 A2983 NOSIG=
201611140000 METAR MRLB 140000Z 28004KT 9999 FEW040 SCT100 26/23 A2983 NOSIG=
201611140100 METAR MRLB NIL=
201611140200 METAR MRLB 140200Z 24004KT 9999 SCT035 BKN100 25/23 A2989 NOSIG=
201611140300 METAR MRLB 140300Z 20003KT 9999 FEW030 BKN100 25/24 A2991 NOSIG=
201611140400 METAR MRLB 140400Z 26003KT 9999 SCT020 BKN100 25/23 A2990 NOSIG=
201611140500 METAR MRLB 140500Z 18003KT 9999 SCT020 BKN100 24/23 A2991 NOSIG=
201611140600 METAR MRLB 140600Z 20005KT 9999 SCT020 BKN100 24/22 A2990 NOSIG RERA=
201611140700 METAR MRLB NIL=
201611140800 METAR MRLB NIL=
201611140900 METAR MRLB NIL=
201611141000 METAR MRLB NIL=
201611141100 METAR MRLB NIL=
201611141200 METAR MRLB 141200Z 00000KT 9999 BCFG FEW001 BKN140 23/22 A2986 NOSIG=
201611141300 METAR MRLB 141300Z 09003KT 9999 FEW003 BKN200 24/23 A2986 NOSIG=
201611141400 METAR MRLB 141400Z 11002KT 9999 FEW015 BKN140 25/23 A2990 NOSIG=
201611141500 METAR MRLB 141500Z 23004KT 9999 FEW015 BKN140 25/24 A2989 NOSIG=
201611141600 METAR MRLB 141600Z 15002KT 9999 FEW020 BKN140 27/24 A2988 NOSIG=
201611141700 METAR MRLB 141700Z 20006KT 9999 FEW020 BKN220 28/24 A2986 NOSIG=
201611141800 METAR MRLB 141800Z 24004KT 9999 FEW020 BKN220 29/25 A2984 NOSIG=
201611141900 METAR MRLB 141900Z 31008KT 9999 FEW020 BKN220 30/24 A2981 NOSIG=
201611142000 METAR MRLB 142000Z 32006KT 9999 FEW020 SCT100 BKN220 29/23 A2980 NOSIG=
201611142100 METAR MRLB 142100Z 29005KT 9999 VCSH FEW020TCU SCT100 BKN220 29/23 A2978 NOSIG=
201611142200 METAR MRLB 142200Z 30003KT 9999 FEW030 BKN120 29/23 A2978 NOSIG=
201611142300 METAR MRLB 142300Z 21003KT CAVOK 28/23 A2979 NOSIG=
201611142357 METAR MRLB 150000Z 19004KT CAVOK 26/23 A2980 NOSIG=
201611150000 METAR MRLB 150000Z 19004KT CAVOK 26/23 A2980 NOSIG=
201611150100 METAR MRLB 150100Z 25003KT CAVOK 25/23 A2982 NOSIG=
201611150200 METAR MRLB 150200Z 26005KT CAVOK 25/23 A2986 NOSIG=
201611150300 METAR MRLB 150300Z 10003KT CAVOK 25/23 A2987 NOSIG=
201611150400 METAR MRLB 150400Z 19003KT CAVOK 24/22 A2987 NOSIG=
201611150500 METAR MRLB 150500Z 23002KT CAVOK 24/22 A2985 NOSIG=
201611150600 METAR MRLB 150600Z 05002KT CAVOK 23/22 A2985 NOSIG=
201611150700 METAR MRLB NIL=
201611150800 METAR MRLB NIL=
201611150900 METAR MRLB NIL=
201611151000 METAR MRLB NIL=
201611151100 METAR MRLB NIL=
201611151200 METAR MRLB 151200Z 21002KT 9999 VCFG FEW003 FEW030 BKN250 22/21 A2984 NOSIG=
201611151300 METAR MRLB 151300Z 20002KT 9999 FEW010 SCT250 24/23 A2985 NOSIG=
201611151400 METAR MRLB 151400Z 00000KT 9999 FEW010 SCT250 25/23 A2986 NOSIG=
201611151500 METAR MRLB 151500Z 29004KT 9999 FEW015 SCT250 27/24 A2987 NOSIG=
201611151600 METAR MRLB 151600Z 19003KT 9999 SCT020 SCT250 28/24 A2986 NOSIG=
201611151700 METAR MRLB 151700Z 22005KT 9999 SCT025 SCT250 29/24 A2984 NOSIG=
201611151800 METAR MRLB 151800Z 36002KT 9999 FEW030 SCT250 30/23 A2980 NOSIG=
201611151900 METAR MRLB 151900Z 26004KT 9999 SCT025 SCT250 32/23 A2976 NOSIG=
201611152000 METAR MRLB 152000Z 31005KT 9999 SCT025TCU SCT250 31/23 A2974=
201611152100 METAR MRLB 152100Z 17007KT 9999 VCSH SCT020 BKN200 29/23 A2974 TEMPO RA=
201611152200 METAR MRLB 152200Z 15003KT 9999 SCT030 SCT200 29/22 A2974 NOSIG=
201611152300 METAR MRLB 152300Z 21003KT 9999 FEW035 SCT200 28/23 A2975 NOSIG=
201611152349 METAR MRLB 160000Z 21003KT CAVOK 26/22 A2975 NOSIG=
201611160000 METAR MRLB 160000Z 21003KT CAVOK 26/22 A2975 NOSIG=
201611160100 METAR MRLB 160100Z 18003KT CAVOK 25/23 A2978 NOSIG=
201611160200 METAR MRLB 160200Z 19003KT CAVOK 25/23 A2981 NOSIG=
201611160300 METAR MRLB 160300Z 00000KT CAVOK 24/23 A2984 NOSIG=
201611160400 METAR MRLB 160400Z 00000KT CAVOK 24/23 A2983 NOSIG=
201611160500 METAR MRLB 160500Z 07003KT CAVOK 24/23 A2985 NOSIG=
201611160600 METAR MRLB 160600Z 05002KT CAVOK 24/23 A2983 NOSIG=
201611160700 METAR MRLB NIL=
201611160800 METAR MRLB NIL=
201611160900 METAR MRLB NIL=
201611161000 METAR MRLB 161000Z NIL=
201611161100 METAR MRLB NIL=
201611161200 METAR MRLB 161200Z 16003KT 9999 FEW035 SCT140 23/22 A2980 NOSIG=
201611161300 METAR MRLB 161300Z 30003KT 9999 FEW005 SCT020 BKN130 24/23 A2981 NOSIG=
201611161400 METAR MRLB 161400Z 20003KT 9999 SCT015 BKN200 26/24 A2983 NOSIG=
201611161500 METAR MRLB 161500Z 34004KT 9999 SCT020 BKN250 26/24 A2994 NOSIG=
201611161600 METAR MRLB 161600Z 34003KT 9999 SCT025 BKN200 28/24 A2984 NOSIG=
201611161700 METAR MRLB 161700Z 35004KT 9999 SCT025 BKN200 28/23 A2982 NOSIG=
201611161800 METAR MRLB 161800Z 28003KT 9999 SCT025 BKN200 30/23 A2980 NOSIG=
201611161900 METAR MRLB 161900Z 25004KT 9999 BKN025 SCT250 31/23 A2976 NOSIG=
201611162000 METAR MRLB 162000Z 30005KT 9999 SCT030 SCT250 29/24 A2975 NOSIG=
201611162100 METAR MRLB 162100Z 29005KT 9999 FEW020TCU SCT030 SCT250 29/24 A2974 NOSIG=
201611162200 METAR MRLB 162200Z 23005KT 9999 VCSH FEW015TCU BKN025 27/24 A2975 NOSIG=
201611162300 METAR MRLB 162300Z 27004KT 9999 -RA SCT020 SCT080 26/23 A2976 NOSIG=
201611162352 METAR MRLB 170000Z 08006KT 9999 RA FEW010 BKN025 26/23 A2978 NOSIG=
201611170000 METAR MRLB 170000Z 08006KT 9999 RA FEW010 BKN025 26/23 A2978 NOSIG=
201611170100 METAR MRLB 170100Z 14004KT 9999 SCT025 BKN100 24/23 A2979 NOSIG=
201611170200 METAR MRLB 170200Z 17003KT 9999 FEW030 SCT100 24/22 A2981 NOSIG=
201611170300 METAR MRLB 170300Z 30003KT 9999 FEW030 BKN130 24/23 A2983 NOSIG=
201611170400 METAR MRLB 170400Z 22004KT 9999 FEW030 SCT130 24/23 A2983 NOSIG=
201611170500 METAR MRLB 170500Z 24004KT 9999 FEW030 BKN120 24/23 A2982 NOSIG=
201611170600 METAR MRLB 170600Z 22003KT 9999 FEW030 SCT120 24/23 A2981 NOSIG=
201611170700 METAR MRLB NIL=
201611170800 METAR MRLB NIL=
201611170900 METAR MRLB NIL=
201611171000 METAR MRLB NIL=
201611171100 METAR MRLB NIL=
201611171200 METAR MRLB 171200Z 00000KT CAVOK 22/21 A2979 NOSIG=
201611171300 METAR MRLB 171300Z 30005KT 9999 FEW010 23/22 A2980 NOSIG=
201611171400 METAR MRLB 171400Z 00000KT CAVOK 26/24 A2982 NOSIG=
201611171500 METAR MRLB 171500Z 29004KT 9999 FEW040 27/24 A2983 NOSIG=
201611171600 METAR MRLB 171600Z 32004KT 9999 FEW035 29/23 A2982 NOSIG=
201611171700 METAR MRLB 171700Z 10007KT 9999 SCT035 31/23 A2980 NOSIG=
201611171800 METAR MRLB 171800Z 11007KT 9999 SCT035 31/22 A2978 NOSIG=
201611171900 METAR MRLB 171900Z 10008KT 9999 BKN035 31/22 A2974 NOSIG=
201611172000 METAR MRLB 172000Z 04007KT 9999 SCT040 31/22 A2974 NOSIG=
201611172100 METAR MRLB 172100Z 06007KT 9999 FEW040 31/21 A2972 NOSIG=
201611172200 METAR MRLB 172200Z 09007KT CAVOK 31/21 A2972 NOSIG=
201611172300 METAR MRLB 172300Z 07004KT CAVOK 29/21 A2973 NOSIG=
201611172355 METAR MRLB 180000Z 14004KT CAVOK 27/21 A2974 NOSIG=
201611180000 METAR MRLB 180000Z 14004KT CAVOK 27/21 A2974 NOSIG=
201611180100 METAR MRLB 180100Z 10004KT CAVOK 26/21 A2977 NOSIG=
201611180200 METAR MRLB 180200Z 26005KT CAVOK 24/21 A2979 NOSIG=
201611180300 METAR MRLB 180300Z 20004KT 9999 SCT040 25/22 A2982 NOSIG=
201611180400 METAR MRLB 180400Z 20003KT 9999 FEW040 SCT120 24/23 A2983 NOSIG=
201611180500 METAR MRLB 180500Z 19003KT CAVOK 24/23 A2983 NOSIG=
201611180600 METAR MRLB 180600Z 35004KT CAVOK 23/22 A2983 NOSIG=
201611180700 METAR MRLB NIL=
201611180800 METAR MRLB NIL=
201611180900 METAR MRLB NIL=
201611181000 METAR MRLB NIL=
201611181100 METAR MRLB NIL=
201611181200 METAR MRLB 181200Z 16003KT 9999 FEW001 BKN240 21/21 A2981 NOSIG=
201611181300 METAR MRLB 181300Z 20003KT 1500 BR SCT001 23/22 A2984 NOSIG=
201611181400 METAR MRLB 181400Z 15002KT 8000 FEW002 BKN008 24/23 A2985 NOSIG=
201611181500 METAR MRLB 181500Z 19006KT 9999 FEW010 BKN240 25/24 A2985 NOSIG=
201611181600 METAR MRLB 181600Z 19004KT 9999 SCT015 27/25 A2986 NOSIG=
201611181700 METAR MRLB 181700Z 32002KT 9999 VCSH FEW020TCU SCT025 SCT100 29/24 A2984 NOSIG=
201611181800 METAR MRLB 181800Z 33005KT 9999 BKN025 26/24 A2982 RERA NOSIG=
201611181900 METAR MRLB 181900Z 30002KT 9999 VCSH BKN025 27/24 A2979 NOSIG=
201611182000 METAR MRLB 182000Z 12003KT 9999 4000W RA FEW015 BKN020 26/24 A2977 NOSIG=
201611182100 METAR MRLB 182100Z 15003KT 9999 VCSH SCT015 BKN025 26/24 A2977 NOSIG=
201611182200 METAR MRLB 182200Z 20003KT 9999 VCSH FEW010 SCT030 BKN100 26/25 A2978 NOSIG=
201611182300 METAR MRLB 182300Z 19004KT 9999 FEW010 SCT030 BKN100 26/25 A2978 NOSIG=
201611182355 METAR MRLB 190000Z 00000KT 9999 FEW010 SCT030 BKN100 24/23 A2980 NOSIG=
201611190000 METAR MRLB 190000Z 00000KT 9999 FEW010 SCT030 BKN100 24/23 A2980 NOSIG=
201611190100 METAR MRLB 190100Z 19002KT 9999 FEW010 SCT100 24/23 A2981 NOSIG=
201611190200 METAR MRLB 190200Z 00000KT 9999 FEW010 BKN100 24/24 A2984 NOSIG=
201611190300 METAR MRLB 190300Z 01002KT 9999 -RA FEW005 BKN100 24/23 A2985 NOSIG=
201611190400 METAR MRLB 190400Z 28002KT 9999 -RA FEW025 BKN080 24/23 A2986 NOSIG=
201611190500 METAR MRLB 190500Z 23003KT 9999 FEW025 BKN100 24/23 A2986 NOSIG=
201611190600 METAR MRLB 190600Z 22002KT 9999 FEW025 BKN100 24/23 A2983 NOSIG=
201611190700 METAR MRLB NIL=
201611190800 METAR MRLB NIL=
201611190900 METAR MRLB NIL=
201611191200 METAR MRLB 191200Z 06004KT 9999 FEW010 BKN250 23/22 A2983 NOSIG=
201611191300 METAR MRLB 191300Z 00000KT 9999 FEW025 BKN250 24/23 A2984 NOSIG=
201611191400 METAR MRLB 191400Z 00000KT 9999 FEW020 BKN250 27/25 A2986 NOSIG=
201611191500 METAR MRLB 191500Z 25006KT 9999 FEW030 BKN250 27/24 A2987 NOSIG ?=
201611191600 METAR MRLB 191600Z 33005KT 9999 SCT030 BKN250 29/24 A2987 NOSIG=
201611191700 METAR MRLB 191700Z 35005KT 9999 SCT025 BKN250 28/23 A2986 NOSIG=
201611191800 METAR MRLB 191800Z 36009KT 9999 BKN030 29/23 A2985 NOSIG=
201611191900 METAR MRLB 191900Z 01008KT 9999 VCSH FEW025TCU SCT030 BKN100 28/23 A2982 NOSIG=
201611192000 METAR MRLB 192000Z 03007KT 9999 SCT035 BKN100 29/23 A2980 NOSIG=
201611192100 METAR MRLB 192100Z 18004KT 9999 SCT035 BKN100 29/23 A2979 NOSIG=
201611192200 METAR MRLB 192200Z 21004KT 9999 SCT030 BKN100 28/23 A2980 NOSIG=
201611192300 METAR MRLB 192300Z 23004KT 9999 SCT025 BKN090 27/23 A2982 NOSIG=
201611200000 METAR MRLB 200000Z 32004KT 9999 VCSH SCT020 BKN090 26/22 A2984 NOSIG=
201611200100 METAR MRLB 200100Z 16005KT 9999 SCT030 BKN100 25/23 A2987 RERA NOSIG=
201611200200 MRLB 200200Z 28002KT 9999 FEW030 BKN100 24/23 A2990 NOSIG=
201611200300 METAR MRLB 200300Z 17003KT 9999 FEW010 BKN100 24/23 A2990 NOSIG=
201611200400 METAR MRLB 200400Z 21002KT CAVOK 24/23 A2988 NOSIG=
201611200500 METAR MRLB 200500Z 25004KT CAVOK 23/22 A2988 NOSIG ?=
201611200600 METAR MRLB 200600Z 17007KT CAVOK 23/22 A2987 NOSIG ?=
201611200700 METAR MRLB NIL=
201611200800 METAR MRLB NIL=
201611200900 METAR MRLB NIL=
201611201000 METAR MRLB NIL=
201611201100 METAR MRLB NIL=
201611201200 METAR MRLB 201200Z 02010KT 9999 FEW045 25/21 A2987 NOSIG=
201611201300 METAR MRLB 201300Z 02008KT 9999 FEW040 SCT250 26/21 A2987 NOSIG=
201611201400 METAR MRLB 201400Z 04006KT 9999 FEW040 BKN200 27/21 A2989 NOSIG ??=
201611201500 METAR MRLB 201500Z 33005KT 9999 FEW040 BKN250 29/21 A2990 NOSIG=
201611201600 METAR MRLB 201600Z 01008KT 9999 FEW040 BKN250 29/21 A2989 NOSIG=
201611201700 METAR MRLB 201700Z 25003KT 9999 FEW030 BKN250 30/21 A2986 NOSIG=
201611201800 METAR MRLB 201800Z 26007KT 9999 FEW030 SCT250 31/21 A2984 NOSIG=
201611201900 METAR MRLB 201900Z 09005KT 9999 SCT035 BKN250 31/21 A2981 NOSIG=
201611202000 METAR MRLB 202000Z 25003KT 9999 SCT035 BKN150 31/22 A2979 NOSIG=
201611202100 METAR MRLB 202100Z 15002KT 9999 FEW040 SCT100 BKN250 30/21 A2979 NOSIG=
201611202200 METAR MRLB 202200Z 35004KT 9999 SCT040 BKN150 29/21 A2980 NOSIG=
201611202300 METAR MRLB 202300Z 06002KT 9999 BKN040 SCT140 28/20 A2982 NOSIG=
201611202352 METAR MRLB 210000Z 05002KT 9999 SCT040 BKN140 27/21 A2983 NOSIG=
201611210000 METAR MRLB 210000Z 05002KT 9999 SCT040 BKN140 27/21 A2983 NOSIG=
201611210100 METAR MRLB 210100Z 19004KT 9999 SCT040 BKN120 26/21 NOSIG=
201611210200 METAR MRLB 210200Z 25003KT 9999 FEW040 BKN120 26/22 A2987 NOSIG=
201611210300 METAR MRLB 210300Z 04011KT 9999 FEW030 BKN120 27/20 A2988 NOSIG=
201611210400 METAR MRLB 210400Z 04004KT 9999 FEW030 BKN140 26/20 A2989 NOSIG=
201611210500 METAR MRLB 210500Z 07002KT 9999 FEW030 BKN140 26/19 A2988 NOSIG=
201611210600 METAR MRLB 16003KT CAVOK 26/19 A2986 NOSIG=
201611210700 METAR MRLB NIL=
201611210800 METAR MRLB NIL=
201611210900 METAR MRLB NIL=
201611211000 METAR MRLB NIL=
201611211100 METAR MRLB NIL=
201611211200 METAR MRLB 211200Z 21006KT 9999 FEW045 OVC250 21/18 A2984 NOSIG=
201611211300 METAR MRLB 211300Z 00000KT 9999 FEW045 BKN250 21/19 A2987 NOSIG=
201611211400 METAR MRLB 211400Z 28003KT CAVOK 24/20 A2989 NOSIG=
201611211500 METAR MRLB 211500Z 27004KT CAVOK 26/20 A2989 NOSIG=
201611211600 METAR MRLB 211600Z 26005KT CAVOK 29/19 A2988 NOSIG=
201611211700 METAR MRLB 211700Z 25004KT CAVOK 29/18 A2986 NOSIG=
201611211800 METAR MRLB 211800Z 11002KT CAVOK 30/18 A2984 NOSIG=
201611211900 METAR MRLB 211900Z 13007KT CAVOK 30/18 A2981 NOSIG=
201611212000 METAR MRLB 212000Z 35005KT CAVOK 31/19 A2978 NOSIG=
201611212100 METAR MRLB 212100Z 11010KT CAVOK 30/17 A2977 NOSIG=
201611212200 METAR MRLB 212200Z 09007KT CAVOK 28/17 A2978 NOSIG=
201611212300 METAR MRLB 212300Z 12003KT CAVOK 26/17 A2980 NOSIG=
201611220000 METAR MRLB NIL=
201611220100 METAR MRLB 220100Z 30003KT CAVOK 24/18 A2984 NOSIG=
201611220200 METAR MRLB NIL=
201611220300 METAR MRLB 220300Z 32003KT CAVOK 22/19 A2987 NOSIG=
201611220400 METAR MRLB 220400Z 32002KT CAVOK 21/18 A2986 NOSIG=
201611220500 METAR MRLB NIL=
201611220600 METAR MRLB NIL=
201611220700 METAR MRLB NIL=
201611220800 METAR MRLB NIL=
201611220900 METAR MRLB NIL=
201611221000 METAR MRLB NIL=
201611221100 METAR MRLB NIL=
201611221200 METAR MRLB 221200Z 23003KT CAVOK 19/18 A2984 NOSIG=
201611221300 METAR MRLB 221300Z 26003KT CAVOK 22/19 A2985 NOSIG=
201611221400 METAR MRLB 221400Z 27006KT CAVOK 24/21 A2987 NOSIG=
201611221500 METAR MRLB 221500Z 27004KT CAVOK 26/20 A2987 NOSIG=
201611221600 METAR MRLB 221600Z 27005KT CAVOK 28/19 A2986 NOSIG=
201611221700 METAR MRLB 221700Z 32005KT CAVOK 29/19 A2983 NOSIG=
201611221800 METAR MRLB 221800Z 33003KT CAVOK 31/18 A2981 NOSIG=
201611221900 METAR MRLB 221900Z 11010KT CAVOK 31/18 A2978 NOSIG=
201611222000 METAR MRLB 222000Z 11009KT CAVOK 31/18 A2975 NOSIG=
201611222100 METAR MRLB 222100Z 10010KT CAVOK 30/18 A2975 NOSIG=
201611222200 METAR MRLB 222200Z 12006KT CAVOK 30/19 A2976 NOSIG ??=
201611222300 METAR MRLB 222300Z 11008KT CAVOK 28/19 A2978 NOSIG ??=
201611230000 METAR MRLB 230000Z 15002KT CAVOK 27/19 A2980 NOSIG ??=
201611230100 METAR MRLB 230100Z 31003KT CAVOK 25/19 A2983 NOSIG ??=
201611230200 METAR MRLB 230200Z 21002KT CAVOK 23/19 A2986 NOSIG ??=
201611230300 METAR MRLB 230300Z 28004KT CAVOK 22/19 A2986 NOSIG=
201611230400 METAR MRLB 230400Z 35002KT CAVOK 21/19 A2986 NOSIG=
201611230500 METAR MRLB 230500Z 28004KT CAVOK 21/20 A2985 NOSIG=
201611230600 METAR MRLB 230600Z 29002KT CAVOK 21/20 A2984 NOSIG=
201611230700 METAR MRLB NIL=
201611230800 METAR MRLB NIL=
201611230900 METAR MRLB NIL=
201611231000 METAR MRLB NIL=
201611231100 METAR MRLB NIL=
201611231200 METAR MRLB 231200Z 30006KT CAVOK 21/19 A2983 NOSIG ?=
201611231300 METAR MRLB 231300Z 15003KT CAVOK 23/20 A2985 NOSIG ?=
201611231400 METAR MRLB 231400Z 24002KT CAVOK 24/21 A2987 NOSIG ??=
201611231500 METAR MRLB 231500Z 29004KT CAVOK 26/21 A2988 NOSIG ??=
201611231600 METAR MRLB 231600Z 23005KT CAVOK 28/22 A2987 NOSIG=
201611231700 METAR MRLB 231700Z 18005KT CAVOK 28/21 A2985 NOSIG=
201611231800 METAR MRLB 231800Z 17004KT 9999 2000E RA BKN035 28/21 A2984 NOSIG=
201611231825 METAR MRLB 231825Z 10007KT 9999 4000SW -RA SCT035 BKN100 24/20 A2984 NOSIG=
201611231900 METAR MRLB 231900Z 26002KT 9999 4000W -RA SCT030 BKN100 24/22 A2983 NOSIG=
201611232000 METAR MRLB 232000Z 26005KT 9999 SCT030 BKN120 25/22 A2980 NOSIG=
201611232100 METAR MRLB 232100Z 232100Z 01006KT 9999 SCT025 BKN100 26/22 A2979 NOSIG=
201611232200 METAR MRLB 232200Z 36006KT 9999 SCT025 BKN100 25/21 A2978 NOSIG=
201611232252 METAR MRLB 242300Z 20003KT 9999 3000E RA SCT015 BKN030 24/23 A2979 NOSIG=
201611232300 METAR MRLB 232300Z 03004KT 9999 SCT025 BKN100 24/22 A2980 NOSIG=
201611240000 METAR MRLB 240000Z 31003KT 9999 SCT025 BKN100 24/22 A2981 NOSIG=
201611240100 METAR MRLB 240100Z 19002KT 9999 SCT030 BKN120 24/12 A2985 NOSIG=
201611240200 METAR MRLB 240200Z 20002KT 9999 SCT035 BKN140 24/22 A2987 NOSIG=
201611240300 METAR MRLB 240300Z 26003KT 9999 FEW035 BKN140 24/22 A2987 NOSIG=
201611240400 METAR MRLB 240400Z 17003KT 9999 FEW040 BKN140 23/22 A2987 NOSIG=
201611240500 METAR MRLB 240500Z 18005KT 9999 SCT040 BKN100 23/22 A2986 NOSIG=
201611240600 METAR MRLB 240600Z 17005KT 9999 FEW035 BKN100 23/22 A2983 NOSIG=
201611240700 METAR MRLB 240700Z 16004KT 9999 FEW040 BKN200 23/22 A2982 NOSIG=
201611240800 METAR MRLB 240800Z 17002KT 9999 FEW040 BKN180 23/22 A2980 NOSIG=
201611240900 METAR MRLB 240900Z 13002KT 9999 FEW040 22/21 A2980 NOSIG=
201611241000 METAR MRLB 241000Z 04002KT 9999 SCT040 22/21 A2981 NOSIG=
201611241100 METAR MRLB 241100Z 00000KT 9999 BKN040 23/22 A2983 NOSIG=
201611241200 METAR MRLB 241200Z 01003KT 9999 BKN030 22/22 A2985 NOSIG=
201611241300 METAR MRLB 241300Z 06003KT 9999 BKN030 23/22 A2988 NOSIG=
201611241400 METAR MRLB 241400Z 00000KT 9999 SCT030 BKN070 24/23 A2990 NOSIG=
201611241500 METAR MRLB 241500Z 01005KT 9999 SCT030 BKN120 25/22 A2990 NOSIG=
201611241600 METAR MRLB 241600Z 02012KT 9999 FEW030 SCT100 BKN200 26/22 A2987 NOSIG=
201611241700 METAR MRLB NIL=
201611241800 METAR MRLB 241800Z 34008KT 9999 SCT030 BKN140 26/24 A2984 NOSIG=
201611241900 METAR MRLB 241900Z 01006KT 9999 -RA FEW030 OVC120 24/21 A2983 NOSIG=
201611242000 METAR MRLB 242000Z 30003KT 9999 -RA FEW030 OVC120 24/22 A2980 NOSIG=
201611242100 METAR MRLB 242100Z 00000KT 9999 FEW030 OVC120 25/22 A2979 NOSIG=
201611242200 METAR MRLB 242200Z 24003KT 9999 BKN030 SCT100 25/22 A2979 NOSIG=
201611242300 METAR MRLB 242300Z 20003KT 9999 3000E RA SCT015 BKN030 24/23 A2979 NOSIG=
201611242353 METAR MRLB COR 250000Z 21002KT 8000 RA SCT010 BKN025 24/22 A2979 NOSIG=
201611250000 METAR MRLB 250000Z COR 21002KT 8000 RA SCT010 BKN025 24/22 A2979 NOSIG=
201611250100 METAR MRLB 250100Z 28008KT 5000 RA FEW005 SCT010 BKN015 23/23 A2979 NOSIG=
201611250200 METAR MRLB 250200Z 26015KT 4000 RA FEW005 SCT010 BKN020 23/22 A2976 NOSIG=
201611250300 METAR MRLB 250300Z 23017G27KT 3000 +RA SCT004 OVC015 23/23 A2973 NOSIG=
201611250400 METAR MRLB NIL=
201611250500 METAR MRLB NIL=
201611250600 METAR MRLB NIL=
201611250700 METAR MRLB NIL=
201611250800 METAR MRLB NIL=
201611250900 METAR MRLB NIL=
201611251000 METAR MRLB NIL=
201611251100 METAR MRLB NIL=
201611251200 METAR MRLB 251200Z 00000KT 9999 SCT025 BKN035 23/23 A2986 NOSIG=
201611251300 METAR MRLB 251300Z 00000KT 9999 FEW005 BKN035 24/23 A2989 NOSIG=
201611251400 METAR MRLB 251400Z 13002KT 9999 FEW008 SCT035 BKN080 25/23 A2991 NOSIG=
201611251500 METAR MRLB 251500Z 12002KT 9999 SCT010 BKN220 28/24 A2991 NOSIG=
201611251600 METAR MRLB 251600Z 13003KT 9999 SCT020 SCT250 28/24 A2990 NOSIG=
201611251700 METAR MRLB 251700Z 31004KT 9999 SCT020TCU BKN250 27/24 A2988 NOSIG=
201611251800 METAR MRLB 251800Z 26006KT 9999 FEW020TCU SCT025 BKN250 28/25 A2985 NOSIG=
201611251900 METAR MRLB 251900Z 28009KT 9999 SCT020 SCT250 28/24 A2983 NOSIG=
201611252000 METAR MRLB 252000Z 29010KT 9999 FEW025 SCT250 28/24 A2981 NOSIG=
201611252100 METAR MRLB 252100Z 30009KT 9999 FEW020TCU BKN030 27/23 A2981 NOSIG=
201611252200 METAR MRLB 252200Z 28008KT 9999 BKN030 27/23 A2980 NOSIG=
201611252300 METAR MRLB 252300Z 28006KT 9999 FEW004 BKN030 26/23 A2982 NOSIG=
201611252352 METAR MRLB 260000Z 30004KT 9999 FEW010 OVC030 25/24 A2985 NOSIG=
201611260000 METAR MRLB 260000Z 30004KT 9999 FEW010 OVC030 25/24 A2985 NOSIG=
201611260100 METAR MRLB 260100Z 30004KT 9999 FEW030 OVC120 25/23 A2988 NOSIG=
201611260200 METAR MRLB 260200Z 22002KT 9999 FEW030 OVC120 25/23 A2991 NOSIG=
201611260300 METAR MRLB 260300Z 16002KT 9999 SCT030 OVC120 25/24 A2992 NOSIG=
201611260400 METAR MRLB 260400Z 00000KT 9999 FEW030 OVC140 24/23 A2993 NOSIG=
201611260500 METAR MRLB 260500Z 00000KT 9999 FEW030 OVC140 24/23 A2991 NOSIG=
201611260600 METAR MRLB 260600Z 13003KT 9999 FEW025 24/24 A2991 NOSIG=
201611260700 METAR MRLB 260700Z 00000KT 9999 FEW025 24/24 A2988 NOSIG=
201611260800 METAR MRLB 260800Z 00000KT 9999 FEW030 24/24 A2986 NOSIG=
201611260900 METAR MRLB 260900Z 30002KT 9999 FEW035 24/23 A28985 NOSIG=
201611261000 METAR MRLB NIL=
201611261100 METAR MRLB 261100Z 26002KT 9999 SCT012 24/23 A2987 NOSIG=
201611261200 METAR MRLB 261200Z 00000KT 8000 BCFG FEW003 BKN010 24/23 A2988 NOSIG=
201611261300 METAR MRLB 261300Z 20002KT 8000 BCFG FEW003 BKN015 24/24 A2990 NOSIG=
201611261400 METAR MRLB 261400Z 25003KT 9999 FEW005 BKN020 25/24 A2992 NOSIG=
201611261500 METAR MRLB 261500Z 27003KT 9999 SCT010 BKN030 26/24 A2993 NOSIG=
201611261600 METAR MRLB 261600Z 28002KT 9999 SCT025 27/24 A2992 NOSIG=
201611261700 METAR MRLB 261700Z 29003KT 9999 BKN025 28/24 A2990 NOSIG=
201611261800 METAR MRLB 261800Z 29006KT 9999 DZ BKN025 27/25 A2987 NOSIG=
201611261900 METAR MRLB 261900Z 27006KT 9999 BKN030 29/25 A2983 NOSIG=
201611262000 METAR MRLB 262000Z 30009KT 9999 FEW015 SCT030 BKN100 28/25 A2981 NOSIG=
201611262100 METAR MRLB 262100Z 29007KT 9999 FEW015 SCT030 BKN100 28/25 A2980 NOSIG=
201611262200 METAR MRLB 262200Z 27007KT 9999 FEW020 BKN100 26/25 A2980 NOSIG=
201611262300 METAR MRLB 262300Z 29006KT 9999 FEW010 BKN100 26/25 A2981 NOSIG=
201611262357 METAR MRLB 270000Z 28005KT 9999 FEW010 SCT030 BKN100 26/25 A2983 NOSIG=
201611270000 METAR MRLB 270000Z 28005KT 9999 FEW010 SCT030 BKN100 26/25 A2983 NOSIG=
201611270100 METAR MRLB 270100Z 32005KT 9999 -RA SCT010 BKN100 26/25 A2987 NOSIG=
201611270200 METAR MRLB 270200Z 31003KT 9999 RA SCT010 BKN100 25/25 A2989 NOSIG=
201611270300 METAR MRLB 270300Z 31003KT 9999 SCT030 BKN100 25/24 A2991 NOSIG=
201611270400 METAR MRLB 270400Z 27005KT 9999 -RA SCT020 BKN030 25/24 A2989 NOSIG=
201611270500 METAR MRLB 270500Z 00000KT 9999 -RA FEW005 SCT015 BKN030 24/24 A2989 NOSIG=
201611270600 METAR MRLB 270600Z 24002KT 9999 FEW010 SCT030 BKN100 24/24 A2987 NOSIG=
201611270700 METAR MRLB NIL=
201611270800 METAR MRLB NIL=
201611270900 METAR MRLB NIL=
201611271000 METAR MRLB NIL=
201611271100 METAR MRLB NIL=
201611271200 METAR MRLB 271200Z 04005KT 9999 -RA FEW010 BKN100 24/23 A2983 NOSIG=
201611271300 METAR MRLB 271300Z 26003KT 9999 FEW015 BKN100 24/23 A2986 NOSIG=
201611271400 METAR MRLB 271400Z 33003KT 9999 FEW020 BKN100 27/23 A2987 NOSIG=
201611271500 METAR MRLB 271500Z 36006KT 9999 SCT020 BKN100 27/23 A2988 NOSIG=
201611271600 METAR MRLB 271600Z 02007KT 9999 SCT030 BKN100 27/23 A2987 NOSIG=
201611271700 METAR MRLB 271700Z 35007KT 9999 FEW025 SCT030 BKN180 28/23 A2985 NOSIG=
201611271800 METAR MRLB 271800Z 33003KT 9999 SCT035 BKN200 29/22 A2983 NOSIG=
201611271900 METAR MRLB 271900Z 28004KT 9999 FEW030 BKN200 29/23 A2979 NOSIG=
201611272000 METAR MRLB 272000Z 35003KT 9999 FEW030 BKN240 29/22 A2976 NOSIG=
201611272100 METAR MRLB 272100Z 29003KT 9999 FEW030 BKN240 29/23 A2975 NOSIG=
201611272200 METAR MRLB 272200Z 30003KT 9999 FEW030 BKN200 28/23 A2976 NOSIG=
201611272300 METAR MRLB 272300Z 31003KT 9999 FEW030 BKN200 27/23 A2976 NOSIG=
201611272351 METAR MRLB 280000Z 23004KT 9999 FEW035 SCT100 25/23 A2977 NOSIG=
201611280000 METAR MRLB 280000Z 23004KT 9999 FEW035 SCT100 25/23 A2977 NOSIG=
201611280100 METAR MRLB 280100Z 22005KT CAVOK 25/23 A2980 NOSIG=
201611280200 METAR MRLB 280200Z 24003KT CAVOK 24/23 A2983 NOSIG=
201611280300 METAR MRLB 280300Z 26005KT CAVOK 24/22 A2984 NOSIG=
201611280400 METAR MRLB 280400Z 20004KT 9999 SCT045 24/22 A2985 NOSIG=
201611280500 METAR MRLB 280500Z 22004KT CAVOK 24/22 A2983 NOSIG=
201611280600 METAR MRLB 280600Z 26004KT CAVOK 23/22 A2983 NOSIG=
201611280700 METAR MRLB NIL=
201611280800 METAR MRLB NIL=
201611280900 METAR MRLB NIL=
201611281000 METAR MRLB NIL=
201611281100 METAR MRLB NIL=
201611281200 METAR MRLB 281200Z 17003KT 9999 FEW040 SCT120 22/21 A2979 NOSIG=
201611281300 METAR MRLB 281300Z 00000KT 9999 FEW040 SCT250 23/22 A2982 NOSIG=
201611281400 METAR MRLB 281400Z 19002KT 9999 FEW030 SCT100 BKN250 25/23 A2984 NOSIG=
201611281500 METAR MRLB 281500Z 27003KT 9999 FEW030 SCT100 BKN250 27/22 A2985 NOSIG=
201611281600 METAR MRLB 281600Z 24004KT 9999 FEW030 SCT100 BKN250 28/23 A2984 NOSIG=
201611281700 METAR MRLB 281700Z 24002KT 9999 FEW025 BKN200 29/23 A2983 NOSIG=
201611281800 METAR MRLB 281800Z 29005KT 9999 FEW025 BKN140 30/23 A2981 NOSIG=
201611281900 METAR MRLB 281900Z 28007KT 9999 BKN030 SCT120 30/22 A2977 NOSIG=
201611282000 METAR MRLB 282000Z 28007KT 9999 SCT025 BKN035 29/23 A2976 NOSIG=
201611282100 METAR MRLB 282100Z 24005KT 9999 -RA SCT025 BKN035 27/23 A2975 NOSIG=
201611282200 METAR MRLB 282200Z 27005KT 9999 BKN035 28/23 A2975 NOSIG=
201611282300 METAR MRLB 282300Z 26002KT 9999 SCT025 BKN040 27/24 A2976 NOSIG=
201611282352 METAR MRLB 290000Z 17003KT 9999 FEW040 BKN140 26/23 A2975 NOSIG=
201611290000 METAR MRLB 290000Z 17003KT 9999 FEW040 BKN140 26/23 A2975 NOSIG=
201611290100 METAR MRLB 290100Z 29004KT 9999 FEW040 SCT150 BKN250 25/23 A2978 NOSIG=
201611290200 METAR MRLB 290200Z 19006KT 9999 FEW040 BKN150 25/23 A2979 NOSIG=
201611290300 METAR MRLB 290300Z 29004KT CAVOK 24/23 A2981 NOSIG=
201611290400 METAR MRLB 290400Z 18004KT CAVOK 24/22 A2980 NOSIG=
201611290500 METAR MRLB 290500Z 20002KT CAVOK 23/22 A2980 NOSIG=
201611290600 METAR MRLB 290600Z 12003KT CAVOK 23/22 A2979 NOSIG=
201611290700 METAR MRLB NIL=
201611290800 METAR MRLB NIL=
201611290900 METAR MRLB NIL=
201611291000 METAR MRLB NIL=
201611291100 METAR MRLB NIL=
201611291200 METAR MRLB 291200Z 21005KT 9999 FEW040 BKN140 23/22 A2978 NOSIG=
201611291300 METAR MRLB 291300Z 00000KT 9999 FEW010 BKN080 25/23 A2981 NOSIG=
201611291400 METAR MRLB 291400Z 00000KT 9999 SCT040 SCT080 25/23 A2983 NOSIG=
201611291500 METAR MRLB 291500Z 36002KT 9999 FEW040 SCT140 BKN220 27/23 A2985 NOSIG=
201611291600 METAR MRLB 291600Z 02005KT 9999 FEW035 SCT150 29/24 A2985 NOSIG=
201611291700 METAR MRLB 291700Z 08004KT 9999 SCT030 SCT150 31/23 A2982 NOSIG=
201611291800 METAR MRLB 291800Z 09008KT 9999 SCT035 SCT250 32/23 A2979 NOSIG=
201611291900 METAR MRLB 291900Z 13007KT 9999 SCT035 SCT250 32/23 A2975 NOSIG=
201611292000 METAR MRLB 292000Z 12007KT 9999 BKN040 31/24 A2973 NOSIG=
201611292100 METAR MRLB 292100Z 26004KT 9999 -RA VCSH FEW025TCU BKN035 28/25 A2973 NOSIG=
201611292200 METAR MRLB 292200Z 28005KT 9999 FEW025 BKN040 28/24 A2973 NOSIG=
201611292300 METAR MRLB 292300Z 24002KT 9999 SCT025 SCT040 27/25 A2975 NOSIG=
201611292354 METAR MRLB 300000Z 01002KT 9999 BKN025 26/25 A2976 NOSIG=
201611300000 METAR MRLB 300000Z 01002KT 9999 BKN025 26/25 A2976 NOSIG=
201611300100 METAR MRLB 300100Z 06002KT 9999 SCT025 26/25 A2979 NOSIG=
201611300200 METAR MRLB 300200Z 04003KT 9999 -DZ SCT020 25/24 A2982 NOSIG=
201611300300 METAR MRLB 300300Z 06002KT 9999 SCT020 25/24 A2984 NOSIG=
201611300400 METAR MRLB 300400Z 05004KT 9999 SCT020 25/24 A2985 NOSIG=
201611300500 METAR MRLB 300500Z 07003KT CAVOK 24/24 A2984 NOSIG=
201611300600 METAR MRLB NIL=
201611300900 METAR MRLB NIL=
201611301000 METAR MRLB NIL=
201611301100 METAR MRLB NIL=
201611301200 METAR MRLB 301200Z 00000KT 9999 BCFG FEW001 BKN140 23/23 A2982 NOSIG=
201611301300 METAR MRLB 301300Z 25003KT 6000 2000W BCFG SCT002 BKN120 24/23 A2984 NOSIG=
201611301400 METAR MRLB 301400Z 23002KT 9999 BCFG FEW003 SCT010 BKN100 24/24 A2987 NOSIG=
201611301500 METAR MRLB 301500Z 15002KT 9999 SCT005 SCT120 25/24 A2988 NOSIG=
201611301600 METAR MRLB 301600Z 01002KT 9999 FEW008 BKN120 26/24 A2988 NOSIG=
201611301700 METAR MRLB 301700Z 27005KT 9999 FEW010 BKN120 26/25 A2985 NOSIG=
201611301800 METAR MRLB 301800Z 28005KT 9999 SCT020 BKN200 29/24 A2982 NOSIG=
201611301900 METAR MRLB 301900Z 30005KT 9999 BKN025 29/23 A2980 NOSIG=
201611302000 METAR MRLB 302000Z 27006KT 9999 FEW025TCU BKN030 29/24 A2978 NOSIG=
201611302100 METAR MRLB 302100Z 29003KT 9999 FEW025TCU BKN030 29/24 A2977 NOSIG=
201611302200 METAR MRLB 302200Z 33002KT 9999 FEW025 SCT140 30/24 A2976 NOSIG=
201611302300 METAR MRLB 302300Z 31002KT 9999 FEW025 SCT250 28/24 A2978 NOSIG=
201611302357 METAR MRLB 010000Z 17003KT 9999 FEW030 27/22 A2979 NOSIG=
201612010000 METAR MRLB 010000Z 17003KT 9999 FEW030 27/22 A2979 NOSIG=
201612010100 METAR MRLB 010100Z 33003KT CAVOK 25/23 A2981 NOSIG=
201612010200 METAR MRLB 010200Z 30003KT CAVOK 24/23 A2984 NOSIG=
201612010300 METAR MRLB 010300Z 15004KT 9999 FEW030 SCT250 24/23 A2985 NOSIG=
201612010400 METAR MRLB 010400Z 20004KT CAVOK 24/23 A2985 NOSIG=
201612010500 METAR MRLB 010500Z 00000KT CAVOK 23/22 A2984 NOSIG=
201612010600 METAR MRLB 010600Z 16002KT CAVOK 23/22 A2984 NOSIG=
201612010700 METAR MRLB NIL=
201612010800 METAR MRLB NIL=
201612010900 METAR MRLB NIL=
201612011000 METAR MRLB NIL=
201612011100 METAR MRLB NIL=
201612011200 METAR MRLB 011200Z 01002KT 9999 VCFG FEW003 SCT120 22/21 A2984 NOSIG=
201612011300 METAR MRLB 011300Z 11002KT CAVOK 24/23 A2985 NOSIG=
201612011400 METAR MRLB 011400Z 21006KT CAVOK 26/24 A2987 NOSIG=
201612011454 METAR MRLB 01500Z 22005KT 9999 FEW030 SCT250 28/24 A2989 NOSIG=
201612011500 METAR MRLB COR 011500Z 22005KT 9999 FEW030 SCT250 28/24 A2989 NOSIG=
201612011600 METAR MRLB 011600Z 20005KT 9999 FEW030 SCT140 29/23 A2988 NOSIG=
201612011700 METAR MRLB 011700Z 12010KT 9999 FEW025 SCT140 30/22 A2986 NOSIG=
201612011800 METAR MRLB 011800Z 12009KT 9999 FEW030 SCT140 32/22 A2982 NOSIG=
201612011900 METAR MRLB 011900Z 13005KT 9999 FEW030 BKN120 32/22 A2980 NOSIG=
201612012000 METAR MRLB 012000Z 11006KT 9999 SCT030 SCT120 32/22 A2978 NOSIG=
201612012100 METAR MRLB 012100Z 30006KT 9999 SCT030 SCT120 30/24 A2977 NOSIG=
201612012200 METAR MRLB 012200Z 20002KT 9999 FEW030 BKN120 29/24 A2977 NOSIG=
201612012300 METAR MRLB 012300Z 12005KT 9999 FEW030 BKN120 29/22 A2978 NOSIG=
201612012353 METAR MRLB 020000Z 15004KT 9999 FEW030 BKN120 27/22 A2980 NOSIG=
201612020000 METAR MRLB 020000Z 15004KT 9999 FEW030 BKN120 27/22 A2980 NOSIG=
201612020100 METAR MRLB 020100Z 22004KT 9999 FEW040 25/23 A2982 NOSIG=
201612020200 METAR MRLB 020200Z 21005KT CAVOK 24/23 A2985 NOSIG=
201612020300 METAR MRLB 020300Z 19002KT CAVOK 24/22 A2987 NOSIG=
201612020400 METAR MRLB 020400Z 18002KT CAVOK 24/22 A2988 NOSIG=
201612020500 METAR MRLB 020500Z 10002KT CAVOK 23/22 A2989 NOSIG=
201612020600 METAR MRLB 020600Z 24002KT CAVOK 23/22 A2988 NOSIG=
201612020700 METAR MRLB NIL=
201612020800 METAR MRLB NIL=
201612020900 METAR MRLB NIL=
201612021000 METAR MRLB NIL=
201612021100 METAR MRLB NIL=
201612021200 METAR MRLB 021200Z 25002KT CAVOK 21/20 A2986 NOSIG=
201612021300 METAR MRLB 021300Z 00000KT CAVOK 24/21 A2989 NOSIG=
201612021400 METAR MRLB 021400Z 20004KT CAVOK 25/21 A2991 NOSIG=
201612021500 METAR MRLB 021500Z 33003KT CAVOK 27/21 A2992 NOSIG=
201612021600 METAR MRLB 021600Z 09014KT CAVOK 30/22 A2990 NOSIG=
201612021700 METAR MRLB 021700Z 08010KT 9999 FEW020 32/20 A2988 NOSIG=
201612021800 METAR MRLB 021800Z 11010KT 9999 FEW020 32/20 A2986 NOSIG=
201612021900 METAR MRLB 021900Z 09012KT 9999 FEW030 32/20 A2983 NOSIG=
201612022000 METAR MRLB 022000Z 09011KT 9999 FEW030 33/20 A2981 NOSIG=
201612022100 METAR MRLB 022100Z 09010KT 9999 FEW030 32/21 A2980 NOSIG=
201612022200 METAR MRLB 022200Z 09009KT 9999 FEW030 32/21 A2980 NOSIG=
201612022300 METAR MRLB 022300Z 09007KT 9999 FEW045 30/22 A2981 NOSIG=
201612022352 METAR MRLB 030000Z 11004KT CAVOK 27/22 A2982 NOSIG=
201612030000 METAR MRLB 030000Z 11004KT CAVOK 27/22 A2982 NOSIG=
201612030100 METAR MRLB 030100Z 12008KT CAVOK 27/22 A2985 NOSIG=
201612030200 METAR MRLB 030200Z 11004KT CAVOK 26/22 A2987 NOSIG=
201612030300 METAR MRLB 030300Z 14007KT CAVOK 26/22 A2989 NOSIG=
201612030400 METAR MRLB 030400Z 11006KT CAVOK 25/21 A2988 NOSIG=
201612030500 METAR MRLB 030500Z 12004KT CAVOK 25/21 A2988 NOSIG=
201612030600 METAR MRLB 030600Z 17003KT CAVOK 23/21 A2988 NOSIG=
201612030700 METAR MRLB NIL=
201612030800 METAR MRLB NIL=
201612030900 METAR MRLB NIL=
201612031000 METAR MRLB NIL=
201612031100 METAR MRLB NIL=
201612031200 METAR MRLB 031200Z 02003KT CAVOK 2020/2988 NOSIG=
201612031300 METAR MRLB 031300Z 04003KT CAVOK 22/21 A2990 NOSIG=
201612031400 METAR MRLB 031400Z 04002KT CAVOK 25/21 A2991 NOSIG=
201612031500 METAR MRLB 031500Z 28004KT CAVOK 27/22 A2992 NOSIG=
201612031600 METAR MRLB 031600Z 00000KT 9999 FEW030 29/22 A2991 NOSIG=
201612031700 METAR MRLB 031700Z 34004KT 9999 SCT030 SCT050 29/22 A2988 NOSIG=
201612031800 METAR MRLB 031800Z 01003KT 9999 FEW030 BKN050 30/22 A2986 NOSIG=
201612031900 METAR MRLB 031900Z 09002KT 9999 SCT030 SCT040 31/22 A2982 NOSIG=
201612032000 METAR MRLB 032000Z 10005KT 9999 BKN040 31/22 A2980 NOSIG=
201612032100 METAR MRLB 032100Z 28006KT 9999 SCT030 SCT050 29/23 A2979 NOSIG=
201612032200 METAR MRLB 032200Z 27005KT 9999 FEW030 SCT080 29/24 A2978 NOSIG=
201612032300 METAR MRLB 032300Z 25003KT CAVOK 28/24 A2979 NOSIG=
201612032352 METAR MRLB 040000Z 24003KT 9999 FEW045 SCT120 27/24 A2981 NOSIG=
201612040000 METAR MRLB 040000Z 24003KT 9999 FEW045 SCT120 27/24 A2981 NOSIG=
201612040100 METAR MRLB 040100Z 15003KT 9999 SCT040 26/24 A2984 NOSIG=
201612040200 METAR MRLB 040200Z 15006KT 9999 SCT040 25/23 A2987 NOSIG=
201612040300 METAR MRLB 040300Z 13003KT 9999 FEW020 BKN045 25/23 A2988 NOSIG=
201612040400 METAR MRLB 040400Z 16002KT 9999 BKN045 24/23 A2989 NOSIG=
201612040500 METAR MRLB 040500Z 07003KT CAVOK 24/23 A2988 NOSIG=
201612040600 METAR MRLB 040600Z 07002KT CAVOK 24/23 A2987 NOSIG=
201612040700 METAR MRLB NIL=
201612040800 METAR MRLB NIL=
201612040900 METAR MRLB NIL=
201612041000 METAR MRLB NIL=
201612041100 METAR MRLB NIL=
201612041200 METAR MRLB 041200Z 07004KT 9999 FEW012 BKN080 23/23 A2986 REDZ NOSIG=
201612041300 METAR MRLB 041300Z 08004KT 9999 FEW020 BKN100 24/23 A2988 NOSIG=
201612041400 METAR MRLB 041400Z 11004KT 9999 FEW015 SCT120 25/23 A2990 NOSIG=
201612041500 METAR MRLB 041500Z 14004KT 9999 SCT018 BKN100 26/24 A2991 NOSIG=
201612041600 METAR MRLB 041600Z 12004KT 9999 VCSH SCT018 BKN100 27/23 A2991 NOSIG=
201612041700 METAR MRLB 041700Z 17007KT 9999 2000SW -RA SCT012 BKN035 24/23 A2990 NOSIG=
201612041800 METAR MRLB 041800Z 17005KT 3000 RA BR SCT012 OVC050 23/23 A2989 NOSIG=
201612041900 METAR MRLB 041900Z 14002KT 2000 RA BR SCT010 OVC050 23/23 A2987 NOSIG=
201612042000 METAR MRLB 042000Z 17003KT 7000 DZ FEW010 SCT020 OVC100 23/23 A2985 NOSIG=
201612042100 METAR MRLB 042100Z 00000KT 3000 RA BR SCT010 OVC050 23/22 A2986 NOSIG=
201612042200 METAR MRLB 042200Z 20004KT 9999 VCFG FEW010 SCT025 BKN100 23/23 A2984 RERA NOSIG=
201612042300 METAR MRLB 042300Z 19002KT 4000 BR SCT010 OVC040 23/23 A2985 NOSIG=
201612042352 METAR MRLB 050000Z 00000KT 3000 RA BR FEW005 BKN015 23/23 A2987 NOSIG=
201612050000 METAR MRLB 050000Z 00000KT 3000 RA BR FEW005 BKN015 23/23 A2987 NOSIG=
201612050100 METAR MRLB 050100Z 12002KT 2000 RA BR FEW004 BKN200 23/23 A2989 NOSIG=
201612050200 METAR MRLB 050200Z 14003KT 1800 RA BR FEW005 BKN020 23/23 A2992 NOSIG=
201612050300 METAR MRLB 050300Z 00000KT 8000 2000E RA FEW005 BKN015 23/23 A2993 NOSIG=
201612050400 METAR MRLB 050400Z 00000KT 8000 -RA VCFG SCT003 BKN020 23/23 A2993 NOSIG=
201612050500 METAR MRLB 050500Z 15002KT 5000 2000E RA FEW004 OVC020 23/23 A2993 NOSIG=
201612050600 METAR MRLB 050600Z 16002KT 5000 2000E RA FEW003 OVC015 23/23 A2993 NOSIG=
201612050700 METAR MRLB NIL=
201612050800 METAR MRLB NIL=
201612050900 METAR MRLB NIL=
201612051000 METAR MRLB NIL=
201612051100 METAR MRLB NIL=
201612051200 METAR MRLB 051200Z 22002KT 9999 500W BR SCT004 BKN120 22/22 A2991 NOSIG=
201612051300 METAR MRLB 051300Z 19002KT 9999 2000W BR SCT005 BKN120 23/22 A2992 NOSIG=
201612051400 METAR MRLB 051400Z 20003KT 9999 SCT006 BKN120 24/23 A2994 NOSIG=
201612051500 METAR MRLB 051500Z 19004KT 9999 SCT010 BKN180 25/23 A2994 NOSIG=
201612051600 METAR MRLB 051600Z 19003KT 9999 SCT015 BKN180 27/24 A2994 NOSIG=
201612051700 METAR MRLB 051700Z 22003KT 9999 FEW020 BKN200 28/24 A2992 NOSIG=
201612051800 METAR MRLB 051800Z 27006KT 9999 VCSH FEW025TCU SCT030 BKN200 29/23 A2989 NOSIG=
201612051900 METAR MRLB 051900Z 30006KT 9999 VCSH FEW025TCU SCT030 BKN200 29/24 A2986 NOSIG=
201612052000 METAR MRLB 052000Z 29006KT 9999 FEW025 SCT100 BKN250 29/23 A2983 NOSIG=
201612052100 METAR MRLB 052100Z 30008KT 9999 FEW025 BKN250 29/24 A2982 NOSIG=
201612052200 METAR MRLB 052200Z 30007KT 9999 FEW015 SCT120 26/24 A2982 NOSIG=
201612052300 METAR MRLB 052300Z 30004KT 9999 FEW030 SCT120 26/23 A2983 NOSIG=
201612052356 METAR MRLB 060000Z 30003KT 9999 FEW030 SCT120 25/23 A2985 NOSIG=
201612060000 METAR MRLB 060000Z 30003KT 9999 FEW030 SCT120 25/23 A2985 NOSIG=
201612060100 METAR MRLB 060100Z 32003KT CAVOK 24/23 A2988 NOSIG=
201612060200 METAR MRLB 060200Z 28002KT 9999 SCT025 24/23 A2990 NOSIG=
201612060300 METAR MRLB 060300Z 17002KT 9999 SCT025 24/23 A2991 NOSIG=
201612060400 METAR MRLB 060400Z 00000KT 9999 SCT020 24/23 A2991 NOSIG=
201612060500 METAR MRLB 060500Z 00000KT 9999 BKN025 24/23 A2991 NOSIG=
201612060600 METAR MRLB 060600Z 15003KT 9999 BKN025 24/23 A2991 NOSIG=
201612060700 METAR MRLB NIL=
201612060800 METAR MRLB NIL=
201612060900 METAR MRLB NIL=
201612061000 METAR MRLB NIL=
201612061100 METAR MRLB NIL=
201612061200 METAR MRLB 061200Z 06003KT 9999 SCT012 23/23 A2991 NOSIG=
201612061300 METAR MRLB 061300Z 05002KT 9999 VCFG SCT015 24/23 A2992 NOSIG=
201612061400 METAR MRLB 061400Z 03003KT 9999 FEW018 26/24 A2995 NOSIG=
201612061500 METAR MRLB 061500Z 33002KT 9999 SCT018 27/23 A2995 NOSIG=
201612061600 METAR MRLB 061600Z 01002KT 9999 SCT020 29/22 A2993 NOSIG=
201612061700 METAR MRLB 061700Z 01003KT 9999 SCT025 30/23 A2991 NOSIG=
201612061800 METAR MRLB 061800Z 27004KT 9999 SCT025 30/24 A2989 NOSIG=
201612061900 METAR MRLB NIL=
201612062000 METAR MRLB 062000Z 28007KT 9999 SCT025 30/24 A2982 NOSIG=
201612062100 METAR MRLB 062100Z 29009KT 9999 FEW025 29/24 A2981 NOSIG=
201612062200 METAR MRLB 062200Z 28007KT 9999 FEW030 29/23 A2981 NOSIG=
201612062300 METAR MRLB 062300Z 30004KT 9999 FEW040 27/24 A2982 NOSIG=
201612062352 METAR MRLB 070000Z 26003KT 9999 FEW045 26/24 A2983 NOSIG=
201612070000 METAR MRLB 070000Z 26003KT 9999 FEW045 26/24 A2983 NOSIG=
201612070100 METAR MRLB 070100Z 18003KT 9999 FEW045 25/24 A2986 NOSIG=
201612070200 METAR MRLB 070200Z 19003KT CAVOK 24/23 A2988 NOSIG=
201612070300 METAR MRLB 070300Z 17003KT CAVOK 24/23 A2990=
201612070400 METAR MRLB 070400Z 15004KT CAVOK 24/23 A2990 NOSIG=
201612070500 METAR MRLB 070500Z 00000KT CAVOK 23/22 A2989 NOSIG=
201612070600 METAR MRLB 070600Z 07003KT CAVOK 23/22 A2989 NOSIG=
201612070700 METAR MRLB NIL=
201612070800 METAR MRLB NIL=
201612070900 METAR MRLB NIL=
201612071000 METAR MRLB NIL=
201612071100 METAR MRLB NIL=
201612071200 METAR MRLB 071200Z 12002KT 9999 VCFG FEW001 SCT250 23/21 A2987 NOSIG=
201612071300 METAR MRLB 071300Z 05002KT 9999 2000S BCFG FEW002 22/21 A2990 NOSIG=
201612071400 METAR MRLB 071400Z 00000KT CAVOK 26/23 A2992 NOSIG=
201612071500 METAR MRLB 071500Z 35003KT 9999 FEW030 SCT100 28/23 A2992 NOSIG=
201612071600 METAR MRLB 071600Z 06005KT 9999 FEW030 29/22 A2991 NOSIG=
201612071700 METAR MRLB 071700Z 11009KT 9999 FEW035 31/21 A2989 NOSIG=
201612071800 METAR MRLB 071800Z 09011KT 9999 FEW035 32/21 A2987 NOSIG=
201612071900 METAR MRLB 071900Z 10009KT 9999 FEW030 32/22 A2984 NOSIG=
201612072000 METAR MRLB 072000Z 11007KT 9999 FEW035 32/21 A2982 NOSIG=
201612072100 METAR MRLB 072100Z 09008KT 9999 SCT040 32/21 A2980 NOSIG=
201612072200 METAR MRLB 072200Z 07008KT CAVOK 30/22 A2982 NOSIG=
201612072300 METAR MRLB 072300Z 09005KT 9999 FEW045 28/22 A2984 NOSIG=
201612072350 METAR MRLB 080000Z 09009KT 9999 BKN045 27/21 A2986 NOSIG=
201612080000 METAR MRLB 080000Z 09009KT 9999 BKN045 27/21 A2986 NOSIG=
201612080100 METAR MRLB 080100Z 23003KT CAVOK 25/22 A2989 NOSIG=
201612080200 METAR MRLB 080200Z 22005KT CAVOK 25/22 A2991 NOSIG=
201612080300 METAR MRLB 080300Z 15005KT CAVOK 24/21 A2992 NOSIG=
201612080400 METAR MRLB 080400Z 32003KT CAVOK 23/20 A2992 NOSIG=
201612080500 METAR MRLB 080500Z 09003KT CAVOK 22/21 A2991 NOSIG=
201612080600 METAR MRLB 080600Z 10003KT CAVOK 22/21 A2990 NOSIG=
201612080700 METAR MRLB NIL=
201612080800 METAR MRLB NIL=
201612080900 METAR MRLB NIL=
201612081000 METAR MRLB NIL=
201612081100 METAR MRLB NIL=
201612081200 METAR MRLB 081200Z 00000KT 9999 VCFG SCT004 19/19 A2988 NOSIG=
201612081300 METAR MRLB 081300Z 20005KT 9999 FEW008 22/21 A2989 NOSIG=
201612081400 METAR MRLB 081400Z 19003KT CAVOK 25/22 A2992 NOSIG=
201612081500 METAR MRLB 081500Z 26004KT CAVOK 28/22 A2992 NOSIG=
201612081600 METAR MRLB 081600Z 29006KT 9999 FEW030 SCT210 28/22 A2991 NOSIG=
201612081700 METAR MRLB 081700Z 30004KT 9999 FEW030 SCT210 30/22 A2990 NOSIG=
201612081800 METAR MRLB 081800Z 25003KT 9999 BKN035 31/22 A2987 NOSIG=
201612081900 METAR MRLB 081900Z 12003KT 9999 SCT035 SCT250 31/22 A2983 NOSIG=
201612082000 METAR MRLB 082000Z 05004KT 9999 SCT030 BKN200 29/22 A2983 NOSIG=
201612082100 METAR MRLB 082100Z 06006KT 9999 FEW030 SCT140 BKN200 29/23 A2982 NOSIG=
201612082200 METAR MRLB 082200Z 08004KT 9999 FEW030 BKN140 28/21 A2981 NOSIG=
201612082300 METAR MRLB 082300Z 09002KT CAVOK 27/21 A2983 NOSIG=
201612082350 METAR MRLB 090000Z 02002KT 9999 FEW030 BKN140 26/22 A2985 NOSIG=
201612090000 METAR MRLB 090000Z 02002KT 9999 FEW030 BKN140 26/22 A2985 NOSIG=
201612090100 METAR MRLB 090100Z 00000KT 9999 FEW045 BKN140 26/22 A2988 NOSIG=
201612090200 METAR MRLB 090200Z 25002KT CAVOK 25/22 A2992 NOSIG=
201612090300 METAR MRLB 090300Z 12006KT 9999 FEW045 BKN140 25/22 A2992 NOSIG=
201612090400 METAR MRLB 090400Z 04002KT 9999 FEW040 BKN140 24/22 A2992 NOSIG=
201612090500 METAR MRLB 090500Z 32002KT 9999 FEW045 BKN200 24/22 A2992 NOSIG=
201612090600 METAR MRLB 090600Z 26004KT 9999 FEW045 BKN140 24/23 A2989 NOSIG=
201612090700 METAR MRLB NIL=
201612090800 METAR MRLB NIL=
201612090900 METAR MRLB NIL=
201612091000 METAR MRLB NIL=
201612091100 METAR MRLB NIL=
201612091200 METAR MRLB 091200Z 00000KT 9999 FEW020 BKN100 23/22 A2989 NOSIG=
201612091300 METAR MRLB 091300Z 08002KT 9999 FEW020 SCT100 25/22 A2991 NOSIG=
201612091400 METAR MRLB 091400Z 05004KT 9999 FEW030 SCT120 27/23 A2993 NOSIG=
201612091500 METAR MRLB 091500Z 07008KT 9999 FEW030 SCT140 29/22 A2994 NOSIG=
201612091600 METAR MRLB 091600Z 09012KT 9999 SCT035 BKN200 29/22 A2994 NOSIG=
201612091700 METAR MRLB 091700Z 09011KT 9999 FEW025 SCT120 32/22 A2991 NOSIG=
201612091800 METAR MRLB 091800Z 32005KT 9999 SCT025 SCT140 30/23 A2989 NOSIG=
201612091900 METAR MRLB 091900Z 35009KT 9999 SCT020 SCT140 29/23 A2987 NOSIG=
201612092000 METAR MRLB 092000Z 35007KT 9999 SCT025 SCT140 29/23 A2985 NOSIG=
201612092100 METAR MRLB 092100Z 01009KT 9999 SCT025 SCT140 30/23 A2983 NOSIG=
201612092200 METAR MRLB 092200Z 01006KT 9999 SCT025 SCT100 28/22 A2984 NOSIG=
201612092300 METAR MRLB 092300Z 09005KT 9999 FEW020 SCT100 27/21 A2986 NOSIG=
201612092349 METAR MRLB 100000Z 29004KT 9999 FEW020 BKN100 26/22 A2988 NOSIG=
201612100000 METAR MRLB 100000Z 29004KT 9999 FEW020 BKN100 26/22 A2988 NOSIG=
201612100100 METAR MRLB 100100Z 06004KT 9999 FEW030 BKN120 26/20 A2991 NOSIG=
201612100157 METAR MRLB 1000200Z 03005KT 9999 FEW030 BKN110 26/20 A2992 NOSIG=
201612100200 METAR MRLB 1000200Z 03005KT 9999 FEW030 BKN110 26/20 A2992 NOSIG=
201612100300 METAR MRLB 100300Z 34004KT 9999 FEW030 BKN110 26/21 A2992 NOSIG=
201612100400 METAR MRLB 100400Z 11006KT 9999 FEW040 BKN120 26/20 A2992 NOSIG=
201612100500 METAR MRLB 100500Z 09006KT 9999 FEW040 BKN140 26/21 A2991 NOSIG=
201612100600 METAR MRLB 100600Z 06004KT 9999 FEW040 BKN140 24/21 A2990 NOSIG=
201612100700 METAR MRLB NIL=
201612100800 METAR MRLB NIL=
201612100900 METAR MRLB NIL=
201612101000 METAR MRLB NIL=
201612101100 METAR MRLB NIL=
201612101200 METAR MRLB 101200Z 22003KT 9999 FEW045 SCT220 23/21 A2989 NOSIG=
201612101300 METAR MRLB 101300Z 16002KT CAVOK 25/21 A2991 NOSIG=
201612101400 METAR MRLB 101400Z 20003KT CAVOK 28/21 A2991 NOSIG=
201612101500 METAR MRLB 101500Z 31003KT 9999 FEW045 SCT250 29/22 A2993 NOSIG=
201612101600 METAR MRLB 101600Z 26002KT 9999 FEW045 SCT250 30/22 A2991 NOSIG=
201612101700 METAR MRLB 101700Z 08007KT 9999 SCT040 SCT240 30/22 A2991 NOSIG=
201612101800 METAR MRLB 101800Z 08013KT 9999 SCT035 SCT080 28/22 A2991 NOSIG=
201612101900 METAR MRLB 101900Z 08011KT 9999 -RA SCT030 SCT080 26/23 A2988 NOSIG=
201612102000 METAR MRLB 102000Z 08008KT 9999 SCT035 SCT100 25/21 A2986 NOSIG=
201612102100 METAR MRLB 102100Z 09007KT 9999 FEW040 BKN120 26/21 A2984 NOSIG=
201612102200 METAR MRLB 102200Z 07011KT CAVOK 26/21 A2983 NOSIG=
201612102300 METAR MRLB 102300Z 09007KT CAVOK 26/20 A2984 NOSIG=
201612110000 METAR MRLB 110000Z 09008KT CAVOK 25/20 A2983 NOSIG=
201612110100 METAR MRLB 110100Z 08010KT CAVOK 25/20 A2985 SCT100 NOSIG=
201612110200 METAR MRLB 110200Z 04006KT CAVOK 25/21 A2989 NOSIG=
201612110300 METAR MRLB 110300Z 07009KT CAVOK 25/21 A2990 NOSIG=
201612110400 METAR MRLB 110400Z 11004KT CAVOK 25/21 A2991 NOSIG=
201612110500 METAR MRLB 110500Z 00000KT CAVOK 24/21 A2990 SCT100 NOSIG=
201612110600 METAR MRLB NIL=
201612110700 METAR MRLB NIL=
201612110800 METAR MRLB NIL=
201612110900 METAR MRLB NIL=
201612111000 METAR MRLB NIL=
201612111100 METAR MRLB NIL=
201612111200 METAR MRLB 111200Z 18004KT 9999 DZ FEW020 BKN090 22/22 A2986 NOSIG=
201612111300 METAR MRLB 111300Z 00000KT 6000 RA SCT015 BKN080 23/22 A2988 NOSIG=
201612111400 METAR MRLB 111400Z 21003KT 9999 FEW015 BKN100 24/23 A2989 REDZ NOSIG=
201612111500 METAR MRLB 111500Z 32003KT 9999 FEW025 BKN100 25/23 A2990 NOSIG=
201612111600 METAR MRLB 111600Z 22002KT 9999 FEW025 BKN140 26/23 A2988 NOSIG=
201612111700 METAR MRLB NIL=
201612111800 METAR MRLB 111800Z 32003KT 9999 SCT025 BKN140 27/23 A2985 NOSIG=
201612111900 METAR MRLB NIL=
201612112000 MRLB 112000Z 35003KT 9999 FEW030 BKN140 27/23 A2979 NOSIG=
201612112100 MRLB 112100Z 29003KT 9999 FEW030 BKN140 26/23 A2979 NOSIG=
201612112200 METAR MRLB 112200Z 27004KT 9999 SCT030 BKN140 26/23 A2979 NOSIG=
201612112300 METAR MRLB 112300Z 24002KT 9999 FEW025 BKN180 25/24 A2980 NOSIG=
201612112351 METAR MRLB 120000Z 17002KT 9999 FEW025 BKN140 25/23 A2982 NOSIG=
201612120000 METAR MRLB 120000Z 17002KT 9999 FEW025 BKN140 25/23 A2982 NOSIG=
201612120100 METAR MRLB 120100Z 16002KT 9999 FEW030 BKN130 24/23 A2983 NOSIG=
201612120200 METAR MRLB 120200Z 28002KT 9999 FEW030 BKN250 24/23 A2985 NOSIG=
201612120300 METAR MRLB 120300Z 16002KT 9999 SCT030 BKN140 24/22 A2987 NOSIG=
201612120400 METAR MRLB 120400Z 07003KT 9999 FEW030 BKN130 23/22 A2988 NOSIG=
201612120500 METAR MRLB 120500Z 00000KT 9999 FEW035 BKN130 23/22 A2989=
201612120600 METAR MRLB 120600Z 24003KT 9999 SCT030 BKN120 23/23 A2988 NOSIG=
201612120700 METAR MRLB NIL=
201612120800 METAR MRLB NIL=
201612120900 METAR MRLB NIL=
201612121000 METAR MRLB NIL=
201612121100 METAR MRLB NIL=
201612121200 METAR MRLB 121200Z 00000KT 9999 BCFG FEW001 OVC200 22/21 A2985 NOSIG=
201612121300 METAR MRLB 121300Z 00000KT 8000 BCFG FEW001 SCT030 BKN200 23/22 A2987 NOSIG=
201612121400 METAR MRLB 121400Z 19002KT 9999 BCFG FEW003 SCT030 BKN140 23/23 A2990 NOSIG=
201612121500 METAR MRLB 121500Z 13004KT 9999 FEW015 BKN110 25/23 A2991 NOSIG=
201612121600 METAR MRLB 121600Z 11007KT 9999 FEW015 BKN140 27/23 A2991 NOSIG=
201612121700 METAR MRLB 121700Z 13005KT 9999 FEW020 BKN120 26/23 A2990 NOSIG=
201612121800 METAR MRLB 121800Z 12005KT 9999 FEW020 OVC100 26/23 A2988 NOSIG=
201612121900 METAR MRLB 121900Z 17004KT 9999 DZ FEW040 BKN120 26/23 A2986 NOSIG=
201612122000 METAR MRLB 122000Z 20003KT 9999 FEW040 BKN120 25/23 A2985 NOSIG=
201612122100 METAR MRLB 122100Z 20002KT 9999 -RA FEW010 SCT035 BKN 120 25/23 A2984 NOSIG=
201612122200 METAR MRLB 122200Z 00000KT 9999 -RA FEW010 SCT035 BKN120 25/23 A2984 NOSIG=
201612122300 METAR MRLB 122300Z 26002KT 9999 -RA FEW005 SCT030 BKN120 24/24 A2985 NOSIG=
201612130000 METAR MRLB 130000Z 00000KT 9999 -RA FEW003 SCT030 BKN120 24/24 A2987 NOSIG=
201612130100 METAR MRLB 130100Z 05002KT 8000 FEW010 SCT025 BKN120 24/23 A2989 NOSIG=
201612130200 METAR MRLB 130200Z 02002KT 9999 FEW010 BKN120 24/23 A2989 NOSIG=
201612130300 METAR MRLB 130300Z 21003KT 9999 FEW030 BKN120 23/23 A2990 NOSIG=
201612130400 METAR MRLB 130400Z 27004KT 9999 SCT003 BKN140 23/23 A2991 NOSIG=
201612130500 METAR MRLB 130500Z 00000KT 9999 SCT020 BKN140 23/23 A2992 NOSIG=
201612130600 METAR MRLB 130600Z 21002KT 9999 FEW020 BKN200 23/23 A2990 NOSIG=
201612130700 METAR MRLB NIL=
201612130800 METAR MRLB NIL=
201612130900 METAR MRLB NIL=
201612131000 METAR MRLB NIL=
201612131100 METAR MRLB NIL=
201612131200 METAR MRLB 131200Z 00000KT 0300 FG VV/// 22/22 A2988 NOSIG=
201612131300 METAR MRLB 131300Z 16002KT 3000 BR SCT002 BKN040 23/23 A2990 NOSIG=
201612131400 METAR MRLB 131400Z 19003KT 8000 FEW006 SCT015 BKN100 24/23 A2992 NOSIG=
201612131500 METAR MRLB 131500Z 30003KT 9999 SCT010 BKN140 26/24 A2993NOSIG=
201612131600 METAR MRLB 131600Z 24002KT 9999 SCT015 BKN140 27?/23 A2992 NOSIG=
201612131700 METAR MRLB 131700Z 28005KT 9999 SCT020 BKN140 27/24 A2991 NOSIG=
201612131800 METAR MRLB 131800Z 33006KT 9999 SCT020 BKN140 28/24 A2988 NOSIG=
201612131900 METAR MRLB 131900Z 26007KT 9999 SCT025 BKN140 29/24 A2984 NOSIG=
201612132000 METAR MRLB 132000Z 30006KT 9999 SCT025TCU BKN200 29/24 A2981NOSIG=
201612132100 METAR MRLB 132100Z 27006KT 9999 VCSH SCT025TCU BKN120 28/24 A2981 NOSIG=
201612132200 METAR MRLB 132200Z 29004KT 9999 SCT025 BKN200 28/24 A2980 NOSIG=
201612132300 METAR MRLB 132300Z 18004KT 9999 SCT025 BKN200 27/24 A2982 NOSIG=
201612140000 METAR MRLB 140000Z 19003KT 9999 SCT030 BKN200 26/24 A2983 NOSIG=
201612140100 METAR MRLB 140100Z 19004KT 9999 FEW030 SCT200 25/24 A2985 NOSIG=
201612140200 METAR MRLB 140200Z 16004KT CAVOK 25/23 A2987 NOSIG=
201612140300 METAR MRLB 140300Z 19002KT CAVOK 24/23 A2989 NOSIG=
201612140400 METAR MRLB 140400Z 27003KT CAVOK 23/23 A2990 NOSIG=
201612140500 METAR MRLB 140500Z 21004KT 9999 FEW045 SCT220 24/23 A2989 NOSIG=
201612140600 METAR MRLB 140600Z 20004KT 9999 FEW045 24/23 A2989 NOSIG=
201612140700 METAR MRLB NIL=
201612140800 METAR MRLB NIL=
201612140900 METAR MRLB NIL=
201612141000 METAR MRLB NIL=
201612141100 METAR MRLB NIL=
201612141200 METAR MRLB 141200Z 20004KT 9999 FEW025 SCT100 23/22 A2987 NOSIG=
201612141300 METAR MRLB 141300Z 04006KT 9999 VCFG SCT030 BKN140 23/22 A2990 NOSIG=
201612141400 METAR MRLB 141400Z 07006KT 9999 FEW030 SCT100 BKN250 27/22 A2992 NOSIG=
201612141500 METAR MRLB 141500Z 08012KT 9999 FEW025 SCT100 BKN250 28/22 A2991 NOSIG=
201612141600 METAR MRLB 141600Z 08014KT 9999 SCT025 BKN250 30/22 A2991 NOSIG=
201612141700 METAR MRLB 141700Z 11010KT 9999 SCT030 BKN120 29/22 A2989 NOSIG=
201612141800 METAR MRLB 141800Z 09011KT 9999 SCT025 BKN120 29/22 A2987 NOSIG=
201612141900 METAR MRLB 141900Z 09009KT 9999 FEW025 BKN130 30/23 A2984 NOSIG=
201612142000 METAR MRLB 142000Z 06005KT 9999 SCT035 BKN120 30/22 A2982 NOSIG=
201612142100 METAR MRLB 142100Z 07013KT 9999 FEW035 BKN100 30/23 A2979 NOSIG=
201612142200 METAR MRLB 142200Z 08010KT 9999 FEW035 BKN140 29/22 A2979 NOSIG=
201612142300 METAR MRLB 142300Z 09007KT 9999 FEW035 SCT250 28/22 A2980 NOSIG=
201612142352 METAR MRLB 150000Z 05007KT 9999 FEW035 SCT250 27/22 A2982 NOSIG=
201612150000 METAR MRLB 150000Z 05007KT 9999 FEW035 SCT250 27/22 A2982 NOSIG=
201612150100 METAR MRLB 150100Z 08004KT CAVOK 26/22 A2984 NOSIG=
201612150200 METAR MRLB 150200Z 09007KT CAVOK 27/22 A2987 NOSIG=
201612150300 METAR MRLB 150300Z 11004KT 9999 FEW035 BKN250 25/22 A2988 NOSIG=
201612150400 METAR MRLB 150400Z 01003KT CAVOK 25/22 A2990 NOSIG=
201612150500 METAR MRLB 150500Z 07003KT 9999 FEW040 BKN080 26/22 A2989 NOSIG=
201612150600 METAR MRLB 150600Z 11003KT 9999 FEW020 BKN080 25/22 A2988 NOSIG=
201612150700 METAR MRLB NIL=
201612150800 METAR MRLB NIL=
201612150900 METAR MRLB NIL=
201612151000 METAR MRLB NIL=
201612151100 METAR MRLB NIL=
201612151200 METAR MRLB 151200Z 06009KT 9999 FEW040 25/21 A2989 NOSIG=
201612151300 METAR MRLB 151300Z 07011KT 9999 FEW040 26/21 A2990 NOSIG=
201612151400 METAR MRLB 151400Z 06014G24KT 9999 FEW035 SCT250 28721 A2992 NOSIG=
201612151500 METAR MRLB 151500Z 08017KT 9999 FEW030 SCT250 29/22 A2992 NOSIG=
201612151600 METAR MRLB 151600Z 08015G25KT 9999 FEW040 SCT250 31/22 A2991 NOSIG=
201612151700 METAR MRLB 151700Z 08017KT 9999 FEW025 SCT250 31/21 A2989 NOSIG=
201612151800 METAR MRLB 151800Z 08017KT 9999 FEW025 SCT250 32/21 A2987 NOSIG=
201612151900 METAR MRLB 151900Z 08014KT 9999 FEW020 BKN250 32/21 A2985 NOSIG=
201612152000 METAR MRLB 152000Z 08016KT 9999 FEW035 ST250 31/21 A2981 NOSIG=
201612152100 METAR MRLB 152100Z 07013KT 9999 FEW035 BKN250 30/21 A2981 NOSIG=
201612152200 METAR MRLB 152200Z 08011KT 9999 FEW040 BKN250 30/21 A2983 NOSIG=
201612152300 METAR MRLB 152300Z 08010KT CAVOK 29/21 A2985 NOSIG=
201612152352 METAR MRLB 160000Z 09007KT 9999 FEW035 BKN250 28/21 A2987 NOSIG=
201612160000 METAR MRLB 160000Z 09007KT 9999 FEW035 BKN250 28/21 A2987 NOSIG=
201612160100 METAR MRLB 160100Z 10006KT 9999 FEW035 BKN250 27/21 A2990 NOSIG=
201612160200 METAR MRLB 160200Z 09008KT FEW035 SCT250 27/22 A2992 NOSIG=
201612160300 METAR MRLB 160300Z 10009KT 9999 FEW035 SCT140 26/21 A2992 NOSIG=
201612160400 METAR MRLB 160400Z 08013KT 9999 FEW035 SCT140 27/20 A2991 NOSIG=
201612160500 METAR MRLB 160500Z 10011KT CAVOK 27/20 A2989 NOSIG=
201612160600 METAR MRLB 160600Z 07012KT CAVOK 26/20 A2989 NOSIG=
201612160700 METAR MRLB NIL=
201612160800 METAR MRLB NIL=
201612160900 METAR MRLB NIL=
201612161000 METAR MRLB NIL=
201612161100 METAR MRLB NIL=
201612161200 METAR MRLB 161200Z 05007KT CAVOK 25/20 A2988 NOSIG=
201612161300 METAR MRLB 161300Z 10015KT CAVOK 27/20 A2986 NOSIG=
201612161400 METAR MRLB 161400Z 09017G27KT CAVOK 23/21 A2990 NOSIG=
201612161500 METAR MRLB 161500Z 10018G28KT CAVOK 29/21 A2989 NOSIG=
201612161600 METAR MRLB 161600Z 08017G27KT 9999 FEW030 SCT240 31/21 A2990 NOSIG=
201612161700 METAR MRLB 161700Z 09017G27KT 9999 FEW030 31/21 A2989 NOSIG=
201612161800 METAR MRLB 161800Z 09020G31KT 9999 FEW035 31/20 A2986 NOSIG=
201612161900 METAR MRLB 161900Z 08014KT 9999 FEW035 33/21 A2983 NOSIG=
201612162000 METAR MRLB 162000Z 07018KT 9999 SCT035 30/20 A2982 NOSIG=
201612162100 METAR MRLB 162100Z 10010KT 9999 FEW035 31/21 A2982 NOSIG=
201612162200 METAR MRLB 162200Z 08015KT 9999 FEW045 30/20 A2985 NOSIG=
201612162300 METAR MRLB 162300Z 12012KT 9999 VCSH FEW025TCU SCT120 28/21 A2985 NOSIG=
201612162350 METAR MRLB 170000Z 14007KT 9999 FEW030 BKN120 25/22 A2987 NOSIG=
201612170000 METAR MRLB 170000Z 14007KT 9999 FEW030 BKN120 25/22 A2987 NOSIG=
201612170100 METAR MRLB 170100Z 11012KT CAVOK 26/21 A2988 NOSIG=
201612170200 METAR MRLB 170200Z 09014KT CAVOK 27/20 A2990 NOSIG=
201612170300 METAR MRLB 170300Z 10012KT CAVOK 27/21 A2991 NOSIG=
201612170400 METAR MRLB NIL=
201612170500 METAR MRLB 170500 07006KT CAVOK 25?/21 A2990 NOSIG=
201612170600 METAR MRLB 170600Z 06007KT CAVOK 26/22 A2989 NOSIG=
201612170700 METAR MRLB NIL=
201612170800 METAR MRLB NIL=
201612170900 METAR MRLB NIL=
201612171000 METAR MRLB NIL=
201612171100 METAR MRLB NIL=
201612171200 METAR MRLB 171200Z 04004KT 9999 VCSH FEW025 BKN100 24/22 A2988 NOSIG=
201612171300 METAR MRLB 171300Z 00000KT 9999 FEW040 BKN100 24/23 A2989 NOSIG=
201612171400 METAR MRLB 171400Z 00000KT 9999 FEW040 BKN100 26/22 A2992 NOSIG=
201612171500 METAR MRLB 171500Z 05007KT 9999 FEW030 BKN100 28/23 A2992 NOSIG=
201612171600 METAR MRLB 171600Z 08010KT 9999 FEW030 BKN100 29/22 A2990 NOSIG=
201612171700 METAR MRLB 171700Z 05010KT 9999 FEW035 BKN100 29/22 A2990 NOSIG=
201612171800 METAR MRLB 171800Z 05011KT 9999 FEW035 BKN100 30/22 A2986 NOSIG=
201612171900 METAR MRLB 171900Z 08015KT 9999 FEW035 BKN100 30/21 A2983 NOSIG=
201612172000 METAR MRLB 172000Z 08012KT 9999 FEW030 SCT120 30/21 A2982 NOSIG=
201612172100 METAR MRLB 172100Z 09014KT 9999 FEW030 SCT140 31/21 A2981 NOSIG=
201612172200 METAR MRLB 172200Z 07014KT CAVOK 30/20 A2981 NOSIG=
201612172300 METAR MRLB 172300Z 08008KT CAVOK 28/20 A2982 NOSIG=
201612172351 METAR MRLB 180000Z 06007KT CAVOK 26/20 A2983 NOSIG=
201612180000 METAR MRLB 180000Z 06007KT CAVOK 26/20 A2983 NOSIG=
201612180100 METAR MRLB 180100Z 10005KT CAVOK 25/20 A2986 NOSIG=
201612180200 METAR MRLB 180200Z 10004KT CAVOK 25/20 A2988 NOSIG=
201612180300 METAR MRLB 180300Z 10005KT CAVOK 25/20 A2988 NOSIG=
201612180400 METAR MRLB 180400Z 08007KT CAVOK 25/20 A2988 NOSIG=
201612180500 METAR MRLB 180500Z 13004KT CAVOK 23/20 A2985 NOSIG=
201612180600 METAR MRLB 180600Z 13005KT CAVOK 24/20 A2985 NOSIG=
201612180700 METAR MRLB NIL=
201612180800 METAR MRLB NIL=
201612180900 METAR MRLB NIL=
201612181000 METAR MRLB NIL=
201612181100 METAR MRLB NIL=
201612181200 METAR MRLB 181200Z 09007KT 9999 FEW030 24/20 A2986 NOSIG=
201612181300 METAR MRLB 181300Z 07003KT 9999 SCT040 24/21 A2989 NOSIG=
201612181400 METAR MRLB 181400Z 09006KT CAVOK 28/22 A2991 NOSIG=
201612181500 METAR MRLB 181500Z 12006KT CAVOK 29/21 A2992 NOSIG=
201612181600 METAR MRLB 181600Z 12007KT CAVOK 31/22 A2991 NOSIG=
201612181700 METAR MRLB 181700Z 10009KT 9999 FEW030 32/20 A2987 NOSIG=
201612181800 METAR MRLB 181800Z 11010KT 9999 FEW025 32/20 A2985 NOSIG=
201612181900 METAR MRLB 181900Z 04008KT 9999 SCT030 32/21 A2982 NOSIG=
201612182000 METAR MRLB 182000Z 06014KT 9999 SCT035 32/22 A2981 NOSIG=
201612182100 METAR MRLB 182100Z 07012KT 9999 FEW035 32/21 A2979 NOSIG=
201612182200 METAR MRLB 182200Z 08010KT 9999 FEW040 31/21 A2979 NOSIG=
201612182300 METAR MRLB 182300Z 08012KT 9999 FEW045 30/22 A2980 NOSIG=
201612182352 METAR MRLB 190000Z 11008KT 9999 FEW045 28/22 A2982 NOSIG=
201612190000 METAR MRLB 190000Z 11008KT 9999 FEW045 28/22 A2982 NOSIG=
201612190100 METAR MRLB 190100Z 10014KT CAVOK 28/21 A2983 NOSIG=
201612190200 METAR MRLB 190200Z 10013KT CAVOK 27/21 A2985 NOSIG=
201612190300 METAR MRLB 190300Z 10015KT CAVOK 27/21 A2986 NOSIG=
201612190400 METAR MRLB 190400Z 10015KT CAVOK 27/21 A2986 NOSIG=
201612190500 METAR MRLB 190500Z 10013KT CAVOK 26/21 A2986 NOSIG=
201612190600 METAR MRLB 190600Z 08014KT CAVOK 26/21 A2987 NOSIG=
201612190700 METAR MRLB NIL=
201612190800 METAR MRLB NIL=
201612190900 METAR MRLB NIL=
201612191000 METAR MRLB NIL=
201612191100 METAR MRLB NIL=
201612191200 METAR MRLB 191200Z 10007KT 9999 SCT025 24/21 A2986 NOSIG=
201612191300 METAR MRLB 191300Z 09004KT 9999 BKN025 26/22 A2988 NOSIG=
201612191400 METAR MRLB 191400Z 10006KT 9999 BKN025 26/22 A2990 NOSIG=
201612191500 METAR MRLB 191500Z 13003KT 9999 BKN030 27/22 A2991 NOSIG=
201612191600 METAR MRLB 191600Z 08006KT 9999 BKN030 29/22 A2991 NOSIG=
201612191700 METAR MRLB 191700Z 07012KT 9999 SCT030 30/21 A2989 NOSIG=
201612191800 METAR MRLB 191800Z 10008KT 9999 BKN030 29/22 A2989 NOSIG=
201612191900 METAR MRLB 191900Z 07013KT 9999 SCT030 31/21 A2984 NOSIG=
201612192000 METAR MRLB 192000Z 10012KT 9999 FEW040 30/21 A2981 NOSIG=
201612192100 METAR MRLB 192100Z 08008KT 9999 SCT040 32/20 A2979 NOSIG=
201612192200 METAR MRLB 192200Z 08015KT 9999 FEW040 29/21 A2980 NOSIG=
201612192300 METAR MRLB 192300Z 07014KT 9999 FEW040 29/21 A2981 NOSIG=
201612192351 METAR MRLB 200000Z 08010KT 9999 FEW040 27/20 A2982 NOSIG=
201612200000 METAR MRLB 200000Z 08010KT 9999 FEW040 27/20 A2982 NOSIG=
201612200100 METAR MRLB 200100Z 08014KT CAVOK 27/21 A2984 NOSIG=
201612200200 METAR MRLB 200200Z 08010KT CAVOK 26/20 A2987 NOSIG=
201612200300 METAR MRLB 200300Z 08013KT CAVOK 26/20 A2988 NOSIG=
201612200400 METAR MRLB 200400Z 09005KT CAVOK 26/20 A2989 NOSIG=
201612200500 METAR MRLB 200500Z 07011KT CAVOK 26/20 A2989 NOSIG=
201612200600 METAR MRLB 200600Z 07011KT CAVOK 26/21 A2988 NOSIG=
201612200700 METAR MRLB NIL=
201612200800 METAR MRLB NIL=
201612200900 METAR MRLB NIL=
201612201000 METAR MRLB NIL=
201612201100 METAR MRLB NIL=
201612201200 METAR MRLB 201200Z 01005KT 9999 FEW040 23/21 A2987 NOSIG=
201612201300 METAR MRLB 201300Z 02008KT 9999 FEW045 24/21 A2989 NOSIG=
201612201400 METAR MRLB 201400Z 06018KT CAVOK 27/21 A2990 NOSIG=
201612201500 METAR MRLB 201500Z 06014G24KT CAVOK 29/21 A2991 NOSIG=
201612201600 METAR MRLB 201600Z 05015KT 9999 FEW040 30/20 A2990 NOSIG=
201612201700 METAR MRLB 201700Z 07016KT SCT045 29/21 A2988 NOSIG=
201612201800 METAR MRLB 201800Z 08014KT 9999 BKN040 29/21 A2987 NOSIG=
201612201900 METAR MRLB 201900Z 09009KT 8000 RA FEW020 BKN060 28/22 A2984 NOSIG=
201612202000 METAR MRLB 202000Z 09014KT 9999 SCT035 29/22 A2980 NOSIG=
201612202100 METAR MRLB 202100Z 06016KT 9999 FEW035 SCT120 29/21 A2978 NOSIG=
201612202200 METAR MRLB 202200Z 07010KT 9999 FEW035 SCT140 28/22 A2979 NOSIG=
201612202300 METAR MRLB 202300Z 06012KT 9999 FEW040 SCT140 28/21 A2981 NOSIG=
201612202359 METAR MRLB 210000Z 10008KT 9999 -RA BKN035 26/22 A2984 NOSIG=
201612210000 METAR MRLB 210000Z 10008KT 9999 -RA BKN035 26/22 A2984 NOSIG=
201612210100 METAR MRLB 210100Z 08007KT 9999 FEW035 BKN140 26/21 A2985 NOSIG=
201612210200 METAR MRLB 210200Z 00000KT CAVOK 24/21 A2986 NOSIG=
201612210300 METAR MRLB 210300Z 27004KT 9999 FEW040 BKN140 23/22 A2987 NOSIG=
201612210400 METAR MRLB 210400Z 11004KT 9999 FEW040 SCT140 25/22 A2987 NOSIG=
201612210500 METAR MRLB 210500Z 10007KT 9999 FEW045 BKN140 26/21 A2986 NOSIG=
201612210600 METAR MRLB 210600Z 13005KT 9999 SCT045 BKN120 25/21 A2986 NOSIG=
201612210700 METAR MRLB NIL=
201612210800 METAR MRLB NIL=
201612210900 METAR MRLB NIL=
201612211000 METAR MRLB NIL=
201612211100 METAR MRLB NIL=
201612211200 METAR MRLB 211200Z 28003KT 9999VCSH FEW030 BKN050 23/22 A2988 NOSIG=
201612211300 METAR MRLB 211300Z 00000KT 9999 VCSH FEW035 BKN060 24/22 A2990 NOSIG=
201612211400 METAR MRLB 211400Z 00000KT 9999 -RA SCT030 BKN045 23/22 A2993 NOSIG=
201612211500 METAR MRLB 211500Z 28004KT 9999 FEW040 BKN065 24/22 A2994 NOSIG=
201612211600 METAR MRLB 211600Z 07009KT 9999 FEW035 BKN100 26/22 A2992 NOSIG=
201612211700 METAR MRLB 211700Z 08017G27KT 9999 FEW040 BKN140 27/21 A2989 NOSIG=
201612211800 METAR MRLB 211800Z 08014KT 9999 FEW025 SCT140 BKN200 27/21 A2987 NOSIG=
201612211900 METAR MRLB 211900Z 09017KT 9999 FEW020 BKN100 27/20 A2983 NOSIG=
201612212000 METAR MRLB 212000Z 10016G26KT 9999 FEW020 BKN100 27/20 A2981 NOSIG=
201612212100 METAR MRLB 212100Z 10016G26KT 9999 FEW020 BKN100 27/20 A2979 NOSIG=
201612212200 METAR MRLB 212200Z 10012KT 9999 FEW020 BKN120 26/20 A2981 NOSIG=
201612212300 METAR MRLB 212300Z 09014G24KT 9999 FEW020 SCT100 26/20 A2983 NOSIG=
201612212350 METAR MRLB 220000Z 10012KT 9999 FEW020 SCT100 26/20 A2984 NOSIG=
201612220000 METAR MRLB 220000Z 10012KT 9999 FEW020 SCT100 26/20 A2984 NOSIG=
201612220100 METAR MRLB 220100Z 06012KT 9999 FEW040 SCT100 26/20 A2988 NOSIG=
201612220200 METAR MRLB 220200Z 09021G33KT CAVOK 27/20 A2988 NOSIG=
201612220300 METAR MRLB 220300Z 09018G28KT CAVOK 26/20 A2990 NOSIG=
201612220400 METAR MRLB 220400Z 08020KT CAVOK 26/20 A2990 NOSIG=
201612220500 METAR MRLB 220500Z 10014G24KT CAVOK 26/20 A2989 NOSIG=
201612220600 METAR MRLB 220600Z 09016KT CAVOK 26/20 A2988 NOSIG=
201612220700 METAR MRLB NIL=
201612220800 METAR MRLB NIL=
201612220900 METAR MRLB NIL=
201612221000 METAR MRLB NIL=
201612221100 METAR MRLB NIL=
201612221200 METAR MRLB 221200Z 29005KT 9999 FEW025 22/19 A2988 NOSIG=
201612221300 METAR MRLB 221300Z 04006KT 9999 FEW025 25/20 A2989 NOSIG=
201612221400 METAR MRLB 221400Z 09009KT 9999 FEW025 28/20 A2991 NOSIG=
201612221500 METAR MRLB 221500Z 30006KT 9999 FEW025 28/20 A2992 NOSIG=
201612221600 METAR MRLB 221600Z 31008KT 9999 FEW025 29/20 A2990 NOSIG=
201612221700 METAR MRLB 221700Z 36006KT 9999 FEW025 31/20 A2988 NOSIG=
201612221800 METAR MRLB 221800Z 10013KT 9999 FEW025 31/20 A2986 NOSIG=
201612221900 METAR MRLB 221900Z 09017KT 9999 FEW030 31/20 A2981 NOSIG=
201612222000 METAR MRLB 222000Z 09015KT 9999 FEW035 31/20 A2979 NOSIG=
201612222100 METAR MRLB 222100Z 10015KT 9999 SCT040 31/20 A2978 NOSIG=
201612222200 METAR MRLB 222200Z 11015G25KT 9999 FEW045 30/20 A2979 NOSIG=
201612222300 METAR MRLB 222300Z 09014G24KT 9999 FEW045 29/20 A2980 NOSIG=
201612222352 METAR MRLB 230000Z 09014KT 9999 FEW045 27/20 A2982 NOSIG=
201612230000 METAR MRLB 230000Z 09014KT 9999 FEW045 27/20 A2982 NOSIG=
201612230100 METAR MRLB 230100Z 09014KT CAVOK 27/20 A2985 NOSIG=
201612230200 METAR MRLB 230200Z 07008KT CAVOK 26/19 A2989 NOSIG=
201612230300 METAR MRLB 230300Z 09012KT CAVOK 26/20 A2990 NOSIG=
201612230400 METAR MRLB 230400Z 07011KT CAVOK 26/19 A2990 NOSIG=
201612230500 METAR MRLB 230500Z 05003KT CAVOK 24/19 A2991 NOSIG=
201612230600 METAR MRLB 230600Z 10004KT CAVOK 25/19 A2990 NOSIG=
201612230700 METAR MRLB NIL=
201612230800 METAR MRLB NIL=
201612230900 METAR MRLB NIL=
201612231000 METAR MRLB NIL=
201612231100 METAR MRLB NIL=
201612231200 METAR MRLB 231200Z 32003KT CAVOK 20/19 A2988 NOSIG=
201612231300 METAR MRLB 231300Z 21004KT CAVOK 24/19 A2990 NOSIG=
201612231400 METAR MRLB 231400Z 30003KT CAVOK 25/20 A2993 NOSIG=
201612231500 METAR MRLB 231500Z 25007KT CAVOK 27/21 A2992 NOSIG=
201612231600 METAR MRLB 231600Z 31007KT CAVOK 29/20 A2992 NOSIG=
201612231700 METAR MRLB 231700Z 24005KT 9999 FEW040 BKN130 29/19 A2990 NOSIG=
201612231800 METAR MRLB 231800Z 24004KT 9999 FEW040 BKN130 29/20 A2987 NOSIG=
201612231900 METAR MRLB 231900Z 29006KT 9999 FEW040 BKN130 31/20 A2983 NOSIG=
201612232000 METAR MRLB 232000Z 29004KT 9999 SCT040 SCT120 30/21 A2980 NOSIG=
201612232100 METAR MRLB 232100Z 10010KT 9999 SCT040 SCT120 30/21 A2980 NOSIG=
201612232200 METAR MRLB 232200Z 31002KT 9999 FEW040 BKN140 29/22 A2979 NOSIG=
201612232300 METAR MRLB 232300Z 05007KT 9999 FEW035 BKN120 28/22 A2981 NOSIG=
201612232351 METAR MRLB 240000Z 33003KT 9999 FEW045 BKN120 26/22 A2982 NOSIG=
201612240000 METAR MRLB 240000Z 33003KT 9999 FEW045 BKN120 26/22 A2982 NOSIG=
201612240100 METAR MRLB 240100Z 00000KT CAVOK 25/21 A2984 NOSIG=
201612240200 METAR MRLB 240200Z 26003KT CAVOK 24/21 A2986 NOSIG=
201612240300 METAR MRLB 240300Z 24005KT 9999 FEW040 SCT130 24/22 A2988 NOSIG=
201612240400 METAR MRLB 240400Z 20004KT 9999 FEW040 SCT140 23/22 A2988 NOSIG=
201612240500 METAR MRLB 240500Z 27004KT 9999 FEW045 SCT140 23/21 A2987 NOSIG=
201612240600 METAR MRLB 240600Z 26003KT CAVOK 23/21 A2986 NOSIG=
201612240700 METAR MRLB NIL=
201612240800 METAR MRLB NIL=
201612240900 METAR MRLB NIL=
201612241000 METAR MRLB NIL=
201612241100 METAR MRLB NIL=
201612241200 METAR MRLB 241200Z 09002KT CAVOK 21/21 A2988 NOSIG=
201612241300 METAR MRLB 241300Z 05003KT CAVOK 23/21 A2990 NOSIG=
201612241400 METAR MRLB 241400Z 16003KT CAVOK 26/22 A2991 NOSIG=
201612241500 METAR MRLB 241500Z 08009KT 9999 FEW040 29/21 A2992 NOSIG=
201612241600 METAR MRLB 241600Z 07010KT 9999 SCT035 30/21 A2992 NOSIG=
201612241700 METAR MRLB 241700Z 07011KT 9999 SCT035 31/20 A2991 NOSIG=
201612241800 METAR MRLB 241800Z 08012KT 9999 FEW040 31/20 A2988 NOSIG=
201612241900 METAR MRLB 241900Z 08011KT 9999 FEW040 32/20 A2985 NOSIG=
201612242000 METAR MRLB 242000Z 10012KT 9999 FEW040 32/18 A2981 NOSIG=
201612242100 METAR MRLB 242100Z 08013KT 9999 FEW045 32/21 A2979 NOSIG=
201612242200 METAR MRLB 242200Z 08010KT CAVOK 31/20 A2980 NOSIG=
201612242300 METAR MRLB 242300Z 07011KT CAVOK 29/20 A2982 NOSIG=
201612242355 METAR MRLB 250000Z 08005KT CAVOK 27/20 A2983 NOSIG=
201612250000 METAR MRLB 250000Z 08005KT CAVOK 27/20 A2983 NOSIG=
201612250100 METAR MRLB 250100Z 34003KT CAVOK 25/22 A2985 NOSIG=
201612250200 METAR MRLB 250200Z 11003KT CAVOK 25/21 A2988 NOSIG=
201612250300 METAR MRLB 250300Z 09005KT CAVOK 25/21 A2988 NOSIG=
201612250400 METAR MRLB 250400Z 08009KT CAVOK 25/21 A2987 NOSIG=
201612250500 METAR MRLB 250500Z 10008KT CAVOK 25/21 A2988 NOSIG=
201612250600 METAR MRLB 250600Z 12007KT CAVOK 25/21 A2987 NOSIG=
201612250700 METAR MRLB NIL=
201612250800 METAR MRLB NIL=
201612250900 METAR MRLB NIL=
201612251000 METAR MRLB NIL=
201612251100 METAR MRLB NIL=
201612251200 METAR MRLB 251200Z 00000KT CAVOK 21/20 A2985 NOSIG=
201612251300 METAR MRLB 251300Z 22004KT CAVOK 22/21 A2988 NOSIG=
201612251400 METAR MRLB 251400Z 23003KT CAVOK 26/22 A2989 NOSIG=
201612251500 METAR MRLB 251500Z 22003KT CAVOK 27/22 A2989 NOSIG=
201612251600 METAR MRLB 251600Z 00000KT 9999 SCT030 29/22 A2988 NOSIG=
201612251700 METAR MRLB 251700Z 08007KT 999 SCT035 31/21 A2987 NOSIG=
201612251800 METAR MRLB 251800Z 09010KT 9999 SCT035 32/21 A2985 NOSIG=
201612251900 METAR MRLB 251900Z 08009KT 9999 SCT035 32/21 A2983 NOSIG=
201612252000 METAR MRLB 252000Z 06006KT 9999 SCT025 32/21 A2980 NOSIG=
201612252100 METAR MRLB 252100Z 07008KT 9999 SCT020TCU BKN200 31/21 A2979 NOSIG=
201612252200 METAR MRLB 252200Z 02008KT 9999 SCT020TCU BKN220 27/21 A2980 NOSIG=
201612252300 METAR MRLB 252300Z 03005KT 9999 FEW020 SCT200 26/21 A2982 NOSIG=
201612252350 METAR MRLB 260000Z 22002KT 9999 FEW025 SCT100 25/22 A2984 NOSIG=
201612260000 METAR MRLB 260000Z 22002KT 9999 FEW025 SCT100 25/22 A2984 NOSIG=
201612260100 METAR MRLB 260100Z 20004KT 9999 FEW040 25/22 A2987 NOSIG=
201612260200 METAR MRLB 260200Z 30005KT CAVOK 25/22 A2988 NOSIG=
201612260300 METAR MRLB 260300Z 28004KT CAVOK 24/22 A2991 NOSIG=
201612260400 METAR MRLB 260400Z 17003KT CAVOK 24/22 A2992 NOSIG=
201612260500 METAR MRLB 260500Z 09003KT CAVOK 25/22 A2991 NOSIG=
201612260600 METAR MRLB NIL=
201612260700 METAR MRLB NIL=
201612260800 METAR MRLB NIL=
201612260900 METAR MRLB NIL=
201612261000 METAR MRLB NIL=
201612261100 METAR MRLB NIL=
201612261200 METAR MRLB 261200Z 00000KT 9999 FEW025 23/20 A2983 NOSIG=
201612261300 METAR MRLB 261300Z 15006KT 9999 FEW030 25/21 A2985 NOSIG=
201612261400 METAR MRLB 261400Z 09008KT 9999 FEW030 28/22 A2988 NOSIG=
201612261500 METAR MRLB 261500Z 10007KT 9999 SCT035 29/22 A2989 NOSIG=
201612261600 METAR MRLB 261600Z 08012KT 9999 SCT035 30/22 A2989 NOSIG=
201612261700 METAR MRLB 261700Z 08009KT 9999 SCT025 BKN250 30/22 A2988 NOSIG=
201612261800 METAR MRLB 261800Z 07009KT 9999 SCT030 BKN250 30/22 A2987 NOSIG=
201612261900 METAR MRLB 261900Z 09010KT 9999 SCT030 SCT250 31/22 A2983 NOSIG=
201612262000 METAR MRLB 262000Z 10008KT 9999 FEW030 BKN050 28/24 A2982 NOSIG=
201612262100 METAR MRLB 262100Z 08014KT 9999 FEW030 BKN130 31/21 A2979 NOSIG=
201612262200 METAR MRLB 262200Z 07009KT 9999 FEW035 SCT130 BKN250 29/21 A2981 NOSIG=
201612262300 METAR MRLB 262300Z 08010KT 9999 FEW035 BKN250 29/21 A2982 NOSIG=
201612262352 METAR MRLB 270000Z 08010KT 9999 FEW035 BKN130 28/21 A2984 NOSIG=
201612270000 METAR MRLB 270000Z 08010KT 9999 FEW035 BKN130 28/21 A2984 NOSIG=
201612270100 METAR MRLB 270100Z 18002KT 9999 FEW035 BKN250 26/21 A2987 NOSIG=
201612270200 METAR MRLB 270200Z 08010KT CAVOK 26/21 A2988 NOSIG=
201612270300 METAR MRLB 270300Z 06012KT CAVOK 27/21 A2990 NOSIG=
201612270400 METAR MRLB 270400Z 09013KT CAVOK 27/21 A2990 NOSIG=
201612270500 METAR MRLB 270500Z 08012KT CAVOK 27/21 A2990 NOSIG=
201612270600 METAR MRLB 270600Z 09010KT CAVOK 26/21 A2989 NOSIG=
201612270700 METAR MRLB NIL=
201612270800 METAR MRLB NIL=
201612270900 METAR MRLB NIL=
201612271000 METAR MRLB NIL=
201612271100 METAR MRLB NIL=
201612271200 METAR MRLB 271200Z 08016G26KT 9999 FEW025 26/21 A2982 NOSIG=
201612271300 METAR MRLB 271300Z 10020G30KT 9999 SCT025 27/21 A2982 NOSIG=
201612271400 METAR MRLB 271400Z 09022G32KT 9999 SCT025 28/21 A2985 NOSIG=
201612271500 METAR MRLB 271500Z 08020G30KT 9999 FEW030 29/21 A2987 NOSIG=
201612271600 METAR MRLB 271600Z 08021G31KT 9999 FEW030 30/21 A2986 NOSIG=
201612271700 METAR MRLB 271700Z 08024G34KT 9999 FEW030 SCT250 30/20 A2984 NOSIG=
201612271800 METAR MRLB 271800Z 08020G30KT 9999 FEW030 SCT250 31/20 A2982 NOSIG=
201612271900 METAR MRLB 271900Z 08022G32KT 9999 SCT025 31/21 A2981 NOSIG=
201612272000 METAR MRLB 272000Z 08021KT 9999 FEW030 31/20 A2978 NOSIG=
201612272100 METAR MRLB 272100Z 09018KT 9999 FEW040 30/21 A2977 NOSIG=
201612272200 METAR MRLB 272200Z 09017G27KT 9999 FEW040 30/20 A2976 NOSIG=
201612272300 METAR MRLB 272300Z 10012KT 9999 FEW040 28/21 A2978 NOSIG=
201612272354 METAR MRLB 280000Z 10016G26KT 9999 FEW040 27/20 A2979 NOSIG=
201612280000 METAR MRLB 280000Z 10016G26KT 9999 FEW040 27/20 A2979 NOSIG=
201612280100 METAR MRLB 280100Z 09020KT CAVOK 27/19 A2981 NOSIG=
201612280200 METAR MRLB 280200Z 08017G27KT CAVOK 27/19 A2983 NOSIG=
201612280300 METAR MRLB 280300Z 09017G30KT CAVOK 27/19 A2985 NOSIG=
201612280400 METAR MRLB 280400Z 09015KT CAVOK 27/20 A2985 NOSIG=
201612280500 METAR MRLB 280500Z 08013KT CAVOK 27/20 A2985 NOSIG=
201612280600 METAR MRLB 280600Z 09012KT CAVOK 26/20 A2984 NOSIG=
201612280700 METAR MRLB NIL=
201612280800 METAR MRLB NIL=
201612280900 METAR MRLB NIL=
201612281000 METAR MRLB NIL=
201612281100 METAR MRLB NIL=
201612281200 METAR MRLB 281200Z 09010KT 9999 FEW045 26/20 A2981 NOSIG=
201612281300 METAR MRLB 281300Z 08013KT 9999 FEW045 27/20 A2983 NOSIG=
201612281400 METAR MRLB 281400Z 08020G31KT 9999 FEW040 27/20 A985 NOSIG=
201612281500 METAR MRLB 281500Z 08020KT 9999 FEW040 29/21 A2986 NOSIG=
201612281600 METAR MRLB 281600Z 08018KT 9999 SCT045 29/21 A2987 NOSIG=
201612281700 METAR MRLB 281700Z 07014KT 9999 SCT040 29/21 A2985 NOSIG=
201612281800 METAR MRLB 281800Z 07018KT 9999 SCT040 30/21 A2983 NOSIG=
201612281900 METAR MRLB 281900Z 08014G24KT 9999 SCT040 31/21 A2981 NOSIG=
201612282000 METAR MRLB 282000Z 07014KT 9999 SCT040 30/21 A2979 NOSIG=
201612282100 METAR MRLB 282100Z 08011KT 9999 BKN040 31/21 A2977 NOSIG=
201612282200 METAR MRLB 282200Z 08011KT 9999 SCT045 29/21 A2977 NOSIG=
201612282300 METAR MRLB 282300Z 07010KT 9999 FEW040 28/20 A2978 NOSIG=
201612282352 METAR MRLB 290000Z 06009KT 9999 FEW040 27/21 A2979 NOSIG=
201612290000 METAR MRLB 290000Z 06009KT 9999 FEW040 27/21 A2979 NOSIG=
201612290100 METAR MRLB 290100Z 07010KT 9999 FEW040 27/20 A2982 NOSIG=
201612290200 METAR MRLB 290200Z 08012KT 9999 FEW045 26/20 A2984 NOSIG=
201612290300 METAR MRLB 290300Z 09012KT 9999 FEW045 26/20 A2986 NOSIG=
201612290400 METAR MRLB 290400Z 09007KT 9999 FEW045 26/21 A2987 NOSIG=
201612290500 METAR MRLB 290500Z 09012KT 9999 SCT045 26/20 A2986 NOSIG=
201612290600 METAR MRLB 290600Z 08008KT 9999 SCT045 26/20 A2986 NOSIG=
201612290700 METAR MRLB NIL=
201612290800 METAR MRLB NIL=
201612290900 METAR MRLB NIL=
201612291000 METAR MRLB NIL=
201612291100 METAR MRLB NIL=
201612291200 METAR MRLB 291200Z 12012G22KT 9999 FEW025 25/20 A2982 NOSIG=
201612291300 METAR MRLB 291300Z 12014G24KT 9999 FEW025 26/20 A2983 NOSIG=
201612291400 METAR MRLB 291400Z 09016G26KT 9999 FEW025 27/20 A2988 NOSIG=
201612291500 METAR MRLB 291500Z 09018G28KT 9999 FEW025 28/20 A2988 NOSIG=
201612291600 METAR MRLB 291600Z 09020G30KT 9999 FEW030 29/20 A2988 NOSIG=
201612291700 METAR MRLB 291700Z 08020G30KT 9999 FEW030 31/20 A2987 NOSIG=
201612291800 METAR MRLB 291800Z 09018G28KT 9999 FEW030 30/20 A2983 NOSIG=
201612291900 METAR MRLB 291900Z 07018KT 9999 FEW035 31/20 A2982 NOSIG=
201612292000 METAR MRLB 292000Z 08023KT 9999 SCT035 31/20 A2979 NOSIG=
201612292100 METAR MRLB 292100Z 08020KT 9999 FEW040 30/20 A2978 NOSIG=
201612292200 METAR MRLB 292200Z 08018KT 9999 FEW045 30/19 A2978 NOSIG=
201612292300 METAR MRLB 292300Z 09015G26KT CAVOK 28/20 A2978 NOSIG=
201612292352 METAR MRLB 300000Z 08017KT CAVOK 27/20 A2980 NOSIG=
201612300000 METAR MRLB 300000Z 08017KT CAVOK 27/20 A2980 NOSIG=
201612300100 METAR MRLB 300100Z 09019G29KT CAVOK 28/19 A2982 NOSIG=
201612300200 METAR MRLB 300200Z 10015G25KT CAVOK 27/19 A2985 NOSIG=
201612300300 METAR MRLB 300300Z 10016KT CAVOK 27/19 A2986 NOSIG=
201612300400 METAR MRLB 300400Z 10018G30KT CAVOK 27/19 A2986 NOSIG=
201612300500 METAR MRLB 300500Z 10014G25KT CAVOK 26/19 A2988 NOSIG=
201612300600 METAR MRLB 300600Z 05012KT CAVOK 26/19 A2989 NOSIG=
201612300700 METAR MRLB NIL=
201612300800 METAR MRLB NIL=
201612300900 METAR MRLB NIL=
201612301000 METAR MRLB NIL=
201612301100 METAR MRLB NIL=
201612301200 METAR MRLB 301200Z 31006KT 9999 SCT035 23/19 A2988 NOSIG=
201612301300 METAR MRLB 301300Z 07013KT 9999 SCT040 25/19 A2991 NOSIG=
201612301400 METAR MRLB 301400Z 07014KT 9999 SCT045 27/20 A2994 NOSIG=
201612301500 METAR MRLB 301500Z 09014KT 9999 BKN045 27/20 A2994 NOSIG=
201612301600 METAR MRLB 301600Z 05010KT 9999 SCT045 27/20 A2995 NOSIG=
201612301700 METAR MRLB 301700Z 10015G25KT 9999 SCT040 29/20 A2990 NOSIG=
201612301800 METAR MRLB 301800Z 10014KT 9999 BKN040 27/20 A2989 NOSIG=
201612301900 METAR MRLB 301900Z 09020G31KT 9999 BKN045 28/20 A2985 NOSIG=
201612302000 METAR MRLB 302000Z 08022G32KT 9999 SCT045 29/20 A2982 NOSIG=
201612302100 METAR MRLB 302100Z 09022G35KT 9999 SCT040 29/19 A2980 NOSIG=
201612302200 METAR MRLB 302200Z 08020G30KT 9999 SCT040 28/20 A2981 NOSIG=
201612302300 METAR MRLB 302300Z 09017G27KT 9999 SCT040 27/20 A2983 NOSIG=
201612302349 METAR MRLB 310000Z 08016KT 9999 BKN040 25/20 A2985 NOSIG=
201612310000 METAR MRLB 310000Z 08016KT 9999 BKN040 25/20 A2985 NOSIG=
201612310100 METAR MRLB 310100Z 09016G28KT 9999 SCT040 26/19 A2985 NOSIG=
201612310200 METAR MRLB 310200Z 10020KT 9999 FEW040 26/19 A2986 NOSIG=
201612310300 METAR MRLB 310300Z 09015KT 9999 FEW040 26/19 A2989 NOSIG=
201612310400 METAR MRLB 310400Z 09019G29KT 9999 FEW040 26/19 A2989 NOSIG=
201612310500 METAR MRLB 310500Z 10015KT CAVOK 26/19 A2988 NOSIG=
201612310600 METAR MRLB 310600Z 06005KT CAVOK 24/19 A2989 NOSIG=
201612310700 METAR MRLB NIL=
201612310800 METAR MRLB NIL=
201612310900 METAR MRLB NIL=
201612311000 METAR MRLB NIL=
201612311100 METAR MRLB NIL=
201612311200 METAR MRLB 311200Z 21004KT 9999 FEW045 23/19 A2986 NOSIG=
201612311300 METAR MRLB 311300Z 26006KT 9999 FEW045 23/19 A2988 NOSIG=
201612311400 METAR MRLB 311400Z 28007KT 9999 FEW045 26/20 A2991 NOSIG=
201612311500 METAR MRLB 311500Z 21005KT 9999 SCT045 27/20 A2993 NOSIG=
201612311600 METAR MRLB 311600Z 10013KT 9999 FEW040 BKN130 28/20 A2992 NOSIG=
201612311700 METAR MRLB 311700Z 32009KT 9999 SCT035 BKN130 28/20 A2991 NOSIG=
201612311800 METAR MRLB 311800Z 09005KT 9999 FEW035 BKN130 29/21 A2989 NOSIG=
201612311900 METAR MRLB 311900Z 30010KT 9999 BKN035 SCT130 29/21 A2986 NOSIG=
201612312000 METAR MRLB 312000Z 09017G29KT 9999 BKN045 30/20 A2983 NOSIG=
201612312100 METAR MRLB 312100Z 11011KT 9999 SCT045 29/21 A2981 NOSIG=
201612312200 METAR MRLB 312200Z 08010KT 9999 FEW040 SCT140 28/21 A2983 NOSIG=
201612312300 METAR MRLB 312300Z 10014KT CAVOK 28/20 A2982 NOSIG=
201612312354 METAR MRLB 010000Z 08015KT 9999 FEW040 BKN140 27/21 A2985 NOSIG=
